{"type": "FeatureCollection", "features": [{"type": "Feature", "properties": {"code": "ABW", "name": "Aruba", "tier": "country"}, "geometry": {"type": "MultiPolygon", "coordinates": [[[[-70.02367055997911, 12.495890095774769], [-70.02367055997911, 12.495890095774769]]], [[[-70.03162105597664, 12.503958300968293], [-70.03162105597664, 12.503958300968293]]], [[[-70.04877928637802, 12.620748906933045], [-70.04525669684108, 12.584429547911611], [-70.05493690072774, 12.561130115398669], [-70.0629420829842, 12.538978013977783], [-70.04667239874311, 12.522589599314529], [-70.0295128661574, 12.508691318365152], [-70.009503748533, 12.492706807488787], [-69.99039001285144, 12.48053952646643], [-69.94534528579265, 12.444833958267452], [-69.92405195672745, 12.438244917210682], [-69.9031967537469, 12.426152794811287], [-69.88398620682904, 12.417160606555967], [-69.87239629479939, 12.43733937199056], [-69.88048113235641, 12.462032316604393], [-69.88807189650726, 12.482512966072647], [-69.90320688611189, 12.495758144283627], [-69.91916039314492, 12.509414000827292], [-69.93514940731785, 12.52679611726046], [-69.95618873642064, 12.537651523045042], [-69.97161359499756, 12.551750820837412], [-69.99384282998153, 12.567756727084543], [-70.01321381697437, 12.585279952956853], [-70.02796412762177, 12.604988140189278], [-70.04680299275299, 12.619916126152873], [-70.04877928637802, 12.620748906933045]]]]}}]}