{"type": "FeatureCollection", "features": [{"type": "Feature", "properties": {"code": "AFG", "name": "Afghanistan", "tier": "country"}, "geometry": {"type": "Polygon", "coordinates": [[[60.92798486311102, 33.496951384298995], [60.85139867231095, 33.48571939243607], [60.866722406813665, 33.42009386623897], [60.74827282962747, 33.3344808302262], [60.634249068939425, 33.22797617795828], [60.58175817629888, 33.12970442601852], [60.629537735678014, 33.02191486557865], [60.71197455957832, 32.69643711578033], [60.8146166884095, 32.478938556569176], [60.840629859180694, 32.35976522118807], [60.859025236225705, 32.26280414119822], [60.88031033555359, 32.20144259400058], [60.843368370354085, 32.068782869633765], [60.832826433693015, 31.98110035509734], [60.829447252688624, 31.92782457824177], [60.81914544580576, 31.785151134017667], [60.815930588026276, 31.70810695627108], [60.85770282362648, 31.48572914328537], [61.327707788383805, 31.425054707808556], [61.706827178131846, 31.37578864193233], [61.776592976184986, 31.30216814634292], [61.769644956149875, 31.249962769566196], [61.7813043094464, 31.198661585563798], [61.802291154013574, 31.150215765245434], [61.83027363322162, 31.08887326928601], [61.839601098412004, 31.036001631570116], [61.82798933184222, 30.986032941567032], [61.796437698840805, 30.945248988949743], [61.794914803075756, 30.886999784912177], [61.80373812991081, 30.831811398277466], [61.492673297434806, 30.51275873612684], [61.33368934838478, 30.348621071904972], [61.017829721964176, 30.016519465401075], [60.87329176640196, 29.858550619815276], [60.981285295779855, 29.82708179099194], [61.350009391420315, 29.723226848140598], [61.49923257292494, 29.681138248131674], [62.0501164758947, 29.51225317614319], [62.107705216022964, 29.4890712600307], [62.19225816268414, 29.464303209625484], [62.46543867715326, 29.379018191436444], [62.85612513176949, 29.422644112335945], [63.22757725608557, 29.46372452196914], [63.27668931036345, 29.44997121240158], [63.331797663631335, 29.456348171031323], [63.560701791954216, 29.48594866100194], [63.98015318272326, 29.42246465082303], [64.05253287019588, 29.408006947262834], [64.09865034573693, 29.380490959889926], [64.1518074993167, 29.39329246297683], [64.14695340857298, 29.445164706586013], [64.18588139341165, 29.478762711829745], [64.23585993458835, 29.496216192923043], [64.28543805442274, 29.522735130721742], [64.33707234011644, 29.527922380713335], [64.3888494129701, 29.546958055270068], [64.45000156472048, 29.549242328770504], [64.50187380922898, 29.56913463725374], [64.55336982235946, 29.586449788227185], [65.0589339016783, 29.534648922010206], [65.56417676114864, 29.667187225310272], [65.88777154911776, 29.750632582227922], [66.007910573814, 29.784968227601667], [66.18577641155218, 29.830971793213735], [66.25166254778838, 29.849356430554906], [66.29262110737824, 29.89362899008586], [66.3327545659705, 29.925356427956842], [66.37353852038649, 29.970899300562337], [66.23467318701802, 30.060938096416066], [66.25991929723784, 30.108646303584067], [66.28813967860333, 30.15195249031524], [66.30184537356519, 30.208155379667062], [66.32518789960193, 30.254102761932984], [66.33651412063023, 30.309020713435245], [66.34522293858782, 30.36208269536013], [66.36290235366073, 30.41907078279047], [66.35683473303658, 30.476296829035505], [66.30867442768277, 30.499996250126912], [66.28548448602027, 30.56022461557359], [66.39203675199457, 30.940938395390674], [66.57800692837708, 30.9767688596952], [66.67381251803334, 31.068096791433845], [66.69374041628726, 31.116587141683283], [66.71826085455484, 31.169033502594118], [66.75357204131672, 31.207342840199942], [66.80838996572442, 31.219177826595455], [66.8339502424098, 31.264925811177307], [66.88786882858363, 31.289386665762095], [66.9504010619595, 31.304567614004213], [67.00395041527952, 31.30438192558546], [67.05826908644923, 31.286915190283878], [67.02382635790013, 31.23739268542414], [67.0697574021824, 31.21408140723122], [67.12586063496042, 31.239489556397984], [67.18026850718593, 31.223227439594723], [67.22963488704045, 31.214014455402832], [67.27783837963756, 31.198175242993102], [67.32873993819766, 31.20648594906737], [67.3787264500657, 31.213356648090894], [67.42855238078778, 31.229168154186993], [67.4820188435948, 31.23534288676484], [67.5294088031738, 31.251288238961138], [67.57892616840797, 31.264843491733814], [67.63669568305937, 31.277041543432517], [67.68356628055943, 31.298488110637834], [67.73329583903183, 31.326959561134913], [67.78679800672268, 31.335454242419416], [67.78535248772721, 31.399324910716132], [67.65056198794542, 31.391651161172206], [67.59950024843778, 31.426250014726463], [67.59039880266266, 31.47760175501702], [67.57308693691266, 31.526248431719807], [67.62386461655888, 31.522964765911297], [67.67407126537665, 31.51925282585728], [67.73408126643733, 31.524868350993643], [67.77585293006871, 31.56161300313761], [67.81736238556567, 31.596442531897367], [67.85895535930246, 31.624710527868615], [67.91273141732108, 31.627762032791622], [67.96900568586375, 31.640849081420015], [68.01566665858945, 31.66863538881222], [68.0629227720683, 31.6943811533676], [68.09361782780059, 31.73526027943842], [68.14506176928529, 31.802265914240593], [68.26448280493753, 31.802355403079446], [68.36325832381266, 31.758912114702355], [68.4282729998991, 31.7554145973059], [68.47575513189389, 31.738788101289913], [68.53172417593004, 31.727883956379515], [68.59068722673419, 31.752915901147958], [68.51782813675914, 31.756723041635098], [68.46647936692932, 31.74711000392358], [68.55248334543012, 31.82151806910366], [68.64294018843901, 31.777138797817315], [68.70847054298122, 31.770952212174905], [68.72213641956017, 31.710407082121208], [68.7561549298062, 31.66735045186192], [68.790514367644, 31.627851407416586], [68.83995955329078, 31.60981509638964], [68.8901662012093, 31.602914663081265], [68.94013486243404, 31.61119520589409], [68.98463078388363, 31.634847012379794], [69.0410555791517, 31.652794407436033], [69.08261699118123, 31.68310251816672], [69.12459068121501, 31.716843251215096], [69.14671967737127, 31.761910263747723], [69.17750990475838, 31.801456894919795], [69.1934522873932, 31.84918889635054], [69.24061320043893, 31.871888925133817], [69.2750636676542, 31.909383557904903], [69.32558850740372, 31.92361487062982], [69.31398436798423, 31.975422419708934], [69.29177162516044, 32.04244870744196], [69.29200958397519, 32.09365469011192], [69.27283112225854, 32.14300473108352], [69.27578162881917, 32.203633408155326], [69.27302146556826, 32.25583878403273], [69.27858940487721, 32.31537286836323], [69.24837023889546, 32.41464398383283], [69.24018489741513, 32.46446991455497], [69.27849423322232, 32.52895329006236], [69.34190329480128, 32.552599440711674], [69.39156621620799, 32.57530521076694], [69.42088119031473, 32.62046736617606], [69.45347980235107, 32.65958572310268], [69.43539587671842, 32.70627074639788], [69.39542094342187, 32.75681049690695], [69.42426002867745, 32.80202023814354], [69.4651306138868, 32.834848639553115], [69.5480645209609, 32.87504422331233], [69.50718436696502, 32.908882842169476], [69.49531070612426, 32.977957584974604], [69.50711487275322, 33.03138063211054], [69.56086488100948, 33.0753013516761], [69.6062887607178, 33.100499848189486], [69.6556388016894, 33.08926879881608], [69.70900360962895, 33.08964457423775], [69.76718726028389, 33.11704990902615], [69.83839426418399, 33.09784274184909], [69.88936351741245, 33.10135625368821], [69.93689569128315, 33.11979810319997], [69.9850906430188, 33.141213736424845], [70.041658767738, 33.166482298219535], [70.06167001425979, 33.21276281095504], [70.11468440855867, 33.2098122774147], [70.16499122656393, 33.22042373616654], [70.22028489772993, 33.258971945399026], [70.26271068505014, 33.298114094789696], [70.30399434955962, 33.333924964665414], [70.31900874605685, 33.3840602046148], [70.29616593101298, 33.43050729787353], [70.24548339424331, 33.45025682009623], [70.19994052163781, 33.487090875643446], [70.1715779817385, 33.53011628593788], [70.19983058221567, 33.62180682522484], [70.1484417673737, 33.657261456551055], [70.13972563702856, 33.71255435519936], [70.08888157662352, 33.71632227895009], [70.04218564185396, 33.735036962086156], [69.98964376484793, 33.742787775435545], [69.96544311920462, 33.7882278195583], [69.94138825906094, 33.838870396751474], [69.9136913532734, 33.88060612886983], [69.86515036040089, 33.921247324904186], [69.87243151090559, 33.974737609852866], [69.89318039665801, 34.02028048155904], [69.95109646932667, 34.036222892072885], [70.00245469732647, 34.04604136191938], [70.06297654483171, 34.0257545910016], [70.11756356560613, 34.01023916960207], [70.1751844672894, 33.99641393855245], [70.23052106759326, 33.98116812400974], [70.28760515585333, 33.98159608259317], [70.33838883397755, 33.965238795034395], [70.39269122382098, 33.962908821584904], [70.45235375472208, 33.94851595644627], [70.50347136461187, 33.94126014164226], [70.5578367069985, 33.95082656479417], [70.62748208223235, 33.95927111696852], [70.68170483800793, 33.95909511244952], [70.74417083361715, 33.96122228697902], [70.81107235660403, 33.96693809641607], [70.86352885827023, 33.98123990160025], [70.9194494594251, 33.99460147008182], [70.96617455740994, 34.02913208577718], [71.0248629165904, 34.04339207608348], [71.07643664913212, 34.05554165522324], [71.07098173481927, 34.109892430391426], [71.13044363956237, 34.16522643165456], [71.13867733938775, 34.22499087642785], [71.13232937220283, 34.283595147198355], [71.16570467023439, 34.32789424212564], [71.13946556458421, 34.3722482631469], [71.11476343808226, 34.41901757540086], [71.06459072338322, 34.429721836993224], [71.02345675732357, 34.46037644661578], [71.01480323777923, 34.51310069893816], [71.03814405060751, 34.56912292708148], [71.08599815928767, 34.58500369806228], [71.11750566255631, 34.62845355598688], [71.08739063716826, 34.672735513433224], [71.14996317186296, 34.71326554067224], [71.18683207434083, 34.74930631413514], [71.23903902133384, 34.78120655943525], [71.2850751486992, 34.816252681815854], [71.29627792068953, 34.87734382265933], [71.34112542579783, 34.903594153647305], [71.38974599608093, 34.92073598367875], [71.43871303557819, 34.94557507063308], [71.48727370921438, 34.9614741221331], [71.51968137629456, 35.01064435984938], [71.54030441361783, 35.06316709928228], [71.56654463262873, 35.117525043845774], [71.62458464086853, 35.139006802422045], [71.65874630789585, 35.18536909141051], [71.63007491742354, 35.22911694688963], [71.58284114040634, 35.265718755216426], [71.54284061330372, 35.3085951532438], [71.57826710933966, 35.34521198564465], [71.6105802046128, 35.393753008194835], [71.65517326993051, 35.437093611980686], [71.62380029894467, 35.47787848010785], [71.60171603326836, 35.52481311563281], [71.61924132162977, 35.572533321555625], [71.56733517268015, 35.587100534662], [71.52112192563641, 35.6094815712176], [71.50559819180319, 35.659592732718465], [71.55152392379011, 35.694066994196476], [71.52084457831467, 35.734212506402116], [71.48296905657674, 35.768994934968305], [71.47782576544677, 35.82116266432553], [71.44587570669859, 35.865662814387406], [71.39633889092715, 35.89115413825294], [71.38780625015835, 35.94226712023146], [71.33844718269137, 35.961678913750916], [71.29303450044188, 35.98988406959421], [71.24636592934422, 36.00952513897403], [71.2041094645802, 36.037584167575346], [71.2174630335922, 36.087766821581624], [71.24979703720356, 36.12966399279907], [71.29559689198305, 36.15677081472137], [71.34714551725187, 36.16876329758816], [71.38015835072736, 36.20668860399593], [71.43512388805703, 36.23257712603362], [71.46196424535367, 36.2776441097879], [71.5078878063772, 36.30034419522849], [71.57575004812628, 36.327136910040394], [71.5554294635989, 36.37291774056132], [71.6075872248706, 36.40061467602652], [71.64009069313101, 36.44201730555426], [71.68939480572578, 36.45834774475264], [71.73857826797274, 36.43893135299959], [71.79311550227868, 36.402025919160906], [71.81071162843898, 36.4576696010713], [71.82516687415199, 36.50828072987184], [71.88180991959217, 36.50328388074655], [71.92414053525755, 36.53287246099535], [72.00134215191883, 36.55664329005583], [72.04502905404769, 36.58962261838917], [72.08503969222807, 36.6244936202844], [72.13939849384548, 36.65161946556594], [72.19175853782633, 36.65729448715092], [72.17648236127201, 36.705621341551705], [72.23219745025216, 36.728606944654814], [72.28555688744046, 36.74645288269443], [72.33491878327527, 36.767368348970194], [72.39377475180339, 36.762621341401825], [72.44406466075554, 36.77443533402351], [72.50133892055482, 36.77834647211205], [72.5507841062016, 36.81470466668708], [72.60950919909033, 36.836548118201165], [72.66062003888374, 36.846827361093915], [72.71801263597445, 36.83707159377906], [72.77074151530871, 36.85239530040286], [72.82029109875526, 36.84134853920375], [72.87722674401908, 36.842144848406065], [72.92878528161549, 36.84297263387998], [72.96718627722498, 36.87610791724666], [73.01729635324415, 36.86157460768203], [73.06571152556648, 36.87447470974013], [73.12009397755509, 36.88104401177179], [73.17496425779433, 36.88148216956654], [73.22616649928455, 36.88227847876885], [73.28104072035302, 36.88370903034752], [73.3371710883751, 36.8883303612572], [73.38725851406923, 36.8881711218998], [73.44079421388193, 36.89542913644556], [73.4913352207439, 36.894700806996696], [73.54201647238233, 36.872062845823734], [73.58556061612961, 36.900188056433706], [73.6388104574367, 36.90298234985562], [73.6916053461099, 36.91540467808346], [73.75236321259223, 36.911423159950914], [73.7998073005665, 36.89009915685068], [73.8404484957016, 36.92541034541114], [73.88964578232702, 36.91253797574706], [73.93096318040648, 36.874823008175326], [73.96698821483432, 36.8389407312298], [74.02318570555593, 36.831155871346425], [74.07964354911059, 36.8373670210712], [74.13339398544412, 36.8499485886565], [74.1530564478968, 36.8980868138554], [74.2034534400243, 36.90636735756755], [74.2549097211068, 36.89963787368896], [74.30291490060222, 36.918121881619584], [74.34393635607802, 36.95713092775014], [74.39362564111053, 36.96827917204621], [74.42667217757901, 37.01112023840835], [74.47238011624944, 36.99055266857084], [74.51544837204477, 36.9640454714214], [74.51830370605126, 37.01672673615002], [74.53757736820103, 37.06555330244299], [74.49055918565796, 37.090632805159885], [74.4612918252576, 37.13431973606703], [74.49070197191855, 37.177340376357336], [74.49717410310245, 37.22930779341999], [74.54352599502869, 37.2501042946775], [74.59301879528124, 37.26005043497963], [74.64555730162823, 37.25181750677257], [74.69859417628027, 37.2665142834075], [74.74953883664807, 37.285690257599356], [74.79255947693838, 37.2492369210471], [74.83163024803758, 37.21559133087527], [74.88540604885014, 37.22101648212498], [74.87698274765575, 37.274697140060994], [74.83838792296433, 37.32071593029599], [74.79374921435482, 37.35659820724152], [74.73764152543612, 37.37782298274453], [74.68962400724217, 37.406090978715724], [74.64236792344099, 37.383200576945114], [74.59059082090971, 37.377156749684275], [74.52853450606267, 37.40904151315539], [74.47480626229924, 37.41794070320094], [74.42840678364621, 37.394621971426886], [74.37834292288761, 37.41970150112343], [74.32404361861813, 37.40747105944189], [74.2725520616284, 37.404235008239084], [74.22762783625569, 37.35421873330796], [74.17842060942365, 37.340227493703935], [74.12859467870152, 37.32447548495571], [74.07696036422948, 37.32028762727225], [74.02732480559536, 37.3072005804425], [73.97145507639073, 37.29915802342407], [73.91872622583469, 37.283358371291854], [73.87061353508665, 37.26241911165272], [73.82861008198972, 37.226376224782996], [73.77911731141484, 37.23654841327868], [73.72487153299488, 37.24654813788629], [73.67384778264909, 37.25017024735911], [73.62598113382234, 37.26691630734177], [73.65344013835175, 37.311602573899734], [73.70526476915381, 37.30712920035239], [73.7548527410612, 37.32335712673006], [73.7710330816115, 37.37813232075007], [73.77588717235517, 37.43947481670949], [73.68351648929462, 37.44937337118421], [73.6210318426455, 37.4419970481253], [73.56592354693419, 37.454560592397456], [73.51229050360394, 37.47497637555932], [73.45147145444412, 37.47388181159636], [73.40221661300632, 37.45446542074262], [73.34658481383815, 37.46445914687217], [73.28971569142607, 37.45646417658054], [73.24859860743982, 37.42714920157442], [73.20299409440202, 37.40433440760688], [73.14904197430775, 37.40306906418601], [73.1112561410581, 37.365425989318], [73.07404136921389, 37.31617114877952], [73.02392992172855, 37.30684368358919], [72.97453229403021, 37.2932331324032], [72.92172412326971, 37.26759333766245], [72.87987733836854, 37.23717303021124], [72.82300821595646, 37.23374663479939], [72.78298569593318, 37.202813620252414], [72.75963514434648, 37.15493883166181], [72.73111345142468, 37.11096644244742], [72.70279784084772, 37.069516226192945], [72.67776592485762, 37.02206976940437], [72.62299073083761, 37.02939850573648], [72.57275252121195, 37.011833713754925], [72.52419550421922, 36.9979420443899], [72.46846853159752, 36.99532464041988], [72.41170829190418, 37.00480077613497], [72.36224939699213, 36.987948288582686], [72.31361320278711, 36.97552750359148], [72.25222312010095, 36.94711675013798], [72.20406281564647, 36.92008607741059], [72.15154033341969, 36.8791251184295], [72.10974098955506, 36.843372260221656], [72.05634587805986, 36.83123699019501], [72.01323003643711, 36.80539605398474], [71.95973975238769, 36.75695023276705], [71.91010419375357, 36.735249539634594], [71.86227704944633, 36.691324678691046], [71.79194016120954, 36.67642927509104], [71.73721255391627, 36.67514436601971], [71.68604098920036, 36.67720827504189], [71.63419850685568, 36.69084736081709], [71.5944924942333, 36.73201346055282], [71.5626077019839, 36.77684251337132], [71.54295335141609, 36.82405101224447], [71.52672542503836, 36.87430524599034], [71.49293710526325, 36.91489885529796], [71.46471666634113, 36.966104838867295], [71.46022855470409, 37.01668471982401], [71.4298309263562, 37.064630858827115], [71.44184720168704, 37.11697899308609], [71.44525271843827, 37.169929463573965], [71.45880085757358, 37.21977170440067], [71.49110204312484, 37.264624550582596], [71.5074128600155, 37.313935775016034], [71.49575350761836, 37.368306459375674], [71.49536416502423, 37.42115296104038], [71.5214430312709, 37.465601297561875], [71.5051523798785, 37.524161152615136], [71.5070559649609, 37.59042914728735], [71.52621063331412, 37.6419444679629], [71.54102274620283, 37.69012856668007], [71.53138920035138, 37.76465196901319], [71.5755519913314, 37.792253702246626], [71.58502224278232, 37.84531568417157], [71.58697338491385, 37.90137578726285], [71.54971102724215, 37.9416838519283], [71.49795451918578, 37.94984674363235], [71.44875917509592, 37.923910606988954], [71.37762840672565, 37.905516058219575], [71.33065786666725, 37.885433404627975], [71.2983923581209, 37.93164253907196], [71.27364595799463, 37.9767095228263], [71.29349065277148, 38.023680090763605], [71.32099724312832, 38.068604316136316], [71.33917631163752, 38.13284976160725], [71.36444618644242, 38.19676207570927], [71.3741543967081, 38.25543958187126], [71.32689831200753, 38.285325617383364], [71.27988015824275, 38.31464059059084], [71.22486700540804, 38.32111272177474], [71.17551699231541, 38.36955854299242], [71.13106865579391, 38.39706513424858], [71.08533543987869, 38.42095490044835], [71.03712751991918, 38.443083895705286], [70.99981757642007, 38.478585454555116], [70.94863538531484, 38.477276753919114], [70.92374622770632, 38.42987788295801], [70.8833905484351, 38.46899621020697], [70.82728286041572, 38.45305382757215], [70.77088965473382, 38.45619470801944], [70.73786311199308, 38.41769962533749], [70.67661578768849, 38.40761069877476], [70.66581304133882, 38.358784160360756], [70.61060954429507, 38.34721998141708], [70.6089439189268, 38.29706094720501], [70.56563773309495, 38.267317670074476], [70.53703660665411, 38.22443978726642], [70.51014872018732, 38.17856381207031], [70.5057229036891, 38.122360922718485], [70.45322015798394, 38.103042387995856], [70.40642045404076, 38.0757621030387], [70.36730209801345, 38.03869008867673], [70.3288024170979, 37.99852478239285], [70.2859245342899, 37.96973331174297], [70.2413810252142, 37.943654416718005], [70.18622511489718, 37.946795295366655], [70.18317940790342, 37.88692808056652], [70.20559394960117, 37.841670724724224], [70.2640334969484, 37.82606147255899], [70.28068972634986, 37.778567430842315], [70.2997725298784, 37.729050294935234], [70.28730461501601, 37.67810657795627], [70.26370733532531, 37.62694295335467], [70.21581089555644, 37.605909236122386], [70.17874330855688, 37.565971148949416], [70.14481220342049, 37.52318846657454], [70.08220859085384, 37.532492138401494], [70.03333443783407, 37.551099538712776], [69.96183163522187, 37.56363928962156], [69.92944716165727, 37.608301762816154], [69.8663676602394, 37.61256099969046], [69.82232386215657, 37.57427548422629], [69.76731071022118, 37.58598242155159], [69.71075092581464, 37.57915336833332], [69.6514783931134, 37.57480027371372], [69.60044490221054, 37.579838767745], [69.54720445881878, 37.58382436969896], [69.50405294198976, 37.543575773603095], [69.46105606628447, 37.51166721676867], [69.42584005027817, 37.46897967816966], [69.38460397159605, 37.436166900682], [69.37437228665175, 37.37834600056755], [69.37960712337008, 37.324617785582404], [69.40651880230092, 37.277052334997336], [69.44968222975115, 37.23807676523057], [69.42303227422013, 37.19248630589834], [69.37718603330887, 37.16748412419304], [69.33356453977177, 37.13568859055607], [69.28576115915024, 37.111394258937935], [69.2350786799372, 37.10582634930665], [69.19132036893996, 37.14078061223552], [69.1303823826409, 37.168263410128304], [69.09045503517177, 37.217423050233606], [69.04400794191304, 37.248022933411676], [69.00829221581319, 37.28673675189964], [68.96596160194645, 37.32050130708973], [68.90987773427008, 37.33380249239116], [68.92841372841087, 37.281002261745016], [68.8713542321122, 37.3017035625694], [68.8225753083039, 37.3145526505844], [68.83720895972579, 37.25704108937481], [68.7876686024241, 37.28564221581564], [68.73760474166556, 37.269842591562394], [68.68642255056034, 37.28028841407911], [68.65239624409145, 37.24088454128861], [68.61427725159393, 37.19586514426106], [68.55881206082802, 37.18194531172679], [68.50801055904014, 37.1659791087489], [68.45905500118744, 37.14108212434064], [68.40839628655942, 37.128018897853906], [68.34869559382668, 37.10691308736915], [68.29541947522864, 37.10517608281003], [68.2894469983803, 37.04533263259498], [68.25544451225448, 37.00728504716727], [68.20845017973204, 37.026058999223494], [68.1489398321076, 36.99495943383084], [68.10703754914363, 36.95662633343858], [68.0593769260044, 36.93609158256055], [68.00431618824155, 36.93218927041852], [67.96001063798059, 36.96835706322793], [67.92291483115457, 37.0089268800715], [67.8940043667082, 37.04982980040501], [67.83918158686078, 37.06439212839405], [67.79335316961317, 37.098465993710704], [67.78835631958856, 37.14900574332046], [67.76054042090374, 37.19205020575242], [67.7154496446854, 37.22386359003269], [67.6612217187074, 37.22945532180569], [67.6064227322234, 37.23742652661298], [67.54641273116266, 37.25275026201501], [67.50298755243364, 37.28156552512894], [67.46603453186822, 37.2465160617669], [67.41920675019145, 37.22676653864488], [67.34906023584125, 37.20768327826073], [67.28333950921103, 37.18603017095569], [67.24141631790877, 37.22293677661099], [67.19827668382197, 37.25308453642225], [67.14328732435058, 37.264862852039016], [67.11114083658038, 37.307669384434575], [67.07023788926722, 37.35961300813386], [67.01065619123028, 37.37369942029204], [66.95809389241924, 37.39604255402071], [66.89972572336347, 37.37317594561347], [66.85030430230177, 37.35368814589128], [66.8000976831616, 37.363586700366], [66.75029554580283, 37.35423544271157], [66.69392610470601, 37.35778083191991], [66.6556406189195, 37.32296932557398], [66.61021668255393, 37.34964304658939], [66.56005764924117, 37.36239696384888], [66.50416409789483, 37.33177331608573], [66.4503168891132, 37.337222288577834], [66.39613657864027, 37.33291546677543], [66.34371706519045, 37.33389103784117], [66.29115476458077, 37.3352949119307], [66.24737240571199, 37.36366027839921], [66.19592843544899, 37.370655913040025], [66.1453410991125, 37.40225513186891], [66.09758530431839, 37.42164775903689], [66.04278631693501, 37.453746687959324], [65.99227036068868, 37.45277108901462], [65.9221714321659, 37.47352000444471], [65.85476131558232, 37.49062832933396], [65.79972439816248, 37.52372662268556], [65.74371185301965, 37.5403352662596], [65.64667745310203, 37.44196834266495], [65.64332240810273, 37.342863778040964], [65.53134496120106, 37.238072337868175], [65.26803640825369, 37.232823162359125], [65.19182635800007, 37.23657280559058], [65.1331685883597, 37.24633851311194], [64.99035329856594, 37.21859399271864], [64.75573844557289, 37.112850746065135], [64.79848539608423, 36.92333232512675], [64.70757808356177, 36.796043054343556], [64.61935955509944, 36.637987348637296], [64.61931602521446, 36.58326008398575], [64.63640849865334, 36.441771349068574], [64.59000899122202, 36.378572853854166], [64.52857132270844, 36.3065703699267], [64.44609919502187, 36.242848400033665], [64.39467761787785, 36.233300513707775], [64.34598515489103, 36.21854084298559], [64.30669833336145, 36.18496980211472], [64.25693204208011, 36.15966245256021], [64.2017285738147, 36.16532556262467], [64.15399654360567, 36.147297164732436], [64.10802536797638, 36.12292356956715], [64.05805667887267, 36.1030788747903], [64.05918097801975, 36.05148223471741], [64.07192298375872, 36.00176338717063], [63.989290274026985, 36.03669191509988], [63.882975966867434, 36.008947394706524], [63.70542057959614, 35.96797306730326], [63.570409944663254, 35.9513168379018], [63.53557464675259, 35.903156533447316], [63.30533799475273, 35.85804196386562], [63.120977346727216, 35.86351472972103], [63.100180874248, 35.816734534771], [63.13715974402703, 35.780569912071826], [63.171969192724134, 35.74356610679047], [63.20885086197774, 35.70949221359484], [63.11210194914571, 35.63358738784774], [63.10946075271164, 35.578312540391494], [63.12932926873083, 35.5309374627937], [63.1155997804056, 35.481706414719326], [63.1028696574088, 35.4300007210565], [63.0557325377265, 35.41165510080231], [63.002750161091114, 35.40527411500847], [62.95503375480399, 35.38843153978377], [62.91153719598486, 35.3589738072954], [62.86251462964651, 35.32560068022724], [62.81888099706043, 35.30096256297196], [62.76320161206479, 35.287256839231816], [62.73078197680684, 35.23975142828584], [62.6769395659083, 35.23117200118696], [62.628113028393614, 35.20785326941291], [62.57879334943357, 35.2209174941471], [62.543624920154, 35.2580370655582], [62.49498875472733, 35.274360192369045], [62.32671327469791, 35.145345799768904], [62.2923062510327, 35.18731948980269], [62.293115270353496, 35.23862067380509], [62.27250728588257, 35.28562680273478], [62.15377216315488, 35.34106825859334], [62.10670645144165, 35.383660624638196], [62.064114085396795, 35.43439071935626], [61.9685073520327, 35.454140241578955], [61.77950203658975, 35.41134479242828], [61.588079116857784, 35.436912950772125], [61.450540338365954, 35.520708119684], [61.40990508325302, 35.55388727467806], [61.37430835094972, 35.598668713790175], [61.327432983445476, 35.621797072576896], [61.2748944483202, 35.60428423802722], [61.27256258899234, 35.55307825535726], [61.25880930820307, 35.498017516695086], [61.23610925244009, 35.44995241267378], [61.19960829858417, 35.411167187116064], [61.18542674265012, 35.35810520519112], [61.188186905001714, 35.30199751627242], [61.14193018473031, 35.28258112541863], [61.09181873724498, 35.26311711816055], [61.103953977594074, 35.21410020765853], [61.092532557031916, 35.160562365660724], [61.13555322610057, 35.12791613901868], [61.141644640088145, 35.074758985438905], [61.104810613319216, 35.02631316422122], [61.09200911023231, 34.97577341461147], [61.06816690198099, 34.931277492262495], [61.072640305205994, 34.88097570056817], [61.06826207543446, 34.83000761915633], [61.05018034864423, 34.77993221829729], [61.01919977704813, 34.738196487078255], [61.0014965686118, 34.64116205658371], [60.95744508762073, 34.616675238571474], [60.8991797740274, 34.56630421077074], [60.854242209910126, 34.539849712094565], [60.742700264205894, 34.52695672097593], [60.77578093444265, 34.48816272702828], [60.81251978865737, 34.451852147059014], [60.843167257662856, 34.40864113288205], [60.86515349543754, 34.361718179550394], [60.90260619821754, 34.32393231842178], [60.830382635750084, 34.31089165682454], [60.74077214381941, 34.308417011236145], [60.68533071673926, 34.3145084243244], [60.65235135962757, 34.26287413863065], [60.595529851821254, 34.21923482142989], [60.5563163232398, 34.172454597701574], [60.520053357876236, 34.126959310923496], [60.48294863966805, 34.084799532272655], [60.56859435164807, 33.819723326770145], [60.54470404855306, 33.73044603006031], [60.59257976344537, 33.65049612389703], [60.63593358097006, 33.56930892506688], [60.68119070478724, 33.53176084738527], [60.76180664166321, 33.5312373754046], [60.898387619692926, 33.540469856898426], [60.94711897835822, 33.51372463528372], [60.92798486311102, 33.496951384298995]]]}}]}