{"type": "FeatureCollection", "features": [{"type": "Feature", "properties": {"code": "AGO", "name": "Angola", "tier": "country"}, "geometry": {"type": "MultiPolygon", "coordinates": [[[[11.4609793, -16.5543239], [11.4686548, -16.6153293], [11.4902328, -16.6812352], [11.5217186, -16.7530863], [11.5607659, -16.8108032], [11.569979, -16.8672583], [11.5521165, -16.9704241], [11.5412746, -17.0929843], [11.5430157, -17.1861282], [11.5421022, -17.25], [11.7494595, -17.2500297], [11.7938822, -17.2739967], [11.8371838, -17.235915], [11.8928719, -17.2095577], [11.9404757, -17.1824664], [11.9952947, -17.171268], [12.045629, -17.1555377], [12.1025133, -17.1612733], [12.1562487, -17.1607557], [12.1941322, -17.1973334], [12.2328097, -17.233986], [12.2836253, -17.2418485], [12.3320299, -17.2260622], [12.3851216, -17.2195523], [12.4362659, -17.2236361], [12.4943894, -17.2481726], [12.5450939, -17.2391172], [12.5957984, -17.2353335], [12.6323408, -17.1997932], [12.6758152, -17.1728443], [12.7334815, -17.1536104], [12.7791514, -17.1226567], [12.8240812, -17.0851633], [12.8727257, -17.0638566], [12.9156625, -17.0210666], [12.9664904, -16.998293], [13.0179003, -16.9818556], [13.0837834, -16.976017], [13.142572, -16.9651217], [13.1991774, -16.9745522], [13.2457486, -17.0013249], [13.298639, -16.989169], [13.3529055, -16.9741314], [13.4068907, -16.9982994], [13.4625113, -17.0110793], [13.4910446, -17.0550871], [13.5216138, -17.099046], [13.541733, -17.1470647], [13.5986066, -17.1854953], [13.6502016, -17.2251886], [13.6964375, -17.2472248], [13.7507844, -17.2781612], [13.7983936, -17.3098197], [13.851496, -17.3392607], [13.8993359, -17.3616672], [13.9317939, -17.4041763], [13.9780614, -17.4274271], [14.0287308, -17.4185608], [14.0819165, -17.4337864], [14.1379666, -17.4322433], [14.1984287, -17.4137123], [14.6415903, -17.3914274], [15.1073937, -17.3909222], [15.7661144, -17.3907086], [16.1071465, -17.3903861], [16.4239773, -17.3904039], [16.8003611, -17.3901389], [17.1382523, -17.3899053], [17.7540686, -17.3896168], [18.0259489, -17.3895543], [18.4214551, -17.3896014], [18.4557016, -17.4335306], [18.4775801, -17.4791895], [18.5192559, -17.5133533], [18.5460134, -17.5585428], [18.5987301, -17.5839576], [18.6238533, -17.6358348], [18.6702448, -17.6676714], [18.7162286, -17.7048581], [18.7551528, -17.7400546], [18.8036862, -17.7700008], [18.8545781, -17.7953989], [18.9029675, -17.8197164], [18.9565361, -17.8246819], [19.0105978, -17.8310968], [19.067875, -17.8343189], [19.1199213, -17.8355051], [19.1685215, -17.8182082], [19.2303371, -17.8280212], [19.2852911, -17.8275526], [19.3348452, -17.8362667], [19.3880454, -17.8602833], [19.4386302, -17.8667409], [19.4922781, -17.8650031], [19.5427143, -17.8746936], [19.609158, -17.8674232], [19.6716428, -17.8492052], [19.7102954, -17.8853795], [19.7603305, -17.909928], [19.8091214, -17.8679598], [19.8630675, -17.8835266], [19.9097246, -17.862538], [19.9673621, -17.8875343], [20.016632, -17.9008053], [20.0664107, -17.8909649], [20.1160208, -17.909587], [20.165749, -17.8866715], [20.2189958, -17.885721], [20.2755022, -17.8652258], [20.3323142, -17.8666225], [20.3813927, -17.8937176], [20.4387224, -17.9063549], [20.474267, -17.9504325], [20.5295634, -17.9767635], [20.5797575, -17.9762527], [20.6320836, -17.9797331], [20.6805791, -17.9929611], [20.736425, -18.0063403], [20.7833001, -18.0248667], [20.840787, -18.0375213], [20.8785687, -18.0007113], [20.9340411, -17.9762624], [20.9848444, -17.9585435], [21.0552199, -17.9521527], [21.1099705, -17.9455068], [21.1584185, -17.9307255], [21.2101674, -17.9289411], [21.2556519, -17.9623721], [21.308759, -17.9769503], [21.3636907, -17.9857162], [21.4145093, -18.0148186], [22.5000895, -17.821016], [22.9966565, -17.7241904], [23.4342274, -17.6378674], [23.4097023, -17.5924555], [23.3572187, -17.5699629], [23.2837641, -17.5481361], [23.2316942, -17.5373229], [23.1916946, -17.4926443], [23.1361331, -17.4665674], [23.0871388, -17.4135135], [23.0578993, -17.3380571], [23.009329, -17.3031342], [22.9739334, -17.2603159], [22.9093762, -17.2226412], [22.8535846, -17.1908263], [22.8018936, -17.1653399], [22.7702784, -17.1042321], [22.7289426, -17.0748604], [22.685685, -17.0319359], [22.6421016, -16.9760476], [22.5990498, -16.9186754], [22.5561622, -16.8792475], [22.4921547, -16.8351085], [22.4202453, -16.7454959], [22.371545, -16.6978143], [22.3293319, -16.667154], [22.2957461, -16.6217784], [22.2525936, -16.5741158], [22.2050959, -16.5492421], [22.1608206, -16.5219222], [22.1208443, -16.4902326], [22.139753, -16.4394825], [22.1281725, -16.3860101], [22.1125509, -16.3339381], [22.0811447, -16.2942529], [22.0516676, -16.249481], [22.0159154, -16.2097561], [22.0004539, -15.7866736], [22.0004379, -15.4066696], [22.0003897, -15.0247212], [22.0004138, -14.6452501], [22.0004661, -14.2611299], [22.0003949, -13.8169644], [22.0009232, -13.3097155], [22.0037244, -12.9996885], [22.4083538, -12.9993816], [22.8881596, -13.0003829], [22.9941118, -12.9994129], [23.1166624, -13.0006825], [23.5374891, -13.0002568], [24.0581268, -13.0007675], [24.0267632, -12.9609933], [23.9950643, -12.9216832], [23.9504734, -12.8949494], [23.9164154, -12.8571763], [23.8970767, -12.8106989], [23.9011189, -12.75891], [23.9263925, -12.7143884], [23.925249, -12.6631], [23.9498397, -12.6192442], [23.949982, -12.5655651], [23.9641771, -12.5153494], [24.0032249, -12.4793523], [24.0374434, -12.4388145], [24.06936, -12.3972589], [24.0629871, -12.3476653], [24.0577252, -12.2899945], [24.0416384, -12.2391406], [23.9983332, -12.2018831], [23.9803916, -12.1364402], [23.9806445, -12.0772688], [23.9844754, -12.0012563], [23.998018, -11.8559629], [24.0118978, -11.8059304], [24.0005556, -11.756805], [23.9850105, -11.7066811], [23.9605442, -11.6611547], [23.9863945, -11.6182412], [24.0129296, -11.5726716], [24.036088, -11.527945], [24.0252661, -11.4773213], [24.0445663, -11.4234616], [24.0685808, -11.3519642], [24.0313262, -11.2747367], [24.0344332, -11.1716633], [24.0050689, -11.1298183], [24.0154171, -11.0775837], [24.0105158, -11.0151917], [24.0163836, -10.9639503], [23.9929181, -10.9162683], [23.946319, -10.948613], [23.897515, -10.976562], [23.873908, -11.023593], [23.809753, -11.010138], [23.759381, -10.987303], [23.703292, -10.998618], [23.648012, -10.982696], [23.597096, -10.986252], [23.531552, -10.9456], [23.459057, -10.943822], [23.394967, -10.960956], [23.337468, -11.00208], [23.292431, -11.035478], [23.254487, -11.071968], [23.196176, -11.108215], [23.152533, -11.081545], [23.098344, -11.1047], [23.040761, -11.090637], [22.984363, -11.093353], [22.913713, -11.085121], [22.863039, -11.062694], [22.803758, -11.090092], [22.745569, -11.110822], [22.694774, -11.093728], [22.646828, -11.079181], [22.611225, -11.039114], [22.556391, -11.031114], [22.503778, -11.041479], [22.494363, -11.096819], [22.464455, -11.144625], [22.410873, -11.174281], [22.34624, -11.182424], [22.311464, -11.236191], [22.266254, -11.264876], [22.253722, -11.213149], [22.262795, -11.159269], [22.228949, -11.121627], [22.212828, -11.072776], [22.216431, -11.020833], [22.204864, -10.971665], [22.19147, -10.917844], [22.168108, -10.872837], [22.1970646, -10.8293619], [22.2405764, -10.8010308], [22.287654, -10.7829006], [22.328784, -10.752734], [22.3235926, -10.6974433], [22.3122126, -10.6400782], [22.3116821, -10.5877848], [22.3077285, -10.5312732], [22.2845864, -10.4865406], [22.3014146, -10.4375442], [22.3235423, -10.3903279], [22.3099771, -10.3406898], [22.279045, -10.2960403], [22.2585529, -10.2462275], [22.2361779, -10.2013118], [22.2159004, -10.1384306], [22.2137439, -10.0842729], [22.2063473, -10.0245889], [22.1972752, -9.9705519], [22.185747, -9.9194468], [22.1400261, -9.886144], [22.0871383, -9.8802567], [22.0485467, -9.8465799], [22.0088983, -9.8054463], [22.0005727, -9.7552092], [21.9559622, -9.7203829], [21.9176388, -9.6802808], [21.8731302, -9.6488102], [21.8602288, -9.594847], [21.8551433, -9.5382672], [21.8286979, -9.4837758], [21.8095404, -9.4363775], [21.8025613, -9.3814916], [21.8092668, -9.3301569], [21.8324733, -9.2814458], [21.8589735, -9.2263926], [21.8542421, -9.1745135], [21.8403965, -9.1251215], [21.839844, -9.0748274], [21.8468875, -9.0189103], [21.8523109, -8.965952], [21.8596709, -8.9133728], [21.8642358, -8.8617881], [21.8846905, -8.8158783], [21.8980211, -8.7669783], [21.8921042, -8.7153464], [21.9155467, -8.6656642], [21.9243765, -8.6137265], [21.9344562, -8.5614052], [21.9525397, -8.5038508], [21.9486183, -8.4511801], [21.9172901, -8.392553], [21.921131, -8.3414329], [21.8949205, -8.2965646], [21.8867934, -8.2469132], [21.8718696, -8.1951423], [21.8487865, -8.1427885], [21.8261325, -8.0894771], [21.7942411, -8.0436403], [21.7627144, -7.9992219], [21.7508376, -7.9402838], [21.7762273, -7.8892176], [21.7693642, -7.8353574], [21.7762059, -7.7715462], [21.7978299, -7.7227503], [21.8158758, -7.6717478], [21.8439746, -7.6204308], [21.8545639, -7.5714899], [21.8437922, -7.5091839], [21.8472469, -7.4569274], [21.8325055, -7.4019675], [21.8340826, -7.3505282], [21.7965102, -7.314806], [21.162186, -7.283333], [20.553021, -7.283333], [20.5474732, -7.2269674], [20.5576137, -7.1720593], [20.5624137, -7.1155018], [20.5891377, -7.0726412], [20.6036646, -7.0219045], [20.6200663, -6.9711783], [20.6321147, -6.9219696], [20.321995, -6.916667], [20.306923, -6.969309], [19.9243796, -7.0000403], [19.547955, -7.0], [19.5629614, -7.0493084], [19.534011, -7.095916], [19.513071, -7.143554], [19.502574, -7.195912], [19.503294, -7.250501], [19.487802, -7.299944], [19.505094, -7.347271], [19.522074, -7.396262], [19.529877, -7.4459], [19.509058, -7.493203], [19.485088, -7.545354], [19.383207, -7.571945], [19.382232, -7.624694], [19.406083, -7.670933], [19.39991, -7.721459], [19.38986, -7.772734], [19.363014, -7.819402], [19.35769, -7.871187], [19.362618, -7.92238], [19.370368, -7.972394], [18.796451, -8.0], [18.774409, -7.953734], [18.530592, -7.916667], [18.529545, -7.972291], [18.407142, -8.0], [18.358545, -8.024416], [18.308507, -8.01424], [18.265854, -7.983926], [18.212479, -7.980135], [18.159404, -8.013394], [18.1114566, -8.0318151], [18.0983517, -8.0815114], [17.9737006, -8.0969537], [17.921765, -8.082497], [17.8700737, -8.0808415], [17.8149711, -8.1012229], [17.7626514, -8.1005803], [17.712496, -8.0987076], [17.6601753, -8.1138056], [17.6123325, -8.129543], [17.5621706, -8.1236437], [17.5095463, -8.0840014], [17.5208545, -8.0293145], [17.4805784, -7.9787002], [17.4523817, -7.9359112], [17.4507522, -7.8767303], [17.4211514, -7.8333142], [17.3758221, -7.8120137], [17.3334861, -7.781581], [17.3265338, -7.7284062], [17.2886194, -7.6929889], [17.298789, -7.6419363], [17.2537601, -7.6030331], [17.212261, -7.5720749], [17.1999979, -7.5147469], [17.153821, -7.476985], [17.180171, -7.4296451], [17.135185, -7.4053774], [17.1091246, -7.3591896], [17.0568645, -7.3250963], [17.0135844, -7.2925434], [16.9554448, -7.2472592], [16.9457888, -7.1871748], [16.9248462, -7.1410497], [16.9541788, -7.094164], [16.9392872, -7.0409594], [16.8986463, -7.000602], [16.9015539, -6.9465027], [16.8964469, -6.8956777], [16.8457639, -6.8838654], [16.8433285, -6.8300403], [16.8018454, -6.7934256], [16.7987019, -6.7277423], [16.7593646, -6.6954886], [16.753571, -6.6347689], [16.7351925, -6.5876841], [16.7499554, -6.5335279], [16.7165565, -6.4863695], [16.7013216, -6.4328314], [16.6780186, -6.3839364], [16.6756797, -6.3338211], [16.7141962, -6.2893424], [16.7160952, -6.2294484], [16.7229556, -6.1795463], [16.6960806, -6.1163715], [16.6503489, -6.0920164], [16.6038179, -6.0622619], [16.5957391, -6.0061035], [16.6011464, -5.956374], [16.585139, -5.9067627], [16.5490622, -5.8702687], [16.5009545, -5.8471981], [16.4509433, -5.8582882], [16.40099, -5.866115], [16.174366, -5.860046], [15.887956, -5.873063], [15.814429, -5.8778], [15.680059, -5.861875], [15.419506, -5.869892], [15.303715, -5.866757], [15.225235, -5.869698], [14.944686, -5.865682], [14.699551, -5.877845], [14.63643, -5.895888], [14.5054, -5.887366], [14.412307, -5.896794], [14.36139, -5.89147], [14.311092, -5.883364], [14.262147, -5.867583], [14.210272, -5.870327], [14.167005, -5.842976], [14.116992, -5.844063], [14.066585, -5.848014], [14.011953, -5.838669], [13.959918, -5.850908], [13.884415, -5.854643], [13.829343, -5.865338], [13.773884, -5.869351], [13.711775, -5.869172], [13.616959, -5.872888], [13.5604695, -5.8865235], [13.514261, -5.862452], [13.45243, -5.867362], [13.3982608, -5.8729386], [13.3579681, -5.90899], [13.3049515, -5.8916005], [13.2561761, -5.8674249], [13.189163, -5.8716662], [13.1285119, -5.8992349], [13.0729504, -5.8699697], [13.0195096, -5.8695455], [12.9512241, -5.912383], [12.8753042, -5.9195933], [12.8328908, -5.9497068], [12.7938706, -5.9815168], [12.7353401, -6.0014511], [12.6250654, -6.0192647], [12.5767142, -6.0391989], [12.5270906, -6.0540436], [12.4770428, -6.0714331], [12.4134228, -6.0756744], [12.36835, -6.0504799], [12.3123598, -6.005789], [12.2565061, -5.9976431], [12.1146477, -5.9901891], [12.0863181, -6.0430077], [12.0738606, -6.1027053], [12.074474, -6.1668662], [12.0930085, -6.2298919], [12.1642364, -6.3416179], [12.1968769, -6.3859954], [12.2462191, -6.480722], [12.3097503, -6.6114632], [12.3345052, -6.6614608], [12.3662435, -6.7064916], [12.3946705, -6.7728443], [12.4286764, -6.8189902], [12.4750046, -6.8650161], [12.5578758, -6.9549823], [12.5912621, -7.0061438], [12.6296683, -7.0602153], [12.6425464, -7.1273946], [12.6482974, -7.2056365], [12.6529945, -7.290711], [12.6676686, -7.3443628], [12.7132764, -7.4143373], [12.7448678, -7.4951565], [12.7735317, -7.5576012], [12.7978748, -7.6240162], [12.819716, -7.6916332], [12.8541367, -7.7631222], [12.8683957, -7.8111424], [12.8882899, -7.8630224], [12.9159496, -7.9280526], [12.9560379, -7.9980001], [12.9888089, -8.0648631], [13.0171138, -8.1237471], [13.0464037, -8.1851488], [13.0749282, -8.2411806], [13.109955, -8.3019108], [13.1636639, -8.3834305], [13.1442684, -8.4632457], [13.1519365, -8.5258388], [13.1066211, -8.6278502], [12.9912039, -8.7317287], [12.9430383, -8.7825283], [12.9007315, -8.8242653], [12.8583738, -8.8855201], [12.8261129, -8.9244954], [12.7995835, -8.9876603], [12.7897792, -9.0721249], [12.7945188, -9.1277662], [12.8221025, -9.200333], [12.8560989, -9.2460224], [12.9035831, -9.3255887], [12.9571997, -9.4122934], [12.96692, -9.46975], [12.979789, -9.5319929], [12.9942902, -9.5978913], [12.9924234, -9.6751446], [12.9992911, -9.7328605], [13.0265194, -9.7989313], [13.056431, -9.8405803], [13.1111145, -9.9174917], [13.1091429, -9.9963811], [13.1268709, -10.0619543], [13.157915, -10.110259], [13.1912876, -10.1552914], [13.2568852, -10.2235571], [13.2873502, -10.2985597], [13.3294193, -10.3582218], [13.332531, -10.4342314], [13.3616645, -10.4996373], [13.3970097, -10.5434318], [13.4649674, -10.6092699], [13.5150701, -10.6731803], [13.5182812, -10.7322711], [13.5204635, -10.7934239], [13.5427531, -10.8554702], [13.5754301, -10.9037224], [13.6085419, -10.9436407], [13.6544487, -11.0088294], [13.644189, -11.0811135], [13.6309095, -11.1845743], [13.6077855, -11.2644654], [13.5923906, -11.3435459], [13.5910859, -11.4033656], [13.5824216, -11.4637933], [13.5763845, -11.5150195], [13.5658877, -11.5818261], [13.5780102, -11.6487985], [13.5850516, -11.728289], [13.5796541, -11.8093041], [13.5722661, -11.8588547], [13.5332375, -11.9249719], [13.5190301, -11.9942229], [13.4936661, -12.0506052], [13.4675931, -12.1296835], [13.4263238, -12.1797215], [13.3713861, -12.2301035], [13.335508, -12.2794461], [13.2977866, -12.3449112], [13.2360808, -12.3860276], [13.1763103, -12.396734], [13.1175737, -12.4130823], [13.0358734, -12.4684274], [12.9882351, -12.5152891], [12.9397764, -12.5671793], [12.9005412, -12.6016068], [12.8383961, -12.6598718], [12.7917449, -12.6973684], [12.756343, -12.7468451], [12.7384123, -12.7973218], [12.7329722, -12.8637468], [12.7438394, -12.9258054], [12.6982795, -12.9719743], [12.6456502, -13.0217874], [12.5897372, -13.0496503], [12.5416859, -13.0967729], [12.4899934, -13.1483089], [12.4516993, -13.2088193], [12.4061047, -13.2592729], [12.3659437, -13.2994667], [12.3381474, -13.3509344], [12.3217062, -13.4044972], [12.3180076, -13.4796436], [12.3339316, -13.5486128], [12.3228676, -13.6351917], [12.3237508, -13.702487], [12.2719863, -13.7412007], [12.2376446, -13.7886383], [12.2162248, -13.8547063], [12.2044164, -13.9166124], [12.1764005, -13.9715771], [12.1526851, -14.0537908], [12.1385391, -14.1184116], [12.1268999, -14.1743802], [12.1322794, -14.251434], [12.1500264, -14.3033257], [12.1387349, -14.3579742], [12.1355583, -14.4081092], [12.1122437, -14.485059], [12.0988297, -14.5420029], [12.0869949, -14.6067846], [12.0709862, -14.6554124], [12.0662022, -14.7054676], [12.0219489, -14.7718214], [12.0057854, -14.8400344], [11.9770076, -14.8922578], [11.9595377, -14.9575604], [11.9340686, -15.0112508], [11.9177644, -15.0609502], [11.8925343, -15.1100077], [11.8620324, -15.1634712], [11.8488364, -15.2193293], [11.8442614, -15.2961685], [11.8301714, -15.3462413], [11.822315, -15.4087502], [11.8223436, -15.4622301], [11.7921794, -15.5246767], [11.7497084, -15.5727263], [11.7032129, -15.597867], [11.6367387, -15.6365479], [11.5862489, -15.6948422], [11.5384382, -15.8022035], [11.5236691, -15.8738307], [11.5317741, -15.9484618], [11.5511318, -15.9959312], [11.5869236, -16.0522987], [11.5822747, -16.1134527], [11.5891775, -16.2045586], [11.4980394, -16.4239569], [11.4672957, -16.4961728], [11.4609793, -16.5543239]]], [[[11.8476837, -5.149089], [11.9000904, -5.2200064], [11.9339895, -5.2686264], [11.9540522, -5.333235], [11.9744831, -5.3845042], [12.0050663, -5.4558937], [11.9678005, -5.5434067], [11.9471391, -5.6077865], [11.9449255, -5.6593799], [11.9578718, -5.7321021], [11.9956551, -5.8275985], [12.039074, -5.8896319], [12.202056, -5.774194], [12.251341, -5.750543], [12.528415, -5.742117], [12.527542, -5.173424], [12.492703, -5.133545], [12.4680766, -5.0864243], [12.5015402, -5.0489929], [12.5530708, -5.0407263], [12.6023108, -5.0252508], [12.6261663, -4.9803454], [12.6744515, -4.9566917], [12.7257851, -4.9427427], [12.7495024, -4.8873398], [12.793409, -4.8625824], [12.8202849, -4.8172099], [12.8457436, -4.7713076], [12.8900474, -4.739943], [12.941231, -4.725538], [12.997909, -4.705886], [13.046379, -4.686092], [13.097085, -4.691584], [13.056377, -4.647239], [13.0219246, -4.6055649], [12.9810998, -4.5543948], [12.9386766, -4.5017619], [12.8988006, -4.4698195], [12.8530927, -4.4297674], [12.7949978, -4.4114895], [12.7403539, -4.413796], [12.7650903, -4.4679154], [12.7098629, -4.4776275], [12.6714584, -4.5117966], [12.6437139, -4.559362], [12.5636261, -4.5633711], [12.5145516, -4.578898], [12.4621504, -4.5821905], [12.4143943, -4.6032942], [12.3950059, -4.6569059], [12.3738224, -4.704529], [12.3510724, -4.7566568], [12.3174385, -4.8007504], [12.2635889, -4.7975393], [12.2084585, -4.803325], [12.1662096, -4.8962007], [12.088528, -4.9595473], [12.0157083, -5.0300478], [11.8476837, -5.149089]]]]}}]}