{"type": "FeatureCollection", "features": [{"type": "Feature", "properties": {"code": "AIA", "name": "Anguilla", "tier": "country"}, "geometry": {"type": "MultiPolygon", "coordinates": [[[[-63.06737816554437, 18.219036218478607], [-63.08920722694842, 18.208625877263785], [-63.11359648691234, 18.191814422631637], [-63.13439248573957, 18.189168817644088], [-63.15554781068067, 18.171331272213365], [-63.17275054837154, 18.160320585456134], [-63.146820006590815, 18.166657008085565], [-63.113865981497554, 18.177433795606987], [-63.09248607773543, 18.171672677757897], [-63.07396121996186, 18.182322678385788], [-63.05390343628255, 18.190278269784244], [-63.03593713060019, 18.199068294866265], [-63.01280551203405, 18.21080186068707], [-62.996411258098874, 18.223814527310083], [-62.981383250475744, 18.23974488615829], [-62.97097016217248, 18.265643975835644], [-63.001370765547335, 18.256466401491934], [-63.02160900181843, 18.254401126844982], [-63.044471125799305, 18.250690069023392], [-63.07294772030593, 18.23230423450866], [-63.06737816554437, 18.219036218478607]], [[-63.15869191417511, 18.167661120440073], [-63.15869191417511, 18.167661120440073]], [[-63.14382479622293, 18.167191676857044], [-63.14382479622293, 18.167191676857044]], [[-63.12918225709183, 18.17090451434359], [-63.12918225709183, 18.17090451434359]], [[-63.10623030158246, 18.17871401819002], [-63.10623030158246, 18.17871401819002]], [[-63.13466198032489, 18.180591660987204], [-63.13466198032489, 18.180591660987204]], [[-63.08684544289986, 18.19806207147758], [-63.08684544289986, 18.19806207147758]], [[-63.02232765404574, 18.21080186068707], [-63.02232765404574, 18.21080186068707]], [[-63.019992034306995, 18.22428381842377], [-63.019992034306995, 18.22428381842377]], [[-62.998118057138754, 18.23614366451278], [-62.998118057138754, 18.23614366451278]], [[-63.02565142059706, 18.23738079612383], [-63.02565142059706, 18.23738079612383]], [[-62.98581113774617, 18.24433416518781], [-62.98581113774617, 18.24433416518781]]], [[[-63.170325097104524, 18.265533824576664], [-63.170325097104524, 18.265533824576664]]], [[[-63.186943929860604, 18.269116609944263], [-63.186943929860604, 18.269116609944263]]], [[[-63.25454215499059, 18.2843852705347], [-63.25454215499059, 18.2843852705347]], [[-63.25198195643094, 18.2744479988703], [-63.25198195643094, 18.2744479988703]]], [[[-62.94450740806252, 18.29549824098774], [-62.95935575262894, 18.27858504379617], [-62.938425006508965, 18.286816190225693], [-62.94450740806252, 18.29549824098774]], [[-62.955717575728215, 18.286645600482075], [-62.955717575728215, 18.286645600482075]]], [[[-63.42275169194198, 18.5914757838417], [-63.42275169194198, 18.5914757838417]]]]}}]}