{"type": "FeatureCollection", "features": [{"type": "Feature", "properties": {"code": "ALB", "name": "Albania", "tier": "country"}, "geometry": {"type": "Polygon", "coordinates": [[[20.009293661000072, 39.689137197000036], [20.02823961000007, 39.700409757000045], [20.051491703000067, 39.692598169000064], [20.087516073000074, 39.68176127700008], [20.107493223000063, 39.66814974700003], [20.136640214000067, 39.65377911200005], [20.17561203200006, 39.64747525900003], [20.227356126000075, 39.64772742400004], [20.221644626000057, 39.670559688000026], [20.249520939000035, 39.68072286200004], [20.265031067000052, 39.69411015800006], [20.27865482900006, 39.71249329800003], [20.311351857000034, 39.72925960900005], [20.30569275600004, 39.75230663100007], [20.308247211000037, 39.782503881000025], [20.294164958000067, 39.798105804000045], [20.306609740000056, 39.81546507400003], [20.32724187900004, 39.81068542200006], [20.360318800000073, 39.79407984000005], [20.393395722000037, 39.79257004300007], [20.410097929000074, 39.81093699100006], [20.412390389000052, 39.83206549100004], [20.394050710000045, 39.86676249400006], [20.38191295400003, 39.884481368000024], [20.364003111000045, 39.91431663900005], [20.338417621000076, 39.93040658800004], [20.33892933100003, 39.96257514300004], [20.32357803700006, 39.976301017000026], [20.311808711000026, 39.99394452000007], [20.336370782000074, 39.994336546000056], [20.360932852000076, 39.99551261100004], [20.384471503000043, 39.998648684000045], [20.40289305500005, 40.027650538000046], [20.408010153000077, 40.047631127000045], [20.44127129000003, 40.07739526100005], [20.47197387800003, 40.072696525000026], [20.50011791700007, 40.078569894000054], [20.529285376000075, 40.07935297100005], [20.568687030000035, 40.072304949000056], [20.605530135000038, 40.082485191000046], [20.63009220600003, 40.09540407600008], [20.66028308400007, 40.103232510000055], [20.676146087000063, 40.12475605900005], [20.676657797000075, 40.14509933100004], [20.68075147600007, 40.16543651300003], [20.67358753800005, 40.18811310700005], [20.695591060000027, 40.20296607700004], [20.722711679000042, 40.228364930000055], [20.71043064400004, 40.27249719500003], [20.724758518000044, 40.29865052200006], [20.733969295000065, 40.31816133700005], [20.758019655000055, 40.33220563300006], [20.77439436900005, 40.363794616000064], [20.790769082000054, 40.37665995900005], [20.787187114000062, 40.39809674000003], [20.788353812000025, 40.42201992300005], [20.803746043000046, 40.44694708600008], [20.821430733000057, 40.45641698500003], [20.841735378000067, 40.48656224700005], [20.870882368000025, 40.48033499600007], [20.900684347000038, 40.483075058000054], [20.92098899100006, 40.467878762000055], [20.950135982000063, 40.47784393400008], [20.966510695000068, 40.495528473000036], [20.964218235000033, 40.52241996300006], [20.99533019100005, 40.540341632000036], [21.01301488200005, 40.560746583000025], [21.033974515000068, 40.561492988000055], [21.043799343000046, 40.59382919700005], [21.048711757000035, 40.61720102600003], [21.05755410200004, 40.661684354000045], [21.01266118800004, 40.72283899400003], [20.987928820000036, 40.736498493000056], [20.985832857000048, 40.75825260000005], [20.967165684000065, 40.76842258600004], [20.98255791400004, 40.79098943200006], [20.98354039700007, 40.85443305900003], [20.980156988000033, 40.88582628900008], [20.969693939000024, 40.90934995900005], [20.947158142000035, 40.92141273300007], [20.915903136000054, 40.91796645100004], [20.89081864700006, 40.92313580700005], [20.85151514300003, 40.935804088000054], [20.824150246000045, 40.90265873200008], [20.796517065000046, 40.89738637900007], [20.774249551000025, 40.903267053000036], [20.734007055000063, 40.91188433800005], [20.670279038000047, 41.08702733700005], [20.632974580000052, 41.08646014000004], [20.611074613000028, 41.090660668000055], [20.58864780600004, 41.10534991800006], [20.596612466000067, 41.13014044400006], [20.58295282200004, 41.149548709000044], [20.560374099000057, 41.18154021600003], [20.53614811600005, 41.19734035700003], [20.516161010000076, 41.230640194000046], [20.51683171800005, 41.25424253400007], [20.511516355000026, 41.280734574000064], [20.50837241000005, 41.30419915200008], [20.50187492400005, 41.32592391700007], [20.497359716000062, 41.34622630900003], [20.51736291900005, 41.339587540000025], [20.536250064000058, 41.35840636800003], [20.55036713100003, 41.37474356200005], [20.553854814000033, 41.39446997500005], [20.554257239000037, 41.41972312200005], [20.53934068800004, 41.435686899000075], [20.513156237000032, 41.43916236300004], [20.506202334000022, 41.459174834000066], [20.50343379700007, 41.48135706000005], [20.488369060000025, 41.49607634600005], [20.459877059000064, 41.511282762000064], [20.471666852000055, 41.531634147000034], [20.462497013000075, 41.55075371200007], [20.50343379700007, 41.56398702200005], [20.52603090100007, 41.567662460000065], [20.557470351000063, 41.58579156400003], [20.548955500000034, 41.61395507100008], [20.524720924000064, 41.65042690100006], [20.526358395000045, 41.68149733700005], [20.528650855000024, 41.710596972000076], [20.524393430000032, 41.73772846000003], [20.527995867000072, 41.75898567200005], [20.537165706000053, 41.77681675200006], [20.55976281100004, 41.78878277900003], [20.567622674000063, 41.81490491200003], [20.566967685000066, 41.84760359300003], [20.56565770800006, 41.870043761000034], [20.594149709000078, 41.87540872200003], [20.59087476700006, 41.897595367000065], [20.579084973000022, 41.919043255000076], [20.608231963000037, 41.93171362000004], [20.62296920500006, 41.947548038000036], [20.62624414800007, 41.97019659800003], [20.61117941200007, 41.98967279000004], [20.59724125500003, 42.03005715200004], [20.561500889000058, 42.06986936900006], [20.564854430000025, 42.098142978000055], [20.567805546000045, 42.11854391600008], [20.556403506000038, 42.13963456500005], [20.54379419000003, 42.160121581000055], [20.525768906000053, 42.195492063000074], [20.52010980500006, 42.215520138000045], [20.50082694200006, 42.228868661000035], [20.47525619000004, 42.25152364300004], [20.456392520000065, 42.27091356900007], [20.430821767000054, 42.27742724600006], [20.402945455000065, 42.28471556200003], [20.374649950000048, 42.30471533200006], [20.352851931000032, 42.31138051000005], [20.336084224000047, 42.32749802400008], [20.311980646000052, 42.31928480700003], [20.28096038900003, 42.321919352000066], [20.247215379000068, 42.32346903300004], [20.236945159000072, 42.348568544000045], [20.245119416000023, 42.36916744400003], [20.20817177400005, 42.39930710200008], [20.227085747000046, 42.418125434000046], [20.214074007000022, 42.43683912200004], [20.193362536000052, 42.45198024700005], [20.18117174200006, 42.47376690700003], [20.166305842000043, 42.49616632500005], [20.15086646000003, 42.51402945900003], [20.13144274800004, 42.52093214400003], [20.097773193000023, 42.53457423000003], [20.080200637000075, 42.556316321000054], [20.057262414000036, 42.55779846000007], [20.01581264300006, 42.54188832400007], [20.006809056000066, 42.51174875000004], [19.963229115000047, 42.513022325000065], [19.941498167000077, 42.51885591400003], [19.913462562000063, 42.508275953000066], [19.899377688000072, 42.486912817000075], [19.87482976600006, 42.48523115000006], [19.84612345200003, 42.48048266700005], [19.822782804000042, 42.47326032700005], [19.802393273000064, 42.48384621300005], [19.777845351000053, 42.50135351400007], [19.766711593000025, 42.51964686700006], [19.751687728000036, 42.54208599000003], [19.756919253000035, 42.563627868000026], [19.766401391000045, 42.583119080000074], [19.76241906000007, 42.606263539000054], [19.75508318900006, 42.63572170900005], [19.73621951900003, 42.65191005300005], [19.711067959000047, 42.65684280600004], [19.697142902000053, 42.63916208400008], [19.667995912000038, 42.62928374400008], [19.635901474000036, 42.59240682700005], [19.620509243000072, 42.567810086000065], [19.628369106000036, 42.54754666100007], [19.60839195500006, 42.52993143600003], [19.57727999900004, 42.51689779800006], [19.565817700000025, 42.49251276900003], [19.54551305500007, 42.46618558200004], [19.53209784200004, 42.44851996800003], [19.514122860000043, 42.43931406000007], [19.482551002000037, 42.391421508000064], [19.438575942000057, 42.37665701800006], [19.42818183600008, 42.358935047000045], [19.42658274300004, 42.32879622300004], [19.404994986000077, 42.305739139000025], [19.384206776000042, 42.29332028700003], [19.37621131000003, 42.274983219000035], [19.34582854100006, 42.23710916500005], [19.281864816000052, 42.18084793000003], [19.402596346000053, 42.10377767800003], [19.380783437000048, 42.07699884700003], [19.37521603400006, 42.04636325600006], [19.372268586000075, 42.010116380000056], [19.37849097700007, 41.98456086600004], [19.383049697000047, 41.961829745000045], [19.357059752000055, 41.95871259200004], [19.349723880000056, 41.93564092200006], [19.368168358000048, 41.926752985000064], [19.33924406400007, 41.91115711900005], [19.362928449000037, 41.89914570600007], [19.379276963000052, 41.884323315000074], [19.370473917000027, 41.85029682900006], [19.398979019000024, 41.84982844800004], [19.42790331300006, 41.858883201000026], [19.484284726000055, 41.85029682900006], [19.504196378000074, 41.84420761200005], [19.536893406000047, 41.83109040700003], [19.565162711000028, 41.813684489000025], [19.591034759000024, 41.80807024300003], [19.60740947200003, 41.763871392000055], [19.587759816000073, 41.756298367000056], [19.574005057000022, 41.73821721100006], [19.581537425000022, 41.70937456300004], [19.570075125000074, 41.67538229400003], [19.564835217000052, 41.641127321000056], [19.589397287000054, 41.64088257700007], [19.606754484000078, 41.62815461200006], [19.58579485000007, 41.61346537600008], [19.57466004500003, 41.596078791000025], [19.55566537800007, 41.578197559000046], [19.534050756000056, 41.57182770500003], [19.483289144000025, 41.57501271000007], [19.445627303000038, 41.58726126800008], [19.456762108000078, 41.56937759400006], [19.467999255000052, 41.55127451800007], [19.50740090900007, 41.53518885300008], [19.514053137000076, 41.504921642000056], [19.496143294000035, 41.46773874300004], [19.469022675000076, 41.44472833100008], [19.43320298900005, 41.39983455000004], [19.409664338000027, 41.40405665500003], [19.415804856000022, 41.379487838000045], [19.41375801600003, 41.346843023000076], [19.42754697400005, 41.318925669000066], [19.44057810000004, 41.30214583600008], [19.458263199000044, 41.31158502400007], [19.487583232000077, 41.30704040000006], [19.508991510000044, 41.280815234000045], [19.51811180900006, 41.25138630500004], [19.497304452000037, 41.219878480000034], [19.481291804000023, 41.20725922100007], [19.456700953000052, 41.16321615600003], [19.440307052000037, 41.13321549500006], [19.44964776300003, 41.11483510700003], [19.448199, 41.08968009900008], [19.44283095000003, 41.060341494000056], [19.451005026000075, 41.039824286000055], [19.435144880000053, 41.019760922000046], [19.443035398000063, 40.993483584000046], [19.46567232500007, 40.987638117000074], [19.474905808000074, 40.96717489800005], [19.417457159000037, 40.919449593000024], [19.40433295400004, 40.89281587200003], [19.393031617000076, 40.85039984400004], [19.375112702000024, 40.82841564200004], [19.374698685000055, 40.80334665300006], [19.37816943200005, 40.77345764200004], [19.37006109300006, 40.73714708800003], [19.365593279000052, 40.715251789000035], [19.339419768000027, 40.68116361600005], [19.319080350000036, 40.67124078000006], [19.31268244000006, 40.64893511300005], [19.32899294200007, 40.634208202000025], [19.35576408700007, 40.60227518100004], [19.36886967600003, 40.57015494400008], [19.378365271000064, 40.55115603200005], [19.387705982000057, 40.52838463300003], [19.404350081000075, 40.50019714200005], [19.437946229000033, 40.47750449000006], [19.46012478800003, 40.45800927100004], [19.488979424000036, 40.448447558000055], [19.480602272000056, 40.414439336000044], [19.47920608000004, 40.369777448000036], [19.486652437000032, 40.34885416000003], [19.468967338000027, 40.33360089300004], [19.44430127800007, 40.32366668000003], [19.418704424000055, 40.32650517600007], [19.407534888000043, 40.34424307100005], [19.402880914000036, 40.377223153000045], [19.374957073000076, 40.40593459300004], [19.356806577000043, 40.42152580000004], [19.319574789000058, 40.43782183600007], [19.290720153000052, 40.426485881000076], [19.327486544000067, 40.391757634000044], [19.36146055000006, 40.34211477000008], [19.363787537000064, 40.309117515000025], [19.413619307000033, 40.26261640100006], [19.440878932000032, 40.22929662200005], [19.465660411000044, 40.215032492000034], [19.530092254000067, 40.184893285000044], [19.58022709000005, 40.16683246500003], [19.609011730000077, 40.149058257000036], [19.64170421800003, 40.132518238000046], [19.673872483000025, 40.12454735400007], [19.744463953000036, 40.09516087900005], [19.77097298600006, 40.061886454000046], [19.79926914500004, 40.03771812300005], [19.827267450000022, 40.04866333500007], [19.851989357000036, 40.03931440900004], [19.874030575000063, 40.02243749400003], [19.899646046000043, 39.98867113600005], [19.92555937000003, 39.95534471800005], [19.92555937000003, 39.924057892000064], [19.903816006000056, 39.91035112800006], [19.92675078700006, 39.89709864900004], [19.955344800000034, 39.88887168300005], [19.992874443000062, 39.87012879700006], [20.017894204000072, 39.860755433000065], [20.007171449000055, 39.841547468000044], [20.004174290000037, 39.79899642100003], [19.983696807000058, 39.76931234400007], [19.980439025000067, 39.74927729900003], [19.987885383000048, 39.729594349000024], [19.97904283300005, 39.71097984600004], [19.99021237000005, 39.68340683300005], [20.009293661000072, 39.689137197000036]]]}}]}