{"type": "FeatureCollection", "features": [{"type": "Feature", "properties": {"code": "AND", "name": "Andorra", "tier": "country"}, "geometry": {"type": "Polygon", "coordinates": [[[1.547269288096459, 42.655265240984534], [1.520980092009381, 42.6465997994797], [1.492304394605412, 42.654627845593666], [1.475920393715739, 42.640041000495444], [1.475770660491321, 42.6152529146587], [1.456519881979943, 42.602871357653044], [1.439310620329934, 42.59139539412371], [1.446257479719861, 42.569287282902906], [1.425310563840867, 42.55980207449875], [1.412288452474229, 42.53832299020661], [1.435801247881273, 42.5434943648292], [1.452646235635314, 42.52961687559622], [1.468209783388772, 42.5105626293178], [1.447220900968603, 42.49683837041215], [1.426131101911096, 42.49400413523955], [1.440444160732625, 42.474203617825765], [1.442852005143266, 42.45195873414616], [1.458804378465118, 42.43489533970353], [1.497451073103548, 42.434020797379446], [1.528239098934932, 42.43236858702795], [1.553108709442029, 42.43171221740283], [1.560633695471893, 42.453578824463875], [1.582018788359164, 42.44809224271853], [1.597307312421378, 42.46441097918341], [1.617796682281323, 42.463469907633794], [1.642113089615236, 42.465598156959004], [1.665221281592778, 42.47126318230545], [1.670472418588247, 42.503228705097], [1.688979579295108, 42.49270890458098], [1.711159125910285, 42.490267247515135], [1.726425669039315, 42.50376405339392], [1.731979779834774, 42.52939752911158], [1.740290093580029, 42.55661525084969], [1.765067707994092, 42.562600888691975], [1.786716228627483, 42.57291561850997], [1.758321327831823, 42.58242844630729], [1.729097235583481, 42.58920179334132], [1.737749774795191, 42.61172374825264], [1.711058641644172, 42.616215608110394], [1.679362921027348, 42.62534276246129], [1.658500660336642, 42.620245007338895], [1.636976616550442, 42.629930673980596], [1.616892667339698, 42.62659998810932], [1.592813781652012, 42.63292479267756], [1.575031991740218, 42.64551306977472], [1.547269288096459, 42.655265240984534]]]}}]}