{"type": "FeatureCollection", "features": [{"type": "Feature", "properties": {"code": "ARE", "name": "United Arab Emirates", "tier": "country"}, "geometry": {"type": "MultiPolygon", "coordinates": [[[[52.45315021770841, 24.09271427604307], [52.44423379125652, 24.11152460028012], [52.45315021770841, 24.09271427604307]]], [[[53.298519269548706, 24.109517815294964], [53.298519269548706, 24.109517815294964]]], [[[54.045869465103806, 24.140928281714878], [54.045869465103806, 24.140928281714878]]], [[[53.070705159115846, 24.148773907889563], [53.070705159115846, 24.148773907889563]]], [[[54.069202759599705, 24.15528408039603], [54.06583433178906, 24.178062012052237], [54.02026149197434, 24.189630197475708], [54.02521506122616, 24.167035107883976], [54.05632347864565, 24.155103287886504], [54.069202759599705, 24.15528408039603]]], [[[54.09020589448647, 24.176615914792706], [54.0806950404438, 24.196498312746996], [54.085648610594944, 24.174265972796434], [54.09020589448647, 24.176615914792706]]], [[[52.00911223993796, 24.16576966463839], [52.014263951420276, 24.18655750092796], [51.99028867498242, 24.174627504755563], [52.00911223993796, 24.16576966463839]]], [[[53.542174658134, 24.170549359865106], [53.54154060191729, 24.200279232600565], [53.523787007164685, 24.209532252811243], [53.51554426735413, 24.18639844143496], [53.536848579798175, 24.168119764015955], [53.542174658134, 24.170549359865106]]], [[[53.42444614117653, 24.17878505438682], [53.44188270692143, 24.189087962939197], [53.42246471347579, 24.209871999593133], [53.39294143929607, 24.203004605578144], [53.40027272250819, 24.18041188480072], [53.42444614117653, 24.17878505438682]]], [[[54.117351455605274, 24.193245041325667], [54.08961146599643, 24.21583548861696], [54.10724617397182, 24.19487168737851], [54.117351455605274, 24.193245041325667]]], [[[53.32695989218536, 24.21547407267036], [53.32695989218536, 24.21547407267036]]], [[[53.29585147566513, 24.225593323473163], [53.29585147566513, 24.225593323473163]]], [[[52.02119894927216, 24.21511265672376], [52.03209680252547, 24.233001550880942], [52.026548804783545, 24.25269449585437], [52.00871595367835, 24.23372428025141], [52.01525466527062, 24.21204057351372], [52.02119894927216, 24.21511265672376]]], [[[53.85149337591861, 24.23916721559459], [53.827963920398645, 24.239731821666282], [53.80412486696906, 24.23662645544664], [53.78121460726834, 24.21912206463162], [53.74282444399296, 24.222792539644047], [53.70938784817071, 24.211498433406007], [53.69328874787749, 24.19879136632852], [53.67502245951897, 24.18523576641752], [53.63941867743006, 24.174503227442017], [53.627653950569425, 24.151057965552695], [53.66201933922116, 24.1456903736119], [53.73260770578105, 24.12450030564463], [53.78431058816318, 24.116871021280645], [53.80753044577352, 24.124782862738982], [53.827344724579405, 24.13241167495886], [53.83167909711267, 24.160662569422072], [53.86480609412598, 24.137214767847297], [53.88400117621336, 24.128456051905346], [53.9059826412859, 24.13212913495164], [53.9279641063585, 24.128738600006443], [53.950255169340664, 24.135802111878036], [53.96573507471396, 24.16941907842778], [53.93694245113329, 24.19653220100031], [53.900100277405954, 24.204156727950703], [53.86666368248302, 24.21573384094404], [53.85211257263717, 24.23041549547878], [53.85149337591861, 24.23916721559459]]], [[[53.359455308815484, 24.23209813062425], [53.375901159810724, 24.24998463888005], [53.35331288258351, 24.238602606824884], [53.359455308815484, 24.23209813062425]]], [[[53.619275977904124, 24.272088163537944], [53.63766362887344, 24.285728433720294], [53.61534482540344, 24.2955531448618], [53.598225288666185, 24.278446098808445], [53.619275977904124, 24.272088163537944]]], [[[53.774366297766505, 24.280151127972204], [53.795963860244, 24.28611132277939], [53.77000715610541, 24.294057814216785], [53.774366297766505, 24.280151127972204]]], [[[53.34617974250119, 24.298211464387634], [53.32359146437466, 24.311935602645974], [53.27484834077836, 24.305254299946057], [53.2467120649099, 24.291890638742018], [53.22650150164304, 24.294780198247622], [53.206290937476865, 24.303448481961937], [53.196581940304384, 24.285750106482283], [53.220557217641556, 24.26732672904535], [53.24968420646104, 24.26660418853254], [53.26751705756618, 24.253778422636174], [53.28931276317354, 24.26985558576672], [53.313882469000816, 24.266784823660714], [53.33468746075778, 24.271481252457875], [53.34617974250119, 24.298211464387634]]], [[[53.81023014130801, 24.316630361402133], [53.81023014130801, 24.316630361402133]]], [[[51.67639880216302, 24.308844189407864], [51.659532889531306, 24.32664045159561], [51.66967779979069, 24.308728620229715], [51.67639880216302, 24.308844189407864]]], [[[54.26536411456232, 24.27870618993876], [54.25842911760975, 24.302364978760806], [54.243766551185445, 24.32078327233023], [54.217413561686556, 24.342628955062253], [54.193240141219576, 24.32981087027548], [54.175803576373994, 24.31049102703929], [54.195419712949445, 24.291348838578074], [54.224942987129225, 24.26244950504065], [54.24634240737623, 24.275816263509796], [54.26536411456232, 24.27870618993876]]], [[[53.109993544566464, 24.30994930601571], [53.097906834333, 24.342990008582092], [53.08086655574698, 24.323130510065027], [53.09533097814216, 24.307421247892307], [53.109993544566464, 24.30994930601571]]], [[[54.413413925412385, 24.345833273686708], [54.413413925412385, 24.345833273686708]]], [[[53.43375885298872, 24.341004199384372], [53.40700957633095, 24.363929380636478], [53.3854120138534, 24.35382115102533], [53.37709001679087, 24.3276443054404], [53.40027272250819, 24.31735261682985], [53.41156686022248, 24.337032486560076], [53.43375885298872, 24.341004199384372]]], [[[52.619602539925324, 24.26739446688117], [52.63972641574156, 24.28461001164277], [52.65180074141114, 24.300976726794545], [52.660469488276306, 24.339063492086552], [52.64684717125999, 24.362192085596348], [52.611862586789016, 24.361345992623512], [52.579045188584644, 24.34385879055077], [52.571614833357955, 24.32383015833517], [52.58430835574609, 24.293358001370734], [52.60536102619045, 24.27162801372191], [52.619602539925324, 24.26739446688117]]], [[[54.322082486317754, 24.31536640473587], [54.32951284154444, 24.336806816981095], [54.33941998094741, 24.36303817407253], [54.29917222751635, 24.381650678036408], [54.27688116453419, 24.372344767796847], [54.29824343378749, 24.3280618237942], [54.312794543633345, 24.312827168938725], [54.322082486317754, 24.31536640473587]]], [[[54.25089969126782, 24.365914831004716], [54.23821855344352, 24.38757226225016], [54.21245999153541, 24.37890973599559], [54.22256527316887, 24.361402399001577], [54.24079440963436, 24.352918590520574], [54.25089969126782, 24.365914831004716]]], [[[54.354280689602206, 24.405053420878744], [54.354280689602206, 24.405053420878744]]], [[[51.560112766291184, 24.412351031674802], [51.5462903258379, 24.428169945486673], [51.560112766291184, 24.412351031674802]]], [[[53.41790742958426, 24.408143386208337], [53.4222665712453, 24.44187998956994], [53.39829129480745, 24.43953495697275], [53.40383929254938, 24.419329784242223], [53.41790742958426, 24.408143386208337]]], [[[54.469054896766124, 24.45865472623467], [54.469054896766124, 24.45865472623467]]], [[[54.43477619466569, 24.443954406270905], [54.403197188999115, 24.469599939585578], [54.3908132645206, 24.49383157766522], [54.3449927469178, 24.466782004785728], [54.33013203736368, 24.44705469401896], [54.352113502436225, 24.438881045523885], [54.374094967508825, 24.4261967483813], [54.411246739145724, 24.42055887509207], [54.45675765973829, 24.398568757642124], [54.47657193854417, 24.411255830991877], [54.46047283735163, 24.425069194587707], [54.43477619466569, 24.443954406270905]]], [[[53.33661340838216, 24.486001775961256], [53.321015608183814, 24.500772913938874], [53.33318950139443, 24.483001175363995], [53.33661340838216, 24.486001775961256]]], [[[54.53130343360664, 24.514273138994213], [54.53130343360664, 24.514273138994213]]], [[[54.516014736690806, 24.48606669172449], [54.49223760248344, 24.510948698823427], [54.47816946454918, 24.52807475384685], [54.4724233236775, 24.505900573952374], [54.49243574471387, 24.488591177740716], [54.516014736690806, 24.48606669172449]]], [[[52.32300756085033, 24.482561629915324], [52.33291469935392, 24.505382227208088], [52.32362675666951, 24.538619636686917], [52.29204775010362, 24.522565375691613], [52.30133569368735, 24.50171994142221], [52.32207876532283, 24.474953842945524], [52.32300756085033, 24.482561629915324]]], [[[54.56237222150088, 24.534116989307677], [54.531683867516506, 24.55672592666025], [54.543477325917934, 24.534463075410656], [54.56237222150088, 24.534116989307677]]], [[[54.44329633485802, 24.48805022024152], [54.439531621687024, 24.51275155084346], [54.47143260982716, 24.560697930864876], [54.45696818653266, 24.575654893058925], [54.436955765496236, 24.542314641607447], [54.41337677441868, 24.519421880915104], [54.40287520652561, 24.49977043425821], [54.4234820569514, 24.487689580409835], [54.44329633485802, 24.48805022024152]]], [[[51.74932228269722, 24.591837484612256], [51.74065353583205, 24.61407528344762], [51.74189192747053, 24.585643976888093], [51.74932228269722, 24.591837484612256]]], [[[54.53840487078821, 24.587402964475302], [54.55298817996061, 24.6022774696296], [54.533078792452386, 24.612999852561188], [54.514310708472465, 24.595820536988242], [54.53371284956842, 24.585327312105846], [54.53840487078821, 24.587402964475302]]], [[[54.5944555013204, 24.581752495281478], [54.59864027612787, 24.62772001606595], [54.57625014292978, 24.60376194006153], [54.58714799528383, 24.581961509416203], [54.5944555013204, 24.581752495281478]]], [[[54.580209901965475, 24.64023130253264], [54.593271071702645, 24.656499096755965], [54.568599973609935, 24.639791602400578], [54.580209901965475, 24.64023130253264]]], [[[54.749037615193856, 24.797104975314426], [54.749037615193856, 24.797104975314426]]], [[[54.725334010456265, 24.805448447288086], [54.725334010456265, 24.805448447288086]]], [[[55.63663601543982, 25.58104789244635], [55.65675989215538, 25.60171059886511], [55.67936055394648, 25.619019847587936], [55.65149672499393, 25.610923897819703], [55.622084905593965, 25.595288788346977], [55.59731705753626, 25.586911996491494], [55.60846258857765, 25.562615982241823], [55.631682446187995, 25.576579811409204], [55.63663601543982, 25.58104789244635]]], [[[56.16594969442292, 26.060422981735258], [56.15524998340004, 26.082606532565478], [56.13001451845531, 26.067229421500656], [56.08410879818257, 26.05959706864985], [56.0710472264484, 26.03362055964118], [56.063378295472035, 26.01010832433974], [56.05467084987987, 25.98184607593572], [56.04644714961631, 25.957926556565383], [56.02951600376059, 25.931391949878616], [56.01790607540511, 25.914859171313765], [56.0406421858882, 25.92399599372021], [56.03580471551527, 25.893537170104366], [55.99420247066752, 25.85044626758122], [55.97291760156611, 25.833902153961276], [55.963242660820185, 25.80037146207337], [55.95453521432876, 25.779028807933173], [55.9516327324647, 25.802549067885252], [55.931799103845606, 25.783384762396906], [55.87329280252089, 25.72638158973865], [55.8322772465977, 25.70174571809048], [55.80691497094921, 25.69585377553136], [55.78383996534217, 25.691998479046617], [55.75630137710692, 25.664318002973516], [55.74108401261714, 25.648200465678997], [55.723071723381395, 25.632830766826487], [55.689796417370815, 25.615268201566323], [55.676029773555285, 25.59949170697672], [55.65586676374022, 25.58576734568652], [55.63684505655419, 25.562775514778252], [55.63659143334803, 25.535888920637206], [55.56798647659468, 25.517350822082847], [55.54744303286975, 25.51677861224323], [55.554544470950646, 25.542982990572625], [55.566845174864966, 25.571698241880426], [55.54262420094619, 25.55945792024687], [55.524616984786064, 25.528680000981296], [55.51861722070822, 25.508052085735244], [55.50890822443506, 25.490167877945282], [55.49523637276047, 25.467629984336384], [55.48949023188874, 25.448308429690314], [55.45838181446919, 25.424867937805118], [55.477403521655276, 25.4381096923085], [55.477403521655276, 25.410013967770453], [55.454418958168446, 25.392115188265393], [55.410241043289545, 25.37210837270328], [55.38697908032037, 25.353172600235382], [55.34662928441401, 25.30938839056182], [55.32562614952724, 25.289862350766953], [55.305415585361004, 25.27481261451061], [55.28276538891163, 25.25640102358841], [55.269452670704254, 25.23567904645091], [55.22270335757395, 25.185539658828247], [55.1905051542895, 25.144628560959347], [55.168214091307334, 25.120243505733242], [55.139731066535546, 25.089404860645857], [55.10134090236079, 25.045656729074835], [55.087408987434856, 25.024898947228678], [55.056449178486844, 25.003295907879874], [55.038802086846886, 24.98617911227626], [55.00350790356697, 24.963165896389057], [54.96728492565887, 24.949412042731637], [54.944993862676654, 24.942674900226507], [54.927656368946316, 24.928076495034247], [54.91341485611076, 24.91291478239134], [54.88926620477156, 24.89353877109744], [54.85706800238643, 24.87696846562227], [54.83384814477614, 24.862081380751192], [54.81898743522203, 24.845506856556256], [54.79886355940579, 24.83820212492816], [54.77316691761922, 24.821343405074117], [54.76883254328732, 24.796894185918006], [54.75923500269329, 24.773002362069406], [54.736943939711125, 24.77328346855728], [54.7081513161304, 24.783965063636856], [54.69112342030968, 24.767098966644028], [54.67254753584018, 24.747418958418223], [54.655210041210466, 24.737296597759837], [54.644064509269754, 24.718912565662436], [54.650353221923694, 24.697379055599015], [54.65422319714287, 24.666610441618616], [54.66583312639773, 24.648585299272213], [54.64599949777863, 24.631437017504425], [54.63342207516871, 24.608129170225084], [54.61310469942242, 24.59977246922415], [54.62810085766853, 24.58217758952418], [54.60536474718538, 24.524537062835236], [54.5826286376016, 24.501209325250215], [54.54828259786365, 24.503850418262232], [54.52844896924461, 24.500328948322363], [54.57295369685568, 24.458063618940912], [54.57682367297417, 24.437366044007774], [54.52119276413481, 24.424153048924097], [54.493619183278724, 24.421510284072383], [54.48152550779599, 24.40168778186569], [54.485879231941055, 24.379659129365393], [54.47426930268625, 24.35894869682494], [54.460240638694586, 24.332064143245645], [54.45104944417659, 24.30517388436732], [54.429764575974446, 24.281364636269018], [54.40170724799117, 24.26152018520844], [54.37558490851677, 24.250935211490855], [54.328177699940966, 24.25799195956131], [54.27157929684711, 24.22932148909547], [54.2575506328555, 24.210351319357926], [54.2314282933811, 24.208586509559836], [54.18885855427891, 24.232850510642606], [54.16515495044064, 24.262843245319573], [54.15499626256752, 24.291506158782227], [54.14967504596666, 24.316636003748613], [54.128873922193804, 24.308259941243364], [54.10178408936429, 24.30208775284757], [54.07749998843377, 24.2843278088813], [54.08740712783674, 24.255257516920892], [54.111246181266324, 24.24678919026894], [54.13013166544408, 24.23041549547878], [54.16728343798036, 24.19568500276074], [54.192670481857306, 24.19173133753128], [54.17935776275061, 24.169136620258882], [54.15975401163837, 24.160346194221518], [54.13458987732105, 24.137022647477238], [54.11338859930447, 24.129970504835], [54.08624303818573, 24.129789675453196], [54.05434205094497, 24.11405654887068], [54.030366773607795, 24.105917965841513], [54.002032355508845, 24.099768471837535], [53.96775365430773, 24.091990746275997], [53.940608092289665, 24.088373038984628], [53.912075531960284, 24.072453913717197], [53.87839125834995, 24.057256542055825], [53.829648134753654, 24.05653281263926], [53.808644998967566, 24.054542535609585], [53.787840006311285, 24.055990012429163], [53.748013307368296, 24.055266275818042], [53.717499318438854, 24.057256542055825], [53.69514633533515, 24.05468954598581], [53.6604713487738, 24.041684153101244], [53.627034753850864, 24.045076990310918], [53.59948052370726, 24.038856719661908], [53.57192629266433, 24.045642455235168], [53.54065688490738, 24.075043168007824], [53.51310265386445, 24.08550141196065], [53.48740601117851, 24.088045179441508], [53.465424546105965, 24.095110936920264], [53.43879910969122, 24.11348008253981], [53.41155447655791, 24.0999154300531], [53.3768794899965, 24.0999154300531], [53.338055888568476, 24.095970106934942], [53.31011775582982, 24.082041805485005], [53.28475547928201, 24.088192150247608], [53.24750463652981, 24.09560835194395], [53.227492214594065, 24.127619703986227], [53.19618565584341, 24.141904672062992], [53.168247522205434, 24.15817674166334], [53.14764067357828, 24.15853831948789], [53.14625367346832, 24.13774592183688], [53.158142240571976, 24.120205357591203], [53.12445796786096, 24.129970504835], [53.096916120482604, 24.127619703986227], [53.07294084314543, 24.119301139635922], [53.040643570544376, 24.127077205948353], [53.01230915244548, 24.15763437222853], [52.986748733667184, 24.145340059795956], [52.95742360171789, 24.136299368620996], [52.9247300419579, 24.14136223338039], [52.90372690617181, 24.141181421085776], [52.88021924662098, 24.135605016458385], [52.86094391622879, 24.1416226050992], [52.780799123380916, 24.131670287353927], [52.758353509207154, 24.132133202585294], [52.73058181669751, 24.145209877533887], [52.69406013886436, 24.14879705104312], [52.672248581806684, 24.147292764949214], [52.65183194878546, 24.17031797059792], [52.63927762256429, 24.186976837710915], [52.620763160891215, 24.19958522847554], [52.59299146748231, 24.19935389226839], [52.57815453690239, 24.155739678743203], [52.564332095549844, 24.14127544340704], [52.54049155644026, 24.130744450595955], [52.51424160046952, 24.11674035967991], [52.48951338013842, 24.09266362892339], [52.46415110448993, 24.089653718544298], [52.45083590954965, 24.071245426335395], [52.43409680762164, 24.05086587056354], [52.404630914685015, 24.044533655004216], [52.36827155548792, 24.035639304210576], [52.339725857862106, 24.00690239542928], [52.307837253386595, 24.003791373373247], [52.27471025637328, 24.000114614797667], [52.2508712029437, 23.98455793160332], [52.2282705411526, 23.981163496298393], [52.20381229190383, 23.975788791619493], [52.145917447732074, 23.974940132880874], [52.11619602952322, 23.97776897196053], [52.095143359978124, 23.966453243322576], [52.06077797042707, 23.970413861210773], [52.02114941371451, 23.995306385881065], [51.976257688941246, 24.00152876454092], [51.941347407357, 23.99916429669497], [51.93956412278607, 23.97418199360419], [51.89735970988278, 23.997535164016654], [51.83930387357498, 24.00260350834526], [51.81096945547603, 24.014368541874774], [51.80009637045117, 24.03122233794062], [51.79173722149562, 24.06062635302385], [51.79173722149562, 24.090588896560405], [51.77997249463499, 24.141170119305627], [51.772542139408245, 24.169136620258882], [51.784306867168254, 24.215169127853017], [51.783997269258634, 24.24057872672688], [51.78740284896236, 24.273321393067874], [51.771922943589004, 24.288278596280236], [51.74313032090765, 24.28940737045383], [51.72919840598172, 24.27445029944181], [51.722077649563914, 24.23239174308452], [51.69452341852099, 24.235214900247513], [51.68956984926916, 24.270499081267644], [51.66975557046328, 24.248482900565477], [51.65210847972264, 24.229568522969032], [51.633222995544884, 24.23888491120971], [51.62919821912254, 24.262878527522105], [51.63136540628852, 24.301823223562963], [51.63136540628852, 24.34555120672286], [51.60133439017005, 24.381368690212923], [51.58399689733898, 24.367550547619715], [51.59390403674195, 24.318469846406344], [51.59854800718483, 24.29110051327814], [51.57935292599677, 24.267676707414182], [51.58833127077156, 24.242272519761002], [51.59483283047081, 24.22109848760516], [51.59173684957602, 24.183823641947583], [51.592975242113766, 24.16122752353141], [51.59204644748564, 24.126760746211517], [51.621148669875254, 24.08606669791982], [51.820916842238546, 23.85203797177502], [52.01828563057745, 23.616894401055788], [52.34671963090631, 23.220438676803553], [52.518298654459386, 23.01954106566768], [52.579973982313504, 22.941446818815677], [52.75056253573251, 22.92319854747501], [53.194216611807235, 22.87186211004837], [53.74599570713622, 22.800054095520125], [54.486497142629105, 22.71074811043701], [54.79710619779286, 22.671522179305157], [55.13733530947701, 22.630802515623657], [55.20648291535434, 22.70532627139039], [55.203368890462, 22.73883694886615], [55.21686300012743, 22.771382314742084], [55.21478698353252, 22.81253151891451], [55.22101503421652, 22.831666450746184], [55.21893901762161, 22.86610254679516], [55.21478698353252, 22.88905509801441], [55.21374897523509, 22.92156456655158], [55.21374897523509, 22.979870825378327], [55.21582499272927, 23.018090788359245], [55.23139512078825, 23.060120240856463], [55.23243312818636, 23.092588557316105], [55.236585162275446, 23.12600363326112], [55.25734533362032, 23.144139761840563], [55.28225753725559, 23.180404656249948], [55.31754982656332, 23.24622894341104], [55.34869008268123, 23.297720959055084], [55.362890038744354, 23.32814909600404], [55.36820464263019, 23.36291557779174], [55.377505198306324, 23.415353023723128], [55.38281980219216, 23.436687898727598], [55.394113335562054, 23.464722783229888], [55.40274956564002, 23.48361250051653], [55.42135067879087, 23.511637417832617], [55.45988155449021, 23.543310578920114], [55.483797270627576, 23.57984705599688], [55.48911187451347, 23.626720636548214], [55.50239838377843, 23.656540550306204], [55.50372703497476, 23.682095066833938], [55.54279767477294, 23.75739855280102], [55.55732979453444, 23.794445114550456], [55.56355784521844, 23.816288138886534], [55.55732979453444, 23.886540746258504], [55.53241758999985, 23.911215048635654], [55.50023932558446, 23.926396893501874], [55.47740313854405, 23.952960827979894], [55.53656962318962, 23.97762244002365], [55.56251983692101, 23.98805477810555], [55.58328000736651, 24.008916917281965], [55.60507818521012, 24.016502312931436], [55.62376233996008, 24.025983425494758], [55.64659852700049, 24.030723720523326], [55.68189081630817, 24.033567813903517], [55.70368899415183, 24.037359839485077], [55.77531158286331, 24.031671758844652], [55.82098395784345, 24.02124295689697], [55.84382014488381, 24.019346719275745], [55.90506264612429, 24.05063104768476], [55.941392944628774, 24.056318289257717], [55.98291328551977, 24.062005279020468], [56.015091549935164, 24.066744243951746], [56.02153417796001, 24.095201464476077], [55.988881253167335, 24.141146944675825], [55.975820083430165, 24.180622032980466], [55.957316759860646, 24.227529369584772], [55.92411961932504, 24.233980879314174], [55.88738507915815, 24.221821991291904], [55.865072247186504, 24.212640022019457], [55.830514569991465, 24.225296078651184], [55.79486846041118, 24.224551639646506], [55.7815526944014, 24.242938738432088], [55.78809140689299, 24.265701007495522], [55.80165180288844, 24.29420454850117], [55.81991809034764, 24.316494937891093], [55.832921210645395, 24.3435767199897], [55.835707593630616, 24.383624570317693], [55.80908215721581, 24.417457935335506], [55.793911850651455, 24.441981456479084], [55.79824622318472, 24.473544943444438], [55.794840644380315, 24.509044406873954], [55.785552701695906, 24.530170281233552], [55.783075916620305, 24.557487808015992], [55.80072300826026, 24.58085787489108], [55.80939175512543, 24.62111173741681], [55.84035156587214, 24.64784665280081], [55.832302014826155, 24.669230464414454], [55.82022768825726, 24.701299311014452], [55.81310693273883, 24.725767349383716], [55.821775679604, 24.76513110701501], [55.81837010079954, 24.786494781009367], [55.80939175512543, 24.804482391049532], [55.80263864695604, 24.834865685103352], [55.80408988743841, 24.86427593338766], [55.82053728616688, 24.891046345912173], [55.861655784786706, 24.935358367694562], [55.89731761541566, 24.96372724691497], [55.91867988466902, 24.974392393394282], [55.93849416257558, 24.982250333086427], [55.9988657927222, 24.97691821490372], [56.036636760178396, 24.955868124614312], [56.05737983271314, 24.952780475938255], [56.047782291219846, 24.926953469327202], [56.044686310325005, 24.89353877109744], [56.056760636893955, 24.876125847629794], [56.0205376589858, 24.878934549989538], [55.9988657927222, 24.886798575393982], [55.986481868243686, 24.86601399195223], [56.01929926644806, 24.841854544251873], [56.038803946445, 24.807292718484234], [56.05149746883319, 24.787056932831263], [56.054903047637595, 24.76597447863935], [56.07347893390573, 24.744888446045024], [56.1016523607679, 24.738140160040416], [56.13942332912342, 24.750230579077993], [56.16016640165816, 24.75782163685909], [56.17905188583592, 24.768504562935277], [56.20320053717512, 24.788462302493315], [56.205367724341045, 24.81628534089583], [56.20381973389368, 24.84410213350668], [56.25491580322182, 24.858418320649037], [56.273343082817064, 24.86668814174442], [56.327349375373444, 24.90701805723762], [56.34251968283712, 24.935937389898697], [56.33075495417785, 24.952219076848962], [56.327968571192685, 24.972708484808777], [56.35087883089341, 24.974111743762023], [56.375646678951114, 24.98281159457946], [56.37038351178967, 25.01900758653096], [56.36233396074374, 25.058838899895363], [56.36140516611556, 25.1006198139533], [56.3632627544726, 25.13594019178646], [56.367906726714125, 25.251360867610003], [56.377504267308154, 25.280758826658598], [56.38338663118816, 25.300073607610955], [56.38431542581628, 25.336455413886313], [56.356761194773355, 25.353523107405522], [56.365479477196175, 25.37797327624577], [56.36468690647558, 25.418604438544037], [56.35973333632444, 25.44526679122947], [56.366358735367385, 25.468177831541766], [56.36388195029184, 25.492213519038728], [56.367287530894885, 25.532448556955387], [56.359547577758576, 25.553957591070002], [56.35200576775202, 25.578847383599907], [56.34308934219945, 25.60172176664628], [56.30663107016778, 25.61887468351989], [56.28325022222003, 25.618696019705624], [56.25690515754701, 25.631680589687505], [56.22613754631078, 25.61893185522098], [56.20064845815989, 25.630823093311164], [56.18834775424551, 25.653458908701737], [56.163112289300784, 25.660888921286755], [56.145105073140655, 25.684433289364847], [56.14675362128264, 25.705345015360194], [56.141554354549896, 25.727166996459744], [56.149543471154345, 25.746015223523784], [56.16818474443045, 25.759378518703727], [56.15151158439215, 25.79238511987745], [56.14201594867717, 25.811602002430504], [56.1392496502512, 25.833005034354926], [56.164172432611736, 25.86258834727448], [56.16717025340455, 25.914602063234668], [56.171862274624345, 25.93581532381819], [56.17378871867447, 25.984437789872175], [56.18307666135888, 26.00530856973478], [56.17466797684568, 26.04404603499654], [56.16594969442292, 26.060422981735258]]]]}}]}