{"type": "FeatureCollection", "features": [{"type": "Feature", "properties": {"code": "ARG", "name": "the Argentine Republic", "tier": "country"}, "geometry": {"type": "MultiPolygon", "coordinates": [[[[-64.45855893844424, -54.66782263700503], [-64.25549835706352, -54.63194935417931], [-64.0043852711633, -54.61310320275055], [-63.88192888960651, -54.60322792542837], [-64.03383680552412, -54.521440522661976], [-64.16714375218237, -54.524139426793056], [-64.29425037605398, -54.52953669816003], [-64.50816152253617, -54.56010776256318], [-64.65076895382413, -54.61400083676915], [-64.53916313826818, -54.66782263700503], [-64.45855893844424, -54.66782263700503]]], [[[-65.71257428477537, -54.47463118248305], [-65.91098462384127, -54.43407981792922], [-66.24890223325144, -54.342014612084654], [-66.7046259810042, -54.125483400538485], [-67.03789334720017, -54.021800233593865], [-67.4393642676468, -53.843846637312424], [-67.63467444576901, -53.713782019124835], [-67.76798139242726, -53.65411084663822], [-67.91368898465885, -53.54925250769702], [-68.01599431648447, -53.463517286193735], [-68.08574795120694, -53.355410395473314], [-68.18495312029023, -53.28596653222962], [-68.35081176315231, -53.24053549301857], [-68.37418698134405, -53.09427315128488], [-68.25613282976622, -52.99944823544769], [-68.42986588340375, -52.83509992751959], [-68.5571662671095, -52.75912496094816], [-68.55958826818397, -52.89376215330071], [-68.54990026298668, -53.05273838167096], [-68.528102252417, -53.200975861246945], [-68.50116959859804, -53.544647497683854], [-68.47481822518091, -53.756876209569384], [-68.43606620619045, -54.135076904975165], [-68.39247018415165, -54.52346471762257], [-68.36582817143295, -54.69319506150282], [-68.23145554433785, -54.695602657236805], [-68.07334730473428, -54.68395528650723], [-67.81603389604743, -54.67768224004328], [-67.67032630381584, -54.69112329510392], [-67.26420514015507, -54.70545551535969], [-66.98519060126517, -54.71978267243236], [-66.76352905062515, -54.75378938627114], [-66.64572291138319, -54.785086110035934], [-66.52326652982646, -54.81457228178533], [-66.39150966453934, -54.844036947147345], [-66.2380516672506, -54.808319436792544], [-65.91098462384127, -54.75736737950092], [-65.6242196807936, -54.707246686085625], [-65.42425926125588, -54.72246845095822], [-65.24289981007814, -54.70635111061523], [-65.1250936717355, -54.6328465718118], [-65.14369464099485, -54.47012745861531], [-65.27545150628197, -54.46111852430039], [-65.44906055330188, -54.48273663628669], [-65.61336911569208, -54.48273663628669], [-65.71257428477537, -54.47463118248305]]], [[[-65.8077492446319, -22.10465752482486], [-65.92580339620974, -21.969480233825664], [-66.06072242709831, -21.933595230135722], [-66.17183221708314, -21.809308081602637], [-66.2839340582102, -21.90598522044155], [-66.31865586797392, -22.094546688978483], [-66.44464643318628, -22.141418090472428], [-66.72341295974024, -22.202970535861482], [-66.78492016473376, -22.314064022036916], [-66.80476119926988, -22.43423918958689], [-66.98729871106661, -22.49932887452792], [-67.04483770879318, -22.658714856505355], [-67.16884417082179, -22.758465978821846], [-67.0696390017385, -22.912981943961483], [-66.99721922788501, -23.036285501274847], [-67.05773438083696, -23.213279761052092], [-67.15197929241037, -23.536553684404964], [-67.19761367013473, -23.70652347727662], [-67.25217651353523, -23.87536499509838], [-67.33352475306486, -23.998679873077663], [-67.64899719166704, -24.127309134608822], [-67.92181140866956, -24.22867207945285], [-68.13311841977924, -24.309161934975293], [-68.35136979248188, -24.457346538012303], [-68.45355111768987, -24.55844577465274], [-68.57557347563534, -24.745084257032772], [-68.51406627064182, -24.882854697286405], [-68.42676572156074, -24.994399214152338], [-68.39998032543161, -25.129196886926763], [-68.53093114995255, -25.23333856422329], [-68.59839066449751, -25.406411124273916], [-68.51605037382564, -25.743769151225308], [-68.41585315270078, -26.062349877944484], [-68.39998032543161, -26.185267594623724], [-68.54085166677095, -26.302719858734463], [-68.56664501085851, -26.499984908476677], [-68.378155188611, -26.754506496877298], [-68.29680694908137, -26.850137579385716], [-68.25613282976622, -26.99520070304999], [-68.48430472018663, -27.07472915003018], [-68.58053373404454, -27.156849307349603], [-68.70751635129852, -27.10475856175816], [-68.86525257104927, -27.206268908183517], [-68.89501412240378, -27.34558461753602], [-68.99521134352864, -27.443353713203237], [-69.05175829011296, -27.626327425869988], [-69.10731318465571, -27.781790625337067], [-69.14897935601243, -27.95543560207136], [-69.27794607645023, -28.01062785399222], [-69.35135790234528, -28.134050888937338], [-69.63409263526688, -28.420612556424317], [-69.65591777298681, -28.5522760504993], [-69.72040113320571, -28.671590080317912], [-69.75214678684472, -28.815109271275787], [-69.81663014706362, -28.985335995060098], [-69.7977811654684, -29.127555706130863], [-69.91484326500466, -29.1968599289425], [-70.0457940895256, -29.33100358324873], [-70.01900869339647, -29.52023505570321], [-69.91980352341386, -29.802128265107285], [-69.92277967863924, -29.944927178246644], [-69.91980352341386, -30.120134545372935], [-69.8344870775166, -30.211051237824336], [-69.96345379885372, -30.42514474793171], [-70.11920591452127, -30.44823883355531], [-70.17872901633098, -30.55935595211548], [-70.24817263495908, -30.70020616028603], [-70.32852882244714, -30.873212884566954], [-70.32059240881256, -31.016155145143784], [-70.33348908085634, -31.144450335514534], [-70.49122530060708, -31.202169061852658], [-70.55174045445835, -31.561266949210278], [-70.53685967833144, -31.71329824042141], [-70.39400423470761, -31.918987645363472], [-70.2402362213245, -31.94256202381831], [-70.25511699745141, -32.09648842939748], [-70.33249702971409, -32.19560425353342], [-70.27892623745583, -32.32144325150483], [-70.16285618906181, -32.4671976975157], [-70.12218206974666, -32.607702641563606], [-70.10730129451906, -32.79553407643641], [-69.98726303885815, -32.91720407101104], [-70.05472255430237, -33.09274700576964], [-70.05670665748619, -33.22811655563447], [-69.93369224749921, -33.31686506986705], [-69.81266194069599, -33.289503653470774], [-69.74421037321014, -33.40221061692637], [-69.8096857854706, -33.64205370831195], [-69.85631221523653, -33.76255029625912], [-69.83944733682512, -33.93392441917655], [-69.8096857854706, -34.12466638664438], [-69.81266194069599, -34.273179914021796], [-69.93865250590841, -34.309243103086715], [-70.02198484862186, -34.45415898255095], [-70.13706284497425, -34.56778701995495], [-70.23825211814068, -34.7024679292515], [-70.26602956541205, -34.821457618574186], [-70.29380701358275, -34.95409948060649], [-70.33051292563096, -35.15955459416915], [-70.51801069673621, -35.24061949239564], [-70.45154323243418, -35.36125600046398], [-70.403924751526, -35.53420422654375], [-70.37614730425463, -35.73255417433563], [-70.32356856403794, -35.884610311116944], [-70.37019499380386, -36.036375058562044], [-70.40194064834219, -36.17103202610707], [-70.54479609196602, -36.18224301880025], [-70.67773101967077, -36.295863825654976], [-70.73229386307128, -36.438056486917276], [-70.86622084191828, -36.454016945925275], [-71.00014782076528, -36.504270927861], [-71.06363912894261, -36.68427876365399], [-71.17276481574362, -36.80034358968487], [-71.19260584938041, -36.97173376010488], [-71.10927350756629, -37.186220237973544], [-71.1807012293782, -37.356741291877086], [-71.12217017961007, -37.51664718541923], [-71.19359790142198, -37.65108094303105], [-71.13506685165385, -37.84796763359935], [-71.05471066416578, -38.00212903652579], [-71.01205244076749, -38.138022933411605], [-71.02197295758589, -38.301696382881744], [-70.98328294145455, -38.42615268849573], [-70.8582844282837, -38.53099617063674], [-70.88804597873889, -38.66590272972718], [-71.06859938735181, -38.76807642148964], [-71.44657108388839, -38.951157870239456], [-71.45252339433915, -39.12299367541772], [-71.42375389502621, -39.29441134081071], [-71.50510213365652, -39.478428964924774], [-71.56859344273317, -39.616887790339206], [-71.69259990386246, -39.621472854288754], [-71.73525812726075, -39.79548010042623], [-71.63010064772669, -39.926458170807905], [-71.65403389434869, -40.10974867596059], [-71.8090419721093, -40.12515869052112], [-71.83849350647012, -40.24712994269265], [-71.70053631749704, -40.34053204831531], [-71.8090419721093, -40.47390805301421], [-71.89119625330443, -40.614080130093896], [-71.95747770723034, -40.746913078275895], [-71.89993870860445, -40.882059576488246], [-71.87216126133313, -41.00570194259052], [-71.91680358791518, -41.378961240169076], [-71.91977974224125, -41.5128133549523], [-71.88604998541848, -41.62859510677873], [-71.92573205269201, -41.76193151073062], [-71.8731533133747, -41.88982204035483], [-71.7759322465759, -42.02998541379577], [-72.02493722267462, -42.16175195309012], [-72.1271185469833, -42.25874515956144], [-72.06957954835741, -42.47277659216593], [-72.14596752947784, -42.612382019914264], [-72.11422187493952, -42.73856144185703], [-72.09239673811891, -42.88702180940891], [-72.12060820810228, -43.047179764034865], [-71.95319948386907, -43.14904581211448], [-71.72843777138598, -43.19991528106533], [-71.77184003359065, -43.34212433876718], [-71.89894665746226, -43.43674575601176], [-71.81524229489594, -43.56155460755906], [-71.66178429850652, -43.67041054720892], [-71.76098946848913, -43.78242685201758], [-71.66953470266435, -43.89088251151867], [-71.62148219814492, -44.005830960530375], [-71.74083841785864, -44.10052389905866], [-71.78889092237813, -44.30055026498269], [-71.77184003359065, -44.42356132319645], [-71.18367738460358, -44.45547976268085], [-71.08645631780479, -44.55594642608668], [-71.1856614877874, -44.69574469006534], [-71.27891434731924, -44.81902347285495], [-71.4386346702538, -44.781011220891116], [-71.61819602682516, -44.80354002325345], [-71.7808925049851, -44.80494778151484], [-72.0279133779, -44.82535641416712], [-71.97930284405095, -44.97222571644363], [-71.65390988773112, -45.01081318108339], [-71.53684778819485, -45.06969662390003], [-71.32752488026898, -45.245284880892484], [-71.43466646298685, -45.41545761657568], [-71.50411008251427, -45.5149523736531], [-71.69756016317098, -45.56914822890758], [-71.79378917702888, -45.65103753295574], [-71.81759841793263, -45.828284654213405], [-71.7263296615846, -45.90910479564974], [-71.65093373340505, -46.013237441954345], [-71.87414536451689, -46.14879840891939], [-71.81660636589106, -46.30596085311083], [-71.78783686747744, -46.47155623023582], [-71.72732171362617, -46.576673562235044], [-71.7312899199938, -46.717647238329334], [-71.9330484341379, -46.85498881078496], [-71.99970190701737, -46.978867757940634], [-71.99970190701737, -47.102460359158215], [-71.9237479495082, -47.1994432378151], [-72.0539547343235, -47.277322797608974], [-72.11750804625927, -47.38343315741423], [-72.26166555801905, -47.45370559573661], [-72.38257185910396, -47.512368817966546], [-72.3980726665203, -47.67126741056251], [-72.4921935714761, -47.83155675793796], [-72.5616371901042, -47.94863630252331], [-72.47532869216536, -48.05683189337714], [-72.3800917294497, -48.154874301108066], [-72.36818710944749, -48.287066986851926], [-72.46739227853078, -48.41496781461291], [-72.63306491191611, -48.482743481326565], [-72.6429854287345, -48.64015263383692], [-72.6212842976322, -48.806832689576936], [-72.70033841788364, -48.90270386499134], [-72.86464697937458, -48.95973135261977], [-72.99950400740397, -49.02075996000411], [-73.11886022711775, -49.196307415654644], [-73.18086345768239, -49.34296430525842], [-73.34827218101628, -49.338924444507484], [-73.46917848210126, -49.399487534022455], [-73.53118171266584, -49.53648773821851], [-73.48467928951754, -49.69416616573591], [-73.45832791610042, -49.859329619166544], [-73.49863001646207, -50.019946743347475], [-73.49863001646207, -50.1452737590767], [-73.4071752506373, -50.23260946445515], [-73.24751693146118, -50.36232482732885], [-73.23666636546034, -50.51239117541235], [-73.19946442694169, -50.694396205820226], [-73.04290626870932, -50.74640850804616], [-72.90959932205101, -50.67671851744558], [-72.77939253723576, -50.63642780429967], [-72.61198381300255, -50.651172318747456], [-72.48952743234508, -50.617744778198926], [-72.34692000105719, -50.65510340739627], [-72.3019676583807, -50.80620028051851], [-72.32521886995482, -50.991947352188504], [-72.4445750896686, -51.09427932103381], [-72.33451935458453, -51.20318436726467], [-72.33916959689935, -51.344764218793614], [-72.37181817346988, -51.46973729284173], [-72.37908417669337, -51.60532119971356], [-72.21438809463484, -51.73600192275052], [-72.05938001687423, -51.79895428161478], [-72.008517991612, -51.95296598788997], [-71.5701357728476, -51.99623336887481], [-71.23241192417095, -51.99271386035633], [-70.85109205345549, -52.002257646673], [-70.47597250552667, -52.016569511673595], [-70.35506620534107, -52.01275346160293], [-70.17990707784935, -52.016569511673595], [-69.94119463842179, -52.040412448375776], [-69.6900815534209, -52.119479858808404], [-69.51337234455804, -52.17750037514213], [-69.20335618993619, -52.19745715872085], [-69.05144827401858, -52.24683541412304], [-68.7615831691279, -52.33122083327481], [-68.51822048738552, -52.36341553729716], [-68.72748139155294, -52.09758363957326], [-68.83443696569338, -51.99462278021707], [-69.03749754707411, -51.760174019415444], [-69.1553036854167, -51.64104798028001], [-69.05764859680528, -51.53414481233318], [-69.12585215105588, -51.41635732862778], [-69.18785538162052, -51.29632708592624], [-69.26690950187196, -51.110826095747655], [-69.33046281290842, -51.00072752235724], [-69.27310982465866, -50.89427809925485], [-69.23745796661183, -50.73365611693623], [-69.14290303984336, -50.51337687913963], [-68.97704439698128, -50.39790985585512], [-68.80343534996138, -50.30889722063017], [-68.64997735267264, -50.25739161533073], [-68.50271967906991, -50.22170123482408], [-68.29500885537436, -50.15917875999173], [-68.16325199008725, -50.11446972259955], [-68.01909447742815, -50.01098227331323], [-67.92298947018787, -49.91326088308324], [-67.84083518899274, -49.795333044884046], [-67.79743292678808, -49.65504525833194], [-67.75868090779761, -49.48112938241502], [-67.75093050363978, -49.31568881009048], [-67.71217848464931, -49.1436069908699], [-67.61142323419489, -49.0116104346738], [-67.4827665298514, -48.93020739225733], [-67.34325926040651, -48.840510505155635], [-67.25645473689656, -48.73736460489255], [-67.08284568987665, -48.6411768950976], [-66.91388688517156, -48.60019021820398], [-66.75732872693914, -48.526330319488636], [-66.60387073054972, -48.43693901122634], [-66.35585780649251, -48.29791639362662], [-66.07064294391671, -48.128518949090164], [-65.96058720883258, -48.07883317680961], [-65.88153308948046, -47.976204567486775], [-65.9510929643688, -47.83248027264642], [-65.87601092656297, -47.653324039073084], [-65.77428687603845, -47.56351466027331], [-65.73929767714606, -47.4203641023214], [-65.80402905060015, -47.16994544322756], [-65.94198623957328, -47.08874198555412], [-66.32175602981687, -47.06446235965012], [-66.68602501174485, -47.04862186031056], [-66.84568333092096, -46.9608860348626], [-66.9495387432184, -46.87512538322983], [-67.05029399367282, -46.78710478116068], [-67.1665500515436, -46.70425522509851], [-67.40061224865633, -46.557363273396334], [-67.50291757958257, -46.43785350523501], [-67.55872048736057, -46.32771532660098], [-67.5571704068887, -46.142225888214114], [-67.5354692757864, -45.969039456905364], [-67.45176491411945, -45.84824157269037], [-67.34170917903532, -45.75098133052393], [-67.27815586709954, -45.60043468511259], [-67.17895069801625, -45.521208407641836], [-67.09369625497817, -45.42773000713407], [-67.00689173146822, -45.33845502797709], [-66.89838607775522, -45.247947761779756], [-66.71392646563385, -45.206462497146504], [-66.53721725677093, -45.19772489908479], [-66.47676410667816, -45.08620289674627], [-66.33880691770503, -45.03255103060553], [-66.17604843668596, -44.95910883550431], [-65.99468898550822, -44.96459284648262], [-65.7916284041275, -45.00625419837252], [-65.63042000358024, -45.02269113438831], [-65.58236749996013, -44.85920824946112], [-65.7172245270902, -44.775641732280064], [-65.63352016542325, -44.640139313878194], [-65.5188141880243, -44.57723795196989], [-65.37465667626458, -44.50321417339535], [-65.30800320248579, -44.39920127541848], [-65.26460094118045, -44.28501701452353], [-65.2739014258101, -44.13947109881212], [-65.21964859850397, -44.018093869536415], [-65.28010174859679, -43.908753164726704], [-65.32505409127327, -43.62778942983829], [-65.17159609488385, -43.48625039943636], [-65.0847915713739, -43.393959126512414], [-64.99023664370611, -43.25412934039667], [-64.83367848547368, -43.150176705090814], [-64.61511709667661, -43.10039761915476], [-64.47095958401752, -43.05284343437694], [-64.36090384893345, -43.000717938082346], [-64.60271645020396, -42.944009590170424], [-64.74842404333486, -42.888384681607704], [-64.89723179740946, -42.816793169868845], [-65.0010872097069, -42.728041093421666], [-64.84297897010333, -42.64486305008967], [-64.6879708932421, -42.5672819519005], [-64.50351128022135, -42.53188203802557], [-64.2989006183688, -42.596956721375534], [-64.23999754874785, -42.763329583093764], [-64.14854278292307, -42.85203111044734], [-63.97028349448766, -42.85203111044734], [-63.78117363915209, -42.81110774942306], [-63.691268954698444, -42.71893112567085], [-63.61221483534632, -42.55129738026983], [-63.576562977299545, -42.385502095545235], [-63.62616556229085, -42.226155160332326], [-63.70521968164297, -42.10206766039414], [-63.902079940237, -42.111267672764825], [-64.02763648273742, -42.16529077994551], [-64.19039496375655, -42.22271157258098], [-64.04313729015377, -42.312183823424675], [-64.18729480281286, -42.42098488824195], [-64.35780368798976, -42.42670603965195], [-64.48181015001836, -42.41411881712969], [-64.49576087696283, -42.28466742596089], [-64.75152420427855, -42.18252249541678], [-64.87708074767835, -42.145755826969776], [-65.0103876943366, -42.02266214174438], [-65.00728753249359, -41.87394203289847], [-64.97163567444676, -41.73644304760853], [-64.9607851093453, -41.56270473473569], [-64.99643696739207, -41.4233768296769], [-65.06774068258642, -41.17066494792897], [-65.0754910867442, -40.959129065653826], [-64.99488688602094, -40.76922182192948], [-64.81352743574251, -40.761003682174135], [-64.65231903519526, -40.82554740309013], [-64.45080853428641, -40.90057382232402], [-64.26479884169316, -40.97317460272569], [-64.04158720968195, -41.041019213266054], [-63.892779455607354, -41.10879395997324], [-63.16424149085208, -41.13214835885964], [-62.96273099084249, -41.10996187713886], [-62.826323882341285, -41.070241033796606], [-62.54730934255207, -40.94508054013477], [-62.4031518307923, -40.89002836751513], [-62.25589415718957, -40.82202845484926], [-62.14583842210544, -40.68464386062561], [-62.161339229521786, -40.55168678082026], [-62.324097711440174, -40.44796176482356], [-62.44965425394065, -40.36533873269633], [-62.379900619218176, -40.22701387748839], [-62.32564779191205, -40.043327157122576], [-62.29154601523635, -39.92098989256942], [-62.15513890673509, -39.823438620795685], [-62.088485433855624, -39.65060001397944], [-62.05903389859549, -39.533539600671986], [-62.08073502969785, -39.364769097815554], [-62.20629157219827, -39.295227070872556], [-62.314797226810526, -39.21480797400875], [-62.324097711440174, -39.06211876396975], [-62.36749997274552, -38.9356297144397], [-62.379900619218176, -38.808914653588374], [-62.22024229914274, -38.78233621304577], [-62.06058397996668, -38.849970927216475], [-62.00478107128936, -38.97540777984511], [-62.05438365628066, -39.087389433775286], [-61.93347735609507, -39.18357572533944], [-61.83892242842728, -39.08618627397732], [-61.738167177972855, -38.99348133719394], [-61.46690304324079, -38.97540777984511], [-61.24524149170145, -38.9645614307654], [-60.820519359680645, -38.95130252708992], [-60.63605974755927, -38.93080661343441], [-60.49500239674319, -38.90547995363693], [-60.31829318877959, -38.88376419416221], [-59.947823883165654, -38.819784795132136], [-59.419246339746735, -38.735195532048124], [-59.058077518762445, -38.66382097186033], [-58.81006459470524, -38.609334876603214], [-58.44269545093425, -38.50509072245882], [-58.309388504276, -38.47475883545184], [-58.18383196177558, -38.43227274589049], [-58.038124368644674, -38.37882617518778], [-57.85676491836625, -38.301015174310805], [-57.73275845633765, -38.242602092212735], [-57.61340223662387, -38.17926824813111], [-57.4971461787531, -38.08416418183151], [-57.483195451808626, -37.90948508277029], [-57.349888505150375, -37.744196759372926], [-57.046072673315166, -37.46543376625527], [-56.824411122675144, -37.13374299884026], [-56.66940304491453, -36.97663770476623], [-56.65855247981307, -36.70123238536627], [-56.677153449072364, -36.56938305628296], [-56.70040466064654, -36.42109490080901], [-56.80115991110097, -36.32499253128026], [-56.95461790749039, -36.346220148640896], [-57.06932388488934, -36.29501428288279], [-57.21503147802025, -36.19250167351339], [-57.30648624294571, -36.09736999442964], [-57.366939393937855, -35.96198454275242], [-57.3762398785675, -35.823852958147484], [-57.23828268959443, -35.61746429524101], [-57.16232873118594, -35.48630692162709], [-57.19488042738976, -35.36884036908771], [-57.31578672757536, -35.22081672850919], [-57.50644666338275, -35.10042760594922], [-57.59635134783639, -35.01922296027135], [-57.7637600720696, -34.923958542152945], [-57.89551693735672, -34.86420306451976], [-58.05827541927516, -34.81204046039886], [-58.24118495092472, -34.75729784072274], [-58.42564456304609, -34.67065399908273], [-58.502280556502456, -34.43779687822331], [-58.57073212308899, -34.29449185091812], [-58.458630281961916, -34.189519379016076], [-58.33660792311713, -34.12713006859775], [-58.442376055810314, -33.991536045252246], [-58.51083243826639, -33.843621158789404], [-58.513415697676294, -33.5168755681529], [-58.48758310087936, -33.37892752078841], [-58.459167243773265, -33.18024333905879], [-58.31967121945115, -33.104538325583235], [-58.19050823366803, -33.083978555565864], [-58.178883565424144, -32.82928968337217], [-58.18663334455317, -32.69134421616258], [-58.220215720479075, -32.53358644685699], [-58.167258896281, -32.38427752218985], [-58.12205185121195, -32.26530769349523], [-58.213757571055, -32.16477125259121], [-58.22409060959393, -31.972131365769883], [-58.12851000063597, -31.847136976889942], [-58.053595468755816, -31.727466177022393], [-58.007096793981816, -31.572433165558095], [-58.09105273469589, -31.467832654153597], [-57.98772234660896, -31.311264329984795], [-57.90764129590906, -31.187589894957625], [-57.88180869821281, -31.03166258685883], [-57.831435134323954, -30.87326236976253], [-57.91151618502386, -30.68017004121441], [-57.89989151678003, -30.547889801972758], [-57.83401839373386, -30.4299083461932], [-57.7255214859278, -30.326278634950995], [-57.51111092972559, -30.128744846197662], [-57.396155872495456, -30.048278718388076], [-57.3147831920906, -29.85915001236316], [-57.09649774677354, -29.75828396543261], [-56.96604313128546, -29.602302353570735], [-56.849796444350375, -29.487687272449648], [-56.74000790683937, -29.38419761892493], [-56.65863522553519, -29.269335931108287], [-56.50751453296925, -29.10695837233095], [-56.388684585725, -28.983876897201014], [-56.264688119660946, -28.833496331390563], [-56.15877447126479, -28.741804511469013], [-55.994737479850755, -28.572926607077193], [-55.908198279726776, -28.470788219100996], [-55.82295070930775, -28.37536988021577], [-55.69120446411466, -28.364004828260192], [-55.72478684004062, -28.242322642475926], [-55.60983178281049, -28.138726556885047], [-55.46129434965445, -28.06466794486971], [-55.30759039677935, -27.982574176357105], [-55.210718158116435, -27.90726660926657], [-55.02472345902038, -27.8364753475592], [-54.903310252366225, -27.71762497131533], [-54.8180626819472, -27.618102435978585], [-54.68373317734421, -27.58147366148023], [-54.54940367184196, -27.50703380526585], [-54.40086623868592, -27.45890739805793], [-54.25491206493979, -27.455468993099487], [-54.16320634509668, -27.32702523382744], [-53.99787772397775, -27.269636147689994], [-53.89971385471057, -27.183496945327704], [-53.74342664242556, -27.117986628580013], [-53.674970259969484, -26.97879372884745], [-53.690469818227484, -26.70566086945354], [-53.65688744230158, -26.5682703091274], [-53.60909713782263, -26.356667368004594], [-53.63751299402941, -26.178296474602575], [-53.74084338301566, -26.000813091550867], [-53.77313412923661, -25.862584720108714], [-53.793800207213735, -25.682296754491574], [-53.91779667327779, -25.601951563913474], [-54.08441692410173, -25.55185404243008], [-54.21228828017996, -25.553019338971296], [-54.332409856229845, -25.597292214164327], [-54.451239803474095, -25.618257859012942], [-54.578716099068686, -25.607866532714297], [-54.60153328793086, -25.75717218654711], [-54.57375584065949, -25.905397986627747], [-54.63625509769457, -26.106009378629892], [-54.657088183372935, -26.244008565043202], [-54.682881527460495, -26.43959721284108], [-54.778118490176155, -26.539929918630776], [-54.84954621198807, -26.678298211093534], [-54.94379112356148, -26.782850037699063], [-55.04994065423779, -26.840401066555955], [-55.12533658331665, -26.963373560941022], [-55.30092973352032, -26.98989680469373], [-55.45965800531263, -27.109173973100326], [-55.56382343280512, -27.193033662073788], [-55.57374395052284, -27.317382888109762], [-55.688821946875294, -27.417818780312416], [-55.861438941853635, -27.399324281790143], [-55.99437386955839, -27.34294101001956], [-56.156078295676764, -27.357039520757212], [-56.25825961998544, -27.437190649328954], [-56.32571913542972, -27.56830146324188], [-56.471550735178255, -27.5639043063386], [-56.57174795630311, -27.475924185452755], [-56.709643141517745, -27.518163427300294], [-56.861427051717044, -27.461840838184116], [-57.01519506420084, -27.491765800851], [-57.212613351225116, -27.48472536468381], [-57.36142110619903, -27.445114525514896], [-57.529077842768174, -27.414296257266415], [-57.67887764888434, -27.364088102983544], [-57.80685231728057, -27.321789880898223], [-58.256450145857514, -27.317559170519246], [-58.57771616726728, -27.32771260365371], [-58.63918369057484, -27.20185733424853], [-58.51815338377162, -27.091511284518106], [-58.40803564492904, -26.99520070304999], [-58.30883047584575, -26.90057700332602], [-58.20466504745394, -26.78727807642207], [-58.186808117000965, -26.491994239642395], [-58.11934860155668, -26.332064363879226], [-58.04891293088701, -26.212861742975008], [-57.948715709762155, -26.14519994212361], [-57.85149464386268, -26.04987274413179], [-57.78502718045996, -25.9232439759287], [-57.736416646610905, -25.80094489029443], [-57.5707440141249, -25.663319207615302], [-57.550902979588784, -25.46195700041517], [-57.775106662742246, -25.20102825954649], [-57.93482698657613, -25.1022492207249], [-58.06676986133999, -25.03844942620003], [-58.164982979281035, -24.957528736062272], [-58.29593380380197, -24.94763477622388], [-58.41498000742138, -24.882854697286405], [-58.567755967863604, -24.783819524351543], [-58.75624579011111, -24.76760623084283], [-58.86933968327969, -24.723459322789495], [-59.13322543460606, -24.56837077549085], [-59.33659603208116, -24.453734348061687], [-59.54889509523241, -24.305545508318517], [-59.88222446518688, -24.109200143072087], [-60.01218323766625, -24.02495970362736], [-60.14313406128787, -24.049422303796234], [-60.312774901040825, -24.0430805949934], [-60.51515344737368, -23.976020538616922], [-60.633207598951515, -23.935223694218053], [-60.750269699387104, -23.90529780974606], [-60.941735675960615, -23.8472399841379], [-61.03796469071784, -23.773723254124832], [-61.101455999794496, -23.66109861550865], [-61.20859758251237, -23.56838297679292], [-61.32764378613177, -23.52109096237797], [-61.45859460975339, -23.446480570421954], [-61.564744141329015, -23.36181044929276], [-61.707599585852165, -23.284376472995802], [-61.83855040947378, -23.13758399530508], [-61.98537406036456, -23.03719844085532], [-62.04291305899045, -22.912068165313542], [-62.12029309125313, -22.812429353032144], [-62.178824141021266, -22.698074895440016], [-62.23834724283097, -22.558891183181515], [-62.36036960167576, -22.483746805270812], [-62.499256838931956, -22.391134845796444], [-62.603422267323765, -22.32048821845649], [-62.68179435072864, -22.191948199349895], [-62.80480876071567, -22.09638507680978], [-63.67086989173208, -22.018232502627825], [-63.82662200829901, -22.038464369934673], [-63.95360462465368, -22.103738388016154], [-64.16094342939573, -22.481913505803618], [-64.22939499598226, -22.607438345403295], [-64.26213270256216, -22.788651514655612], [-64.40201199185992, -22.733763758790417], [-64.44268611117508, -22.602859155825342], [-64.51808204025389, -22.439740909115642], [-64.5845495036566, -22.27000443006034], [-64.70557981045982, -22.202052041168713], [-64.88216501270512, -22.144174745468092], [-65.01609199155212, -22.128552982833867], [-65.15597127995056, -22.131309890538944], [-65.46846756422667, -22.12579602116938], [-65.73929767714606, -22.12579602116938], [-65.8077492446319, -22.10465752482486]]]]}}]}