{"type": "FeatureCollection", "features": [{"type": "Feature", "properties": {"code": "ARM", "name": "The Republic of Armenia", "tier": "country"}, "geometry": {"type": "MultiPolygon", "coordinates": [[[[45.504829592311864, 40.60487089897288], [45.5482815798311, 40.63745008835093], [45.53662372930171, 40.65755276624719], [45.49264183964925, 40.66096961895278], [45.469856040723755, 40.65554277068236], [45.455283727562005, 40.62478229196927], [45.46641167595811, 40.60788815771235], [45.504829592311864, 40.60487089897288]]], [[[45.019174139674874, 41.26558180615547], [45.01493492080999, 41.29823477951152], [44.95293635323014, 41.262196112260824], [44.919022605908594, 41.26120028666395], [44.88378410325379, 41.27056044940525], [44.86311791376079, 41.27912282625749], [44.82973406947178, 41.28091480997057], [44.81383700097689, 41.26558180615547], [44.84881055166568, 41.23869057600933], [44.86839574077089, 41.22138669264183], [44.8480474930974, 41.2138611432772], [44.82346002655902, 41.21347846555881], [44.71077100457825, 41.21457865927778], [44.67155823502458, 41.219959774324195], [44.646652826666696, 41.228130251809716], [44.62386702864052, 41.229126581926266], [44.60426064341402, 41.21776752125413], [44.582534649654406, 41.19504348237086], [44.558424095395765, 41.18786583034387], [44.54067236853501, 41.20620715453663], [44.51921132494272, 41.21178827610811], [44.49033165058523, 41.19424600404989], [44.46675099845987, 41.191055995437864], [44.443435297401095, 41.19125537513548], [44.42091444954224, 41.198033938615424], [44.39733379741688, 41.21119032227563], [44.37242838995826, 41.217966820012805], [44.34911268889954, 41.21517658253333], [44.32632688997404, 41.20540981291259], [44.29850701988312, 41.20182165374638], [44.26353346829495, 41.22195266838099], [44.22564545407448, 41.23629970856473], [44.19014200035309, 41.23530348816547], [44.17954395498958, 41.209595749644166], [44.15172408399934, 41.19205288942936], [44.116750533310494, 41.19025846855351], [44.094229685451694, 41.19643904582534], [44.05528186696466, 41.193647889238775], [44.00812056271383, 41.175701901621494], [43.981360496889465, 41.169718812773056], [43.95327567483258, 41.16872157883785], [43.92810531630738, 41.17151379662448], [43.90267000581616, 41.172311551936616], [43.8714057709596, 41.16792377945893], [43.83934668200385, 41.154758700253865], [43.82238980834302, 41.14059331413017], [43.80278342401584, 41.13041628908053], [43.75138290090018, 41.124628648992996], [43.71693925234467, 41.12921888764163], [43.66686348546153, 41.13041628908053], [43.63030022747358, 41.13440746683119], [43.58764309225495, 41.14637954587937], [43.566182049561974, 41.146978092365146], [43.530943546907224, 41.13939609885091], [43.50232882271706, 41.124828231038066], [43.47371409942622, 41.12562655382243], [43.46364595529667, 41.10606484241862], [43.47503885475942, 41.075113498788994], [43.4790131225576, 41.044347402910375], [43.515841331612194, 41.02556102492139], [43.53650752110525, 41.020363846414455], [43.593736968586256, 41.005369686461904], [43.64248798013625, 40.96316781414333], [43.65898118853107, 40.95011176784385], [43.67761056647453, 40.87314875031461], [43.70286372288257, 40.8261761193325], [43.72935883674097, 40.79264862903108], [43.74302038038633, 40.764748373039026], [43.743169416035755, 40.74011117489084], [43.73310127190621, 40.714209699018454], [43.743434367102395, 40.69151252738129], [43.72541768917506, 40.662175525280304], [43.707136059281765, 40.63061379828821], [43.681965700756564, 40.59964066048815], [43.66726091206152, 40.5845259895828], [43.63824876127137, 40.56019953957713], [43.63030022747358, 40.53785267366203], [43.605129868049005, 40.5257701812489], [43.57969455755784, 40.50804525328584], [43.55929332003075, 40.49938250399941], [43.54286634850325, 40.48003837637003], [43.57466048639236, 40.458672758041416], [43.60115560115014, 40.435485392037265], [43.61122374438037, 40.417131458450115], [43.60354016164922, 40.38807763847228], [43.59135240808723, 40.3606264067833], [43.59744628441854, 40.33336596266912], [43.62420635114222, 40.31437811046146], [43.64672719810176, 40.289524237753426], [43.6759884026427, 40.27179359729672], [43.68887562640907, 40.23892342867333], [43.6771965797584, 40.21915643891856], [43.7225032265427, 40.176860153972996], [43.67481202015864, 40.15681586366122], [43.65176127016656, 40.1462851793176], [43.65891495076443, 40.119748715530875], [43.68355540805567, 40.1047540735417], [43.703691694516124, 40.09685016140588], [43.76807482349437, 40.08205319130178], [43.808612349280565, 40.07069991057244], [43.83404765887241, 40.060967021111196], [43.89816583678402, 40.029528404112625], [43.91830212414379, 40.02263025238432], [43.94850655473374, 40.017354724940674], [43.995402907917935, 40.01613723714382], [44.03673528690405, 40.01207878920479], [44.084956395421386, 40.033585814234016], [44.11065665697919, 40.0327743514552], [44.13927138027003, 40.019992539024486], [44.16046747189637, 40.019992539024486], [44.17980890605622, 40.029731280374335], [44.1994152903834, 40.03764298333704], [44.219286626676535, 40.03378867880451], [44.23862806083639, 40.0416999114218], [44.26485822452747, 40.046567905684356], [44.303806043014504, 40.032977218723715], [44.33851464263671, 40.0262823020866], [44.3968038952836, 40.00457002298822], [44.45323848956468, 39.97736920392566], [44.47443458119102, 39.968638287826764], [44.494305917484155, 39.94934509869739], [44.543321879201415, 39.91683900531592], [44.55206526709844, 39.884927395283114], [44.582269698587766, 39.853407725985846], [44.58506824490365, 39.83270871393603], [44.61487524889367, 39.828575793138384], [44.626052874940285, 39.81172362034886], [44.65337596223094, 39.79868419801738], [44.68525289710357, 39.790095911696994], [44.70636619174638, 39.7703706019218], [44.765152227193596, 39.71370846207594], [44.78750748018609, 39.7114792234874], [44.81690049835936, 39.71657452049777], [44.86202499016122, 39.72676398407066], [44.88934807745187, 39.72644558539548], [44.9125313029773, 39.72039574526747], [44.93819844520215, 39.7238983492295], [44.96841943590829, 39.73790698531917], [44.99574252229962, 39.756050303978384], [45.01892574782505, 39.77609788760748], [45.04790477928219, 39.78087026055414], [45.07564185238965, 39.7719615628759], [45.108346759795154, 39.743636970769614], [45.14146565301752, 39.71084228494357], [45.16198280776041, 39.6880487563451], [45.16807668409177, 39.65909050552244], [45.16383746612621, 39.63358904270024], [45.157478638728264, 39.61154820528549], [45.16145290562713, 39.589091989004146], [45.179999485687745, 39.57765693741777], [45.20305023567988, 39.57867800068925], [45.22265662090638, 39.591133764811445], [45.23987844473447, 39.61216054557275], [45.27220248475692, 39.613793426625364], [45.296313039015615, 39.60317901270133], [45.319098837941056, 39.55028683177193], [45.34214958793319, 39.53945836121443], [45.39302020801625, 39.538641049245086], [45.41395134857595, 39.53291959836082], [45.434352587002365, 39.51268640095668], [45.456608482895206, 39.50042098913741], [45.481778842319784, 39.50205650250564], [45.51251317504307, 39.519431454797825], [45.54934138499698, 39.54497496272438], [45.57822105935446, 39.55498545311622], [45.61345956200921, 39.58133269504788], [45.67401679603836, 39.588234426077975], [45.69792598759432, 39.604436497846166], [45.7247390441716, 39.609098790177086], [45.77216529948902, 39.59889196069548], [45.80263468114566, 39.582762104487585], [45.81296777634185, 39.55804960070856], [45.80952341067689, 39.53251090505427], [45.81482243380833, 39.50185206502084], [45.831779307469105, 39.47179327513959], [45.793626342181994, 39.40692840452232], [45.78488295428497, 39.383996409107056], [45.8015748768791, 39.36392472994237], [45.833898916901546, 39.36228597002156], [45.86251364019239, 39.35511594694344], [45.883444780752086, 39.336265518339076], [45.907290383944144, 39.32232932623748], [45.95657129762736, 39.310645377382286], [45.981741656152565, 39.30264997271814], [46.00134804137906, 39.285015852000015], [45.99869852981334, 39.26142840279863], [45.9759127308879, 39.23660173188449], [45.97538282875462, 39.1969839787277], [45.99074999511623, 39.17726941405226], [46.007176966643726, 39.16453415232934], [46.03976595773281, 39.13042516309088], [46.06202185452503, 39.103701764424954], [46.07394465612106, 39.08046473066287], [46.09249123618167, 39.032321221946916], [46.11501208314115, 38.93243211125298], [46.12666993367054, 38.90068527050886], [46.13912263829917, 38.87738147737332], [46.14124224683229, 38.85345104922658], [46.171711629388255, 38.850149667673065], [46.204830522610564, 38.86665504029793], [46.28007664801896, 38.89614884819082], [46.31584505280699, 38.90006668442999], [46.344194825930515, 38.90893256808363], [46.3693486252389, 38.90846868338309], [46.39956961504578, 38.89525957247133], [46.42399479892089, 38.887526269821535], [46.45048991367861, 38.8862373039085], [46.496856364729524, 38.88075893887401], [46.523351479487246, 38.86980094166017], [46.51838364518915, 38.93487953256442], [46.516313714306534, 38.96192435432556], [46.52500742365373, 38.987028162120055], [46.54264323509727, 39.01955974948288], [46.54900206249522, 39.04055320766446], [46.53575450466673, 39.06524340915604], [46.52542141036986, 39.08704590644351], [46.50369541571092, 39.12179255818006], [46.46395274402397, 39.136179646073856], [46.443286554530914, 39.15590572926607], [46.432953460234046, 39.18815418037116], [46.44911547979564, 39.20129580255929], [46.502900562511, 39.18610058027758], [46.5256863614365, 39.18445765649568], [46.55562584095986, 39.20314364586261], [46.57655698151956, 39.213408558058575], [46.61179548417431, 39.22161940790937], [46.63749574573211, 39.23085546510771], [46.59377880624697, 39.24604100618751], [46.53787411409917, 39.2634798004525], [46.519857436171776, 39.27783790409603], [46.497336588312976, 39.335240892852994], [46.46342284189069, 39.34384728072746], [46.4197059024055, 39.36064717322853], [46.38499730188403, 39.38071979398336], [46.36698062395669, 39.403857592054294], [46.36088674762533, 39.42923891174644], [46.373074500288, 39.44908721190535], [46.41096251450847, 39.45399725846676], [46.457064014492744, 39.48426822719699], [46.48488388458367, 39.48017832546941], [46.48594368885023, 39.50778049577332], [46.50210570931108, 39.53026304960014], [46.52515645930322, 39.53843671967894], [46.519062582971856, 39.56111361250328], [46.49919124667872, 39.581128491386835], [46.47587554562, 39.590317061683095], [46.45547430719358, 39.587050153841574], [46.383142644417546, 39.592562971004384], [46.360356845492106, 39.60685341685178], [46.35055365332852, 39.6260388060461], [46.31240068804135, 39.63603759176152], [46.28670042648355, 39.63032417631973], [46.23079573433574, 39.609915272072215], [46.19237781798199, 39.60971115204808], [46.156344462127265, 39.627467291882056], [46.13488341943429, 39.65990639746235], [46.11421722994129, 39.67866924379064], [46.056987782460226, 39.696407682268784], [46.0286380093367, 39.71903286587411], [46.01406569617501, 39.742669273268405], [45.98995514191631, 39.775257915420525], [45.968229148156695, 39.792360778727016], [45.92106784390592, 39.800299948783675], [45.894042827014914, 39.80823820243114], [45.86436829855819, 39.82167008170893], [45.81005331370949, 39.85368739895438], [45.78673761265077, 39.87821796898413], [45.75096920786268, 39.92557653502911], [45.74937950056358, 39.946501432495154], [45.71493585110869, 39.963967804470656], [45.65055272302982, 39.974120621569455], [45.58194693530288, 39.980376544042315], [45.560833640660064, 39.98672070799432], [45.571597280889875, 40.018115643122485], [45.5943665205985, 40.026041373710484], [45.61879170447361, 40.029845398046746], [45.691090247916634, 40.02932552695154], [45.76050744895963, 40.02689095785149], [45.78541285641825, 40.02303604537724], [45.81296777634185, 40.01451388710626], [45.84078764643277, 39.9948276915448], [45.86410334749155, 40.02587652797945], [45.8717869302227, 40.04737920478652], [45.87417149072178, 40.07901231996266], [45.89298302274835, 40.100498234306144], [45.91417911437469, 40.10576732889916], [45.931930841235385, 40.15742335390473], [45.93696491240087, 40.178884500919025], [45.94226393553225, 40.20479080345285], [45.94994751916272, 40.226236969560546], [45.92106784390592, 40.24706966583244], [45.90649553074422, 40.26809811753412], [45.88662419445109, 40.26425686935909], [45.85562491066116, 40.25879787752007], [45.832309209602386, 40.26344815760643], [45.807403802143824, 40.29336405061048], [45.76262705839207, 40.30750884855456], [45.608955392977066, 40.37738106158679], [45.52576073287156, 40.43165366498471], [45.48999232808353, 40.45766477810707], [45.4762148681217, 40.49313657209518], [45.46323226225917, 40.51046256439588], [45.43912170710115, 40.527179918018874], [45.42746385747108, 40.568653165910916], [45.394874866382054, 40.588374141853194], [45.37208906745656, 40.60949730745483], [45.36069616799381, 40.63342882557987], [45.35354248739594, 40.6633814100241], [45.36334567955953, 40.68126613762223], [45.37818294378786, 40.69613293288859], [45.40918222757779, 40.732080788397695], [45.44097636546695, 40.74352379628624], [45.470120991790395, 40.75014779598405], [45.54642692236462, 40.77523272071352], [45.56338379512607, 40.78807253671823], [45.5739818413889, 40.80592378075795], [45.58378503355249, 40.82757951768065], [45.58669949618485, 40.854639246603995], [45.55252079869598, 40.86866586733595], [45.52999995083712, 40.874476026447496], [45.45130946066314, 40.943958023643916], [45.420310175973896, 40.95196278215673], [45.40467805854564, 40.967969388076824], [45.416865811208254, 40.99077209425678], [45.416865811208254, 41.01176761188583], [45.394080012282814, 41.01976414519919], [45.3723540185232, 41.01616582549252], [45.343474343266394, 40.99837124413767], [45.32174834950678, 40.99617158065399], [45.28942430948433, 41.00836879148659], [45.243587761466074, 41.0133669967895], [45.21179362357691, 41.01736528727821], [45.19828111468178, 41.034555172583225], [45.179204632487824, 41.04734473357263], [45.157213686762304, 41.05453776850328], [45.144231080899715, 41.07691107268789], [45.12277003820674, 41.08110521933048], [45.11535140564291, 41.05813399189026], [45.09071094925093, 41.05393837935276], [45.07136951509108, 41.063727725554145], [45.057062153895345, 41.092088621492735], [45.06713029712557, 41.11285221835527], [45.091505802450854, 41.116445251846926], [45.11402665030971, 41.11504798417718], [45.141846520400634, 41.11085600400145], [45.16648697769193, 41.11145487514244], [45.195631603116055, 41.12542697447532], [45.194571798849495, 41.149970742955475], [45.16548016327897, 41.17787961085543], [45.143436227699794, 41.19204491424148], [45.105548213479324, 41.200027499969224], [45.07799329445504, 41.196239681416216], [45.05043837453144, 41.196837772845015], [45.03003713700434, 41.21019371876514], [45.043814596066795, 41.23291249661446], [45.0292422829051, 41.25223717190801], [45.019174139674874, 41.26558180615547]], [[45.00086236720455, 41.030797464231625], [44.97502866064423, 41.041775609856586], [44.96447686471561, 41.0653724227991], [44.980486486062546, 41.08457288283233], [45.00984813138621, 41.080548931088344], [45.040886420571894, 41.050282414002254], [45.02633221975617, 41.03107194001808], [45.00086236720455, 41.030797464231625]], [[45.19698022825497, 40.96818707797132], [45.178059766744866, 40.983021228746736], [45.19552480862308, 40.99840126890348], [45.21371755941789, 40.98823985878249], [45.208987444714865, 40.96626388856765], [45.19698022825497, 40.96818707797132]], [[44.90407692930688, 39.758923304267114], [44.89679982844939, 39.78604990048257], [44.91462872523556, 39.79891032175402], [44.94155399741908, 39.801985283693966], [44.947011822837396, 39.77430567636594], [44.92809136132729, 39.75444778763534], [44.90407692930688, 39.758923304267114]]]]}}]}