{"type": "FeatureCollection", "features": [{"type": "Feature", "properties": {"code": "ASM", "name": "American Samoa", "tier": "country"}, "geometry": {"type": "MultiPolygon", "coordinates": [[[[-170.70258983755093, -14.321625440661535], [-170.70258983755093, -14.321625440661535]]], [[[-170.55340140405153, -14.278448027854154], [-170.55340140405153, -14.278448027854154]]], [[[-170.6239722662071, -14.250856207847676], [-170.6239722662071, -14.250856207847676]]], [[[-170.67239226788882, -14.24465701101218], [-170.69070599998187, -14.254100736060082], [-170.70925322665505, -14.262174156911783], [-170.7223386043431, -14.279276479725695], [-170.73944188133774, -14.291237132887318], [-170.76142156665196, -14.291450559096006], [-170.78135546877982, -14.294158422273313], [-170.8058374529361, -14.292810950065245], [-170.8266745711745, -14.307677167067538], [-170.84360104775013, -14.321681936072423], [-170.81781408255384, -14.331947095581938], [-170.795358861822, -14.331182913760415], [-170.78503681209918, -14.350595887190423], [-170.76934332043786, -14.364403250509554], [-170.74783385824594, -14.359393520394576], [-170.72723820527892, -14.347455227077035], [-170.70007543203553, -14.32700721760898], [-170.69354425766133, -14.306150030999106], [-170.67717097116335, -14.294661333953343], [-170.68685211633206, -14.276437553849973], [-170.66662973777215, -14.270027835616077], [-170.66315207830573, -14.290369861779652], [-170.64014656780984, -14.285981604567326], [-170.62349054075582, -14.272451587670616], [-170.60358961317007, -14.276560305014016], [-170.57817117396047, -14.274476129769539], [-170.56203091079786, -14.259886797837396], [-170.57738291189185, -14.247023542802197], [-170.60373201452083, -14.254813027898876], [-170.62617061668058, -14.258629157109851], [-170.64533694834145, -14.249811862027741], [-170.66787005306048, -14.24796285859901], [-170.67239226788882, -14.24465701101218]]], [[[-169.4244769906206, -14.213980686359548], [-169.45512690937935, -14.212276091568299], [-169.48465068807877, -14.216541882701677], [-169.50695969703236, -14.212904912831391], [-169.51288857744586, -14.237339086329712], [-169.4966618813407, -14.264759368749822], [-169.47093725714868, -14.253868085943338], [-169.4489285345242, -14.248657858273475], [-169.4265434663079, -14.257320480755538], [-169.42117059444735, -14.235542455819655], [-169.4244769906206, -14.213980686359548]]], [[[-169.6859040863045, -14.164845049159624], [-169.6859040863045, -14.164845049159624]]], [[[-169.67917935534294, -14.16012483419371], [-169.6733276736332, -14.183799499647137], [-169.64632637096523, -14.171793879483914], [-169.66758810590633, -14.163674541047158], [-169.67917935534294, -14.16012483419371]]], [[[-169.61020655518834, -14.169149637046075], [-169.63141188195277, -14.169067130543567], [-169.6126015658096, -14.191165684648581], [-169.61020655518834, -14.169149637046075]]]]}}]}