{"type": "FeatureCollection", "features": [{"type": "Feature", "properties": {"code": "ATG", "name": "Antigua and Barbuda", "tier": "country"}, "geometry": {"type": "MultiPolygon", "coordinates": [[[[-62.34183854391364, 16.937983367138713], [-62.34183854391364, 16.937983367138713]]], [[[-61.66806722242433, 17.0521852961146], [-61.66806722242433, 17.0521852961146]]], [[[-61.668757073480094, 17.07155347521274], [-61.668757073480094, 17.07155347521274]]], [[[-61.705676468394245, 17.106493027031604], [-61.705676468394245, 17.106493027031604]]], [[[-61.71520367930634, 17.109557855410742], [-61.71520367930634, 17.109557855410742]]], [[[-61.763629794579344, 17.146993820908165], [-61.763629794579344, 17.146993820908165]]], [[[-61.75662008734713, 17.159229605461974], [-61.75662008734713, 17.159229605461974]]], [[[-61.82277547430863, 17.16794789507935], [-61.846936158576796, 17.16616784536984], [-61.859984334009766, 17.13619062130016], [-61.84574480328001, 17.118028466340718], [-61.86786997102229, 17.121064652212], [-61.88642107377348, 17.13006448089112], [-61.90185195980007, 17.10919071707798], [-61.87802603557304, 17.105671289498446], [-61.89103445467629, 17.08800443615587], [-61.88871074500486, 17.06613891797673], [-61.89056245089637, 17.02712169610942], [-61.86529210484673, 17.022018307898634], [-61.844342407675924, 17.01688006196531], [-61.81856375041673, 17.008859950226565], [-61.79703312537839, 17.012123587233816], [-61.773142482339665, 17.02198359047037], [-61.770927695856415, 17.00080477392123], [-61.74533057844337, 16.998790926560048], [-61.7344949196048, 17.016233431427793], [-61.744536342178435, 17.039883897024254], [-61.717305366149674, 17.033103679691123], [-61.695917703639054, 17.03223579344717], [-61.67872814928461, 17.043084074270666], [-61.679692580448204, 17.06450757836211], [-61.69954187345866, 17.071132811929772], [-61.68434481116407, 17.088702702168007], [-61.70230708910083, 17.103827918523677], [-61.71973346103039, 17.093591879062046], [-61.7419176296948, 17.110422605718725], [-61.72568361130959, 17.122904816204368], [-61.74598412206956, 17.121526580887064], [-61.770274153129606, 17.111151324573996], [-61.787048433838095, 17.12291453158042], [-61.77281571007694, 17.140783467083395], [-61.79002568713571, 17.154348831833147], [-61.81086646111822, 17.16957832817735], [-61.82277547430863, 17.16794789507935]]], [[[-61.84177361925708, 17.72718718064391], [-61.860551646141516, 17.71319093811138], [-61.84937559930444, 17.693032267525155], [-61.828328324792324, 17.677411796317415], [-61.828441786858946, 17.646004595335853], [-61.83178892771679, 17.618647217794887], [-61.850964073633065, 17.609130635970132], [-61.85272274016228, 17.646383028254206], [-61.85919009774477, 17.665736093346084], [-61.870082487616685, 17.684870875890283], [-61.867756508955665, 17.705949210287883], [-61.88670472983938, 17.696004868629814], [-61.86690554075807, 17.676330744668178], [-61.85397082739172, 17.649032034400932], [-61.85016983646875, 17.625892461068247], [-61.860438184074894, 17.58782464988775], [-61.8325264329485, 17.5930702658801], [-61.80382044555705, 17.580740123557916], [-61.78486995568386, 17.5719917021554], [-61.7666796636355, 17.550633740654632], [-61.74650420540473, 17.5532207313517], [-61.7360443903363, 17.571644077312385], [-61.73143497994033, 17.59750120491674], [-61.73941280555647, 17.63602652730242], [-61.7633462806063, 17.66668882612845], [-61.79082545513063, 17.697177005414517], [-61.81085866039882, 17.702834906605688], [-61.83496942060225, 17.689407656138485], [-61.83239878767387, 17.711701408992894], [-61.84177361925708, 17.72718718064391]]]]}}]}