{"type": "FeatureCollection", "features": [{"type": "Feature", "properties": {"code": "AUT", "name": "Austria", "tier": "country"}, "geometry": {"type": "MultiPolygon", "coordinates": [[[[10.454786786565226, 47.55640583665215], [10.454786786565226, 47.55640583665215]]], [[[10.454786786565226, 47.55640583665215], [10.431652069443548, 47.50436765771366], [10.470346993988738, 47.46934571160056], [10.456533429531289, 47.41981089542996], [10.42013607400063, 47.38524252781579], [10.380596549217561, 47.353202662788085], [10.346795144954013, 47.315778755826265], [10.295974379969275, 47.30048942553109], [10.248765796523518, 47.27969131658773], [10.195320759186286, 47.273709874179524], [10.199817801296161, 47.327051073773546], [10.230999308215134, 47.36866030696423], [10.182151380647575, 47.39301632434409], [10.119637252071836, 47.376211071382315], [10.073245468514003, 47.40672332687231], [10.091892475705523, 47.45960132458619], [10.045582539590216, 47.485471575933595], [9.995356402089408, 47.48686942951418], [9.967529436916616, 47.530963802717906], [9.913859078669349, 47.533177410500805], [9.858769544032592, 47.53445922657595], [9.821032873992706, 47.57148239986188], [9.777257836766701, 47.59607339340315], [9.74196769964732, 47.55551343061357], [9.562062543847794, 47.50518790186592], [9.59618251973167, 47.463407007525745], [9.65882725268691, 47.45323385309582], [9.66033520728813, 47.39815826115444], [9.605298708436504, 47.35189910488773], [9.556763703209027, 47.29904900964203], [9.567435737854886, 47.24247189040237], [9.572807180960485, 47.19138555192951], [9.608923252906676, 47.14834941399404], [9.634580355482736, 47.101746471906445], [9.617428862026014, 47.0542014244921], [9.68207581741873, 47.06267354730234], [9.74209124495461, 47.04324820246037], [9.792137163815301, 47.03225748039038], [9.83998338191988, 47.013223075056565], [9.889035841625683, 47.00129272933863], [9.877429869044569, 46.952167291359125], [9.921788265511811, 46.91938012174901], [9.978131578358882, 46.9164369955437], [10.026737288523979, 46.8963564328982], [10.07520564145079, 46.86248689082914], [10.123365041217944, 46.84902624685477], [10.182294191851069, 46.85605287960868], [10.232961860033576, 46.86683410591415], [10.242311916954078, 46.919375154415924], [10.297172907967077, 46.92049561647603], [10.329797041795276, 46.96481874769449], [10.372359499667128, 46.99121853696657], [10.426898190968279, 46.97622853330658], [10.469137466744382, 46.9476380310476], [10.475403115188161, 46.894824051258226], [10.499134110782663, 46.848024209019364], [10.552778407487489, 46.85055820256022], [10.610222154831593, 46.8592103463416], [10.662936164124202, 46.87478445565426], [10.717052204032765, 46.84758438715956], [10.763856102540908, 46.82397824966666], [10.814442780239768, 46.77563410162899], [10.867702544448424, 46.772863671173155], [10.92360497882114, 46.77584475567906], [10.975210230930932, 46.7730715046933], [11.025114533242187, 46.76691501975914], [11.057391475596384, 46.80862876682133], [11.073338598059362, 46.85860345740905], [11.095367385786481, 46.908012663500315], [11.155527444157926, 46.93459059869184], [11.190329584690025, 46.971054366663495], [11.242063675407792, 46.97018544997235], [11.295430745718663, 46.98632186418039], [11.346160951432704, 46.991199312930114], [11.393274189786943, 46.969979559045505], [11.453056728349246, 46.9928276906648], [11.502488710305927, 47.01019466611413], [11.553970215435365, 46.99099115004803], [11.61028543135655, 47.01152893692474], [11.660107805756603, 46.99585367953265], [11.711939115975234, 46.993739682227194], [11.766075045057342, 46.97403012215794], [11.81581668142212, 46.9904166247568], [11.86849444707213, 47.012087684149655], [11.917198116916264, 47.03368066984394], [11.968988644953415, 47.04103557264466], [12.021787044703473, 47.047767606192274], [12.073027595177464, 47.06052110123637], [12.130885840883527, 47.078409522282655], [12.181118987123456, 47.091672604347615], [12.230981974878656, 47.076658411940045], [12.205271954328294, 47.02737724330534], [12.153878022192936, 47.024348524857935], [12.136091012993848, 46.973124623036504], [12.168371523819314, 46.93374053087163], [12.201993137597036, 46.88994397332072], [12.257448905748682, 46.88864254956853], [12.292584014510588, 46.85026277000062], [12.288243470207751, 46.795432199802015], [12.33790603261258, 46.77932562043649], [12.371809252353565, 46.74079505640332], [12.407895768647402, 46.705930967891234], [12.45516851837367, 46.68845137465863], [12.505858367219185, 46.68014490939987], [12.559500999400424, 46.657841025944194], [12.613440001649625, 46.65871265670974], [12.676337808392596, 46.65803225085236], [12.727398169362484, 46.64085383185752], [12.796012647195836, 46.642844504143106], [12.83429085927573, 46.610315979100804], [12.888693954170115, 46.60707198334835], [12.940218501044347, 46.60596873271105], [12.999784288156443, 46.602896109797676], [13.056700194936118, 46.59801993233095], [13.109663221904178, 46.596456302526896], [13.169256993817662, 46.589316114119335], [13.218010531379145, 46.57090649663461], [13.270137252674399, 46.56166592289898], [13.320637545122322, 46.553342126606886], [13.371169373631295, 46.56739741340243], [13.427270567253428, 46.55800422840506], [13.479084343777838, 46.561101280729105], [13.535563402265932, 46.55005493815841], [13.586342542888842, 46.54403781477219], [13.64366609677922, 46.533040821666425], [13.69897751979352, 46.52365239774284], [13.754828095699748, 46.518428787124996], [13.805319153913207, 46.50739314135973], [13.856021855307523, 46.514249336971496], [13.912796675708387, 46.52151327810169], [13.970405711563284, 46.497195267828324], [14.021688724561564, 46.48201582203952], [14.095416655378472, 46.48530595746822], [14.135791320983456, 46.45135179111554], [14.190112506263338, 46.44101816618107], [14.24928556290502, 46.43483138991866], [14.30243920120886, 46.438645403349376], [14.365633934572337, 46.43859049902471], [14.424345356621426, 46.445720896175445], [14.477252833517774, 46.420164739204736], [14.532888988502858, 46.41496298459116], [14.564897309487254, 46.37265202343992], [14.587263641534005, 46.43010043032819], [14.641699813424935, 46.443362923599075], [14.690199037098768, 46.4647699550778], [14.736015265462614, 46.49786558360381], [14.786351158861978, 46.499838807417355], [14.82607064270212, 46.530249802794835], [14.845436496249414, 46.577988841490715], [14.88750846683318, 46.61310568542046], [14.937877583582166, 46.620534641438084], [14.985489794480317, 46.603991808101355], [15.030554345984505, 46.64529767531322], [15.08332449435885, 46.645504105450215], [15.135395836029163, 46.65716492301231], [15.190288500557703, 46.65313662890934], [15.263483909435294, 46.645069477511804], [15.320397333147334, 46.648197782408765], [15.373269559425216, 46.65009244910804], [15.424298128291609, 46.653039799132536], [15.464640760517353, 46.623365723305554], [15.516451651101715, 46.62372265701807], [15.54897380523474, 46.66524213414474], [15.596123063314469, 46.69036068107714], [15.654662328320516, 46.692442582185244], [15.722578566672192, 46.696172102202006], [15.801732789300374, 46.715471525540835], [15.8715009047889, 46.72139213286212], [15.947960624000574, 46.689450162538876], [15.999418079713184, 46.6809114765349], [15.994348711441825, 46.73152796996687], [15.995096820999565, 46.7938322242545], [16.02840045195048, 46.84147896141119], [16.08038026717894, 46.853098282653406], [16.134029916491727, 46.87595981690259], [16.175052088535573, 46.90626977838585], [16.211645533047424, 46.94079974328397], [16.25641744878831, 46.96456842300555], [16.29119404793347, 47.014321301390154], [16.342856986340184, 46.996524531079785], [16.394578807028793, 47.00368470580304], [16.446602658854353, 46.99356422045268], [16.498143144865473, 46.998555964038], [16.44890862910641, 47.023029468394625], [16.494706666171034, 47.04945892951498], [16.464465697988466, 47.095333729044064], [16.530473535016167, 47.127611877308965], [16.470338641594424, 47.14320016383089], [16.442376110962474, 47.185540406155816], [16.442914486708393, 47.24898524088856], [16.48484611298323, 47.278256899274616], [16.464343984871462, 47.33142531290515], [16.452566006479874, 47.38012306103302], [16.511130807961756, 47.39693087191697], [16.560729791087557, 47.40738491782853], [16.607484541459833, 47.42737414854048], [16.6527850967864, 47.44934585201928], [16.653527647745925, 47.500744694307905], [16.70669545475401, 47.52332550375275], [16.66575054429535, 47.56667845099849], [16.653272687515337, 47.62333479611289], [16.594460581498996, 47.618274255101554], [16.53000559113885, 47.64189747568058], [16.463824807323498, 47.65173215096711], [16.488317730203814, 47.69844955382098], [16.54163753911615, 47.712277014998676], [16.589224722561244, 47.75588922035663], [16.63957101397596, 47.7549953292488], [16.72215691527812, 47.73576783868696], [16.750241868243894, 47.68185555779718], [16.829552867775394, 47.683158653009095], [16.868137248953264, 47.72206992820984], [16.91377716277623, 47.68810823500551], [16.977687606512404, 47.69490765907639], [17.041676186123674, 47.70478584333659], [17.094339253969643, 47.70866603894511], [17.066897203722363, 47.76672413865136], [17.06096165762123, 47.820510158144245], [17.011213753867693, 47.85879077714614], [17.07907325764948, 47.877984300013686], [17.113969846595413, 47.92780150193723], [17.132656240450554, 47.99127629486215], [17.09114432628912, 48.02024671142573], [17.073517851454017, 48.07091645371967], [17.06407115064285, 48.121954299819656], [17.01443246122772, 48.153504206099846], [16.977721175594276, 48.189847542624776], [16.950317439657454, 48.232372228401324], [16.92053156228145, 48.27862167967017], [16.900745970052814, 48.329022001284045], [16.852061338854725, 48.34850384352614], [16.851785454947684, 48.410533169527625], [16.8607609354302, 48.459883446239466], [16.897399673814633, 48.49709331298474], [16.94447303498092, 48.522151220310334], [16.93695100904009, 48.57194211239824], [16.920020966578818, 48.62312079669784], [16.92006085535518, 48.67355667732189], [16.88757835532956, 48.71678484017625], [16.835570361868612, 48.717083169301056], [16.780544141451518, 48.71281734832992], [16.734082978706567, 48.734355596154565], [16.683873799408527, 48.72834309111627], [16.66528468483973, 48.77609395792531], [16.611198925447123, 48.78112279190802], [16.556822430126136, 48.804200222068864], [16.501160136689343, 48.80179167202966], [16.449957898970162, 48.799946098493756], [16.414801815561148, 48.75448956876942], [16.36770425218963, 48.72860637959944], [16.312196691716743, 48.73419351237324], [16.249933444277826, 48.7401942979468], [16.19022251391851, 48.74383371771059], [16.140152486123288, 48.743320881425], [16.066120464415462, 48.755193450112536], [15.995558013072293, 48.77991524168673], [15.950817484721643, 48.8058346728545], [15.908160568594745, 48.83611601750757], [15.85862181909944, 48.85830092447513], [15.807312689693896, 48.87283149091151], [15.75482660840139, 48.852769646526575], [15.699021961126522, 48.85901438015906], [15.640068581713406, 48.88789625513062], [15.579140622009993, 48.89646768862289], [15.514528879980631, 48.91473021637164], [15.469626022710411, 48.95243137324035], [15.413899395174845, 48.95695997219453], [15.368101806282404, 48.982502959909844], [15.313215768519022, 48.98137470534601], [15.263041145170389, 48.9582138287988], [15.210670044877732, 48.958152524492014], [15.161342076967612, 48.942314765250764], [15.157376024314715, 48.993920831391115], [15.103661958074934, 48.99447326667831], [15.055386097153338, 49.01619377889131], [15.004113911621113, 49.01212738214741], [14.97889293666598, 48.96116890765438], [14.993992828227423, 48.90433812872059], [14.974428542653202, 48.853696527694765], [14.961571081358498, 48.805142984244014], [14.92008615456241, 48.76906023238288], [14.869316491091725, 48.78166709355922], [14.809700979856757, 48.779420015643126], [14.79540391379788, 48.73043366208062], [14.749286365824187, 48.703834704478574], [14.713359072704217, 48.65070433280148], [14.712424049373649, 48.59724326856179], [14.66446401024048, 48.58255914638839], [14.622595537815965, 48.616205528792726], [14.56953338702339, 48.611293464582246], [14.516617713664411, 48.62046172594597], [14.470853226258571, 48.64910943888971], [14.44318118390097, 48.60082810453177], [14.392889098640937, 48.5949118947042], [14.354080917543264, 48.56308167123245], [14.296551610994033, 48.56867956356415], [14.241509358519348, 48.57826561086381], [14.182663976726545, 48.59451996699855], [14.131123218191682, 48.59838014212087], [14.073171426629123, 48.60049915070438], [14.029616310556738, 48.626791010525494], [14.060398913820363, 48.674457476263534], [14.015971318297629, 48.698364238686246], [13.956807260729263, 48.715055471337394], [13.896383493876884, 48.757727602712706], [13.844134901719498, 48.77321771076198], [13.811298990280987, 48.729590252261055], [13.820666355330399, 48.67107382033792], [13.826684255116769, 48.61921053253533], [13.801813559494239, 48.574228594392956], [13.751368208120606, 48.55829673167739], [13.72795450277149, 48.51364372613106], [13.665539897940437, 48.534554425724906], [13.600630819447023, 48.570026977035845], [13.544277066294521, 48.57546907648322], [13.492725396415224, 48.57033860577197], [13.43847191219566, 48.55778435463566], [13.458984005485068, 48.51218326652329], [13.428018244161134, 48.45799449793212], [13.422539797378946, 48.40482749384986], [13.367828010264036, 48.35340288712516], [13.257386953488924, 48.29425245147186], [13.192388666003838, 48.29622361843656], [13.12816793201792, 48.2789509431746], [13.05663661042068, 48.26633695056687], [12.999642915895937, 48.238058254402254], [12.957483384975987, 48.210131640102006], [12.870775752973582, 48.20193079744119], [12.83519935243752, 48.158608836266076], [12.78718149695501, 48.1240364324458], [12.760177062012255, 48.07577482256129], [12.839384423006285, 48.02573514089933], [12.869254751669478, 47.971602261548114], [12.91803807169229, 47.955585622922875], [12.964886785253254, 47.904281672623476], [13.002108046655588, 47.85496420924306], [12.964786297670095, 47.80046992385054], [12.935829025202068, 47.75849072790676], [12.956246351098773, 47.70835148668613], [13.005454380308343, 47.7186123661829], [13.061575831500043, 47.69769298942602], [13.090196072127862, 47.65480201348199], [13.070199453993833, 47.60535568504451], [13.045428743404608, 47.55083836101265], [13.048973352661461, 47.498686372448496], [13.004363656312202, 47.463922447784775], [12.909369849578146, 47.49748818474534], [12.863963485819848, 47.52858789290481], [12.807954986703198, 47.5489228163873], [12.791959172732216, 47.598412072769136], [12.75924061068016, 47.652112683851904], [12.705775064482715, 47.681692887824084], [12.655548664775248, 47.672643380047056], [12.604319429679096, 47.67301465949834], [12.537000310976048, 47.637028134251096], [12.46574424937014, 47.65029093947375], [12.440696931299986, 47.69578880849117], [12.381345442379937, 47.68701743642155], [12.292730578975293, 47.69069610187042], [12.241858753535881, 47.694953944008525], [12.257632158051102, 47.74361720106209], [12.212558312551778, 47.71177454498831], [12.163009940148534, 47.70174581987594], [12.199698197706624, 47.641394791270116], [12.140378582096233, 47.60590264266453], [12.082923498298033, 47.610314074361], [12.032005381084184, 47.615353265684895], [11.98146160132243, 47.61943848060902], [11.91425659375253, 47.61442588704484], [11.86413885408989, 47.60145468912388], [11.790089477082532, 47.588266450412576], [11.70068700751631, 47.58954289948923], [11.649781465651747, 47.59092633040703], [11.60043294749297, 47.56707813636703], [11.57781017780897, 47.520801247600716], [11.519096624695694, 47.51157514229523], [11.456418631104421, 47.50955245997473], [11.408014797033642, 47.49114905042498], [11.377402134232542, 47.449741800409626], [11.321713241998468, 47.43829809944693], [11.281627542874475, 47.40120710207594], [11.225397869950765, 47.395819943173585], [11.180452619855561, 47.42695454558934], [11.128501135702914, 47.412790473801216], [11.062016250013288, 47.39713778338269], [11.005378844278777, 47.3947158006042], [10.95858565058848, 47.45212924962037], [10.910349884195895, 47.48614188419153], [10.89070067928463, 47.53791082953436], [10.840388370036136, 47.528341606316374], [10.787091614832486, 47.51725911630455], [10.741334870221111, 47.53918091544511], [10.690617068314252, 47.55596512190647], [10.6351350037123, 47.55964664277236], [10.580693075503563, 47.55626061978225], [10.524892889021734, 47.53577098814369], [10.472695473506525, 47.55171736331316], [10.454786786565226, 47.55640583665215]]]]}}]}