{"type": "FeatureCollection", "features": [{"type": "Feature", "properties": {"code": "BDI", "name": "Burundi", "tier": "country"}, "geometry": {"type": "Polygon", "coordinates": [[[29.25917656639507, -3.078000363746639], [29.2548217339928, -3.103430985670741], [29.2485868954318, -3.130727908997983], [29.229402776782592, -3.176460630591521], [29.22340773970484, -3.203276783546301], [29.22580575453577, -3.229373972310896], [29.246908285049926, -3.27342641788681], [29.225326151569732, -3.281805740678521], [29.226285357502206, -3.324419491137576], [29.2274843649177, -3.346204462878006], [29.249066498397895, -3.35099230394934], [29.269689425945785, -3.358174021621892], [29.287674537179328, -3.344528712974807], [29.308297464727218, -3.356737682309472], [29.331798010072305, -3.362243638196674], [29.343788084228038, -3.397193761568758], [29.338512451599513, -3.43788751515234], [29.335874635285336, -3.46445720684045], [29.338272650116494, -3.486478368218513], [29.334435826386652, -3.535545401035392], [29.34714530499167, -3.566181063353667], [29.342349275329354, -3.593225760868677], [29.337553245667095, -3.639893925481999], [29.329639796724337, -3.658799828771237], [29.325083568545097, -3.691106460624155], [29.308777067693427, -3.704746686284409], [29.316930318119148, -3.732744384637272], [29.331558208589286, -3.750212582287759], [29.334435826386652, -3.786344319837951], [29.339471657531988, -3.815535748882496], [29.359135379147233, -3.849511408495687], [29.375681681482263, -3.883964214090724], [29.38815135860426, -3.90166858176616], [29.397743417928666, -3.943774764989826], [29.426759397385524, -3.968415463728832], [29.417646941027158, -3.99305542734453], [29.424840985520632, -4.013628034426574], [29.44642311900094, -4.037549018674838], [29.48982718744452, -4.123180333992991], [29.491265996343202, -4.161209172254871], [29.501337658634043, -4.183451604936238], [29.523878998046712, -4.194213845838078], [29.53874668999981, -4.254957925828876], [29.551456168605, -4.287480350058502], [29.562966639794354, -4.319044909018317], [29.573038302085195, -4.343673918341608], [29.59246222221742, -4.361607157309265], [29.62123840019109, -4.376909849437652], [29.651453387063555, -4.40870975475616], [29.651453387063555, -4.431423140335994], [29.6852653961825, -4.446485316718281], [29.715480383055024, -4.455570290177604], [29.737781920984617, -4.455570290177604], [29.76176206929597, -4.468958467457014], [29.763200878194652, -4.440747381012784], [29.77207353307, -4.420425166865641], [29.798211894729263, -4.401058773656302], [29.80324772587477, -4.379300866852645], [29.82554926380442, -4.362802691371712], [29.847850801734012, -4.380257271679284], [29.868953332247997, -4.379779069418817], [29.920152822341947, -4.359752207724569], [29.941229124568792, -4.335817717640396], [29.967574502352306, -4.322390720289263], [29.970389359605235, -4.30230629069996], [30.012354619150244, -4.299197649606867], [30.032258142248736, -4.281023802078664], [30.049284047549804, -4.264762625289904], [30.055518886110804, -4.223869030331969], [30.062712930604278, -4.204736782493001], [30.077340821074188, -4.189430645938899], [30.088131887814257, -4.166949215158525], [30.114989653923146, -4.152599029470878], [30.13705139036955, -4.140401166428489], [30.167026575758882, -4.105719942401151], [30.183093275127476, -4.084910483844283], [30.195083349283266, -4.056685298732759], [30.2212217109427, -4.038745049417628], [30.22170131390891, -4.013867247744827], [30.230094365817877, -3.985639593565622], [30.236089402895686, -3.947841726893785], [30.257191933409786, -3.914587749828911], [30.260549154173418, -3.893534188793524], [30.30155520778601, -3.865063195485561], [30.310907465627395, -3.840419462923023], [30.32001992198576, -3.82151747689403], [30.32625476054676, -3.793761907681812], [30.34687768809448, -3.77749098664674], [30.376852873483756, -3.774380334612317], [30.39843500696412, -3.793761907681812], [30.405629051457424, -3.757151906480715], [30.395317587683564, -3.734658724649023], [30.391720565436913, -3.710011278589604], [30.399873815862804, -3.679380485121726], [30.411863890018424, -3.650423844762713], [30.426012177522125, -3.630560485008516], [30.439201259093522, -3.611175339133695], [30.444476891721877, -3.584370505407207], [30.438002251677858, -3.565223714313106], [30.455507759945192, -3.550863359254834], [30.47325306969566, -3.527168285539517], [30.506345674365377, -3.525253505676687], [30.526968601913268, -3.501318425461648], [30.554545772471272, -3.49629198074831], [30.57780651633334, -3.485042221202718], [30.59627123053326, -3.471159353825783], [30.624807607023683, -3.45966992992976], [30.643032519740473, -3.446744161574713], [30.66005842504154, -3.432860733285224], [30.667492271018034, -3.403896380731055], [30.65406338796373, -3.382352082201351], [30.633920063382106, -3.367270788164774], [30.652864380548067, -3.345965070210184], [30.686436588183994, -3.318913323082143], [30.710656537978537, -3.310773714110269], [30.73032025959401, -3.302873441430165], [30.739912318918584, -3.282284557003152], [30.76149445239878, -3.293297269064283], [30.782596982912878, -3.281326924124528], [30.807776138639895, -3.276538745972289], [30.836072713647297, -3.260258769102279], [30.827919463221406, -3.232486436404201], [30.843026956657525, -3.199206519686754], [30.849021993735505, -3.16041849145779], [30.838230926995436, -3.134319556616049], [30.82935827212009, -3.087866634407646], [30.80897514605539, -3.075893901245195], [30.79818407931532, -3.055539946603687], [30.812092565335945, -3.039017040649696], [30.82959807360328, -3.008844125819223], [30.840389140343348, -2.989925760625852], [30.81928660982942, -2.974120293891986], [30.8003422926634, -2.98274148572375], [30.770367107274126, -2.988967860021603], [30.7447083485809, -2.993757354675381], [30.704421699417537, -2.971007069156997], [30.679961948139976, -2.98441782073678], [30.64824100795363, -2.977415512959908], [30.646399332563306, -2.954425407575229], [30.62307144428604, -2.934960079336633], [30.603426906789252, -2.921165546833265], [30.583015004546667, -2.90783067097567], [30.556924603183745, -2.911969097628685], [30.538968268128258, -2.929442286723429], [30.521318878970987, -2.948601171814005], [30.494461112862098, -2.9524329093029], [30.476658250755804, -2.940631115577162], [30.46008317224289, -2.913501844383518], [30.43844348640681, -2.904918435709476], [30.433225406134227, -2.879627656514685], [30.413887814535826, -2.873803033692866], [30.41572948992615, -2.843759771566511], [30.42754690701406, -2.8233728260916], [30.439978215898748, -2.800839470235871], [30.447344917460043, -2.77355360217274], [30.444889350272945, -2.749333034385188], [30.464073468921924, -2.735076394072621], [30.489396505538878, -2.720359684388143], [30.515333433952435, -2.699664007732622], [30.53436407965245, -2.681267554700128], [30.532061985414543, -2.657505060395181], [30.505204219305654, -2.669922937321132], [30.482490222825163, -2.684180344910772], [30.46269221237918, -2.695371526867007], [30.429388582404385, -2.68004111464154], [30.430155947150354, -2.657505060395181], [30.443661566679395, -2.642480795439724], [30.457934550954178, -2.616111238362976], [30.468217238550153, -2.59679365246825], [30.48064854743484, -2.572722914089297], [30.484792317063068, -2.550338252726817], [30.500753503779038, -2.492228315339332], [30.508273678289527, -2.469382277945897], [30.524234865005667, -2.433042470920157], [30.544646767248423, -2.418475605822721], [30.534977971449223, -2.40038180831408], [30.512417447917755, -2.395628313233829], [30.496763207100003, -2.379374302369399], [30.47696519665419, -2.370480517127589], [30.4646873607187, -2.3525394318184], [30.453637308376756, -2.330611125405142], [30.431537203693097, -2.331224509264018], [30.405293329381152, -2.310829353056135], [30.38211891405291, -2.320183558970825], [30.367999402727094, -2.351312682492448], [30.34605277099257, -2.363426784736703], [30.324873504003847, -2.363886811855878], [30.29218376582577, -2.380141005311032], [30.271004498837215, -2.375387440204122], [30.250899542492846, -2.363273442329785], [30.22879943780913, -2.350085932088064], [30.240463381947677, -2.369560467112933], [30.229106383707517, -2.392254855101328], [30.203476401192177, -2.419548959126871], [30.18720826857782, -2.436875830356485], [30.156667151688282, -2.442089181670895], [30.128121183138433, -2.444082516535332], [30.111546104625518, -2.431509124093282], [30.087604324551535, -2.406361988316633], [30.06642505756281, -2.38612127360949], [30.048008303659742, -2.367260339402264], [30.025754726026662, -2.349779244318484], [29.99628791978165, -2.347939116286796], [29.96436554634937, -2.325857391442412], [29.95178076451566, -2.351312682492448], [29.944414062954365, -2.378760939709252], [29.957766209534213, -2.399921793383101], [29.957459263635826, -2.420775647577102], [29.968816261875986, -2.441629180897507], [29.969276680723567, -2.472448883053517], [29.967128059434856, -2.495141540002635], [29.948557832582594, -2.507714330202703], [29.93996334742775, -2.52718658363824], [29.926304254949514, -2.556011114851685], [29.925843836101933, -2.576709182525803], [29.93704736139307, -2.636961631980512], [29.935973050748714, -2.665017124364454], [29.918016715693057, -2.721739383566046], [29.90389720436741, -2.736149480435074], [29.889317274194013, -2.756384643024319], [29.860464359745777, -2.768494916825432], [29.836982998519147, -2.785663700332691], [29.813041218445107, -2.769721266773161], [29.792322370303964, -2.765735624802801], [29.767152806636375, -2.798693413678166], [29.757790956735562, -2.817701206114634], [29.73707210859442, -2.817547918704577], [29.701466384381717, -2.814328878430615], [29.681668373935906, -2.79899999342706], [29.661563417591537, -2.797467093880755], [29.601402021507965, -2.810190099301849], [29.580069281570047, -2.822912966043077], [29.555206663800845, -2.840234235263495], [29.531264883726635, -2.831343704651886], [29.51376896751873, -2.820153801931383], [29.489213295647744, -2.813255863029894], [29.466652772116447, -2.803905258495774], [29.440562370753526, -2.817241343823639], [29.413704604644806, -2.818620930151667], [29.39620868843673, -2.841613794229772], [29.38116833941575, -2.816474906268354], [29.379940555822202, -2.784743950405527], [29.37195996246436, -2.762516442663468], [29.3848516901964, -2.745653917674247], [29.379326664025427, -2.722659182140603], [29.366741882191775, -2.702730056211351], [29.365360625649032, -2.67482873068991], [29.34387441276192, -2.655818672400073], [29.319625686789493, -2.645240367971212], [29.29553043376609, -2.629602709288122], [29.2631476414864, -2.635428526671944], [29.22923011971477, -2.630369265762624], [29.20528833964056, -2.609672076021525], [29.183648653804426, -2.608905506877534], [29.15740477949231, -2.608598879089072], [29.132081742875528, -2.604306082204346], [29.11197678653133, -2.608138937266176], [29.093713505577284, -2.633282176068008], [29.096169072764383, -2.665323738247423], [29.0909509924918, -2.71943988405917], [29.085272493371633, -2.741974789633559], [29.07345507628372, -2.767881741375447], [29.05074107980323, -2.785050533794333], [29.03892366271532, -2.8081973485601], [29.05104802570162, -2.831343704651886], [29.07667800821679, -2.831343704651886], [29.099238531748256, -2.857401962571373], [29.1182691774481, -2.884685857435272], [29.118883069244873, -2.92024590529843], [29.134537310062626, -2.936799337489504], [29.157711725390868, -2.951206754743566], [29.16784094003748, -2.974196927005437], [29.169375669529416, -2.994581145646293], [29.18717853163588, -3.008681285592729], [29.208818217472015, -3.023241021306546], [29.22931847157355, -3.022461141970041], [29.24980932096082, -3.042923294017896], [29.25917656639507, -3.078000363746639]]]}}]}