{"type": "FeatureCollection", "features": [{"type": "Feature", "properties": {"code": "BEN", "name": "The Republic of Benin", "tier": "country"}, "geometry": {"type": "Polygon", "coordinates": [[[2.704951279172576, 6.466417276994889], [2.710212806655989, 6.53323867603325], [2.730206611092569, 6.606373908051296], [2.728628152847591, 6.682139903811048], [2.762828081489204, 6.745278233610861], [2.723892778112599, 6.792631980960664], [2.727049694602613, 6.846825714038687], [2.738625055065825, 6.936797834003528], [2.707836898151754, 6.995673504428169], [2.769495423346825, 7.052193819190279], [2.732243397708203, 7.097153160478399], [2.752796239439874, 7.181933632621678], [2.739950713357587, 7.252584026074373], [2.727105187275299, 7.320665314310531], [2.719397871625915, 7.372047418639909], [2.763072660305795, 7.413153102103365], [2.781056396821043, 7.492795363813684], [2.728389739883539, 7.526193731627586], [2.706552345543628, 7.575006730740427], [2.711690555976418, 7.646941676801418], [2.711690555976418, 7.709884754604786], [2.729674292491666, 7.761266858934107], [2.705267792935331, 7.840909120644255], [2.706529737417611, 7.973318748216627], [2.716526639636015, 8.037509383513054], [2.727306457143754, 8.143989230265163], [2.732837374834219, 8.216401317945895], [2.712317417649217, 8.263228912547277], [2.713617384888835, 8.385719995610373], [2.741716973193888, 8.46199030672409], [2.751752540445636, 8.554317525440865], [2.745731200094667, 8.60650247515025], [2.741716973193888, 8.69481546696602], [2.739709859743527, 8.751014643576355], [2.76580233459822, 8.80319959328557], [2.763795221147859, 8.859398769895733], [2.76580233459822, 8.92764062720795], [2.77985212875069, 8.985846917268475], [2.781859242201051, 9.03803186697786], [2.873287274091979, 9.057226294326426], [2.958787095695811, 9.088466613758555], [3.091969510117281, 9.105731000813307], [3.138501143797839, 9.25239607941063], [3.167439544956039, 9.317639020203785], [3.164808781214447, 9.371832753282035], [3.147971893267822, 9.428657250101821], [3.166422179290407, 9.490274669613427], [3.216519731011488, 9.530095800468587], [3.271755493165301, 9.598177088704915], [3.291023782288846, 9.65855106129169], [3.348828649659254, 9.666258376941073], [3.347544097050957, 9.735624217785471], [3.333414018360372, 9.787006322114848], [3.416909937895582, 9.834534768619335], [3.473430252657693, 9.85380305774288], [3.528666014811563, 9.855087610351177], [3.577838688654708, 9.915243311758672], [3.626343395141589, 9.977171490237481], [3.626343395141589, 10.04705115212522], [3.658405828242962, 10.091445290265597], [3.686357692998001, 10.138305769413819], [3.654295259896628, 10.199142180939873], [3.599726642985331, 10.27689966485201], [3.632053467842809, 10.36041062906719], [3.647543404753549, 10.418666261362375], [3.699737757388164, 10.439544002416199], [3.743513666049353, 10.41462540825529], [3.80783057800528, 10.450656348460939], [3.820626612844876, 10.510595669550924], [3.848807354045505, 10.57251332497458], [3.845650437555548, 10.677743874640782], [3.79344442118321, 10.695907576976595], [3.765344832878327, 10.758128093937671], [3.775380400130018, 10.856476653005359], [3.769359059778878, 10.916690056516245], [3.733231017672495, 11.011024388683381], [3.743266584924186, 11.077259132545237], [3.69710297556594, 11.107365834300651], [3.502974962646988, 11.30791661026069], [3.5312351200281, 11.441510081516753], [3.545365198718684, 11.514729580186042], [3.588887896369727, 11.693218678920744], [3.548900287496508, 11.737941662528897], [3.510425367774644, 11.79897538133531], [3.473430252657693, 11.85898967919195], [3.417526523147387, 11.861456020199853], [3.360800679967895, 11.905028044670985], [3.30818540513485, 11.887763657616404], [3.264613380663548, 11.969152910873902], [3.22186346986166, 12.043143141107976], [3.157738603658686, 12.102335325295371], [3.092791623786525, 12.157416941136262], [3.044286917299644, 12.201811079276808], [2.989205301458753, 12.257714808786943], [2.925935433471807, 12.304608172482006], [2.884895519102031, 12.353014225328593], [2.846486368473791, 12.39247568145339], [2.801237232117387, 12.41720486062502], [2.749970223701837, 12.41391640594793], [2.70557608556129, 12.37363283615366], [2.684201130160204, 12.323483902328519], [2.601989763233519, 12.30210894692749], [2.543619692715538, 12.274157082172223], [2.494292872559413, 12.255248467779268], [2.419480528655924, 12.265113831810368], [2.381663299869615, 12.23222928503975], [2.400571914262741, 12.161527509482596], [2.435100688372017, 12.059585414493313], [2.481139053851052, 12.021768185706946], [2.453187189095956, 11.959287546842631], [2.431812233694927, 11.901739589993895], [2.406326709947734, 11.838436837460335], [2.389062322893039, 11.780066766942184], [2.347134525760339, 11.743071651825232], [2.341379730075573, 11.676480444614413], [2.292052909919448, 11.648528579859317], [2.20381056849692, 11.595094402738482], [2.031198811765876, 11.444560893961238], [1.926828912347105, 11.45258934776274], [1.834501693630386, 11.456603574663461], [1.746827124460879, 11.433825373993272], [1.623707381351267, 11.399099292603466], [1.56004289880309, 11.456976094919867], [1.509006082215024, 11.457502247668117], [1.45533850188508, 11.462763775151473], [1.397461699568623, 11.43750844323148], [1.369575603907037, 11.383840862901707], [1.324425121190927, 11.338591726545246], [1.295651142766417, 11.29090913372761], [1.253723345633944, 11.242404427240956], [1.167401410360696, 11.245692881917876], [1.124651499558809, 11.215274676155104], [1.140271659274902, 11.151971923621375], [1.079435247749018, 11.133885422897436], [1.086012157103198, 11.077159579717886], [1.110675567181204, 11.021255850207808], [1.057748788340518, 11.037116863537904], [1.001549611730525, 11.063209338392596], [0.947357548570551, 11.013031502133572], [0.893165485410975, 10.904647375814022], [0.885137031609474, 10.846441085753497], [0.871087237456834, 10.786227682242782], [0.800838266694257, 10.705943144228286], [0.810873833946118, 10.565445202702904], [0.782774245641065, 10.52329582024538], [0.788795585992204, 10.396847672872639], [0.923233650588031, 10.292041025566903], [1.337578939899117, 9.989503195276313], [1.344977962922542, 9.880984190932963], [1.360598122638635, 9.811104529045224], [1.354021213284625, 9.751090231188584], [1.362242349977237, 9.655725045553481], [1.35319909961521, 9.598999202373989], [1.360104854437225, 9.497057107384649], [1.392936734550858, 9.39329094769181], [1.413007869054582, 9.337091771081646], [1.475228386015715, 9.244764552365098], [1.551498697129432, 9.17652269505271], [1.591640966136765, 9.126344858793686], [1.61134279176548, 9.040784020940919], [1.618741814788905, 8.895269901480503], [1.613719214090679, 8.686787013164519], [1.612987019104082, 8.568890774781096], [1.6458715658747, 8.51463127260945], [1.626962951481516, 8.4579054294299], [1.612164905434668, 8.383093085526468], [1.636828315512844, 7.91859886239007], [1.639294656520519, 7.868449928564701], [1.646693679543944, 7.790349129984122], [1.637650429182088, 7.721291581765627], [1.643825915846151, 7.641080905526167], [1.659882823448982, 7.492554510199454], [1.64984725619712, 7.418291312536098], [1.646796443752635, 6.990535293995038], [1.594129786815188, 6.991819846603278], [1.5812842607329, 6.93273042662463], [1.622389944196186, 6.885201980120087], [1.615967181155099, 6.79913695536851], [1.637650429182088, 6.742154201667518], [1.60805433708839, 6.701048518204061], [1.609698564426992, 6.648433243370846], [1.62449661047367, 6.595817968537688], [1.667246521275558, 6.568688217451836], [1.716573341431854, 6.535803670681219], [1.719861796108773, 6.482366282178816], [1.77083284360333, 6.443726939723206], [1.793029912673603, 6.396044346905569], [1.818515436420967, 6.319587775663649], [1.663135952929281, 6.268616728169093], [1.649596367015818, 6.215779466588288], [1.743679810001538, 6.240868384717828], [1.806402105325276, 6.253412843782598], [1.875396630181626, 6.259685073314927], [1.978888417465782, 6.272229532379697], [2.063563516152954, 6.278501761912082], [2.148238614840011, 6.287910106210575], [2.269033727179931, 6.298212820262563], [2.347134525760339, 6.30807818429389], [2.502382471064948, 6.33277447891868], [2.633920658147815, 6.358555963587037], [2.704425126424212, 6.376445157030275], [2.704951279172576, 6.466417276994889]]]}}]}