{"type": "FeatureCollection", "features": [{"type": "Feature", "properties": {"code": "BES", "name": "Bonaire, Sint Eustatius, and Saba", "tier": "country"}, "geometry": {"type": "MultiPolygon", "coordinates": [[[[-68.24655472430982, 12.031431600794633], [-68.24655472430982, 12.031431600794633]]], [[[-68.25596593588722, 12.031823100423594], [-68.25596593588722, 12.031823100423594]]], [[[-68.24663681400295, 12.037855168627289], [-68.24663681400295, 12.037855168627289]]], [[[-68.23655759014594, 12.040883846252598], [-68.23655759014594, 12.040883846252598]]], [[[-68.23198399019816, 12.04675572660733], [-68.23198399019816, 12.04675572660733]]], [[[-68.2697087769115, 12.049544122459338], [-68.2697087769115, 12.049544122459338]]], [[[-68.24810901139284, 12.05926996367549], [-68.24810901139284, 12.05926996367549]]], [[[-68.2318381455658, 12.066992140888146], [-68.2318381455658, 12.066992140888146]]], [[[-68.24935752917276, 12.068782981385766], [-68.24935752917276, 12.068782981385766]]], [[[-68.24083346965966, 12.07193701960017], [-68.24083346965966, 12.07193701960017]]], [[[-68.2652777757308, 12.074892336278651], [-68.2652777757308, 12.074892336278651]]], [[[-68.24899561516901, 12.082862866065796], [-68.23894376185353, 12.064739948858687], [-68.24899561516901, 12.082862866065796]]], [[[-68.27030336244991, 12.085357883925667], [-68.27030336244991, 12.085357883925667]]], [[[-68.25340907113076, 12.086488914532936], [-68.25340907113076, 12.086488914532936]]], [[[-68.26126013990836, 12.091014988868892], [-68.26126013990836, 12.091014988868892]]], [[[-68.27961440179291, 12.101257668372057], [-68.27961440179291, 12.101257668372057]]], [[[-68.3055529354695, 12.168367012316708], [-68.3284321860794, 12.153579748272023], [-68.2999384654081, 12.147411046675927], [-68.3055529354695, 12.168367012316708]], [[-68.32813046314254, 12.151358150717897], [-68.32813046314254, 12.151358150717897]]], [[[-68.35756538611827, 12.295568446027858], [-68.3873929710939, 12.31199128908969], [-68.41154452970426, 12.29250689304871], [-68.41366820848782, 12.269704134110214], [-68.41335076064837, 12.245891614924574], [-68.40000963386035, 12.222394257217218], [-68.35605100344264, 12.220961657193357], [-68.3218124407673, 12.21103698478339], [-68.30081419114856, 12.19544677475966], [-68.29191202120148, 12.176635273503564], [-68.27938811233162, 12.156513144392704], [-68.27846783270081, 12.135476766819806], [-68.29375792078906, 12.11681367618479], [-68.28388222147174, 12.095645676572587], [-68.2638711097336, 12.09970149517801], [-68.24468041243335, 12.083072641089814], [-68.22809550911865, 12.064334325328332], [-68.22829811253439, 12.04096106714752], [-68.24662345770503, 12.025265399391799], [-68.22900643495467, 12.038174798653358], [-68.2255150460428, 12.06055615981279], [-68.2317628327134, 12.087054287281944], [-68.23354397947736, 12.110661291642145], [-68.21281044334938, 12.106503798493122], [-68.1957388575928, 12.12744809656374], [-68.20696830214064, 12.171698761667813], [-68.2057695689195, 12.19361997752901], [-68.19600602741434, 12.212630419636241], [-68.2271024497266, 12.224626688943601], [-68.24864718905235, 12.228686356531284], [-68.276008321978, 12.23354230291477], [-68.30052237029452, 12.249215381200997], [-68.32015226828798, 12.259858705778583], [-68.33861093519096, 12.272391913614626], [-68.35756538611827, 12.295568446027858]], [[-68.39754041295544, 12.303832945958504], [-68.39754041295544, 12.303832945958504]], [[-68.41348216885535, 12.282705152311962], [-68.41348216885535, 12.282705152311962]], [[-68.35478153009177, 12.279438276408143], [-68.35478153009177, 12.279438276408143]], [[-68.40827861878734, 12.273189453472924], [-68.40827861878734, 12.273189453472924]], [[-68.4135304236903, 12.246430604050431], [-68.4135304236903, 12.246430604050431]], [[-68.36843500015715, 12.240322060623612], [-68.36843500015715, 12.240322060623612]], [[-68.21679939273884, 12.17016364273644], [-68.21679939273884, 12.17016364273644]], [[-68.2800047938801, 12.167720098162818], [-68.2800047938801, 12.167720098162818]], [[-68.27146685171255, 12.139211705302216], [-68.27146685171255, 12.139211705302216]], [[-68.2721863153468, 12.13724618021871], [-68.2721863153468, 12.13724618021871]], [[-68.22669950184195, 12.12353810065963], [-68.22669950184195, 12.12353810065963]], [[-68.26281512880013, 12.118248107490786], [-68.26281512880013, 12.118248107490786]], [[-68.2201231590152, 12.114737594290261], [-68.2201231590152, 12.114737594290261]], [[-68.23773013712776, 12.091291567314045], [-68.23773013712776, 12.091291567314045]], [[-68.23630500478771, 12.074181908432536], [-68.23630500478771, 12.074181908432536]], [[-68.21870649224331, 12.108472350126817], [-68.21870649224331, 12.108472350126817]]]]}}]}