{"type": "FeatureCollection", "features": [{"type": "Feature", "properties": {"code": "BFA", "name": "Burkina Faso", "tier": "country"}, "geometry": {"type": "Polygon", "coordinates": [[[0.992102933000069, 13.08399926800007], [0.9917, 13.31368], [0.99182, 13.37092], [1.05309, 13.36861], [1.11968, 13.33302], [1.16865, 13.32256], [1.2023, 13.37385], [1.24562, 13.33926], [1.24093, 13.39137], [1.15982, 13.40628], [1.08789, 13.46078], [1.04081, 13.48315], [1.01481, 13.53102], [0.98996, 13.5764], [0.93809, 13.59683], [0.84642, 13.6238], [0.78164, 13.6427], [0.7726, 13.69205], [0.63552, 13.69343], [0.59973, 13.73041], [0.61937, 13.77766], [0.57817, 13.81298], [0.53044, 13.84068], [0.50467, 13.88645], [0.47161, 13.92986], [0.45028, 13.97772], [0.41046, 14.01096], [0.38406, 14.0705], [0.35901, 14.12518], [0.391, 14.19016], [0.40376, 14.24966], [0.37005, 14.30817], [0.32293, 14.36201], [0.27541, 14.37839], [0.19201, 14.46064], [0.168, 14.52335], [0.17759, 14.58268], [0.21245, 14.66826], [0.23124, 14.72168], [0.20165, 14.84035], [0.23574, 14.88607], [0.229, 14.97808], [0.16424, 14.98075], [0.09458, 14.97808], [-0.00921, 14.98518], [-0.13543, 15.03634], [-0.23175, 15.07144], [-0.30174, 15.05329], [-0.37642, 15.01142], [-0.41998, 15.0392], [-0.45567, 15.08082], [-0.50697, 15.08188], [-0.70149, 15.08152], [-0.76306, 15.05394], [-0.82375, 15.01326], [-0.88415, 14.95274], [-1.01049, 14.85474], [-1.08786, 14.79012], [-1.15213, 14.77206], [-1.31495, 14.73359], [-1.67491, 14.50689], [-1.75768, 14.48229], [-1.82153, 14.48637], [-1.88701, 14.48627], [-1.97537, 14.48088], [-1.99367, 14.19576], [-2.10582, 14.15028], [-2.29198, 14.25222], [-2.47647, 14.29787], [-2.67233, 14.13425], [-2.83703, 14.06063], [-2.85135, 14.00221], [-2.89591, 13.82558], [-2.90304, 13.72444], [-2.87197, 13.65534], [-2.93718, 13.63469], [-2.99515, 13.66365], [-3.03909, 13.62853], [-3.0829, 13.67684], [-3.13434, 13.69557], [-3.18562, 13.68533], [-3.23936, 13.71249], [-3.25512, 13.64849], [-3.26058, 13.57574], [-3.26969, 13.47647], [-3.26289, 13.42374], [-3.2596, 13.35897], [-3.23777, 13.30563], [-3.3414, 13.27702], [-3.40374, 13.27156], [-3.42032, 13.20475], [-3.44884, 13.15793], [-3.53224, 13.17199], [-3.57921, 13.19327], [-3.6261, 13.22097], [-3.67144, 13.2625], [-3.72265, 13.2832], [-3.7647, 13.33352], [-3.81379, 13.36299], [-3.87715, 13.3705], [-3.9466, 13.37672], [-3.91975, 13.4316], [-3.95679, 13.49534], [-3.99843, 13.43988], [-4.05334, 13.41813], [-4.10258, 13.38592], [-4.12269, 13.32612], [-4.17852, 13.27673], [-4.25833, 13.22973], [-4.25212, 13.17952], [-4.3036, 13.1732], [-4.34585, 13.14618], [-4.32329, 13.09017], [-4.29144, 13.03783], [-4.25615, 12.9789], [-4.23333, 12.91185], [-4.2385, 12.85699], [-4.22724, 12.80161], [-4.23928, 12.74015], [-4.29447, 12.69924], [-4.35251, 12.72334], [-4.42656, 12.72334], [-4.47925, 12.72178], [-4.49135, 12.66536], [-4.44485, 12.61639], [-4.41307, 12.57464], [-4.40013, 12.51815], [-4.43802, 12.45395], [-4.45099, 12.37681], [-4.43055, 12.32925], [-4.48444, 12.32283], [-4.50334, 12.26761], [-4.54101, 12.23215], [-4.58661, 12.19648], [-4.56157, 12.15228], [-4.60737, 12.12465], [-4.64198, 12.07223], [-4.69741, 12.05584], [-4.7246, 12.00683], [-4.78775, 12.00763], [-4.83777, 12.017], [-4.88761, 12.00084], [-4.95329, 12.00106], [-5.01206, 11.98665], [-5.06182, 11.97745], [-5.11154, 11.9633], [-5.15797, 11.93318], [-5.19721, 11.89882], [-5.24343, 11.8691], [-5.29298, 11.85363], [-5.35413, 11.82485], [-5.40634, 11.83577], [-5.36518, 11.80244], [-5.31592, 11.79355], [-5.27398, 11.76531], [-5.2762, 11.70967], [-5.28899, 11.65036], [-5.2487, 11.6062], [-5.21939, 11.55815], [-5.21049, 11.48292], [-5.19953, 11.43251], [-5.23174, 11.38408], [-5.26781, 11.33517], [-5.26462, 11.26608], [-5.31423, 11.20665], [-5.3359, 11.15328], [-5.3942, 11.09794], [-5.45841, 11.08067], [-5.49457, 11.02391], [-5.48959, 10.9732], [-5.46495, 10.9055], [-5.425, 10.85772], [-5.44409, 10.80315], [-5.4739, 10.75845], [-5.48026, 10.64518], [-5.46509, 10.59726], [-5.47738, 10.54646], [-5.49569, 10.49579], [-5.51833, 10.439], [-5.48653, 10.38471], [-5.45148, 10.34139], [-5.40721, 10.29556], [-5.3547, 10.30682], [-5.30388, 10.30476], [-5.2321, 10.31556], [-5.18756, 10.28479], [-5.13686, 10.30029], [-5.12087, 10.24973], [-5.08848, 10.21036], [-5.08114, 10.15706], [-5.04792, 10.11879], [-5.02207, 10.07356], [-4.97168, 10.04225], [-4.98783, 9.98437], [-4.94688, 9.95251], [-4.97265, 9.90773], [-4.93444, 9.8735], [-4.88278, 9.8757], [-4.83147, 9.86385], [-4.78874, 9.8334], [-4.79074, 9.78323], [-4.77104, 9.73682], [-4.72047, 9.71597], [-4.68225, 9.67919], [-4.63588, 9.7065], [-4.5805, 9.68781], [-4.56061, 9.73769], [-4.5095, 9.74233], [-4.52327, 9.68823], [-4.46613, 9.653], [-4.41068, 9.62003], [-4.35081, 9.626], [-4.30045, 9.62208], [-4.28385, 9.67601], [-4.2713, 9.72502], [-4.22761, 9.76199], [-4.17318, 9.78263], [-4.1408, 9.82273], [-4.07891, 9.80445], [-4.03562, 9.83065], [-3.98095, 9.83297], [-3.94494, 9.87236], [-3.90043, 9.90058], [-3.83546, 9.89203], [-3.78863, 9.91196], [-3.72687, 9.93912], [-3.67378, 9.94009], [-3.61977, 9.94153], [-3.5686, 9.92543], [-3.50388, 9.92479], [-3.42078, 9.91143], [-3.36682, 9.90409], [-3.31527, 9.90151], [-3.29602, 9.85319], [-3.2484, 9.88419], [-3.21431, 9.92092], [-3.19442, 9.8567], [-3.1372, 9.84823], [-3.10051, 9.80118], [-3.06619, 9.72327], [-3.01725, 9.74334], [-2.98472, 9.69458], [-2.96613, 9.64669], [-2.92549, 9.57373], [-2.86868, 9.49005], [-2.79873, 9.41926], [-2.73587, 9.43656], [-2.69767, 9.48394], [-2.73449, 9.53158], [-2.7792, 9.58574], [-2.75424, 9.64202], [-2.78823, 9.69108], [-2.79721, 9.74126], [-2.76849, 9.79507], [-2.75512, 9.85299], [-2.77176, 9.90304], [-2.75274, 9.95647], [-2.78362, 10.02422], [-2.79297, 10.08129], [-2.78974, 10.13537], [-2.79402, 10.19415], [-2.76253, 10.2386], [-2.8082, 10.27437], [-2.8494, 10.30585], [-2.8395, 10.37615], [-2.79136, 10.3995], [-2.84711, 10.43878], [-2.88243, 10.49083], [-2.9055, 10.5463], [-2.94234, 10.61257], [-2.9208, 10.66008], [-2.94306, 10.70774], [-2.90144, 10.75998], [-2.88351, 10.81134], [-2.87054, 10.86606], [-2.82506, 10.9133], [-2.84474, 10.95987], [-2.77221, 11.00466], [-2.70476, 10.99629], [-2.60906, 10.99602], [-2.55558, 10.98782], [-2.50544, 10.98345], [-2.37069, 10.98565], [-2.29594, 10.9849], [-2.21609, 10.98537], [-2.15798, 10.97786], [-2.06092, 10.97858], [-1.97809, 10.98156], [-1.7907, 10.9825], [-1.71588, 10.977], [-1.65986, 10.99694], [-1.59267, 10.9883], [-1.53354, 11.01862], [-1.43178, 11.01803], [-1.36224, 10.99166], [-1.31011, 10.99286], [-1.23581, 10.99044], [-1.16544, 10.98588], [-1.06134, 11.0006], [-1.00963, 10.99852], [-0.93298, 10.9942], [-0.89063, 10.95979], [-0.83703, 10.99149], [-0.76836, 10.99187], [-0.68709, 10.99073], [-0.65197, 10.95423], [-0.62115, 10.90218], [-0.58757, 10.96065], [-0.53439, 10.9916], [-0.48262, 11.02414], [-0.44292, 11.05469], [-0.39964, 11.12001], [-0.3618, 11.07061], [-0.31694, 11.10823], [-0.28978, 11.15064], [-0.13056, 11.13587], [-0.03651, 11.11723], [0.03523, 11.10232], [0.0916, 11.09035], [0.26189, 11.0578], [0.50285, 11.00908], [0.50042, 10.94812], [0.55211, 10.95476], [0.6041, 10.97468], [0.65631, 10.99735], [0.7159, 10.99799], [0.81578, 10.99658], [0.89004, 10.99635], [0.94888, 11.03583], [0.97192, 11.08215], [1.02206, 11.06323], [1.07448, 11.05375], [1.08455, 11.10506], [1.11183, 11.1663], [1.15249, 11.19838], [1.12903, 11.25166], [1.18119, 11.2617], [1.24834, 11.24555], [1.25496, 11.29799], [1.30808, 11.3011], [1.3217, 11.3531], [1.35681, 11.3902], [1.38444, 11.44223], [1.43102, 11.46623], [1.48024, 11.45459], [1.53178, 11.44731], [1.58311, 11.42784], [1.62047, 11.3904], [1.67034, 11.40058], [1.71414, 11.42913], [1.76381, 11.4225], [1.82162, 11.43288], [1.87268, 11.44577], [1.95631, 11.42022], [2.0104, 11.42333], [2.07323, 11.48369], [2.14469, 11.55418], [2.18544, 11.59724], [2.25746, 11.64792], [2.30573, 11.67442], [2.30249, 11.7254], [2.33826, 11.7702], [2.36773, 11.81338], [2.38905, 11.86279], [2.38203, 11.9318], [2.34671, 11.97684], [2.06642, 12.35094], [2.10377, 12.39551], [2.15407, 12.41158], [2.21552, 12.41418], [2.27263, 12.42631], [2.22826, 12.52179], [2.22587, 12.58299], [2.19603, 12.62407], [2.1515, 12.64908], [2.12863, 12.69727], [2.08276, 12.72114], [2.01314, 12.72838], [1.94859, 12.69165], [1.86544, 12.60539], [1.57605, 12.63314], [1.43331, 12.74343], [1.38816, 12.77934], [1.34016, 12.81913], [1.30274, 12.85253], [1.11808, 12.99984], [0.9975, 12.99965], [0.992102933000069, 13.08399926800007]]]}}]}