{"type": "FeatureCollection", "features": [{"type": "Feature", "properties": {"code": "BGD", "name": "Bangledesh", "tier": "country"}, "geometry": {"type": "MultiPolygon", "coordinates": [[[[92.3140802126274, 20.666368642042414], [92.3140802126274, 20.666368642042414]]], [[[89.35717948399576, 21.68869832629889], [89.33016516408463, 21.750916554898822], [89.32960236575332, 21.69758829200856], [89.35717948399576, 21.68869832629889]]], [[[91.89032664114785, 21.790685417867962], [91.90064089863137, 21.87910694928189], [91.87394517338015, 21.930332587193618], [91.83693519064536, 21.89205582727982], [91.84846289018571, 21.825610006555678], [91.84603600607193, 21.758569817343073], [91.89032664114785, 21.790685417867962]]], [[[90.55127995986402, 21.84717094298179], [90.57253122486065, 21.90432855119002], [90.51237933919214, 21.890291961745106], [90.5357917497816, 21.845499323523654], [90.55127995986402, 21.84717094298179]]], [[[90.66230881469818, 21.90451653184664], [90.66230881469818, 21.90451653184664]]], [[[90.7185886478461, 21.959333632253617], [90.7185886478461, 21.959333632253617]]], [[[90.46814339033779, 21.933754946678334], [90.47545976864706, 21.99534479143591], [90.43212429712327, 22.048561933062672], [90.37640726230666, 22.024564520792865], [90.35051853905861, 21.957245748785567], [90.32406701747914, 21.867960075680287], [90.37471886731231, 21.91600376794821], [90.43493828878059, 21.901383488526392], [90.46814339033779, 21.933754946678334]]], [[[90.52138411249587, 21.9584567249334], [90.56496721528555, 22.015903586344677], [90.54443633215311, 22.0649821644559], [90.50481532961703, 22.009892795344797], [90.51201914825998, 21.95645234502473], [90.52138411249587, 21.9584567249334]]], [[[90.96282993312235, 22.16677565480836], [90.95870787503048, 22.235471961484222], [90.98618826230984, 22.307948215772797], [90.96970002994215, 22.360057016916528], [90.94359366202684, 22.292693178027093], [90.92847944902337, 22.23165638218478], [90.95046375884664, 22.13114212494594], [90.96282993312235, 22.16677565480836]]], [[[91.23626715246695, 22.650426935180576], [91.245154667532, 22.580691947294326], [91.3118110305196, 22.546495226056322], [91.30884852549787, 22.62034951230703], [91.25256093008619, 22.649059922449112], [91.23626715246695, 22.650426935180576]]], [[[91.46734254415748, 22.601205907520296], [91.42882997887574, 22.646325856158228], [91.33551107069297, 22.670930492591253], [91.39624242363726, 22.598470889405405], [91.40216743368057, 22.531445983021626], [91.3873549085722, 22.46028191991263], [91.47771131173323, 22.40414601218646], [91.5132613719934, 22.34524739858182], [91.56954896740507, 22.390450884759673], [91.54288642221013, 22.50681641177016], [91.49696759437421, 22.553335248680526], [91.46438003913573, 22.597103359969196], [91.46734254415748, 22.601205907520296]]], [[[91.05365834293099, 22.7233509793204], [91.07451437828354, 22.649005241656766], [91.07261837506974, 22.595626412919557], [91.15509451487316, 22.568491530347558], [91.18922257272277, 22.611379697739494], [91.1655225325494, 22.6630028136463], [91.11433044577495, 22.69886507340226], [91.05365834293099, 22.7233509793204]]], [[[91.31056677841059, 22.69099367373167], [91.24610266913896, 22.741712533578436], [91.1968065855782, 22.765316622221746], [91.24325866431798, 22.707610542552004], [91.31056677841059, 22.69099367373167]]], [[[91.31815079126602, 22.766190769392892], [91.37503088768221, 22.71897881736419], [91.35038284590183, 22.765316622221746], [91.31815079126602, 22.766190769392892]]], [[[90.63691253999025, 21.996518914548062], [90.68703676638751, 22.025053639094835], [90.73188475842738, 22.066622517997985], [90.77761212286015, 22.089439451639635], [90.81806325293519, 22.1342476912842], [90.83740944557968, 22.20265458633213], [90.83828881797274, 22.256379491340965], [90.86027312779618, 22.31659199757388], [90.86554936215367, 22.392227647873767], [90.89105116154889, 22.486511251340687], [90.84532379711612, 22.528755494393465], [90.80575203943391, 22.591285741407205], [90.74067848235666, 22.748703508578217], [90.70638295903217, 22.78681358149379], [90.6014628403999, 22.729340329381444], [90.57398245312072, 22.684977168028468], [90.57947853057647, 22.626649459085172], [90.62756920831515, 22.56449053583907], [90.64543146004672, 22.481991572004972], [90.675659886054, 22.399443418801525], [90.67703390541789, 22.263449701463742], [90.63169126640719, 22.180772072531283], [90.59734078230804, 22.12605088448646], [90.61492823016681, 22.06010271730861], [90.61844571973842, 22.002226318988505], [90.63691253999025, 21.996518914548062]]], [[[89.82696950127547, 25.355644231580584], [89.82735381679691, 25.42399276707198], [89.8448735037365, 25.501625366735368], [89.8563996135652, 25.561532591991295], [89.85340282500977, 25.624319810048576], [89.85452777332898, 25.67495798410249], [89.82297389506192, 25.72923795873612], [89.84233775957415, 25.788823502527407], [89.81951606211345, 25.83717582161006], [89.84856185888174, 25.883849230619887], [89.8826791439746, 25.92055268725477], [89.83196426072845, 25.941905938583318], [89.815366662575, 25.99765490709865], [89.78401564384103, 26.04136514972049], [89.77733050014035, 26.1055544404972], [89.74367425944052, 26.14487885997653], [89.68166378856216, 26.144258050959877], [89.67981961098957, 26.206529426174086], [89.6219873549241, 26.20312966806671], [89.59209150755578, 26.15787629038317], [89.59281188942015, 26.105166304621434], [89.64132240416171, 26.06973701405093], [89.59641379874171, 26.039488119060366], [89.56294485732644, 25.998483688630415], [89.57654566692446, 25.94978285981631], [89.53574323813075, 25.98066359746099], [89.46566449037238, 25.99330370814073], [89.42370945059582, 26.042400739981872], [89.390053209896, 25.994339722507846], [89.33455499107077, 26.014242374648745], [89.2740429144701, 26.044666061791133], [89.22973942981605, 26.101931788887782], [89.1703079260119, 26.124894912798254], [89.132622949736, 26.16828208219073], [89.13374854639898, 26.23241377578819], [89.09998064651023, 26.27784003263355], [89.14613010969151, 26.304582735736176], [89.09604105818977, 26.319212924658245], [89.10448303316201, 26.3756983695871], [89.03807283004733, 26.391327858682587], [88.95083908866815, 26.438203630471207], [88.90581522214967, 26.41350801750241], [88.90187563382943, 26.35098938110002], [88.96040666030319, 26.341406924118303], [88.97109982860138, 26.286418552538464], [89.03244484673257, 26.261185801277918], [88.95759266864587, 26.226860459711304], [88.91200600379597, 26.268251524567404], [88.85854016230547, 26.249576893979906], [88.80676271580944, 26.250081653204006], [88.74766889100403, 26.3060962892161], [88.7003938311596, 26.334850048932765], [88.69026346119307, 26.387294644614997], [88.62723004806742, 26.415524184177116], [88.60077852648789, 26.46742833334406], [88.55744305496393, 26.442235064882254], [88.51579597843448, 26.4890901342377], [88.4493857753198, 26.520819821968416], [88.41899466542003, 26.6003572861689], [88.3638404289349, 26.56311243442326], [88.34078820927766, 26.507484347750733], [88.31341369843449, 26.464284514499866], [88.34907260071697, 26.42848729398702], [88.40526238613194, 26.45364325971906], [88.4650540808683, 26.43203526283162], [88.50323431967576, 26.357182252057726], [88.44164167027867, 26.352340948000347], [88.39553723096384, 26.295844100551847], [88.3371862999561, 26.271945717265453], [88.3454706913954, 26.211855083376065], [88.29864587021638, 26.178888972446487], [88.22552711099058, 26.177272746735525], [88.18522230848157, 26.12729759336139], [88.1500474127642, 26.076757629900897], [88.16939360540886, 26.015922811510222], [88.11926937901143, 25.985888806100093], [88.0813156665323, 25.918996067931005], [88.08638085151557, 25.863808662560643], [88.10213920479703, 25.798461818869043], [88.1488514663098, 25.768562485584994], [88.21357327442996, 25.777685114999713], [88.26422512426296, 25.77312388795832], [88.3086861924499, 25.743218169533463], [88.35951813774915, 25.68945005543162], [88.4095846773177, 25.662506161511146], [88.42739251700306, 25.614758322040075], [88.48594515493289, 25.56631555904994], [88.52305922858125, 25.515356748042223], [88.58103556101958, 25.504291145966363], [88.64478935600948, 25.48218289531235], [88.69845780489942, 25.48218289531235], [88.74928473777595, 25.498054721060953], [88.7973754155147, 25.5265756977995], [88.80974158979035, 25.47572923207349], [88.81111560915446, 25.41741536212453], [88.87019844180475, 25.329270702732458], [88.9581356810985, 25.305671794444322], [88.9423971136959, 25.255054281801108], [88.9325819107948, 25.183324550331406], [88.84253417775813, 25.20125076292038], [88.79787050217186, 25.17876109320116], [88.6964542428392, 25.20923522628715], [88.63904881302841, 25.2021062661874], [88.57882939156002, 25.175623617301085], [88.52874034005828, 25.18784709369163], [88.47020931358435, 25.205670798425274], [88.45388816197158, 25.143021688223655], [88.43756701035863, 25.079320936562056], [88.43587861536412, 25.022726868881648], [88.4032363121384, 24.982942444123466], [88.36102643727742, 24.94722750999938], [88.32725853738867, 24.907929117890546], [88.2844858641962, 24.874234816143655], [88.23889919934646, 24.925793576364526], [88.20006611447428, 24.959984033385297], [88.12296274306158, 24.92987651780436], [88.16067023127079, 24.866065116323682], [88.10157640646537, 24.81345975383715], [88.06780850657663, 24.775140820001923], [88.0497989599694, 24.7200046759844], [88.03397025689651, 24.672068132276593], [88.07618013175744, 24.612121538335657], [88.0946469520091, 24.551346333942718], [88.13509808208414, 24.505745592664937], [88.18786042566035, 24.468932925971274], [88.2450899809927, 24.46611551307916], [88.36721721892366, 24.40565402435095], [88.47013896379315, 24.352021464917016], [88.5141075834398, 24.322376037972674], [88.58709549205366, 24.323978670830343], [88.64513406998753, 24.312759815364075], [88.70669013749301, 24.310355645764673], [88.73043319210234, 24.266271130164853], [88.71108699946905, 24.18848481040311], [88.69877578595583, 24.13553089438119], [88.73483005406626, 24.072117819668733], [88.72867444731571, 24.017509289838358], [88.74626189517448, 23.925103851168103], [88.66184214545257, 23.874453676431415], [88.60907980187625, 23.886515041276596], [88.61435603623391, 23.80608472572368], [88.59515054317222, 23.753617309137496], [88.57995498822225, 23.695395579510375], [88.57661451528276, 23.639792906728644], [88.64035076507594, 23.60291121669718], [88.70073247540631, 23.53219231749972], [88.76111418573674, 23.495280397174838], [88.74098694896009, 23.412190788397652], [88.72756879110875, 23.322888247504864], [88.72867444731571, 23.264356976832516], [88.79050531869416, 23.22774522318491], [88.92790725509047, 23.216380912169654], [88.95676166173371, 23.16712439568431], [88.872946480532, 23.110267430667307], [88.90180088717523, 23.03694959548136], [88.8669821372768, 22.981251937354102], [88.89962444050258, 22.92476391362851], [88.9376971430587, 22.86558770263207], [88.92052190100912, 22.77456009843837], [88.95401362300578, 22.70525925384834], [88.93477735191027, 22.648208238516872], [88.96637979728143, 22.60255035097498], [88.98149401028508, 22.535304226989695], [89.00622635883627, 22.468025338460734], [88.99386018456079, 22.361327719983365], [89.00760037820038, 22.293964494793045], [89.06118713339498, 22.23547196148388], [89.09553761749407, 22.156595566852786], [89.03645478484356, 22.094226465379222], [89.08745838363382, 22.010379355400516], [89.0980108523492, 21.897010167057886], [89.14901445113946, 21.7868170215271], [89.2026561671085, 21.77783458100913], [89.21408800821672, 21.7280126591956], [89.21848487018138, 21.676539102613333], [89.22464047693194, 21.62259470373766], [89.30026650272458, 21.643030559828617], [89.30026650272458, 21.70922285906431], [89.2975184639966, 21.76027636831344], [89.32637287063983, 21.825343261720718], [89.34011306427942, 21.892930455175815], [89.34599386715712, 21.81947569569394], [89.37765127330289, 21.771301543588038], [89.40139432791221, 21.72719576240752], [89.46031227823897, 21.740265553965344], [89.49374560441265, 21.7912187222654], [89.45510130980102, 21.835068860129297], [89.51092084646223, 21.912770144496335], [89.53453680428032, 21.996401069513524], [89.56244657261072, 21.93069519824877], [89.54527133056132, 21.833075963509827], [89.54527133056132, 21.775269888906394], [89.57318109889172, 21.72741275106955], [89.62470682504039, 21.707467572379073], [89.69984850900721, 21.75333734720749], [89.66979183542037, 21.82510409933127], [89.7234644668253, 21.81912490966829], [89.8093406770729, 21.815138644433205], [89.87374783475889, 21.858981452603302], [89.87048453876935, 21.929898577120582], [89.87323257749728, 22.001258114770167], [89.8649884613136, 22.056027689190273], [89.895826208762, 22.109318710139632], [89.89866470548287, 22.201164361498627], [89.92956737142146, 22.12605088448629], [89.92956737142146, 22.0636682705682], [89.9515516812449, 22.017818591934713], [90.01475657198722, 22.078948194340512], [90.01750461071515, 22.01017553520535], [90.07658744336567, 21.9770508614277], [90.03261882371879, 21.941369491076387], [90.03981868518599, 21.879058561671002], [90.06356173979532, 21.829271845345033], [90.11896220055041, 21.80233082027678], [90.18667387480644, 21.787633579123053], [90.2341599840251, 21.808046006865993], [90.26757613495658, 21.8464134928372], [90.28692232760125, 21.899457938145417], [90.32297659571168, 21.941063612041035], [90.32297659571168, 22.007933493710823], [90.374859566895, 22.075586752883396], [90.44960622029458, 22.083735563772905], [90.51380040497895, 22.07640165512703], [90.55864839701871, 22.10980859825247], [90.60154871661018, 22.268853847861863], [90.64663372699016, 22.384039581089326], [90.64233991647785, 22.435643655488377], [90.58866728507292, 22.459454452536022], [90.5894264307716, 22.53525346281549], [90.54545781112472, 22.570174802692918], [90.51292103258612, 22.624569492061482], [90.5014891914779, 22.67569711291634], [90.61872395865976, 22.78643671382497], [90.67883730583304, 22.83591147562811], [90.635813324499, 22.90791456688487], [90.54925010456935, 22.947144121736414], [90.47642707827924, 22.981302536029034], [90.4145962069008, 23.024304552204683], [90.4975850411339, 23.09219306481907], [90.56007538087971, 23.04321689400558], [90.64820990566466, 22.990387845625605], [90.71338501614139, 22.945381644558665], [90.78596638917247, 22.868973237375428], [90.8200351969216, 22.75428003287726], [90.93853539778866, 22.565646434798566], [91.01407927584125, 22.504079521826327], [91.04074182103642, 22.449330355350924], [91.05851685116636, 22.374014951587355], [91.04222307354712, 22.23286014344876], [91.0206523338581, 22.12003964769707], [91.12248844397817, 22.111462962676057], [91.15026192855629, 22.175775374021043], [91.14100410036349, 22.2400583749141], [91.13868964331544, 22.317159059258415], [91.14100410036349, 22.385657271490686], [91.10860170168911, 22.473371326586914], [91.02000428588474, 22.5478632577059], [91.03926056852555, 22.594368260342776], [91.02741054843892, 22.698263801881694], [90.98297297311387, 22.828022466026937], [91.06740436623136, 22.79661852771318], [91.1370232342407, 22.804811557369476], [91.32366105060618, 22.778865274337306], [91.37698614099628, 22.825291976228982], [91.4140174537672, 22.773402269982455], [91.4806738167548, 22.77067068579646], [91.52659264459089, 22.696897265883194], [91.56510520987246, 22.659995643185027], [91.61546779524105, 22.61077804290244], [91.66731163312028, 22.546495226056322], [91.70286169338044, 22.491762846871893], [91.7265617335537, 22.439747026802422], [91.75174302623793, 22.376754408607496], [91.75914928879212, 22.305511016326818], [91.85691195450732, 22.151940333614107], [91.91468080243004, 22.050381895331043], [91.93541833758167, 21.91577332692441], [91.92504957000574, 21.792041016905102], [91.89690577229993, 21.708117182600688], [91.90708938331198, 21.638946414113263], [91.9094038403602, 21.503347994929527], [91.9880953799983, 21.503347994929527], [91.99966766523931, 21.41934265679089], [92.02512669276933, 21.337444799887066], [92.05058572029924, 21.26197208077184], [92.05752909144377, 21.20372381757045], [92.1639941156601, 21.037482345967078], [92.20333988547924, 20.972662599662044], [92.23574228415384, 20.87970527375171], [92.28666033921377, 20.806163368785576], [92.35840850770751, 20.728256356846828], [92.35147254282487, 20.781978408033808], [92.32872050425829, 20.830718247747313], [92.3116564753335, 20.88475671509866], [92.29933245444329, 20.95471206332752], [92.272463813699, 21.004396981361538], [92.28605436473606, 21.057312583984753], [92.24683591745776, 21.110933860483442], [92.20839407309575, 21.162725210430096], [92.23013895475515, 21.258292385716175], [92.22349232588846, 21.327841648081744], [92.26615239820069, 21.366691904472873], [92.28606043194628, 21.41788786127745], [92.33820052032786, 21.433772616026033], [92.37517258299829, 21.472594736899225], [92.42636466977268, 21.395822836044943], [92.45764872280171, 21.354331576147786], [92.51452881921773, 21.35521449132483], [92.56666890759914, 21.362277621218425], [92.57330491884773, 21.30223017131908], [92.5960569574143, 21.25099382757179], [92.65388505543734, 21.261595913991414], [92.69085711810777, 21.303113400040672], [92.66810507954136, 21.362277621218425], [92.64819704579571, 21.463772435415763], [92.62449700562235, 21.51669822595545], [92.60868433881865, 21.767585448637362], [92.62870613275715, 21.85039002821054], [92.64144727435439, 21.938211819406433], [92.61353810704617, 22.02654186401554], [92.57410124019759, 22.143480289751665], [92.61232466498927, 22.218202578985654], [92.58380877665263, 22.31140915857179], [92.57288779814087, 22.381553807308705], [92.54865687706751, 22.513329991946534], [92.5344368529635, 22.59475117756142], [92.53064484653572, 22.732094884059507], [92.46712873887111, 22.7836725372419], [92.46974522330623, 22.86039097739115], [92.41332016766154, 22.9235506998823], [92.38601772138173, 22.97662681257924], [92.40076862638568, 23.04737417223373], [92.36664056853607, 23.14504004635944], [92.36190056050145, 23.22172764268271], [92.38180859424705, 23.287051653151877], [92.37327657978466, 23.338417362411576], [92.35517202429594, 23.433441990262395], [92.32410790764004, 23.481174267031747], [92.31260447694086, 23.57854436011104], [92.28894235683168, 23.635250980659407], [92.2895490778601, 23.69415537635797], [92.26588695775115, 23.74525841513156], [92.23858451147134, 23.69526652487781], [92.20824846004933, 23.74081546782196], [92.15000324131927, 23.747479831954536], [92.10571260624334, 23.719153930079415], [92.07598327584981, 23.674153086233616], [92.01872397879077, 23.67745228597107], [91.99597194022436, 23.72953386613608], [91.92581982131117, 23.71998713270807], [91.94383185184296, 23.645324957198227], [91.95046786309155, 23.594947325055557], [91.96753189201638, 23.5436812550966], [91.95710387433996, 23.483700657913346], [91.88410775060595, 23.449786504672204], [91.83670767025933, 23.38454250719201], [91.80542361723036, 23.333194637576753], [91.77793157062933, 23.273118550354525], [91.79689160276797, 23.206916419948243], [91.8239756294775, 23.146330155573708], [91.79912433615277, 23.088476437340205], [91.7560228742924, 23.04310455542145], [91.72289299387876, 23.001777836035103], [91.66573501923159, 22.987365542820953], [91.59639991085527, 22.97546852303691], [91.54129216790733, 23.01201420486308], [91.53041972707774, 23.077402822736474], [91.51597976660094, 23.161949951789666], [91.48443027312209, 23.23277400290783], [91.4443866852452, 23.26677850610008], [91.40009605016911, 23.228313752961924], [91.39160195577097, 23.161392133284664], [91.41101702868104, 23.094995154814683], [91.35459197303629, 23.115085102386672], [91.3291096898418, 23.184818509587274], [91.3278962477849, 23.251170958231228], [91.31576182721614, 23.30133157023465], [91.29331314916402, 23.365398167824196], [91.23922965748835, 23.48989557111014], [91.19034832463063, 23.548298193306834], [91.1636857794357, 23.609389445478485], [91.19479208216325, 23.670452240044312], [91.17257329450058, 23.746401668560736], [91.21404836480406, 23.774871297912], [91.241362661104, 23.895188216045938], [91.23567465146226, 23.948915325968358], [91.29539875261236, 24.003486090202898], [91.36816564549093, 23.991953764397294], [91.40114211022598, 24.047175444059008], [91.38190583913052, 24.117423243770247], [91.45885092351261, 24.117423243770247], [91.5138116980711, 24.091084830407226], [91.56602443390182, 24.07979528110684], [91.6278553052801, 24.087321757796417], [91.64159549891968, 24.153786428244302], [91.63472540209989, 24.208938394704546], [91.69106019602242, 24.190139266292874], [91.75151704803682, 24.160054897420025], [91.75838714485661, 24.231493688546607], [91.8600645777899, 24.192645976896586], [91.91914741044042, 24.203925564847395], [91.92876554598814, 24.264066502678418], [91.91914741044042, 24.327935083936097], [91.99197043673047, 24.351721039315294], [92.01120670782598, 24.40303339808088], [92.09502188902769, 24.39552557335503], [92.15960079913407, 24.421801007080546], [92.14723462485841, 24.476836553156716], [92.13121245985906, 24.531156048848572], [92.18017591469777, 24.577227381111356], [92.19818546130517, 24.638117914307372], [92.2223857895587, 24.68312713129319], [92.25165130279566, 24.738343512112465], [92.28260521102715, 24.826740886662492], [92.32256389256213, 24.87780889000004], [92.41823960891372, 24.88087229959416], [92.47677063538765, 24.89159363493974], [92.48971499701167, 24.954371325916384], [92.43399796219501, 24.99467508813234], [92.39685327231751, 25.050772240175377], [92.34057343916953, 25.09257342638722], [92.28598200101607, 25.1017473863011], [92.22576257954768, 25.123660171608606], [92.15034760312949, 25.17358625204116], [92.08713409453776, 25.212656978828022], [92.0024892254832, 25.19310281153355], [91.94269753074673, 25.189191601235848], [91.84832750652424, 25.176153326691065], [91.78565428433075, 25.182998594775313], [91.7309052626444, 25.180390918936325], [91.6754358590938, 25.150724679998405], [91.59115118097151, 25.17876109320133], [91.52163433106722, 25.149420503938984], [91.43987098946985, 25.168003696767414], [91.38980444990148, 25.19310281153355], [91.33541561914728, 25.17941302611075], [91.27634430627518, 25.216241568771977], [91.19638191933859, 25.205161585924316], [91.13731060646649, 25.205487482170327], [91.08184120291588, 25.200598946872674], [91.02889313589031, 25.197991647787433], [90.97725713645406, 25.171521121788373], [90.8656180631209, 25.17540712398892], [90.77974185287309, 25.1851215875015], [90.72606922146821, 25.17735007863888], [90.66380896903866, 25.17540712398892], [90.58437347455941, 25.17540712398892], [90.50279107482424, 25.17540712398892], [90.38471128573354, 25.167634995703963], [90.32459793856009, 25.179293002316854], [90.24301553882475, 25.208433139666], [90.12922956024659, 25.237566302059463], [90.07555692884165, 25.256984532451952], [89.98109309756921, 25.3016346786128], [89.93171427667681, 25.3191020001442], [89.85657259271, 25.3016346786128], [89.82866282437942, 25.35402908499219], [89.82696950127547, 25.355644231580584]]]]}}]}