{"type": "FeatureCollection", "features": [{"type": "Feature", "properties": {"code": "BHR", "name": "Bahrain", "tier": "country"}, "geometry": {"type": "MultiPolygon", "coordinates": [[[[50.789193, 25.661504299999987], [50.7862512, 25.638852], [50.8091178, 25.63193479999997], [50.8034083, 25.65122950000001], [50.789193, 25.661504299999987]]], [[[50.814142, 25.687531600000018], [50.80138859999997, 25.670529], [50.82281760000003, 25.67853490000001], [50.814142, 25.687531600000018]]], [[[50.800858100000035, 25.733066799999964], [50.78568370000003, 25.7183759], [50.75674020000003, 25.70108730000003], [50.739158, 25.6915128], [50.7423254, 25.671086300000017], [50.73655629999996, 25.648002299999977], [50.74689020000003, 25.6283102], [50.74558690000002, 25.605843599999982], [50.7489594, 25.5829503], [50.77700519999997, 25.571810200000016], [50.755558, 25.584242900000014], [50.76204659999997, 25.6036841], [50.76214180000003, 25.626976], [50.77331850000002, 25.64681079999998], [50.7582363, 25.663515], [50.7761016, 25.67692649999998], [50.797248199999956, 25.6836486], [50.78132039999996, 25.695979], [50.79705639999999, 25.7132449], [50.800858100000035, 25.733066799999964]]], [[[50.784476, 25.75787820000002], [50.784476, 25.75787820000002]]], [[[50.7685606, 25.75798289999998], [50.7685606, 25.75798289999998]]], [[[50.61921170000004, 26.186613499999982], [50.5976359, 26.1740725], [50.60448979999999, 26.154466699999972], [50.62947759999999, 26.11860359999996], [50.63846989999998, 26.142664600000014], [50.66814590000002, 26.1550016], [50.6282561, 26.1448027], [50.62950820000003, 26.165383], [50.62356760000002, 26.18669049999996], [50.61921170000004, 26.186613499999982]]], [[[50.5898073, 26.193527499999973], [50.5898073, 26.193527499999973]]], [[[50.40004490000003, 26.197519], [50.40602920000001, 26.1745632], [50.38067369999997, 26.1857109], [50.40549270000003, 26.173234400000016], [50.3818184, 26.17895820000003], [50.38081849999996, 26.158481599999988], [50.38151620000004, 26.134294900000015], [50.398232, 26.12125490000004], [50.424010700000025, 26.119859699999974], [50.417627, 26.15586290000003], [50.4061901, 26.173475199999956], [50.412058, 26.193029900000013], [50.40004490000003, 26.197519]]], [[[50.5836832, 26.2568915], [50.57047319999999, 26.238262200000033], [50.55148479999998, 26.25060719999997], [50.527586200000044, 26.24218179999998], [50.50228790000002, 26.2366828], [50.470617, 26.232529299999978], [50.443784, 26.230397], [50.446465699999976, 26.205320499999978], [50.4539865, 26.1807837], [50.43493469999998, 26.17219809999998], [50.45149430000002, 26.149377599999983], [50.45866859999997, 26.128416], [50.46636150000001, 26.109739], [50.4803247, 26.084898299999963], [50.479493799999986, 26.062627399999965], [50.484308, 26.03960370000003], [50.472960399999955, 26.023115400000023], [50.46642610000003, 25.99738390000004], [50.4546554, 25.98060690000004], [50.4624582, 25.9450407], [50.48845279999998, 25.9269638], [50.51390959999998, 25.9001854], [50.52830750000004, 25.881834300000044], [50.544925, 25.85971030000003], [50.55352959999997, 25.8233844], [50.565545899999975, 25.80060979999999], [50.58164319999996, 25.82185940000004], [50.59454089999998, 25.8431959], [50.60582289999998, 25.861460499999982], [50.60570389999999, 25.886623800000024], [50.610497799999976, 25.90720720000002], [50.61216269999998, 25.932656199999986], [50.62228710000003, 25.950651100000037], [50.61299950000002, 25.97035650000004], [50.61816520000004, 25.9917371], [50.6290635, 26.013443], [50.62980809999998, 26.033596099999983], [50.618527, 26.0605689], [50.62926040000004, 26.0922797], [50.627027400000024, 26.11284569999997], [50.6173553, 26.134591300000025], [50.602441499999976, 26.15150619999998], [50.584353699999966, 26.1633219], [50.56883980000002, 26.176956499999964], [50.5609326, 26.1953935], [50.583817700000026, 26.201022], [50.604534599999965, 26.198945800000022], [50.62325730000001, 26.209134200000044], [50.61114519999999, 26.22704040000004], [50.598034899999966, 26.24377660000004], [50.5836832, 26.2568915]]], [[[50.49905939999997, 26.25860410000003], [50.49905939999997, 26.25860410000003]]], [[[50.4820906, 26.26195909999998], [50.4588965, 26.25030459999998], [50.440443, 26.23624979999997], [50.46368049999997, 26.24369480000002], [50.48202550000003, 26.25602729999999], [50.4820906, 26.26195909999998]]], [[[50.646960300000025, 26.3314288], [50.6354075, 26.3143588], [50.614485, 26.310302899999964], [50.6412386, 26.294745100000032], [50.6219034, 26.28804], [50.60190010000003, 26.282405900000043], [50.5853008, 26.2935822], [50.59280309999998, 26.265654300000012], [50.6130968, 26.242167699999968], [50.623771600000026, 26.26154510000001], [50.63400189999996, 26.243299], [50.64493560000001, 26.225993], [50.6568808, 26.20891290000003], [50.66548150000001, 26.185026500000035], [50.68517359999998, 26.19435130000001], [50.684056800000036, 26.219646400000034], [50.70964619999998, 26.199747099999975], [50.716067399999964, 26.17965], [50.69648190000002, 26.224671499999967], [50.66665, 26.225936600000015], [50.6608023, 26.245589500000026], [50.66242990000003, 26.267426700000023], [50.67309370000004, 26.285899900000036], [50.65960279999997, 26.30075630000002], [50.6501589, 26.281872], [50.6447584, 26.3011908], [50.65521080000002, 26.319150900000015], [50.646960300000025, 26.3314288]]]]}}]}