{"type": "FeatureCollection", "features": [{"type": "Feature", "properties": {"code": "BHS", "name": "Commonwealth of The Bahamas", "tier": "country"}, "geometry": {"type": "MultiPolygon", "coordinates": [[[[-72.99957214499995, 21.45170771100004], [-72.93342899699991, 21.473451972000078], [-72.95945733199994, 21.533127982000053], [-73.00656224199992, 21.552084944000057], [-73.06618412899991, 21.514148289000047], [-73.0521743239999, 21.447796365000045], [-72.99957214499995, 21.45170771100004]]], [[[-73.13914954299992, 22.363348700000074], [-73.08429928299995, 22.34438711100006], [-73.00991777299993, 22.36595286700009], [-72.95702063699991, 22.355902411000045], [-72.89757239499994, 22.362250067000048], [-72.84373938699991, 22.336004950000074], [-72.79723059799994, 22.29364655200004], [-72.7461645169999, 22.331284898000035], [-72.79283606699994, 22.35960521000004], [-72.84373938699991, 22.38434479400007], [-72.89281165299991, 22.40428294500009], [-72.95360266799992, 22.41860586100006], [-73.01520748599995, 22.430487372000073], [-73.06314042899993, 22.44472890800006], [-73.1145727199999, 22.43854401200008], [-73.15111243399991, 22.403957424000055], [-73.13914954299992, 22.363348700000074]]], [[[-73.46873625299992, 22.58766229300005], [-73.52392126799992, 22.61619629900008], [-73.4752329449999, 22.586170179000078], [-73.46873625299992, 22.58766229300005]]], [[[-73.64707081799992, 21.061555161000058], [-73.6999099219999, 21.026871362000065], [-73.68143384299992, 20.963241811000046], [-73.65161212999993, 20.913781123000035], [-73.60081946499992, 20.946519273000035], [-73.53681058799992, 20.94123591400006], [-73.43342037699995, 20.937648830000057], [-73.34692155599993, 20.96382728000009], [-73.2910863919999, 20.95058828300006], [-73.22556430799995, 20.952463097000077], [-73.15119381399995, 20.982123114000046], [-73.09759423299994, 21.081400047000045], [-73.03392986299991, 21.156731490000084], [-73.00572669199994, 21.291449286000045], [-73.03376217399995, 21.340399481000077], [-73.11738404399995, 21.23670132300009], [-73.1609611959999, 21.16986297300008], [-73.21102369099992, 21.158073590000072], [-73.31794350199993, 21.154067681000072], [-73.37979081899994, 21.208197333000044], [-73.43333899599992, 21.19326406500005], [-73.49262555699994, 21.18208591700005], [-73.54579357499995, 21.149742968000055], [-73.59586063499995, 21.11264424700005], [-73.6678331409999, 21.115223100000037], [-73.64707081799992, 21.061555161000058]]], [[[-74.28376217399995, 22.671820380000042], [-74.34764563699991, 22.612941799000055], [-74.38556881399995, 22.541449286000045], [-74.31753495999993, 22.602484442000048], [-74.28892981699994, 22.643744208000044], [-74.28376217399995, 22.671820380000042]]], [[[-73.99571692599994, 22.657538153000075], [-74.01622473899994, 22.61033763200004], [-73.91344153599994, 22.59446849200009], [-73.87083899599992, 22.535305080000057], [-73.90770423099991, 22.479437567000048], [-73.96934973899994, 22.462225653000075], [-74.00255286399994, 22.421698309000078], [-74.06541907499991, 22.39752838700008], [-74.09239661399994, 22.346502997000073], [-74.16120357999995, 22.30923086100006], [-74.19371497299994, 22.26776764500005], [-74.22252356699994, 22.225531317000048], [-74.27696692599994, 22.21588776200008], [-74.22691809799994, 22.20921458500004], [-74.16771399599992, 22.238430080000057], [-74.13467363199993, 22.28388092700004], [-74.03359941299993, 22.325018622000073], [-73.96157792899993, 22.37018463700008], [-73.92837480399993, 22.430121161000045], [-73.87515214799993, 22.468491929000038], [-73.85558020699995, 22.520656643000052], [-73.84947669199994, 22.582464911000045], [-73.85863196499992, 22.657171942000048], [-73.89952551999994, 22.698472398000035], [-73.84487870999993, 22.72020091400009], [-73.90314693899995, 22.719671942000048], [-73.95474199099993, 22.72020091400009], [-73.97524980399993, 22.671820380000042], [-73.99571692599994, 22.657538153000075]]], [[[-74.28685462099992, 22.733303127000056], [-74.23257402299993, 22.703517971000053], [-74.14842688699991, 22.677801825000074], [-74.09459387899994, 22.66787344000005], [-74.01622473899994, 22.72020091400009], [-74.07591712099992, 22.741888739000046], [-74.14753170499995, 22.740668036000045], [-74.19371497299994, 22.76117584800005], [-74.22850501199991, 22.81582265800006], [-74.29845130099994, 22.839992580000057], [-74.34821529899995, 22.825873114000046], [-74.28685462099992, 22.733303127000056]]], [[[-73.66616777299993, 23.089544989000046], [-73.74185136599993, 23.096991278000075], [-73.81696529899995, 23.10382721600007], [-73.75523841099994, 23.07298411700009], [-73.66616777299993, 23.089544989000046]]], [[[-75.65355383999992, 23.459458726000037], [-75.60187740799995, 23.42340729400007], [-75.52383378799993, 23.404852606000077], [-75.57697506399995, 23.445868231000077], [-75.65355383999992, 23.459458726000037]]], [[[-75.79820716099994, 23.53864166900007], [-75.85631262899994, 23.567287502000056], [-75.92174231699994, 23.631415106000077], [-75.96825110599991, 23.664943752000056], [-76.02354895699995, 23.67918528900009], [-76.00495357999995, 23.62295156500005], [-75.94546464799993, 23.588039455000057], [-75.87336178299995, 23.52838776200008], [-75.82298743399991, 23.51239655200004], [-75.79377193899995, 23.470526434000078], [-75.74299068899995, 23.466945705000057], [-75.69823157499991, 23.444281317000048], [-75.74494381399995, 23.48273346600007], [-75.79820716099994, 23.53864166900007]]], [[[-74.85912024599992, 22.980292059000078], [-74.90965735599991, 23.067328192000048], [-75.03160559799994, 23.12335846600007], [-75.07689368399991, 23.171698309000078], [-75.08511308499993, 23.264064846000053], [-75.15322831899994, 23.41120026200008], [-75.19489498599995, 23.514105536000045], [-75.23932857999995, 23.575100002000056], [-75.31159420499995, 23.672349351000037], [-75.35260982999995, 23.631415106000077], [-75.31159420499995, 23.57680898600006], [-75.25633704299992, 23.53514232000009], [-75.24250240799995, 23.474310614000046], [-75.19489498599995, 23.432114976000037], [-75.15904700399994, 23.380601304000038], [-75.12035071499992, 23.33193594000005], [-75.11294511599993, 23.281317450000074], [-75.13585364499994, 23.229803778000075], [-75.07510331899994, 23.127386786000045], [-75.13426673099991, 23.137274481000077], [-75.18057206899994, 23.159857489000046], [-75.20173092399995, 23.206244208000044], [-75.14256751199991, 23.12368398600006], [-74.99054928299995, 23.078558661000045], [-74.93390865799995, 23.02570221600007], [-74.91405188699991, 22.970851955000057], [-74.88548743399991, 22.92381419500009], [-74.85806230399993, 22.87055084800005], [-74.83340410099993, 22.914129950000074], [-74.84703528599994, 22.97011953300006], [-74.85912024599992, 22.980292059000078]]], [[[-74.90005449099993, 23.70648834800005], [-74.9453832669999, 23.681586005000042], [-74.89085852799991, 23.66474030200004], [-74.83674068899995, 23.650824286000045], [-74.77721106699994, 23.699652411000045], [-74.84972083199995, 23.72011953300006], [-74.90005449099993, 23.70648834800005]]], [[[-76.32518469999991, 23.97402578300006], [-76.37677975199995, 24.101385809000078], [-76.37498938699991, 24.046576239000046], [-76.34019934799994, 23.98818594000005], [-76.32518469999991, 23.97402578300006]]], [[[-74.46865800699993, 24.02179596600007], [-74.42772376199991, 24.074164130000042], [-74.45815995999993, 24.14130280200004], [-74.51870683499993, 24.114935614000046], [-74.5254613919999, 24.045721747000073], [-74.5410863919999, 23.98004791900007], [-74.49229895699995, 23.96039459800005], [-74.47691809799994, 24.00999583500004], [-74.46865800699993, 24.02179596600007]]], [[[-77.88068600199995, 24.18626536700009], [-77.85391191299993, 24.23468659100007], [-77.80239824099993, 24.24445221600007], [-77.87100175699993, 24.24091217700004], [-77.92593339799993, 24.20644765800006], [-77.97622636599993, 24.186835028000075], [-77.89366614499994, 24.17763906500005], [-77.88068600199995, 24.18626536700009]]], [[[-77.92162024599992, 24.26203034100007], [-77.97874915299991, 24.25922272300005], [-77.93586178299995, 24.22724030200004], [-77.92162024599992, 24.26203034100007]]], [[[-76.46300208199995, 24.21360911700009], [-76.50389563699991, 24.247748114000046], [-76.54491126199991, 24.29555898600006], [-76.49315344999991, 24.218817450000074], [-76.46300208199995, 24.21360911700009]]], [[[-77.52497311099995, 23.93305084800005], [-77.60069739499994, 23.905096747000073], [-77.55577551999994, 23.938299872000073], [-77.54548092399995, 24.004380601000037], [-77.54430091099994, 24.07526276200008], [-77.54946855399993, 24.125921942000048], [-77.58047441299993, 24.173163153000075], [-77.60753333199995, 24.21824778900009], [-77.6438695949999, 24.157538153000075], [-77.67853756399995, 24.10175202000005], [-77.70958411399994, 24.04368724200009], [-77.70482337099992, 24.094671942000048], [-77.7481176419999, 24.131781317000048], [-77.72695878799993, 24.177801825000074], [-77.64073645699995, 24.23729075700004], [-77.66584225199995, 24.289496161000045], [-77.71442623599995, 24.275091864000046], [-77.77074133999992, 24.247748114000046], [-77.80540930899991, 24.208929755000042], [-77.84992428299995, 24.174302476000037], [-77.90233313699991, 24.14472077000005], [-77.94204667899993, 24.096869208000044], [-77.87962805899991, 24.073960679000038], [-77.84483801999994, 24.03339264500005], [-77.82258053299995, 23.980210679000038], [-77.81285559799994, 23.876654364000046], [-77.76207434799994, 23.86155833500004], [-77.69481360599991, 23.86469147300005], [-77.76455644399994, 23.823187567000048], [-77.72020423099991, 23.784816799000055], [-77.64476477799991, 23.823187567000048], [-77.59406490799995, 23.853461005000042], [-77.64500891799992, 23.80145905200004], [-77.67516028599994, 23.76113515800006], [-77.72769120999993, 23.777736721000053], [-77.77818762899994, 23.74681224200009], [-77.71458899599992, 23.74872467700004], [-77.66832434799994, 23.72016022300005], [-77.62120520699995, 23.740057684000078], [-77.56590735599991, 23.740668036000045], [-77.54548092399995, 23.788397528000075], [-77.51748613199993, 23.864162502000056], [-77.51650956899994, 23.918850002000056], [-77.52497311099995, 23.93305084800005]]], [[[-77.76768958199995, 24.326605536000045], [-77.71983801999994, 24.350775458000044], [-77.7766820949999, 24.34715403900009], [-77.76768958199995, 24.326605536000045]]], [[[-75.31468665299991, 24.217352606000077], [-75.35850989499994, 24.261419989000046], [-75.40038001199991, 24.323472398000035], [-75.45811926999994, 24.35732656500005], [-75.53221594999991, 24.44489166900007], [-75.55996660099993, 24.491441148000035], [-75.58682206899994, 24.53851959800005], [-75.61856035099993, 24.581244208000044], [-75.62633216099994, 24.645005601000037], [-75.67536373599995, 24.672308661000045], [-75.72386633999992, 24.70184967700004], [-75.75658118399991, 24.660305080000057], [-75.70885169199994, 24.631333726000037], [-75.66470292899993, 24.59601471600007], [-75.64346269399994, 24.539455471000053], [-75.58849036399994, 24.512640692000048], [-75.56550045499995, 24.45693594000005], [-75.53400631399995, 24.389227606000077], [-75.48058020699995, 24.309393622000073], [-75.43073482999995, 24.288723049000055], [-75.40575110599991, 24.240301825000074], [-75.44391842399995, 24.19871653900009], [-75.49962317599994, 24.17259349200009], [-75.45840410099993, 24.12791575700004], [-75.37987219999991, 24.15839264500005], [-75.29043535099993, 24.14472077000005], [-75.30699622299994, 24.20254140800006], [-75.31468665299991, 24.217352606000077]]], [[[-77.47996985599991, 24.991359768000052], [-77.4356176419999, 25.014878648000035], [-77.37950598899994, 25.00153229400007], [-77.2747289699999, 25.046087958000044], [-77.32607988199993, 25.079331773000035], [-77.39806067599994, 25.076971747000073], [-77.45604407499991, 25.076971747000073], [-77.50450598899994, 25.063299872000073], [-77.55101477799991, 25.038031317000048], [-77.49510657499991, 24.999335028000075], [-77.47996985599991, 24.991359768000052]]], [[[-78.3535863919999, 24.65924713700008], [-78.40884355399993, 24.63617584800005], [-78.41148841099994, 24.58104075700004], [-78.3516332669999, 24.530462958000044], [-78.22642981699994, 24.46548086100006], [-78.16478430899991, 24.475409247000073], [-78.13414466099994, 24.403957424000055], [-78.0801488919999, 24.379461981000077], [-78.06330318899995, 24.316229559000078], [-78.02745520699995, 24.27285390800006], [-77.97337805899991, 24.34052155200004], [-77.90855872299994, 24.350775458000044], [-77.86009680899991, 24.384914455000057], [-77.82331295499995, 24.42731354400007], [-77.75108801999994, 24.45848216400009], [-77.71873938699991, 24.499823309000078], [-77.74547278599994, 24.57758209800005], [-77.74181067599994, 24.634711005000042], [-77.73721269399994, 24.70018138200004], [-77.78351803299995, 24.74823639500005], [-77.82917232999995, 24.778225002000056], [-77.87336178299995, 24.83856842700004], [-77.93419348899994, 24.976223049000055], [-77.98058020699995, 25.001898505000042], [-77.96996008999992, 25.076971747000073], [-77.99176998599995, 25.122788804000038], [-78.02798417899993, 25.176255601000037], [-78.09044348899994, 25.159491278000075], [-78.13442949099993, 25.19367096600007], [-78.18590247299994, 25.205877997000073], [-78.20091712099992, 25.146429755000042], [-78.1692602199999, 25.07322825700004], [-78.15770423099991, 25.00018952000005], [-78.18968665299991, 24.94668203300006], [-78.19969641799992, 24.88043854400007], [-78.24372311099995, 24.85101959800005], [-78.27684485599991, 24.789984442000048], [-78.30113684799994, 24.745347398000035], [-78.27424068899995, 24.682928778000075], [-78.27847245999993, 24.73436107000009], [-78.24498450399994, 24.69285716400009], [-78.22325598899994, 24.645005601000037], [-78.20173092399995, 24.598781643000052], [-78.23770097599993, 24.55687083500004], [-78.2520238919999, 24.604803778000075], [-78.31899980399993, 24.581732489000046], [-78.30345618399991, 24.63031647300005], [-78.29792232999995, 24.69684479400007], [-78.34284420499995, 24.665350653000075], [-78.3535863919999, 24.65924713700008]]], [[[-76.16128495999993, 25.165716864000046], [-76.22370357999995, 25.20807526200008], [-76.28416907499991, 25.26190827000005], [-76.33576412699995, 25.327093817000048], [-76.41454016799992, 25.34446849200009], [-76.49762936099995, 25.373480536000045], [-76.62458248599995, 25.46246979400007], [-76.66197669199994, 25.497259833000044], [-76.68614661399994, 25.54132721600007], [-76.73668372299994, 25.563625393000052], [-76.74551347599993, 25.48924388200004], [-76.7844945949999, 25.42641836100006], [-76.73428300699993, 25.441839911000045], [-76.65233313699991, 25.435370184000078], [-76.59121660099993, 25.42255280200004], [-76.53083248599995, 25.370428778000075], [-76.40953528599994, 25.335191148000035], [-76.34626217399995, 25.303534247000073], [-76.2637426419999, 25.19367096600007], [-76.19635982999995, 25.15428294500009], [-76.14704342399995, 25.083807684000078], [-76.15444902299993, 25.00531647300005], [-76.1966039699999, 24.963446356000077], [-76.21092688699991, 24.90102773600006], [-76.17764238199993, 24.85765208500004], [-76.21275794199994, 24.81273021000004], [-76.31745357999995, 24.82526276200008], [-76.25300045499995, 24.765773830000057], [-76.21178137899994, 24.690252997000073], [-76.16128495999993, 24.645005601000037], [-76.17747962099992, 24.71580638200004], [-76.17495683499993, 24.78587474200009], [-76.14614824099993, 24.83421458500004], [-76.13695227799991, 24.902167059000078], [-76.15794837099992, 24.962144273000035], [-76.12657630099994, 25.00531647300005], [-76.11290442599994, 25.114894924000055], [-76.16128495999993, 25.165716864000046]]], [[[-77.81920325399994, 25.707586981000077], [-77.85826575399994, 25.777289130000042], [-77.84406490799995, 25.72207265800006], [-77.81920325399994, 25.707586981000077]]], [[[-77.53799394399994, 26.306586005000042], [-77.57957923099991, 26.337591864000046], [-77.57274329299992, 26.268703518000052], [-77.53799394399994, 26.306586005000042]]], [[[-78.59007727799991, 26.53620026200008], [-78.54015051999994, 26.565008856000077], [-78.29338578699992, 26.621300259000066], [-78.23770620099992, 26.621325470000045], [-78.10033118399991, 26.64606354400007], [-78.04076087099992, 26.65843333500004], [-77.97541256399995, 26.661769924000055], [-77.92906653599994, 26.639227606000077], [-77.92080644399994, 26.716945705000057], [-77.91539466099994, 26.77643463700008], [-77.95628821499992, 26.73541901200008], [-78.03514563699991, 26.728583075000074], [-78.0872289699999, 26.71312083500004], [-78.16705098299991, 26.710400108000044], [-78.22168484799994, 26.700293688000045], [-78.27361518799995, 26.703582975000074], [-78.37096106699994, 26.694525458000044], [-78.43781648399994, 26.69982110500007], [-78.5202572959999, 26.728995355000052], [-78.55719967399995, 26.778550523000035], [-78.60741126199991, 26.755926825000074], [-78.64159094999991, 26.714992580000057], [-78.5759422349999, 26.694769508000036], [-78.6044346509999, 26.65053474000007], [-78.63797875099993, 26.609730986000045], [-78.69172287099991, 26.579970039000045], [-78.77037512399994, 26.58332478400007], [-78.83580481699994, 26.614569403000075], [-78.96434485599991, 26.68768952000005], [-78.83455712699993, 26.55365117100007], [-78.76683934699992, 26.508104203000073], [-78.68613184999992, 26.49191095300006], [-78.62896577499993, 26.51610211700006], [-78.59007727799991, 26.53620026200008]]], [[[-77.81236731699994, 26.906805731000077], [-77.76642818899995, 26.88279857000009], [-77.71495520699995, 26.879380601000037], [-77.63805091099994, 26.859930731000077], [-77.57848059799994, 26.871161200000074], [-77.51748613199993, 26.85219961100006], [-77.44469153599994, 26.755072333000044], [-77.43399003799993, 26.705511786000045], [-77.38491777299993, 26.690334377000056], [-77.34845943899995, 26.652167059000078], [-77.32974199099993, 26.60455963700008], [-77.21955318899995, 26.582424221000053], [-77.16071529899995, 26.564195054000038], [-77.18643144399994, 26.505926825000074], [-77.20457923099991, 26.45331452000005], [-77.22862708199995, 26.37693919500009], [-77.25035559799994, 26.313055731000077], [-77.23013261599993, 26.258734442000048], [-77.25804602799991, 26.21474844000005], [-77.23379472599993, 26.162258205000057], [-77.27236894399994, 26.118312893000052], [-77.30894934799994, 26.080633856000077], [-77.35912024599992, 26.04588450700004], [-77.4082738919999, 26.029730536000045], [-77.31505286399994, 25.99095286700009], [-77.27623450399994, 25.92601146000004], [-77.22667395699995, 25.88507721600007], [-77.18716386599993, 25.98847077000005], [-77.19220943899995, 26.06899648600006], [-77.1817113919999, 26.12531159100007], [-77.17438717399995, 26.22068919500009], [-77.1426488919999, 26.26825592700004], [-77.08446204299992, 26.30613841400009], [-77.03270423099991, 26.297430731000077], [-77.03156490799995, 26.355292059000078], [-77.05540930899991, 26.40692780200004], [-77.05858313699991, 26.46784088700008], [-77.05882727799991, 26.529364325000074], [-77.10724850199995, 26.556708075000074], [-77.15526282499991, 26.58808014500005], [-77.24388587099992, 26.610500393000052], [-77.29059811099995, 26.646958726000037], [-77.25059973899994, 26.68768952000005], [-77.30711829299992, 26.696437893000052], [-77.51130123599995, 26.869533596000053], [-77.55357825399994, 26.89801666900007], [-77.60684160099993, 26.920396226000037], [-77.68236243399991, 26.90843333500004], [-77.77448482999995, 26.92723216400009], [-77.86815344999991, 26.92841217700004], [-77.94945227799991, 26.89988841400009], [-77.83067786399994, 26.909409898000035], [-77.81236731699994, 26.906805731000077]]], [[[-79.51402747299994, 23.49567291900007], [-79.51402747299994, 23.49567291900007]]], [[[-79.56334387899994, 23.546698309000078], [-79.56334387899994, 23.546698309000078]]], [[[-79.26870683499993, 25.53856028900009], [-79.26870683499993, 25.53856028900009]]], [[[-79.28892981699994, 25.559149481000077], [-79.28892981699994, 25.559149481000077]]], [[[-75.72207597599993, 22.20258209800005], [-75.72207597599993, 22.20258209800005]]], [[[-75.74596106699994, 22.236029364000046], [-75.74596106699994, 22.236029364000046]]], [[[-75.81167558499993, 22.371568101000037], [-75.81167558499993, 22.371568101000037]]], [[[-73.61817706699992, 22.601249625000037], [-73.61817706699992, 22.601249625000037]]], [[[-75.10903886599993, 23.846909898000035], [-75.10903886599993, 23.846909898000035]]], [[[-77.8692113919999, 24.346828518000052], [-77.8692113919999, 24.346828518000052]]], [[[-76.77432206899994, 24.53864166900007], [-76.77432206899994, 24.53864166900007]]], [[[-77.86412512899994, 25.407904364000046], [-77.86412512899994, 25.407904364000046]]], [[[-79.2500707669999, 25.774725653000075], [-79.29381262899994, 25.736029364000046], [-79.26183020699995, 25.693752346000053], [-79.27904212099992, 25.74998607000009], [-79.2500707669999, 25.774725653000075]]], [[[-77.24425208199995, 26.478461005000042], [-77.24425208199995, 26.478461005000042]]], [[[-77.85383053299995, 26.600775458000044], [-77.85383053299995, 26.600775458000044]]]]}}]}