{"type": "FeatureCollection", "features": [{"type": "Feature", "properties": {"code": "BIH", "name": "Bosnia and Herzegovina", "tier": "country"}, "geometry": {"type": "MultiPolygon", "coordinates": [[[[19.42135006095657, 43.54340542462069], [19.424058639094994, 43.5652434028608], [19.399512151964302, 43.55457077312275], [19.416102191263178, 43.54107393761217], [19.42135006095657, 43.54340542462069]]], [[[16.94537127706286, 45.24539840341362], [16.92759623437877, 45.270541837136136], [16.907959044674215, 45.259818511715025], [16.884766846612706, 45.245875160110586], [16.876471826513637, 45.22727869915269], [16.852555083350467, 45.229567822696936], [16.83337835192947, 45.21033631896603], [16.83825379257854, 45.18613507077697], [16.793183055953307, 45.19221498063689], [16.76829799655536, 45.19364657542917], [16.74747580346559, 45.20044616146123], [16.720220738196588, 45.20724493540547], [16.699567831690104, 45.194123766498706], [16.64551138754058, 45.20850440805202], [16.62470950923654, 45.22140285985415], [16.603582601555843, 45.23010193815395], [16.579313744134026, 45.2258288733039], [16.53478472313651, 45.222318615211975], [16.504903691452228, 45.21244599718506], [16.49249190417811, 45.19505332195331], [16.47162068634566, 45.18384419895068], [16.476448726427634, 45.15808463519778], [16.460705117347345, 45.14029533646067], [16.439882924257574, 45.1303834531339], [16.410081795538474, 45.12195580371741], [16.390471691615346, 45.109340668936795], [16.403256179529137, 45.08991555555849], [16.383002787848454, 45.057005891408835], [16.36488917379637, 45.04289321365093], [16.36488917379637, 45.01740981910791], [16.34762198906361, 45.00376615758216], [16.30919403987309, 45.00125249760475], [16.27821468056311, 45.01669181297683], [16.251806045512637, 45.02123903435398], [16.2184566803316, 45.0310502304838], [16.195772340221367, 45.03021275481484], [16.184938028567217, 45.05186353917105], [16.17634675739697, 45.07074147713752], [16.15359893504285, 45.08624422439152], [16.129264055691692, 45.09707497383101], [16.100961532948418, 45.10416986844473], [16.093819774662904, 45.12656900925242], [16.08191684448684, 45.14336259570729], [16.06604627091872, 45.15586127637687], [16.044091977063147, 45.16761126694644], [16.01446690592303, 45.182155516763714], [16.02584081710006, 45.19893272746344], [16.01367337742448, 45.215332329923115], [15.98788898518859, 45.228947860655296], [15.954878192274805, 45.21809743315009], [15.934563857136368, 45.21070364885435], [15.916958101035561, 45.227994060377625], [15.895797336577857, 45.22620564067785], [15.86617226543774, 45.2165472033908], [15.838355169755346, 45.21621330220216], [15.806562390741817, 45.207133119997536], [15.7864596633828, 45.19184961936452], [15.763447331529164, 45.177494302719936], [15.761860274532069, 45.14970555186977], [15.780640453494186, 45.12097004782947], [15.769531051816614, 45.10024911480485], [15.763182822029648, 45.07671893802865], [15.742022057571944, 45.060653092866005], [15.753427709421317, 45.02997347399668], [15.786269216651078, 45.00304798057988], [15.781529205808226, 44.97934307362402], [15.765108452193374, 44.96760671407867], [15.751057703550202, 44.94760146603488], [15.752073420352133, 44.9108071560255], [15.760368440451202, 44.88202645925372], [15.771879896639973, 44.8636712459313], [15.79095632667321, 44.849323411646196], [15.749957344356005, 44.8363825451184], [15.727738541000917, 44.82644048593971], [15.777297052916708, 44.75858614743282], [15.798288531690446, 44.73850814783282], [15.82842146078184, 44.71709996549106], [15.849074367288267, 44.72972934553292], [15.870065846062005, 44.727083418664904], [15.891057324835742, 44.74427978358517], [15.9150959540151, 44.74584283587825], [15.924162917984347, 44.71658029764268], [15.944856453162856, 44.712499780340636], [15.982884887527575, 44.688318739917975], [15.98591849504254, 44.66782626257202], [16.01896314563271, 44.65942687525012], [16.049117658453213, 44.64530826466472], [16.06181411712788, 44.6180141850067], [16.045679034060242, 44.59711142165486], [16.024253760103022, 44.586374647771834], [16.039595314672056, 44.55942980004528], [16.072923518805396, 44.55132506120265], [16.10016800355055, 44.53096399729071], [16.11502286121612, 44.50922258915119], [16.12633117404448, 44.4860050976572], [16.143882758582492, 44.46312149206324], [16.138898974807887, 44.43620631566898], [16.16403457813334, 44.41392230786829], [16.12784797780199, 44.39457166375132], [16.157317305249478, 44.37018073865022], [16.18288628017774, 44.36204817208551], [16.208455256005323, 44.34740670735374], [16.183075880647436, 44.322162898499016], [16.187138747854988, 44.29769335466466], [16.193233047766967, 44.25612021727426], [16.217610249213692, 44.24253894531614], [16.209823087965162, 44.22264642459288], [16.18472811331185, 44.213605235193484], [16.212355608524547, 44.210421319488376], [16.231999569224797, 44.199591804818], [16.259254634493857, 44.179441960178394], [16.279907541000284, 44.161835555666414], [16.297005439149757, 44.146167509423094], [16.311225473476895, 44.125027275588366], [16.336618391725438, 44.12138164344816], [16.3726763350449, 44.11469739906579], [16.388589229809156, 44.098530555540776], [16.399931400313903, 44.07810295978385], [16.4320957630091, 44.07226520767324], [16.438020777237114, 44.0512201994527], [16.43294219322769, 44.031019690606286], [16.479157303666682, 44.01982126054281], [16.512808404884026, 44.00531391080841], [16.513441129204807, 43.97558140305938], [16.533701291881187, 43.95702221900024], [16.548652641406306, 43.942279912388074], [16.577155549289216, 43.92810825169454], [16.641502692795086, 43.87905230252181], [16.67383634117425, 43.86184468708268], [16.70295355436309, 43.85330005385447], [16.711275659344267, 43.807714512015195], [16.727635470400685, 43.783002103564286], [16.740744987691073, 43.76727781641813], [16.766774420902834, 43.765708094752824], [16.795045202973768, 43.74736716985905], [16.810621963532867, 43.72355666990444], [16.831631861321398, 43.72009894211254], [16.860130434472012, 43.70210551615668], [16.876979956060154, 43.690374301632744], [16.900094513850775, 43.65966008044842], [16.916152492643448, 43.64596040824631], [16.92807023555298, 43.618436029299346], [16.97072708748516, 43.57645238826717], [16.99784320300148, 43.565861621116994], [17.02178703194602, 43.550001818729015], [17.044105713108195, 43.53594434765358], [17.08018397121333, 43.51261270791019], [17.102719339525947, 43.51127695386839], [17.131321921969175, 43.49194449674121], [17.157215927173354, 43.488721818457236], [17.182026501122152, 43.49956819631524], [17.203153408802848, 43.49618873742037], [17.24628793474045, 43.478888149168824], [17.267977719096507, 43.46391532293387], [17.282790254666565, 43.43338230524927], [17.270887324490502, 43.416861168408275], [17.249197540134446, 43.40552429221236], [17.262158508308573, 43.38784221784414], [17.264010075704505, 43.35919399930367], [17.27326790998609, 43.34034416964778], [17.28993201295208, 43.31128858520009], [17.3113572869093, 43.29011351522661], [17.316662324706556, 43.267128371677074], [17.33836561777906, 43.256158269588525], [17.358409094204376, 43.246294220302104], [17.38321966815323, 43.24511042740437], [17.414422485609293, 43.23050841952801], [17.430023894786984, 43.20950696727277], [17.420489699739903, 43.19134198484477], [17.510414486739194, 43.15404734600827], [17.616807427021172, 43.101147921939116], [17.639992854086984, 43.09284116838529], [17.649262962315902, 43.06851271199213], [17.667884435218582, 43.05144389162234], [17.673132304911974, 43.030163057778964], [17.68549019131933, 43.00565621546201], [17.717458182549137, 42.973178253773426], [17.660903075516558, 42.95121606746761], [17.633492267454244, 42.94994725356298], [17.600508559422508, 42.93938931526475], [17.624377902917956, 42.9136064599702], [17.643321155047317, 42.894839675510696], [17.677371229698565, 42.91583809525196], [17.697848078625952, 42.92525966370255], [17.718331698549093, 42.916334003011855], [17.74795676968921, 42.91893745400034], [17.781813993720903, 42.89550243359048], [17.8107619203264, 42.91658195599251], [17.835139120873805, 42.9144743282277], [17.858839177785853, 42.891905795616026], [17.865441336548486, 42.87168630567851], [17.88727924644013, 42.84984677880584], [17.905900719342753, 42.83879998613048], [17.892696401817545, 42.82203984456322], [17.914365025125846, 42.81247832091782], [17.93434078709771, 42.81483779482841], [17.95194654409778, 42.804778357934936], [17.97141444721899, 42.79782272783666], [18.00087023267514, 42.78415760758759], [18.008995966190923, 42.760795690368866], [18.040313897768215, 42.75408372348511], [18.06553753033279, 42.72934260597651], [18.095839745108208, 42.71130894075509], [18.108060087403146, 42.690524861832955], [18.13054340025775, 42.6839141756987], [18.153555732111386, 42.660965748770366], [18.175510025067638, 42.662327332240636], [18.201167452815753, 42.64267873463592], [18.246663097523992, 42.606672631836545], [18.266310867752395, 42.613587419224075], [18.287640918793443, 42.624549832109096], [18.313033837041985, 42.61832142529357], [18.355863224808047, 42.61296449661427], [18.371606833888336, 42.597887876924005], [18.397419581748352, 42.59014131197205], [18.42656387981924, 42.56852160908505], [18.446932385621153, 42.55806806858652], [18.473801478955124, 42.561818777514645], [18.495470102263482, 42.58264307591725], [18.51616363744199, 42.583600347578056], [18.544116161131967, 42.58017005540381], [18.529923212586255, 42.602981939165204], [18.534148594482076, 42.6296118227275], [18.55007503303642, 42.64228492151199], [18.58160287986908, 42.64340066810638], [18.563238720990228, 42.66539273168928], [18.56239229077164, 42.70620881618396], [18.575596608296905, 42.72175666803588], [18.54901868756241, 42.72362214884316], [18.499756426717795, 42.742149542767265], [18.476902800024277, 42.76427568357599], [18.46115919094393, 42.7913632285302], [18.458958471656217, 42.81607958770286], [18.4731785059833, 42.833213777094215], [18.474993253336038, 42.85630016991695], [18.494169984757036, 42.86328892834143], [18.50186234577069, 42.88186882558591], [18.494603357259166, 42.90504614976004], [18.48355235935395, 42.92210607853275], [18.480410408713453, 42.953436427948816], [18.48203555559644, 42.97769657633597], [18.506954472670827, 42.98609818678193], [18.52309759657686, 43.018663388104926], [18.56643484319352, 43.02808901969257], [18.598111661823793, 43.02001494593304], [18.63027602451899, 43.02496545389266], [18.659054664541202, 43.036102637426836], [18.644665344530097, 43.08866758833858], [18.652283220094603, 43.15366203417557], [18.66582610988712, 43.17094930076968], [18.676829707225238, 43.19798171548382], [18.718135521137413, 43.22376860963368], [18.69088045586841, 43.242269229841156], [18.70323834227571, 43.26150391627277], [18.72676911260453, 43.27543294077765], [18.74657558889237, 43.28566196282935], [18.802778580766926, 43.30155666880529], [18.846962257602172, 43.32027998273509], [18.852040841611597, 43.339736261219514], [18.87472518082251, 43.34650755368074], [18.897578807516027, 43.34724619475611], [18.927629124884277, 43.32914986297584], [18.958203552751797, 43.32461015993101], [18.94791095672531, 43.29733327171317], [18.96394573750581, 43.27540829036036], [18.983914728481977, 43.27087246069556], [18.99576475693806, 43.25139413353247], [19.018110524780923, 43.2542299738343], [19.040625578307868, 43.286894258863015], [19.073297799853606, 43.29539642340626], [19.083116394705883, 43.32040314309063], [19.076344949359964, 43.34010562357571], [19.05772347645734, 43.34847724253075], [19.036393425416293, 43.36866286759732], [19.03876343128735, 43.393762443182254], [19.03266913047605, 43.41282625212989], [19.01438622984068, 43.44331586853258], [18.98679259230437, 43.45167324222638], [18.962076818590333, 43.4567116885936], [18.956321090945664, 43.48595096406581], [18.941762484351216, 43.502529980374334], [18.920432433310225, 43.4978637544088], [18.946502496093387, 43.512229663268386], [18.96766326055109, 43.51370289667142], [18.987131164571622, 43.52696037761939], [18.984253300749288, 43.54978587711656], [19.005244779523025, 43.54635033290157], [19.03876343128735, 43.52008649229782], [19.03012983892097, 43.501547646406834], [19.06144777139758, 43.50289835077831], [19.097167142449734, 43.511493033077045], [19.118158621223415, 43.51419396607872], [19.13813438319528, 43.52229604023012], [19.18451878021756, 43.523032539120436], [19.219730292419115, 43.52720585926306], [19.248847505607955, 43.527696818953075], [19.260528247480693, 43.556779058406846], [19.257819669342325, 43.57701790355344], [19.27593328429367, 43.59050668923237], [19.29946405552181, 43.58891271734808], [19.324687687187065, 43.59062930100151], [19.356852049882264, 43.59945666938984], [19.3813985370129, 43.60570860516805], [19.414070757659374, 43.57321597283891], [19.44217225404634, 43.58289448119541], [19.474675189008792, 43.57394694359664], [19.51703734749566, 43.58838792426337], [19.50847824147769, 43.61161179824592], [19.520551727180532, 43.63218019096308], [19.535787478309544, 43.660354714098844], [19.52969317749819, 43.69108661415595], [19.527492458210418, 43.71531820277289], [19.487540934266747, 43.74565506393009], [19.470443036117274, 43.76191809804186], [19.44198180731462, 43.78386771092619], [19.412092226674986, 43.79818829755192], [19.399131257601482, 43.82472004349529], [19.369379222872908, 43.843411163494466], [19.352789182674712, 43.85781665511462], [19.326888406474836, 43.88332292661181], [19.315376950286065, 43.903695690703614], [19.30166477480958, 43.92637810896264], [19.286936882531165, 43.940763548399104], [19.254941805519934, 43.96586877172649], [19.245800355202277, 43.9882838871917], [19.271023986867533, 43.985360656169405], [19.30623549996841, 43.98694409069731], [19.33315199297016, 43.975980985334274], [19.353127754941966, 43.969645824495274], [19.373611375764426, 43.95941067446313], [19.395957143607347, 43.96160406877283], [19.420611973863572, 43.94672638991102], [19.448564497553548, 43.95023653199041], [19.48323429502676, 43.944152154298536], [19.522021130370945, 43.953512477119205], [19.543581410553713, 43.971137084808674], [19.558342076825454, 43.98615910216091], [19.58240291656142, 43.998480743191806], [19.609995741110595, 44.00917592343018], [19.59764462569899, 44.02951046003977], [19.61606295614058, 44.042284148894396], [19.59948645883304, 44.055288673033886], [19.580648299679353, 44.068616320886576], [19.5733689963821, 44.04878676799501], [19.554916809163444, 44.05718168388768], [19.534560153728137, 44.07437841842932], [19.496470776804983, 44.08995911981759], [19.484567846628863, 44.10705516536365], [19.469226292059773, 44.12072844336302], [19.472400406953284, 44.14388983065123], [19.450710622597228, 44.13363918979684], [19.42108555145711, 44.13876473280624], [19.37987496225975, 44.17179292670227], [19.35735990783354, 44.18976051243777], [19.346864168446643, 44.21585231633139], [19.33564896332905, 44.24781418677537], [19.32427505215196, 44.26656929533675], [19.30364330579397, 44.263538571947606], [19.276927840047847, 44.26959986224392], [19.252857470196147, 44.25368764197117], [19.22931611934348, 44.25425600990701], [19.21871457651656, 44.2750317629056], [19.199585244763284, 44.287514897894255], [19.176054473535203, 44.27406208869451], [19.13627223617482, 44.30157039765578], [19.133732943720418, 44.324463964140705], [19.110371459974942, 44.333546237269104], [19.112402892679427, 44.36260006084416], [19.09970643400476, 44.38038841619249], [19.1195129102926, 44.38704253418564], [19.141350819284924, 44.404460643144205], [19.14676797556166, 44.428885640859676], [19.137531301428453, 44.47210314454452], [19.128537976646328, 44.493994247536534], [19.14890521260554, 44.513047914829485], [19.171991607226914, 44.51549991458944], [19.18028662732604, 44.538671874307624], [19.179778768475444, 44.56533235460455], [19.20720312032779, 44.57401548432722], [19.215667426110883, 44.59427107844755], [19.236997477151874, 44.60307041766572], [19.247662502222738, 44.64391563569808], [19.27034684233297, 44.64259072568149], [19.27711828767889, 44.667518049618366], [19.296416905116132, 44.68437103449571], [19.30284977729542, 44.70350526665476], [19.324687687187065, 44.723475139865855], [19.32570340398894, 44.749569944797145], [19.301854916671118, 44.76156084935377], [19.310535367313378, 44.78182943957705], [19.305118211935962, 44.80904608580829], [19.32570340398894, 44.81849971239188], [19.349430545783093, 44.822419054096144], [19.342171557271627, 44.841934945941034], [19.362099919575655, 44.85047106978408], [19.372595658962553, 44.87626859122258], [19.349064887734414, 44.87950746269928], [19.321100937258507, 44.88644193354844], [19.290417828120326, 44.90012100587978], [19.247038260307534, 44.90649096958265], [19.21926475566397, 44.891876475518984], [19.196781442809367, 44.90143252678973], [19.18117537874076, 44.916793829571645], [19.158956576284993, 44.91211094006786], [19.14219725040283, 44.89414009159202], [19.115788615352358, 44.889702720604134], [19.09547428111324, 44.875788742656425], [19.072959227586352, 44.8727895998602], [19.053829895833076, 44.85503147342382], [19.03351556159396, 44.85095112969094], [19.006429782008865, 44.85227127240137], [18.973418989095137, 44.85311134711105], [18.92771173660742, 44.84579028109664], [18.900001715107123, 44.84369730508661], [18.876989383253488, 44.846885499766074], [18.855564108396948, 44.85269881190072], [18.81112650258609, 44.8808194539547], [18.7772692785544, 44.89300079894775], [18.765027776111026, 44.91368443348989], [18.756902041695923, 44.93501974556489], [18.782633532211776, 44.92842821948682], [18.813612892421077, 44.93921395875725], [18.796514994271604, 44.949758055589825], [18.785511396034167, 44.96688808381805], [18.787563144423643, 44.99177141381972], [18.758527188578967, 45.00058216903193], [18.73924211403238, 44.99452970917878], [18.727615543722436, 45.01370002213838], [18.71491908414845, 45.03176805675048], [18.68151681724737, 45.042713792607515], [18.669084867172955, 45.05897152251782], [18.681781326746886, 45.076158577656315], [18.6635301667838, 45.09165985631739], [18.655859389499255, 45.07298309849125], [18.61724099357707, 45.06513703884332], [18.62940843325265, 45.085123685309895], [18.60798315839611, 45.08064130775023], [18.572274367867806, 45.09744841101542], [18.57782906915628, 45.07429066957877], [18.54846850751568, 45.09053942245646], [18.536301067840043, 45.07391708130831], [18.518049907877014, 45.05953205196266], [18.494508557024346, 45.060653092866005], [18.461973880490234, 45.071488694147945], [18.442929192028657, 45.08120162405578], [18.430497242853505, 45.104729953624485], [18.410394516393865, 45.11107720764704], [18.385001598145266, 45.112197237712394], [18.342658907282782, 45.10661180119371], [18.314218839527882, 45.10852345589285], [18.29221164395227, 45.115452667506645], [18.280192329812223, 45.13301086745764], [18.22754434629462, 45.13516047917284], [18.204690720500423, 45.127875354564026], [18.216879321223757, 45.109718207929006], [18.191994260926435, 45.08151539841697], [18.167617060379087, 45.08247165384381], [18.12123266335675, 45.09000160718847], [18.100749042534346, 45.08832836995833], [18.08161971168039, 45.105058534423904], [18.077556844472838, 45.13635467362934], [18.051148209422365, 45.14375811844246], [18.02626315002442, 45.14089238287721], [17.997315223418866, 45.149727937794125], [17.96802872544538, 45.12094765111328], [17.932309353493906, 45.10828450242792], [17.931293637591352, 45.08127633253679], [17.913349308323973, 45.07111508699171], [17.869165631488727, 45.05174394372807], [17.842702824875516, 45.05028008036146], [17.804024332656866, 45.06397961676595], [17.77780529807609, 45.08196005920939], [17.74714419624769, 45.09167479495585], [17.704788809655895, 45.118200225859766], [17.68295089976425, 45.12011149205176], [17.667376577267305, 45.13277201651539], [17.637412933859878, 45.126800421002656], [17.617437171888014, 45.11593051328259], [17.59475283177784, 45.10852345589285], [17.575115642073285, 45.119514227999275], [17.553785591032238, 45.12190324643774], [17.528561958467662, 45.11688619314333], [17.507597565475294, 45.11713944492948], [17.48018675741298, 45.12004459867933], [17.492646215950174, 45.13991799981591], [17.454942810961995, 45.12646599371067], [17.44432518555891, 45.15351964231769], [17.412262394993604, 45.13814591720035], [17.376373737358165, 45.137429426426934], [17.340315794038702, 45.14089238287721], [17.319832173216298, 45.147340084877044], [17.307487829699653, 45.16597223273243], [17.28668595139561, 45.17246483518403], [17.264692298710656, 45.18521873355775], [17.249415918909563, 45.15351964231769], [17.226013806492006, 45.140070844993545], [17.189393832759208, 45.1457258395759], [17.167183493823245, 45.14733053317764], [17.1458060422151, 45.16309806512368], [17.116519544241612, 45.175033027352356], [17.070758120191158, 45.18689867433443], [17.050281271263714, 45.21109959786821], [17.032729685826382, 45.22300542206261], [17.005535564015133, 45.23361171600794], [16.989385668214084, 45.221793965119446], [16.980413503580394, 45.24432568758044], [16.97161062552999, 45.223940228658705], [16.947233424083322, 45.22501332940169], [16.94537127706286, 45.24539840341362]]]]}}]}