{"type": "FeatureCollection", "features": [{"type": "Feature", "properties": {"code": "BLM", "name": "Saint Barthelemy", "tier": "country"}, "geometry": {"type": "MultiPolygon", "coordinates": [[[[-62.79776114979359, 17.918800419798117], [-62.79776114979359, 17.918800419798117]]], [[[-62.86750612556227, 17.924968019335154], [-62.856186531486344, 17.908153043371385], [-62.847169692567604, 17.889803112962795], [-62.82753427879595, 17.88053628757166], [-62.80845027835835, 17.892029809596067], [-62.78959444252723, 17.90447796698311], [-62.80899479422817, 17.91038717479114], [-62.833616559223174, 17.90565592008562], [-62.8505955610525, 17.92192342490665], [-62.86750612556227, 17.924968019335154]]], [[[-62.84747677776221, 17.936664895930107], [-62.84747677776221, 17.936664895930107]]], [[[-62.83611089720557, 17.937656732639766], [-62.83611089720557, 17.937656732639766]]], [[[-62.832028530491016, 17.94138970825071], [-62.832028530491016, 17.94138970825071]]], [[[-62.81801481321776, 17.942288023460492], [-62.81801481321776, 17.942288023460492]]], [[[-62.90493445838712, 17.96056121272636], [-62.90493445838712, 17.96056121272636]]]]}}]}