{"type": "FeatureCollection", "features": [{"type": "Feature", "properties": {"code": "BLR", "name": "Belarus", "tier": "country"}, "geometry": {"type": "Polygon", "coordinates": [[[31.78388, 52.10805], [31.76541, 52.17638], [31.70139, 52.2211], [31.59382, 52.31312], [31.62875, 52.36721], [31.60889, 52.49138], [31.58708, 52.59221], [31.50514, 52.68783], [31.55514, 52.70145], [31.59375, 52.73715], [31.57972, 52.80457], [31.53847, 52.85471], [31.48486, 52.86125], [31.41527, 52.89305], [31.26666, 53.02332], [31.31472, 53.05138], [31.38684, 53.10402], [31.4, 53.1886], [31.62319, 53.21777], [31.77646, 53.19269], [31.79965, 53.13214], [31.91833, 53.09833], [32.11208, 53.08721], [32.22332, 53.10555], [32.29888, 53.13193], [32.42194, 53.1961], [32.61194, 53.31305], [32.72444, 53.36027], [32.74006, 53.45881], [32.66513, 53.49847], [32.47374, 53.55277], [32.42444, 53.60124], [32.50548, 53.68277], [32.45666, 53.72457], [32.32944, 53.76221], [32.11971, 53.81999], [31.99305, 53.80249], [31.8902, 53.77811], [31.76423, 53.80435], [31.8052, 53.85652], [31.85722, 53.96971], [31.84555, 54.06097], [31.75583, 54.10486], [31.67555, 54.10666], [31.54416, 54.14332], [31.32861, 54.24325], [31.31041, 54.30041], [31.22597, 54.4593], [31.13055, 54.4786], [31.08729, 54.51617], [31.13819, 54.57638], [31.10305, 54.64554], [31.00875, 54.70916], [30.91944, 54.75139], [30.78271, 54.79909], [30.83889, 54.92249], [30.90819, 54.95402], [31.02753, 55.0485], [30.97805, 55.15221], [30.94402, 55.19165], [30.81597, 55.30173], [30.85777, 55.3536], [30.91347, 55.3786], [30.93999, 55.49583], [30.92625, 55.60257], [30.84569, 55.61478], [30.78875, 55.59471], [30.65527, 55.66055], [30.61097, 55.71776], [30.49152, 55.79902], [30.24583, 55.85444], [29.97252, 55.85637], [29.90694, 55.8461], [29.65638, 55.76528], [29.52444, 55.69297], [29.38229, 55.76], [29.41028, 55.89749], [29.45565, 55.9194], [29.41006, 55.95791], [29.17222, 56.01555], [29.05944, 56.03277], [29.00611, 56.02388], [28.86514, 55.97832], [28.74611, 55.9561], [28.70701, 56.00381], [28.65, 56.09124], [28.52819, 56.10513], [28.37895, 56.09041], [28.3099, 56.05136], [28.18708, 56.13402], [28.12166, 56.16749], [27.9225, 56.10513], [27.79611, 56.00111], [27.64638, 55.91957], [27.63204, 55.846], [27.60024, 55.79252], [27.53111, 55.78889], [27.31083, 55.80749], [27.21166, 55.82583], [27.15277, 55.84652], [26.98583, 55.83236], [26.90499, 55.77555], [26.85666, 55.71388], [26.76583, 55.68749], [26.69205, 55.70173], [26.62486, 55.68791], [26.62791, 55.59839], [26.52666, 55.44694], [26.46486, 55.33874], [26.52888, 55.31777], [26.62527, 55.33027], [26.77541, 55.31124], [26.8068, 55.26972], [26.64166, 55.19082], [26.51208, 55.15027], [26.28014, 55.14569], [26.24944, 55.07867], [26.21472, 55.02568], [26.16083, 54.97721], [26.07639, 54.96194], [25.91194, 54.95361], [25.79208, 54.87304], [25.73694, 54.78812], [25.72708, 54.67486], [25.7577, 54.61499], [25.74888, 54.56444], [25.65576, 54.52311], [25.55514, 54.36263], [25.57541, 54.31263], [25.65027, 54.31583], [25.7127, 54.33152], [25.80722, 54.24666], [25.785, 54.1645], [25.66867, 54.13653], [25.53993, 54.14548], [25.50541, 54.18513], [25.57305, 54.24305], [25.50111, 54.30305], [25.43833, 54.28889], [25.3725, 54.25416], [25.20444, 54.21596], [25.16194, 54.17249], [25.10139, 54.14444], [25.02708, 54.13194], [24.97152, 54.15728], [24.84778, 54.1434], [24.7984, 54.10159], [24.83944, 54.03819], [24.82673, 53.98437], [24.72402, 53.97019], [24.61222, 53.99222], [24.51444, 53.95041], [24.46749, 53.92263], [24.39166, 53.89034], [24.26736, 53.90721], [24.20687, 53.96298], [24.14958, 53.96527], [24.08493, 53.93756], [24.01611, 53.93721], [23.89888, 53.94054], [23.78388, 53.93555], [23.70944, 53.92388], [23.5943, 53.93083], [23.51667, 53.94666], [23.53972, 53.84083], [23.58055, 53.7311], [23.60861, 53.6375], [23.64027, 53.55916], [23.67354, 53.49374], [23.85861, 53.19582], [23.93319, 53.01208], [23.92749, 52.94838], [23.93138, 52.8586], [23.9411, 52.74972], [23.9118, 52.69319], [23.7468, 52.61464], [23.68833, 52.61721], [23.59722, 52.59638], [23.50361, 52.5675], [23.39722, 52.51444], [23.24838, 52.37449], [23.1654, 52.28227], [23.19277, 52.23319], [23.29778, 52.21166], [23.34833, 52.2068], [23.595, 52.11194], [23.63861, 52.07944], [23.66083, 52.0061], [23.6268, 51.95207], [23.55805, 51.75249], [23.54778, 51.68638], [23.53917, 51.59277], [23.56717, 51.5396], [23.64107, 51.5235], [23.62778, 51.57972], [23.65, 51.63617], [23.75131, 51.65179], [23.90159, 51.63416], [23.9384, 51.59611], [23.99819, 51.59291], [24.2834, 51.74117], [24.30611, 51.80305], [24.39423, 51.88472], [24.70027, 51.89388], [24.8975, 51.90069], [24.99194, 51.91193], [25.05194, 51.93221], [25.17305, 51.9593], [25.24097, 51.95986], [25.35208, 51.92861], [25.43999, 51.92222], [25.54667, 51.92214], [25.59833, 51.91889], [25.68597, 51.92235], [25.77042, 51.93818], [26.02694, 51.91027], [26.14444, 51.87846], [26.20777, 51.85833], [26.29666, 51.85361], [26.36416, 51.85889], [26.43555, 51.85617], [26.4986, 51.81193], [26.57111, 51.81833], [26.64236, 51.82069], [26.7225, 51.80249], [26.7725, 51.78583], [26.82083, 51.77249], [26.895, 51.75555], [26.94805, 51.74888], [27.0193, 51.76812], [27.08083, 51.7711], [27.17, 51.76416], [27.20458, 51.71749], [27.28257, 51.59819], [27.41667, 51.59749], [27.51197, 51.62887], [27.68722, 51.60139], [27.68166, 51.49319], [27.74791, 51.46652], [27.8168, 51.53326], [27.81389, 51.59222], [27.86597, 51.6218], [27.92562, 51.59166], [27.98375, 51.56583], [28.07902, 51.56444], [28.13819, 51.58305], [28.18201, 51.63777], [28.25673, 51.65929], [28.31944, 51.58916], [28.43333, 51.5661], [28.49055, 51.58111], [28.62826, 51.56485], [28.63722, 51.51], [28.66653, 51.44666], [28.75715, 51.41565], [28.76604, 51.48138], [28.81055, 51.53444], [29.0525, 51.6311], [29.11805, 51.63694], [29.18139, 51.61805], [29.24152, 51.54097], [29.31201, 51.38763], [29.40972, 51.40277], [29.62402, 51.49068], [29.67583, 51.4993], [29.73822, 51.45714], [29.83444, 51.44193], [29.88166, 51.45972], [29.98333, 51.48638], [30.15222, 51.49332], [30.20722, 51.48374], [30.34764, 51.40006], [30.46472, 51.295], [30.55141, 51.25185], [30.61583, 51.32388], [30.64375, 51.36888], [30.58639, 51.48916], [30.55389, 51.54194], [30.565, 51.64333], [30.62597, 51.70791], [30.66694, 51.80111], [30.74694, 51.89527], [30.825, 51.94749], [30.89694, 51.97777], [30.95889, 52.00083], [30.93499, 52.0618], [31.10639, 52.08638], [31.29625, 52.08694], [31.34597, 52.11375], [31.4225, 52.11999], [31.52361, 52.11639], [31.62222, 52.10889], [31.73472, 52.1061], [31.78388, 52.10805]]]}}]}