{"type": "FeatureCollection", "features": [{"type": "Feature", "properties": {"code": "BLZ", "name": "Belize", "tier": "country"}, "geometry": {"type": "MultiPolygon", "coordinates": [[[[-88.02875259999993, 17.0826713000001], [-88.04556379999993, 17.0938362], [-88.02980829999997, 17.079783400000075], [-88.02875259999993, 17.0826713000001]]], [[[-87.87404070000007, 17.187588200000086], [-87.86656739999998, 17.20852830000002], [-87.87754829999994, 17.187205900000073], [-87.87404070000007, 17.187588200000086]]], [[[-87.5926675, 17.22164640000006], [-87.60442329999994, 17.1942104], [-87.58782489999996, 17.205663800000153], [-87.5926675, 17.22164640000006]]], [[[-87.86171360000002, 17.23236900000014], [-87.88353069999994, 17.224832], [-87.86550950000003, 17.21516819999998], [-87.86171360000002, 17.23236900000014]]], [[[-87.92664460000002, 17.249374499999952], [-87.93641210000003, 17.220641700000066], [-87.91571509999996, 17.217273100000057], [-87.9311003, 17.231048100000095], [-87.92664460000002, 17.249374499999952]]], [[[-87.94062910000007, 17.260111599999988], [-87.94062910000007, 17.260111599999988]]], [[[-87.821214, 17.2647567000001], [-87.84447879999996, 17.26539900000013], [-87.821214, 17.2647567000001]]], [[[-87.807194, 17.28507730000011], [-87.807194, 17.28507730000011]]], [[[-87.84934109999993, 17.301315800000054], [-87.85672259999997, 17.280254200000016], [-87.83045839999997, 17.290252600000038], [-87.84934109999993, 17.301315800000054]]], [[[-87.89325779999999, 17.3868971], [-87.91734059999997, 17.38176480000007], [-87.9019776, 17.36596990000006], [-87.91797139999994, 17.343161500000086], [-87.93271279999992, 17.309957], [-87.9317497, 17.28024520000016], [-87.92264820000001, 17.256331200000012], [-87.92100729999996, 17.27668860000005], [-87.927417, 17.304425700000152], [-87.91799279999994, 17.32923720000013], [-87.90321819999988, 17.344343800000033], [-87.89735, 17.369223299999952], [-87.89325779999999, 17.3868971]]], [[[-88.05870749999995, 17.373232000000165], [-88.05870749999995, 17.373232000000165]]], [[[-87.8226063999999, 17.42690750000005], [-87.834327, 17.407926], [-87.81882879999998, 17.392019399999974], [-87.81364129999993, 17.3716906], [-87.81877009999992, 17.34874350000009], [-87.81987, 17.324524900000142], [-87.83041120000006, 17.304606], [-87.81515069999995, 17.318747700000152], [-87.801277, 17.3042499], [-87.79384929999996, 17.323084100000123], [-87.79836959999996, 17.34521960000002], [-87.80924749999991, 17.37917859999996], [-87.81807889999993, 17.404387], [-87.81105239999995, 17.42347769999995], [-87.8226063999999, 17.42690750000005]]], [[[-87.5014681999999, 17.454250300000034], [-87.49613189999998, 17.434699899999977], [-87.49502990000002, 17.455426099999976], [-87.5014681999999, 17.454250300000034]]], [[[-88.07824509999993, 17.50412120000007], [-88.07437039999996, 17.4843087], [-88.07824509999993, 17.50412120000007]]], [[[-88.15702629999997, 17.519465500000102], [-88.1460485, 17.502431900000097], [-88.15702629999997, 17.519465500000102]]], [[[-87.81234509999997, 17.547581400000105], [-87.81894469999989, 17.526373200000016], [-87.82719649999999, 17.505960900000055], [-87.81329859999991, 17.524467200000053], [-87.80015369999995, 17.508528100000014], [-87.81591919999994, 17.491977900000037], [-87.8174302, 17.469689400000092], [-87.83536989999992, 17.460213100000104], [-87.86727269999999, 17.45273490000006], [-87.85850449999997, 17.471577099999962], [-87.87910619999997, 17.457964], [-87.89269189999997, 17.437038700000045], [-87.90864989999997, 17.40811659999995], [-87.91758939999995, 17.3886835], [-87.9230653999999, 17.368299500000077], [-87.90746679999997, 17.3832259], [-87.89983429999994, 17.40282010000012], [-87.8926073999999, 17.423941599999964], [-87.87261619999997, 17.42780409999998], [-87.855261, 17.44253890000003], [-87.84331109999998, 17.424343000000135], [-87.82389129999999, 17.434386000000117], [-87.8096165, 17.454508400000073], [-87.79474839999992, 17.482765400000027], [-87.77598280000005, 17.497773200000104], [-87.79039710000005, 17.512029700000014], [-87.78037159999991, 17.52985729999999], [-87.80019509999993, 17.526953800000094], [-87.81026119999994, 17.54683230000012], [-87.81234509999997, 17.547581400000105]]], [[[-88.098276, 17.627128600000113], [-88.08773729999999, 17.609150800000144], [-88.098276, 17.627128600000113]]], [[[-88.1313099, 17.643994700000114], [-88.11275119999992, 17.629266700000095], [-88.12909969999991, 17.6434802], [-88.1313099, 17.643994700000114]]], [[[-88.1912, 17.6502343], [-88.1912, 17.6502343]]], [[[-88.03940529999991, 17.698061900000077], [-88.04700179999989, 17.679362], [-88.03940529999991, 17.698061900000077]]], [[[-88.09696650000005, 17.705413799999974], [-88.11941119999994, 17.693434800000034], [-88.14176360000003, 17.686179599999967], [-88.16326419999997, 17.674362900000133], [-88.14180660000004, 17.66949690000004], [-88.12408249999991, 17.68528009999997], [-88.10078159999996, 17.70384190000012], [-88.09696650000005, 17.705413799999974]]], [[[-88.023605, 17.7480367], [-88.037935, 17.728796], [-88.023605, 17.7480367]]], [[[-88.02078679999995, 17.7887268], [-88.03071719999996, 17.760502300000063], [-88.02078679999995, 17.7887268]]], [[[-88.05638389999999, 17.851963200000114], [-88.05638389999999, 17.851963200000114]]], [[[-87.95697389999992, 17.92905360000006], [-87.97630939999996, 17.915859500000124], [-87.99294019999995, 17.902940600000044], [-87.99498659999998, 17.88261390000006], [-88.01569559999997, 17.88755730000016], [-87.99456639999994, 17.87893710000013], [-87.9785016999999, 17.892045800000105], [-87.96105639999993, 17.919543700000133], [-87.95697389999992, 17.92905360000006]]], [[[-87.97972049999993, 17.93445750000007], [-87.98873569999996, 17.91491280000013], [-87.97798030000001, 17.9339865], [-87.97972049999993, 17.93445750000007]]], [[[-88.13897539999991, 18.02380710000005], [-88.15340489999991, 18.007238100000116], [-88.1561677999999, 17.976829699999968], [-88.15162229999996, 18.00209760000005], [-88.13531539999994, 18.019707899999986], [-88.13897539999991, 18.02380710000005]]], [[[-87.93772709999993, 18.030871300000122], [-87.953438, 18.0150226000001], [-87.9603270999999, 17.994640300000135], [-87.97360059999993, 17.9693566], [-87.98803009999993, 17.942214100000058], [-87.958793, 17.95447140000011], [-87.93897819999998, 17.978775400000018], [-87.92912749999992, 17.999428800000032], [-87.92274580000002, 18.020649300000073], [-87.93772709999993, 18.030871300000122]]], [[[-87.92858309999991, 18.0406469], [-87.92858309999991, 18.0406469]]], [[[-87.91817459999997, 18.057746300000126], [-87.931532, 18.04276129999998], [-87.9160964999999, 18.05615690000007], [-87.91817459999997, 18.057746300000126]]], [[[-87.96060889999994, 18.096121700000083], [-87.98158449999997, 18.090349499999974], [-87.95991089999993, 18.09148900000011], [-87.96060889999994, 18.096121700000083]]], [[[-87.94667449999996, 18.109326600000024], [-87.95465079999991, 18.090097900000117], [-87.93932379999998, 18.10383060000003], [-87.94667449999996, 18.109326600000024]]], [[[-87.84752029999991, 18.185661100000132], [-87.842809, 18.15952079999999], [-87.83678209999997, 18.138683600000043], [-87.84086379999991, 18.119090000000142], [-87.85039369999998, 18.140169300000046], [-87.85426539999996, 18.160758], [-87.86701019999994, 18.1771857], [-87.88766769999994, 18.15923780000002], [-87.88832609999997, 18.138693400000143], [-87.90058169999996, 18.117861300000087], [-87.91255709999996, 18.0998006], [-87.90961669999994, 18.07856570000002], [-87.93229839999992, 18.070182], [-87.9386036999999, 18.04919390000002], [-87.91357129999994, 18.062608200000057], [-87.90745649999991, 18.0435365], [-87.92014939999994, 18.021587900000107], [-87.91805160000001, 17.998848099999947], [-87.92983509999993, 17.980364900000083], [-87.9378482, 17.958675100000114], [-87.9548988, 17.936198100000027], [-87.93906719999997, 17.95563110000014], [-87.90499909999998, 18.02094720000003], [-87.89207029999997, 18.05177839999999], [-87.8828303999999, 18.07436960000011], [-87.870828, 18.090454599999966], [-87.85664519999996, 18.10867339999998], [-87.83444139999992, 18.120316], [-87.83519329999996, 18.15100980000011], [-87.84122619999997, 18.17359930000009], [-87.84752029999991, 18.185661100000132]]], [[[-88.387134, 18.4815922000001], [-88.40198809999997, 18.496001], [-88.423655, 18.487066500000076], [-88.44571350000001, 18.476138], [-88.46564769999993, 18.486659499999973], [-88.48703439999996, 18.484562], [-88.519442, 18.461117799999975], [-88.52781049999996, 18.4351449], [-88.53210209999995, 18.40762070000011], [-88.54482649999993, 18.39157640000007], [-88.54523419999991, 18.367934900000087], [-88.5631728, 18.335328399999966], [-88.57883589999994, 18.320413400000106], [-88.59629210000001, 18.30091110000012], [-88.60098419999993, 18.27928220000004], [-88.603904, 18.257770900000097], [-88.60841140000002, 18.238267400000012], [-88.62414410000004, 18.22136720000003], [-88.64776010000004, 18.209891900000024], [-88.66722549999999, 18.20212159999997], [-88.687, 18.1944746], [-88.683386, 18.1669547], [-88.69849330000001, 18.142277300000025], [-88.7094701, 18.123716799999983], [-88.71192560000003, 18.103809499999972], [-88.71966630000003, 18.083745400000044], [-88.71648120000002, 18.06083069999998], [-88.73961049999998, 18.048168099999966], [-88.75691339999997, 18.037853199999958], [-88.7676741, 18.019867100000013], [-88.783085, 18.000213400000025], [-88.7844553, 17.97986080000003], [-88.80420549999998, 17.966262699999973], [-88.82129029999996, 17.94937189999997], [-88.84426559999999, 17.9402693], [-88.8594348, 17.925191], [-88.8550293, 17.90406039999997], [-88.87507, 17.89606510000004], [-88.89331540000002, 17.907454499999957], [-88.91368210000003, 17.91059449999997], [-88.92694680000004, 17.9297474], [-88.93974530000001, 17.94954589999998], [-88.95976579999997, 17.95171690000002], [-88.97983050000005, 17.95536829999998], [-88.999621, 17.9674738], [-89.00642610000003, 17.987800599999986], [-89.02535059999998, 17.9962876], [-89.04916809999996, 17.9992331], [-89.06736060000001, 17.990846799999964], [-89.09480010000001, 17.98440450000001], [-89.11159210000001, 17.96976], [-89.13270519999996, 17.972034100000016], [-89.1449709, 17.951071], [-89.15115389999998, 17.518079700000015], [-89.15000419999998, 17.059070799999958], [-89.17225539999995, 16.720469], [-89.2027473, 16.2665244], [-89.22620829999997, 15.895720399999984], [-89.20279979999998, 15.8977118], [-89.18085770000002, 15.9104322], [-89.16248189999997, 15.899073], [-89.13677340000004, 15.902097499999961], [-89.11496639999996, 15.895775199999989], [-89.10297340000001, 15.912413399999963], [-89.07967659999996, 15.8971901], [-89.05962, 15.909171799999982], [-89.03118330000004, 15.911356700000017], [-89.0190228, 15.894431900000043], [-88.9976548, 15.903447600000025], [-88.9681293, 15.89481270000002], [-88.9373556, 15.8902202], [-88.91558239999996, 15.897394300000016], [-88.923274, 15.92727959999996], [-88.93385, 15.95842250000004], [-88.93128179999998, 15.987533300000027], [-88.9151544, 16.002068299999976], [-88.890214, 16.01163890000004], [-88.858959, 16.03069790000003], [-88.8533944, 16.0580599], [-88.83555029999998, 16.070035800000042], [-88.81463619999998, 16.07920080000003], [-88.80371579999996, 16.09939340000002], [-88.79415459999997, 16.120129300000023], [-88.77507, 16.12984], [-88.7506534, 16.138080700000028], [-88.74873, 16.16405], [-88.74847289999998, 16.186974400000036], [-88.7504515, 16.20737669999997], [-88.73389810000003, 16.223352], [-88.71721580000005, 16.237798], [-88.69650569999996, 16.237976499999967], [-88.67865310000005, 16.247851900000025], [-88.65376219999999, 16.257925300000036], [-88.65498110000003, 16.281143199999963], [-88.61976679999997, 16.2691049], [-88.60163859999999, 16.254914399999958], [-88.5848436, 16.243729800000022], [-88.57412950000001, 16.268807199999973], [-88.5444302, 16.2725313], [-88.5438311, 16.2968666], [-88.5208068, 16.3167963], [-88.49293150000001, 16.34334090000003], [-88.48320989999998, 16.3662], [-88.47643, 16.38737009999998], [-88.4760501, 16.40798], [-88.46443949999998, 16.42441460000004], [-88.4461171, 16.43375040000004], [-88.4655433, 16.439188799999975], [-88.44766970000003, 16.448791400000022], [-88.43063910000002, 16.462106], [-88.43671009999998, 16.48372], [-88.41602009999995, 16.4830901], [-88.40783370000003, 16.50151410000003], [-88.42468509999996, 16.513723000000162], [-88.40428329999989, 16.513609700000025], [-88.38325810000002, 16.5261172], [-88.39871189999988, 16.542099], [-88.37525759999993, 16.540045600000113], [-88.38381019999997, 16.55867960000002], [-88.36903369999993, 16.5743582], [-88.37316329999993, 16.6010699], [-88.36709539999995, 16.62089130000009], [-88.3584, 16.64213], [-88.3426, 16.65615], [-88.32416849999991, 16.67086530000013], [-88.3148004999999, 16.651728199999987], [-88.33411249999996, 16.643988000000114], [-88.35050609999995, 16.63007960000005], [-88.35570959999998, 16.606588200000054], [-88.36840179999996, 16.56845090000008], [-88.36800479999998, 16.536333300000088], [-88.3689056, 16.512878200000074], [-88.35938279999998, 16.537129500000063], [-88.36297369999998, 16.5611955], [-88.36097679999996, 16.587314599999985], [-88.35231829999996, 16.608891500000027], [-88.32759939999993, 16.639208500000073], [-88.3127298, 16.652877500000045], [-88.31107529999989, 16.678375299999963], [-88.30919879999996, 16.700524700000123], [-88.30049459999991, 16.720477300000063], [-88.30964829999994, 16.740294199999965], [-88.31104109999998, 16.76650990000013], [-88.294229, 16.78134310000015], [-88.27904019999997, 16.795007400000088], [-88.25351229999995, 16.803626700000045], [-88.26558349999998, 16.823036], [-88.28050349999998, 16.856105300000017], [-88.28895759999995, 16.889244299999966], [-88.28019049999993, 16.913973300000045], [-88.26178429999996, 16.928885800000053], [-88.24150339999994, 16.93444539999998], [-88.22094239999993, 16.949594400000016], [-88.22955279999995, 16.9880174], [-88.23672109999994, 17.016646], [-88.24457319999992, 17.05647490000011], [-88.26510119999995, 17.0664158], [-88.28635629999992, 17.086411600000133], [-88.28970059999996, 17.107358], [-88.30342449999995, 17.13831749999997], [-88.30487939999998, 17.167847200000068], [-88.303918, 17.240269300000115], [-88.29330709999994, 17.3014225], [-88.278756, 17.3491654], [-88.269593, 17.391735200000085], [-88.26028259999995, 17.421400400000024], [-88.25682179999995, 17.452114], [-88.24913119999992, 17.470971500000125], [-88.234817, 17.4877385000001], [-88.21486139999995, 17.48190560000012], [-88.19307369999996, 17.485913500000088], [-88.18660849999998, 17.511053200000042], [-88.20612679999995, 17.516597600000132], [-88.2265368, 17.5161731], [-88.237982, 17.533330799999973], [-88.25650409999996, 17.54621409999995], [-88.27781389999993, 17.55667110000008], [-88.29158529999994, 17.586925200000074], [-88.2926152999999, 17.612737300000063], [-88.2922935, 17.6331677000001], [-88.28787539999993, 17.654058700000057], [-88.28210979999993, 17.674443300000036], [-88.26470059999993, 17.66296590000003], [-88.27532660000001, 17.645898400000064], [-88.26193859999994, 17.671483], [-88.24943979999998, 17.690107], [-88.23146889999995, 17.71443090000016], [-88.24981539999996, 17.70555810000001], [-88.27014679999998, 17.711609200000105], [-88.2693818, 17.736597000000103], [-88.25415759999997, 17.75034550000008], [-88.24244889999993, 17.767419], [-88.233577, 17.786791900000125], [-88.22256609999998, 17.768831800000022], [-88.22590969999997, 17.74666070000002], [-88.23056119999998, 17.7193304], [-88.21529940000003, 17.82708530000015], [-88.212919, 17.852856], [-88.20220969999994, 17.900055400000063], [-88.19426880000007, 17.919421100000115], [-88.19090389999992, 17.93927370000013], [-88.18187869999996, 17.957873], [-88.17125679999995, 17.979443], [-88.16114679999993, 17.99740460000006], [-88.15888760000006, 18.022401100000067], [-88.15915919999996, 18.043261599999987], [-88.14268789999994, 18.0567528], [-88.123346, 18.063820299999982], [-88.114226, 18.090659300000027], [-88.10585860000002, 18.109251700000044], [-88.10167189999991, 18.1288503], [-88.09492989999994, 18.170870900000118], [-88.08950689999995, 18.208762900000046], [-88.09552859999991, 18.2450441000001], [-88.09634089999989, 18.267189200000082], [-88.10360909999997, 18.286721400000054], [-88.09875559999993, 18.3081266000001], [-88.095921, 18.329004900000072], [-88.118009, 18.32501340000004], [-88.1322073, 18.310506500000017], [-88.15073589999989, 18.298806300000052], [-88.13683319999994, 18.316918100000095], [-88.12281849999997, 18.338893], [-88.1018318, 18.346742], [-88.0969949, 18.370979900000144], [-88.12528869999998, 18.3664365000001], [-88.14469080000002, 18.3578583], [-88.16569179999993, 18.346637800000103], [-88.20115659999993, 18.337900400000144], [-88.22074339999999, 18.323611], [-88.2025344, 18.34214079999999], [-88.22616029999992, 18.341062], [-88.23933849999996, 18.359804899999936], [-88.26165849999994, 18.350644199999948], [-88.29318589999994, 18.346955700000116], [-88.316573, 18.3368809], [-88.34160380000002, 18.33052559999995], [-88.3350166999999, 18.35065959999998], [-88.316768, 18.362633300000013], [-88.34723930000001, 18.358445400000072], [-88.36600249999995, 18.34986610000005], [-88.38667689999993, 18.340873], [-88.39772229999998, 18.362045400000042], [-88.39488159999995, 18.383869600000118], [-88.3761258, 18.3932351], [-88.35017779999995, 18.410043], [-88.32184, 18.426466899999987], [-88.31036739999993, 18.4435436], [-88.29590089999996, 18.45755], [-88.3070993999999, 18.475243100000043], [-88.32612189999998, 18.490331200000014], [-88.35172889999996, 18.48426320000012], [-88.377285, 18.47890580000005], [-88.387134, 18.4815922000001]]]]}}]}