{"type": "FeatureCollection", "features": [{"type": "Feature", "properties": {"code": "BMU", "name": "Bermuda", "tier": "country"}, "geometry": {"type": "MultiPolygon", "coordinates": [[[[-64.82984629499998, 32.26102853500004], [-64.82984629499998, 32.26102853500004]]], [[[-64.85136265599994, 32.271851284000036], [-64.85136265599994, 32.271851284000036]]], [[[-64.81924454599994, 32.27580367200005], [-64.81924454599994, 32.27580367200005]]], [[[-64.82450506399994, 32.27538138600005], [-64.82450506399994, 32.27538138600005]]], [[[-64.80419979899995, 32.28358663500006], [-64.80419979899995, 32.28358663500006]]], [[[-64.81968881799997, 32.28344059500006], [-64.81968881799997, 32.28344059500006]]], [[[-64.80914509499996, 32.28241257800005], [-64.80914509499996, 32.28241257800005]]], [[[-64.81196941499996, 32.284080962000075], [-64.81196941499996, 32.284080962000075]]], [[[-64.82386598399995, 32.28457976300007], [-64.82386598399995, 32.28457976300007]]], [[[-64.81642104299993, 32.28628539300007], [-64.81642104299993, 32.28628539300007]]], [[[-64.82825263999996, 32.28785805600006], [-64.82825263999996, 32.28785805600006]]], [[[-64.85167706699997, 32.308037942000055], [-64.85167706699997, 32.308037942000055]]], [[[-64.83714038599999, 32.32048656100005], [-64.83714038599999, 32.32048656100005]]], [[[-64.84213161199995, 32.31291523200008], [-64.84213161199995, 32.31291523200008]]], [[[-64.66516350099994, 32.346769374000075], [-64.66516350099994, 32.346769374000075]]], [[[-64.76384343499996, 32.28497223900007], [-64.74459495699995, 32.29824068600004], [-64.72588961399998, 32.30957467500008], [-64.70363512499995, 32.32530944500007], [-64.68259081699995, 32.33436018900005], [-64.70641906899994, 32.34196870100004], [-64.73705618199995, 32.34367523700007], [-64.74208219599996, 32.323713877000046], [-64.72906192099998, 32.339236061000065], [-64.70852923199993, 32.339578706000054], [-64.71787789599995, 32.32067847700006], [-64.74201730099998, 32.32291646200002], [-64.76606631499993, 32.30894792700008], [-64.79238182099994, 32.30494997400007], [-64.81682446799994, 32.305761904000065], [-64.80010688299996, 32.29368564300006], [-64.77438192699998, 32.29368564300006], [-64.79165971499998, 32.283017389000065], [-64.81147745799996, 32.27303002100007], [-64.83087067199995, 32.26171728800006], [-64.85099670199997, 32.25341851200005], [-64.86573358199996, 32.27128936400004], [-64.86840733399998, 32.29268020200004], [-64.88006464799997, 32.27568870700003], [-64.86977974799998, 32.25225146400004], [-64.84878206699995, 32.249251937000054], [-64.82664660599994, 32.25051824500002], [-64.80379971299993, 32.260689109000054], [-64.77866563699996, 32.271415267000066], [-64.76384343499996, 32.28497223900007]]], [[[-64.71409511399997, 32.359351065000055], [-64.71409511399997, 32.359351065000055]]], [[[-64.65119469799998, 32.37192405800005], [-64.68548481299996, 32.371297742000024], [-64.70650931699998, 32.36405283800008], [-64.68525499299994, 32.35377120100003], [-64.66401402499997, 32.35768165800005], [-64.65119469799998, 32.37192405800005]]], [[[-64.66985349199996, 32.37391877700003], [-64.66985349199996, 32.37391877700003]]], [[[-64.66107616599999, 32.37674172900006], [-64.66107616599999, 32.37674172900006]]], [[[-64.67886280899995, 32.37977635000004], [-64.71232505299997, 32.36714406900006], [-64.69167954799997, 32.37292896200006], [-64.67886280899995, 32.37977635000004]]]]}}]}