{"type": "FeatureCollection", "features": [{"type": "Feature", "properties": {"code": "BOL", "name": "Bolivia (Plurinational State *", "tier": "country"}, "geometry": {"type": "MultiPolygon", "coordinates": [[[[-68.1295657139233, -20.478126885815307], [-68.1295657139233, -20.478126885815307]]], [[[-68.09071709012488, -20.439958894168686], [-68.03736835483025, -20.4648395223069], [-68.08337546904812, -20.440135500381185], [-68.09071709012488, -20.439958894168686]]], [[[-67.76271416229062, -20.41760357974799], [-67.76271416229062, -20.41760357974799]]], [[[-68.24275366945353, -20.36555782900046], [-68.24275366945353, -20.36555782900046]]], [[[-68.04252210137373, -20.364735380520294], [-68.04252210137373, -20.364735380520294]]], [[[-67.75690421328738, -20.362932037066084], [-67.75690421328738, -20.362932037066084]]], [[[-68.07974817406819, -20.354168874945156], [-68.07974817406819, -20.354168874945156]]], [[[-67.66905090214938, -20.34714032244035], [-67.66905090214938, -20.34714032244035]]], [[[-67.85887920556479, -20.31050095400574], [-67.85887920556479, -20.31050095400574]]], [[[-67.84739263101993, -20.306813038860295], [-67.84739263101993, -20.306813038860295]]], [[[-67.82604877218252, -20.286570666816573], [-67.82604877218252, -20.286570666816573]]], [[[-67.86540814008528, -20.283107560674097], [-67.86540814008528, -20.283107560674097]]], [[[-68.04533030520231, -20.28384925168182], [-68.0587065548863, -20.33686273324279], [-68.0074625480773, -20.33868634787418], [-67.99335376575503, -20.290162138067725], [-68.01315938236036, -20.336653639194846], [-68.04601426150724, -20.29791776704205], [-68.04533030520231, -20.28384925168182]]], [[[-68.056660201303, -20.27861510801604], [-68.056660201303, -20.27861510801604]]], [[[-67.84366286504581, -20.283098898785468], [-67.84366286504581, -20.283098898785468]]], [[[-67.81864125210367, -20.26381400901166], [-67.81864125210367, -20.26381400901166]]], [[[-67.84388295916652, -20.26586938634284], [-67.84388295916652, -20.26586938634284]]], [[[-68.06450428770147, -20.256572817277785], [-68.06450428770147, -20.256572817277785]]], [[[-67.9778044028439, -20.2574677552115], [-67.9778044028439, -20.2574677552115]]], [[[-67.62213369072174, -20.239211858165696], [-67.62213369072174, -20.239211858165696]]], [[[-67.97816127994102, -20.237866297675467], [-67.97816127994102, -20.237866297675467]]], [[[-67.80908465330452, -20.233365189761788], [-67.80908465330452, -20.233365189761788]]], [[[-67.97448868020763, -20.23078860733526], [-67.97448868020763, -20.23078860733526]]], [[[-67.87855301014224, -20.233315988505385], [-67.87855301014224, -20.233315988505385]]], [[[-67.81057103406229, -20.21839745549573], [-67.81057103406229, -20.21839745549573]]], [[[-67.87113279004362, -20.2260055736044], [-67.87113279004362, -20.2260055736044]]], [[[-67.93988171036627, -20.200477154623886], [-67.93988171036627, -20.200477154623886]]], [[[-67.93858443918911, -20.1867903953464], [-67.93858443918911, -20.1867903953464]]], [[[-67.87211117591033, -20.188309987082043], [-67.87211117591033, -20.188309987082043]]], [[[-67.94369997479907, -20.172722466543636], [-67.94369997479907, -20.172722466543636]]], [[[-67.80755496519528, -20.15464637534129], [-67.80755496519528, -20.15464637534129]]], [[[-67.80800209138557, -20.11735019426525], [-67.80800209138557, -20.11735019426525]]], [[[-67.80265177967306, -20.109075895333095], [-67.80265177967306, -20.109075895333095]]], [[[-68.19778143489496, -19.987708629938695], [-68.19778143489496, -19.987708629938695]]], [[[-68.17170622131836, -19.982037637036843], [-68.17170622131836, -19.982037637036843]]], [[[-68.16181911631165, -19.9774182771553], [-68.16181911631165, -19.9774182771553]]], [[[-68.18556602930596, -19.970977228265408], [-68.18556602930596, -19.970977228265408]]], [[[-68.20119919793376, -19.96965456245653], [-68.20119919793376, -19.96965456245653]]], [[[-67.77078021168462, -19.968477765278514], [-67.77078021168462, -19.968477765278514]]], [[[-67.81120709217203, -19.948155274029833], [-67.81120709217203, -19.948155274029833]]], [[[-67.7629698118533, -19.946048413472084], [-67.7629698118533, -19.946048413472084]]], [[[-67.78378784457242, -19.945928271169578], [-67.78378784457242, -19.945928271169578]]], [[[-67.84362639989216, -19.895431536890474], [-67.84362639989216, -19.895431536890474]]], [[[-67.52934130137074, -19.86013808235042], [-67.52934130137074, -19.86013808235042]]], [[[-67.83485550137189, -19.84075077899553], [-67.83485550137189, -19.84075077899553]]], [[[-68.29075708270078, -19.423514047644897], [-68.29075708270078, -19.423514047644897]]], [[[-68.31149962367965, -19.424987885487955], [-68.31149962367965, -19.424987885487955]]], [[[-68.40803503124444, -19.423031316745643], [-68.40803503124444, -19.423031316745643]]], [[[-68.40232961244516, -19.41881159184965], [-68.40232961244516, -19.41881159184965]]], [[[-68.33836532277392, -19.411008770616778], [-68.33836532277392, -19.411008770616778]]], [[[-68.44911933996981, -19.366392552979573], [-68.44911933996981, -19.366392552979573]]], [[[-68.40560906502151, -19.305183362392054], [-68.40560906502151, -19.305183362392054]]], [[[-68.21478907003777, -19.296354454920184], [-68.21478907003777, -19.296354454920184]]], [[[-68.22808899724808, -19.286123586316684], [-68.22808899724808, -19.286123586316684]]], [[[-68.22960405491015, -19.266830587770023], [-68.22960405491015, -19.266830587770023]]], [[[-68.35674524770982, -19.27256816784223], [-68.39952575614736, -19.3003745194141], [-68.36876793781498, -19.346845890541154], [-68.36315660822946, -19.4044836271284], [-68.31169579344915, -19.393193832356992], [-68.26366354527342, -19.378677947313506], [-68.24313530456726, -19.33220890369326], [-68.25791249013099, -19.283689557664985], [-68.29820829610244, -19.251111008217936], [-68.35674524770982, -19.27256816784223]]], [[[-68.77190096085354, -16.369369846936962], [-68.77190096085354, -16.369369846936962]]], [[[-68.69976533596638, -16.35777581200982], [-68.69976533596638, -16.35777581200982]]], [[[-68.68756794973183, -16.351187737569617], [-68.68756794973183, -16.351187737569617]]], [[[-68.73916826200232, -16.344947860633127], [-68.73916826200232, -16.344947860633127]]], [[[-68.75348902136797, -16.33012207727188], [-68.75348902136797, -16.33012207727188]]], [[[-68.76960010388966, -16.2930382263366], [-68.76960010388966, -16.2930382263366]]], [[[-68.82383398808868, -16.275900698177715], [-68.82383398808868, -16.275900698177715]]], [[[-68.84715340961935, -16.270242775380503], [-68.84715340961935, -16.270242775380503]]], [[[-68.86745045363536, -16.268363519228387], [-68.86745045363536, -16.268363519228387]]], [[[-68.6032423695934, -16.224719552298772], [-68.6032423695934, -16.224719552298772]]], [[[-68.865444006094, -16.07331243769047], [-68.865444006094, -16.07331243769047]]], [[[-69.13152861384499, -16.05554013938456], [-69.1055115306973, -16.101630303794934], [-69.07730000989962, -16.145411991078873], [-69.1196845774203, -16.181563612277728], [-69.09586245629204, -16.225615112037495], [-69.02757600286537, -16.20979347286785], [-68.97888742901023, -16.190023119543525], [-68.92366426046752, -16.200951936008934], [-68.89773143501354, -16.24614275963986], [-68.8483757582033, -16.267482806876096], [-68.85761254732496, -16.21590284092943], [-68.90544862418284, -16.1898116864985], [-68.95487698071523, -16.176780219252763], [-68.99113306016999, -16.1284385119817], [-69.0390800482057, -16.100824924155063], [-69.08863536275402, -16.076924743906396], [-69.13152861384499, -16.05554013938456]]], [[[-69.07034705668546, -16.037909227303516], [-69.07034705668546, -16.037909227303516]]], [[[-69.22441145683382, -15.993924828117555], [-69.22441145683382, -15.993924828117555]]], [[[-69.1777029314635, -15.985159789201552], [-69.1777029314635, -15.985159789201552]]], [[[-69.19280751907155, -15.981562586400676], [-69.18671774183618, -16.032751088024163], [-69.19280751907155, -15.981562586400676]]], [[[-69.19026700554898, -15.976961258069787], [-69.19026700554898, -15.976961258069787]]], [[[-69.20752081243477, -15.968579843953266], [-69.20752081243477, -15.968579843953266]]], [[[-69.21554581813172, -15.958261946764095], [-69.21554581813172, -15.958261946764095]]], [[[-69.33675171823938, -15.678263352560228], [-69.33675171823938, -15.678263352560228]]], [[[-65.3623225678167, -9.714458791661228], [-65.4250493493986, -9.67846373226474], [-65.46872240367303, -9.715598124169032], [-65.50533318405633, -9.750039865459202], [-65.539027580954, -9.802361210598042], [-65.59571350846862, -9.84442896013754], [-65.63538580758538, -9.808982708444956], [-65.69160404601708, -9.803779434155212], [-65.68730176313335, -9.750344287888423], [-65.73899419310042, -9.767617887350776], [-65.78774651485683, -9.789884582768403], [-65.84744789454422, -9.787986485478394], [-65.89000450555679, -9.755555581582152], [-65.93840956636174, -9.771674384259642], [-65.98303950028101, -9.803172726879415], [-66.03466467272649, -9.792088252787044], [-66.08584637640955, -9.793630456707346], [-66.14058040345678, -9.792145664771544], [-66.18873538617149, -9.807564243234422], [-66.23750020381134, -9.82363726577836], [-66.2830640667482, -9.845210857299756], [-66.33401270720707, -9.839339176258287], [-66.38027325177933, -9.86824497954951], [-66.42377426954594, -9.89386321891511], [-66.47170359387748, -9.868124499842233], [-66.52100258194939, -9.883079081087219], [-66.57041375385019, -9.894429243334622], [-66.62454776808208, -9.897238735007795], [-66.63908449766784, -9.952200659689657], [-66.69161426841536, -9.967932460502725], [-66.73589646039024, -9.993253590556504], [-66.78049374600572, -10.018132215730878], [-66.81805165560728, -10.052161845170003], [-66.85435052276537, -10.086894690479552], [-66.89945453664518, -10.111486440909966], [-66.93476550809484, -10.14769748892038], [-66.96878720912973, -10.191013662323188], [-66.99950894627837, -10.23265730587085], [-67.04155696399707, -10.262135549254912], [-67.08477015117579, -10.290952014462716], [-67.13707007608913, -10.298298156451834], [-67.16941083012463, -10.337139658167503], [-67.21859864941561, -10.32108917102813], [-67.26886080270151, -10.330322254717826], [-67.32336378919973, -10.323558633012007], [-67.31632222056311, -10.373420151684863], [-67.36866960438756, -10.378904669325083], [-67.41886990769277, -10.387846358656804], [-67.43240942605692, -10.43742095682657], [-67.48669556821729, -10.471694853448176], [-67.54091593257587, -10.488297611205764], [-67.57998304281674, -10.520291423553006], [-67.60824460106629, -10.56277090132206], [-67.64090040464336, -10.601075182250407], [-67.70918470295892, -10.709939552729685], [-67.75644267169586, -10.688338806025032], [-67.8048442579853, -10.66648369612374], [-67.85343747256049, -10.64632698339024], [-67.90377155328639, -10.640551596428859], [-67.95352183540221, -10.651859128116024], [-68.00591499372827, -10.652407249819161], [-68.05259849378753, -10.672576618366657], [-68.09274515775125, -10.705782500378268], [-68.1040285013158, -10.762158466919823], [-68.13304670422997, -10.805606155155699], [-68.17442338341084, -10.842107513702258], [-68.20416198189132, -10.883774015657531], [-68.22755375667018, -10.931871397412861], [-68.26280409792537, -10.977927367220262], [-68.3117247609245, -10.999183737802452], [-68.3652055867484, -11.010519684242658], [-68.40155762229887, -11.056241318924874], [-68.45215018242665, -11.04766956308366], [-68.50166992351727, -11.06365870488649], [-68.54186315047383, -11.096834221904826], [-68.59034959753802, -11.115404711289743], [-68.64744705010045, -11.133734097487201], [-68.71564509407573, -11.147460996416024], [-68.73496233256061, -11.096005776758565], [-68.76491371782183, -11.051771526044694], [-68.75716631616118, -11.000581773034567], [-68.81157878780468, -10.995121527355765], [-68.85972509679401, -11.016882654274594], [-68.91023599825706, -11.02277874084646], [-68.95703521597116, -11.001791521808256], [-69.00726553828302, -11.002443722197773], [-69.05132565395787, -10.97516042627261], [-69.10194258134463, -10.981889680561428], [-69.15082667164297, -10.96992884166904], [-69.20027530621594, -10.948208798239888], [-69.2543212586585, -10.949047944115962], [-69.3090770489143, -10.945204235466731], [-69.36446438131375, -10.939937115849295], [-69.41395094295505, -10.927154418235917], [-69.4607109846373, -10.950349509728051], [-69.5219604597322, -10.936026874337733], [-69.57098127709773, -10.9460483521281], [-69.46817130485694, -11.116950686369519], [-69.39611506307554, -11.237376395401709], [-69.32321111101271, -11.355530555171166], [-69.25562004538885, -11.457474877926886], [-69.14854999985056, -11.636411111469323], [-68.96998078452802, -11.912498119732083], [-68.65221383983494, -12.497742008351219], [-68.67420874472774, -12.552343259959274], [-68.7114320159593, -12.592667374549459], [-68.74171800551483, -12.634072445642529], [-68.71241526445507, -12.680603494049146], [-68.74227536156423, -12.725505930467294], [-68.78697683407349, -12.748135279161753], [-68.81801390332203, -12.788423320672036], [-68.83387682621868, -12.838000510635782], [-68.87058992226993, -12.872384958733894], [-68.86516890036975, -12.92209822587481], [-68.87677655822164, -12.976896003767267], [-68.85945070655032, -13.027974144524622], [-68.86909299919661, -13.078874532232541], [-68.87337852259533, -13.131891353926571], [-68.86008219662469, -13.184320303525153], [-68.85893424385158, -13.235036209128458], [-68.86128060280103, -13.285614993732407], [-68.87811146138272, -13.33312060803785], [-68.89152097914024, -13.382005194835576], [-68.90103236139323, -13.435169690464553], [-68.91757035999075, -13.48532740290612], [-68.9459070773405, -13.528642001880252], [-68.9529510955231, -13.583288942573178], [-68.99195220469625, -13.618531905731755], [-69.02862109335756, -13.653035074454843], [-69.06790794177302, -13.685730749675594], [-69.03246536847091, -13.722258282755094], [-68.98982133776072, -13.75078859303621], [-68.99189768531062, -13.825801864684083], [-68.97886454237809, -13.880445216247393], [-68.97845554306936, -13.933924545814579], [-68.96935749633639, -13.983236434358735], [-68.93847850019117, -14.022656743987826], [-68.8905501434468, -14.047027501139896], [-68.87428191575846, -14.096762470345402], [-68.84489414916987, -14.140997570341606], [-68.84757206224481, -14.196716547875342], [-68.88943036251429, -14.235780679582076], [-68.95023041983028, -14.23768542819016], [-68.98412689526478, -14.310370868991194], [-68.99296626884632, -14.36636080201844], [-69.02486012514763, -14.409216757252251], [-69.06174137414875, -14.46159675147801], [-69.11347865205532, -14.488105296327168], [-69.14266796740509, -14.534784106286912], [-69.1653354878748, -14.583530685430356], [-69.2255148305455, -14.580939082460086], [-69.23062778660386, -14.634074457044909], [-69.25803309917444, -14.685470793854348], [-69.22615051234506, -14.736579894702372], [-69.26775138621923, -14.767278532292215], [-69.33917909518594, -14.79432860899984], [-69.35404916513518, -14.857916348882126], [-69.35239166663726, -14.924197222294465], [-69.35261018289515, -14.974850085983414], [-69.32359968049748, -15.016500793307928], [-69.29970559524452, -15.060805156387401], [-69.27322781396447, -15.104630168591614], [-69.22952301896463, -15.13259664418739], [-69.19131552573955, -15.16490541669525], [-69.15263845901893, -15.199297614080086], [-69.12705681529762, -15.24689709218182], [-69.17601524272824, -15.261549349552071], [-69.19594959767498, -15.31411168654929], [-69.24054502037069, -15.352832281225558], [-69.25021388915755, -15.426977777654548], [-69.30253611140108, -15.459872222633196], [-69.314255555357, -15.513083333541632], [-69.28228774405231, -15.561578149161535], [-69.29779334262764, -15.61370050081433], [-69.25913089016429, -15.646068376533583], [-69.21787716327532, -15.677312832011557], [-69.1656504808695, -15.67135109085561], [-69.1507052665021, -15.720009149247614], [-69.09782454320587, -15.722976072850324], [-69.06635037727963, -15.767934024306106], [-69.03157053872097, -15.808593316021723], [-69.01162071582651, -15.861018261226777], [-68.97055125850434, -15.89099763539713], [-68.9245371398022, -15.91257458668983], [-68.8822359221511, -15.941788387324506], [-68.83191326506368, -15.930133334098949], [-68.78379909145661, -15.955793651363313], [-68.73315202528941, -15.945252468728809], [-68.74695826339631, -15.995146525681113], [-68.79409429692981, -16.015966189855376], [-68.83619819976683, -16.05498258861003], [-68.88512769420412, -16.067563588445374], [-68.87979435886311, -16.125049130614755], [-68.8462572708018, -16.165649267862825], [-68.84925749051145, -16.21580797016867], [-68.80806904050363, -16.181368972139317], [-68.757574651062, -16.190978129397834], [-68.71032752087262, -16.21139591420347], [-68.6585130897902, -16.2201350721216], [-68.60965303866766, -16.199806213370927], [-68.57718933693728, -16.239412344428573], [-68.60223993461109, -16.287381365362194], [-68.61475199132403, -16.3365973204561], [-68.66793492572084, -16.31849923429217], [-68.71960141515909, -16.327951531008175], [-68.6763736674021, -16.354224012571173], [-68.72156258458293, -16.39746364533091], [-68.76906149964863, -16.42790148010861], [-68.8204991951532, -16.42247839631129], [-68.87463116536938, -16.427383606865916], [-68.92648055202446, -16.42938519097948], [-68.95827268618919, -16.470359473272545], [-68.90637487356847, -16.472269585437246], [-68.85441202667397, -16.477565396407442], [-68.8349414991596, -16.526774603874628], [-68.84400151704948, -16.576779426232754], [-68.89234667971198, -16.59518139774255], [-68.94999762326496, -16.58416570160818], [-69.00412401797477, -16.561962666830333], [-69.03392156271362, -16.60599035370359], [-68.99725038192527, -16.641879405343463], [-69.03199717967216, -16.678193300041755], [-69.08783190835901, -16.702435968477747], [-69.14687909540535, -16.718284790355565], [-69.18180134210796, -16.757063753728108], [-69.21208189020224, -16.820608200705934], [-69.25332910602921, -16.860524870195615], [-69.30444633916265, -16.916613269002923], [-69.33456084888695, -16.980889897916008], [-69.3807226657143, -17.007060723295087], [-69.37397009564, -17.072396592552586], [-69.43253333330223, -17.11032777762974], [-69.51550833304753, -17.149711111438116], [-69.56258888851099, -17.17550277740968], [-69.59936385656167, -17.214678907987746], [-69.61680277753064, -17.26165555518512], [-69.57586080571392, -17.29140826559411], [-69.51326111084614, -17.34240833302011], [-69.46917499959821, -17.373544444709655], [-69.46883888898944, -17.433375000018614], [-69.46787186985152, -17.604875037808643], [-69.34363426193141, -17.723873082310593], [-69.32711550996059, -17.77248039733753], [-69.30913891180654, -17.822754267387076], [-69.30507731341079, -17.883792939350574], [-69.30049179533177, -17.933725817003488], [-69.25491079547511, -17.954747357063273], [-69.12627981995196, -18.03200406312423], [-69.07133132419757, -18.074916324131596], [-69.12693715112634, -18.127336196138078], [-69.10250069360433, -18.210329650311763], [-69.07020117667659, -18.252162672563344], [-69.06372346801095, -18.302272957723876], [-69.05000509500182, -18.3546779559017], [-69.04651386054323, -18.409539023700006], [-69.02519370053183, -18.461180765661823], [-69.01160837177069, -18.53723504770234], [-69.00219218589771, -18.58837539412609], [-69.03306304860492, -18.62941235383059], [-68.98539652241992, -18.677383770668932], [-68.97152160636392, -18.732415618198306], [-68.95049720181443, -18.793045974635792], [-68.92622025061922, -18.84313252268307], [-68.91235407163589, -18.892446504853034], [-68.95019591620792, -18.93676775685379], [-68.92000610823696, -18.976734585541777], [-68.88964713104737, -19.043426332260783], [-68.80588754949028, -19.08341294001169], [-68.75093635395675, -19.132952376175883], [-68.71308506340792, -19.170233176521457], [-68.62828491919852, -19.25104484424488], [-68.54276491999929, -19.296670520534843], [-68.47193900017847, -19.35205185638854], [-68.4667044496465, -19.299287593048653], [-68.43126584628185, -19.260903352691717], [-68.37792739752781, -19.24118789475412], [-68.34907717351341, -19.196061701314882], [-68.28258038377368, -19.195992970194176], [-68.21098890166303, -19.168194263015426], [-68.16686388328816, -19.14095933357317], [-68.10741818428869, -19.119550199118763], [-68.0562405340068, -19.117548263552376], [-68.02409826058333, -19.160268000388026], [-68.00537306818667, -19.22665346722362], [-68.00099481942465, -19.284641783212198], [-67.94976648216814, -19.29637781234187], [-67.91807198284825, -19.336536904589952], [-67.86624481585581, -19.360069584194395], [-67.81649266699705, -19.38087269149723], [-67.7731205321044, -19.40744355409877], [-67.79263314774037, -19.45638487259148], [-67.81470145011627, -19.512426886479506], [-67.8702182851391, -19.53368721829215], [-67.92050279531485, -19.5370475751666], [-67.97551998383545, -19.52816334951243], [-68.02580029856695, -19.527855328679145], [-68.07236469280224, -19.559927121175747], [-68.11533534290415, -19.58997762046363], [-68.16695329943988, -19.614257026489213], [-68.20717744222732, -19.582553665928504], [-68.25603056468867, -19.56154957441053], [-68.29063193779061, -19.524226647136967], [-68.34350904520502, -19.521342024001676], [-68.39630778857912, -19.480051864773873], [-68.42586269655412, -19.435530430751314], [-68.5568548836003, -19.596399958599864], [-68.5987516846368, -19.64067162111619], [-68.6231729015877, -19.70061063827745], [-68.68354516855841, -19.719407335867512], [-68.65186329810011, -19.772224980020592], [-68.59933709776935, -19.828034852130017], [-68.52815354182941, -19.845285493733112], [-68.52161523126729, -19.924265833984734], [-68.5515021825943, -20.02130924584956], [-68.64041638983777, -20.048864199255235], [-68.69296618530736, -20.06827749075385], [-68.7634841505022, -20.078681205611637], [-68.77387327773438, -20.129690335766693], [-68.72347663942652, -20.135310265117113], [-68.69170350612632, -20.17721415336541], [-68.71497740567808, -20.246754977624704], [-68.69239445840367, -20.295534074707955], [-68.65936669166072, -20.335493249481907], [-68.71076202304695, -20.366428944662907], [-68.7387420920216, -20.456789411868648], [-68.66619099541863, -20.516641385098822], [-68.60845947978002, -20.54563205259069], [-68.52003823529517, -20.58726767987079], [-68.4486762667675, -20.624158192668396], [-68.48162492696754, -20.66539024967885], [-68.52619642738655, -20.696662728180193], [-68.55258708762466, -20.74837347053612], [-68.54105940736434, -20.801376149558315], [-68.55439460004635, -20.864414902177753], [-68.52861572845403, -20.914789695011827], [-68.48437244215552, -20.947012241236152], [-68.42257616283722, -20.941260390340222], [-68.36379541597164, -21.00220770482072], [-68.29505731689511, -21.097819129781826], [-68.17836705435371, -21.303541830112128], [-68.18056474454426, -21.604072322739032], [-68.13786522342757, -21.656781725954033], [-68.10018364682377, -21.71647127080928], [-68.05987359046638, -21.777901548283463], [-68.0630711101348, -21.852792624898488], [-68.07195560430733, -21.980158828178443], [-68.01477101209305, -22.02401147549623], [-67.9651614634589, -22.054142719709702], [-67.93920319461397, -22.108562325980497], [-67.95518926912939, -22.177825352335468], [-67.92217327235545, -22.24233089179205], [-67.93847073683527, -22.29414297820157], [-67.92289501115991, -22.392461705892586], [-67.89287531946069, -22.482197712290375], [-67.85336344549602, -22.557292016194264], [-67.87795752624343, -22.66610253102036], [-67.89090489955807, -22.7191186134707], [-67.87882317779795, -22.80045185200058], [-67.83254281595414, -22.85043677568498], [-67.75167395014675, -22.884616725847707], [-67.58798856785286, -22.906568378770043], [-67.35858034320967, -22.852712875348924], [-67.30618281304739, -22.842915508004225], [-67.18051048961439, -22.813974857785258], [-67.12777222262748, -22.722113888753704], [-67.01408333284681, -22.654813888767123], [-67.02727499978783, -22.540883333514017], [-66.97295555513817, -22.54065833331821], [-66.92856666630865, -22.492227777489305], [-66.80176944474067, -22.44729166684233], [-66.7616055554373, -22.345908332933273], [-66.73928888906678, -22.238458333236355], [-66.68625000030299, -22.20953888915077], [-66.63826388866514, -22.22548611128098], [-66.4183555556401, -22.145952778071088], [-66.35698333354465, -22.132155555515165], [-66.32271576797197, -22.091997832652133], [-66.28336515436455, -22.04966986674365], [-66.27951895781271, -21.99285649478665], [-66.2704865918006, -21.942023150581214], [-66.2488320871638, -21.896276991369657], [-66.23914811356381, -21.84494044954216], [-66.24283373863437, -21.793656720663968], [-66.07630906441162, -21.834975019702963], [-66.04818961891758, -21.919016686122983], [-65.92479795218408, -21.933550018639448], [-65.80484239485853, -22.07525001724847], [-65.75649833650245, -22.101623586952346], [-65.7046750513248, -22.098730757010355], [-65.65552903213631, -22.110776486702644], [-65.6063895163572, -22.0945598522439], [-65.48481944484058, -22.095549999974995], [-65.05251111115979, -22.083347222510408], [-64.99430861052804, -22.084047427773957], [-64.94777939331928, -22.10768720263231], [-64.89655163151615, -22.123998723634475], [-64.84493598089205, -22.13421182737826], [-64.79778585710487, -22.160151790451177], [-64.74953567685843, -22.181952428679164], [-64.69979168463655, -22.190664094313817], [-64.64546861601944, -22.19278419880898], [-64.60195615432515, -22.22700126702558], [-64.5376151083975, -22.28320802337257], [-64.56655139618951, -22.33886628835141], [-64.55000414417175, -22.388842438179946], [-64.51715375466766, -22.428449038768317], [-64.4791174308916, -22.461882721189397], [-64.44888043365135, -22.50350891067815], [-64.41286776165362, -22.538200227672068], [-64.428950853759, -22.586172540890892], [-64.42719778794871, -22.63895935723318], [-64.39808221392133, -22.683333529071692], [-64.37239551631745, -22.727360985037038], [-64.3393166490308, -22.768352898333866], [-64.3286973264966, -22.831228982201857], [-64.31721121621094, -22.88128732119147], [-64.28784722246792, -22.836119444091086], [-64.27847222217805, -22.783755555302754], [-64.27067222183946, -22.734266666413994], [-64.26121111116731, -22.676322222324153], [-64.24119722253454, -22.627425000040613], [-64.24276598510718, -22.563949629553004], [-64.20738050987046, -22.50572760999735], [-64.17379036808205, -22.466353496102077], [-64.13872479316385, -22.430629776899192], [-64.11988503824159, -22.38212291638123], [-64.09926239781176, -22.335175290750787], [-64.08129238091884, -22.285000231913788], [-64.06176420926212, -22.237944681656153], [-64.03307386519789, -22.196530204030196], [-64.00064597946151, -22.15798794533076], [-63.99270463337252, -22.108339476945005], [-63.95726037232119, -22.06771582451309], [-63.937813137814075, -22.015638416200634], [-63.71774589246406, -21.99950767636264], [-63.6868047387481, -22.039427001698442], [-63.24663475576233, -22.003558358084952], [-62.807725490640436, -22.003895702544607], [-62.79630681473154, -22.05896713870662], [-62.80649524967472, -22.109535751207055], [-62.79029394293551, -22.15928563455315], [-62.736282486336556, -22.169954179551954], [-62.68965987413321, -22.192245507619813], [-62.6654595762188, -22.244727002725007], [-62.62271764612783, -22.179505890261797], [-62.457366123708596, -21.67007951894816], [-62.26066515925372, -21.058500006860015], [-62.26664560529389, -20.562743267526862], [-62.20564892387192, -20.479221063754316], [-61.99838659714502, -20.19208745579081], [-61.92240490706406, -20.089239512527246], [-61.83284788108902, -19.874188231496593], [-61.73547110541253, -19.634178196068575], [-61.16240564617958, -19.54541006874554], [-60.74184364063597, -19.477715359715642], [-60.600998481612194, -19.45593367996218], [-59.97691829966214, -19.295172725081045], [-59.883842899201916, -19.300118753962703], [-59.645691137759165, -19.312483958896987], [-59.24974371476874, -19.340788396599507], [-59.11449212811683, -19.34400763620613], [-59.05423243784946, -19.372966316590457], [-58.82349058672031, -19.496905926289532], [-58.74426725339077, -19.53638830172445], [-58.640578025500886, -19.586381850924173], [-58.50112754969838, -19.650166922133295], [-58.23544117784844, -19.77548400939647], [-58.164758995594184, -19.827079107336576], [-58.20189310824088, -19.864796928685713], [-58.19594374173797, -19.92817518522817], [-58.17648682377283, -20.004774716976737], [-58.163350023007496, -20.05693951491442], [-58.13694274239453, -20.118691512149656], [-58.169829658049885, -20.16586296182562], [-58.117655702580315, -20.146345537299116], [-58.07161736515309, -20.104590851194615], [-58.03016401972456, -20.061866625101022], [-57.97332654787188, -20.051655253215806], [-57.92027610677486, -20.03008515950685], [-57.86785992256093, -19.991084265069137], [-58.001174568134914, -19.86279364538407], [-58.131382120749436, -19.75837265233168], [-58.00883699098473, -19.503755951938196], [-57.86221982088164, -19.20160989618135], [-57.783673771231896, -19.035238558338097], [-57.71096875600869, -19.034793783345172], [-57.711371673450856, -18.978732545408484], [-57.71874950007658, -18.898395011478442], [-57.66650266240185, -18.581234397314173], [-57.559691720781075, -18.242139417612513], [-57.50268368024717, -18.23771201984793], [-57.5797365917414, -18.120083439007118], [-57.601146706774095, -18.043626108367217], [-57.722879480100595, -17.830212346522323], [-57.71320051679882, -17.775553108236586], [-57.72066304958405, -17.72135551394819], [-57.75858885043827, -17.668103651685108], [-57.77203918063189, -17.61532271002445], [-57.73846418609591, -17.568639782723572], [-57.81846099720213, -17.5037219878451], [-57.88779670822659, -17.45279412130064], [-57.96954220284529, -17.51451019594813], [-58.02292580178478, -17.495053035659403], [-58.067280783791084, -17.453792677397207], [-58.12029809187755, -17.450234352753824], [-58.151339300317034, -17.40968342977468], [-58.19975214604224, -17.390260369470923], [-58.2290169868832, -17.348230927913544], [-58.27686467473991, -17.32536522282161], [-58.302379988286, -17.28145452376787], [-58.3347226585581, -17.23893826984878], [-58.39739343017169, -17.186376438332108], [-58.39949942453068, -17.083764089996556], [-58.434235728372805, -17.04064150044954], [-58.423158738037955, -16.988807361612047], [-58.46239279942382, -16.95113008589101], [-58.46283731331298, -16.899031381051966], [-58.46203002746353, -16.841020386511108], [-58.46124864645687, -16.790490992884155], [-58.47027990050468, -16.731660736503773], [-58.4607877991633, -16.668262612401985], [-58.435152569446885, -16.594508003557692], [-58.33812927812374, -16.51628180614376], [-58.3428630505401, -16.462310878669747], [-58.35222539381363, -16.412093137842717], [-58.31606789174717, -16.373432472600314], [-58.30369999772908, -16.309736210325973], [-58.33921954601837, -16.273787852863627], [-58.38895965531933, -16.26284619642381], [-58.42470124233416, -16.31769696520829], [-59.00128022391333, -16.29939137898367], [-59.136447679438284, -16.29534187720852], [-59.495551569630194, -16.27925459820635], [-59.815306779220705, -16.271734636696053], [-60.173455799206785, -16.263012889191486], [-60.179901737972024, -15.997673107727005], [-60.237603902974854, -15.473504778803703], [-60.488032939652456, -15.191779361351797], [-60.57487369183956, -15.096018557020928], [-60.244364036394565, -15.095314768040234], [-60.250048405474004, -14.998264929337145], [-60.256431823973664, -14.879943637350467], [-60.26298092020041, -14.771992927004872], [-60.26782406344295, -14.689443599556538], [-60.272178577241384, -14.622801956542185], [-60.32165268786042, -14.60952108521204], [-60.335489283266035, -14.548070169480086], [-60.34746676686688, -14.498586726477557], [-60.37763565946947, -14.449449073230701], [-60.40048362455381, -14.404750037934987], [-60.402521581580054, -14.350335196666718], [-60.443286620127765, -14.316310331552794], [-60.46041185345953, -14.263714499317791], [-60.4646324537353, -14.196894501320921], [-60.471794347543344, -14.145767708171674], [-60.44766136341717, -14.07989551953691], [-60.411521815659135, -14.026988509336823], [-60.42767851928336, -13.967308862955173], [-60.444787872890046, -13.915413770866168], [-60.450726450591105, -13.857000001973395], [-60.459251920222876, -13.804129065045322], [-60.51042834139177, -13.7932884672863], [-60.5589827728761, -13.770882484321488], [-60.606261811818, -13.747583666407591], [-60.65469061409387, -13.72829057505943], [-60.695722862860954, -13.697844280241421], [-60.75566985664611, -13.687139172443162], [-60.80194299475143, -13.656333235560046], [-60.847219108064515, -13.632215194543106], [-60.88982406772387, -13.59809195796816], [-60.92529209683828, -13.560326394745191], [-60.97219338183801, -13.534846719395764], [-60.994762023083446, -13.48909439310083], [-61.04713313830847, -13.476185610782286], [-61.09365917913824, -13.495026988200186], [-61.13675439805257, -13.528937656747685], [-61.18316055342327, -13.50596755544816], [-61.23541445349844, -13.525649832604701], [-61.28539810403805, -13.501800867147372], [-61.339056167132775, -13.507095996105344], [-61.39126658695397, -13.519908308342098], [-61.439209451118934, -13.546623960625924], [-61.490640492149204, -13.547889662541023], [-61.53347731547922, -13.521166386823845], [-61.57364179149229, -13.49038508851591], [-61.6238998868712, -13.515206833707603], [-61.677314761024846, -13.50446610653132], [-61.72698483514318, -13.520914256807425], [-61.77735728973485, -13.518701380149954], [-61.83185207690307, -13.531750461029533], [-61.88363054407284, -13.494528723059927], [-61.88729973212383, -13.444567241352422], [-61.933100408650674, -13.41211757296542], [-61.97189669490936, -13.375199677425696], [-62.01624002854948, -13.351801585578192], [-62.05451503495298, -13.313744906561086], [-62.09588536829515, -13.273758419099378], [-62.109183049524994, -13.220596877823786], [-62.11542345001814, -13.167992816905004], [-62.160514035026246, -13.143144415263285], [-62.209025156116724, -13.113409803967611], [-62.26028929427396, -13.145809170467869], [-62.31442004243896, -13.134071914369981], [-62.368370120335264, -13.140396269915376], [-62.41982867539659, -13.115654923625884], [-62.460328914597845, -13.077636903126232], [-62.522415019435556, -13.066184464476637], [-62.60873784618412, -13.043077211425734], [-62.63030033260903, -12.994794384627083], [-62.69491353293348, -12.990264991127441], [-62.736558567935646, -13.0196218137807], [-62.79551032830725, -12.995630677718482], [-62.806715469255245, -12.940388762935383], [-62.85662785542054, -12.917948618833096], [-62.89310774300866, -12.877433318345576], [-62.93261330784198, -12.840197272921104], [-62.98343467912308, -12.85272771739504], [-63.01122085649282, -12.807721272535565], [-63.039511307278914, -12.764886797649654], [-63.07563378731797, -12.729595236632006], [-63.0976693088505, -12.68196735227115], [-63.13887988022848, -12.64604848632923], [-63.19124628433685, -12.623047048551227], [-63.229210669889355, -12.663193126119042], [-63.27893604416246, -12.684848923017876], [-63.3491217410383, -12.657475529297711], [-63.401148131161975, -12.635091036559563], [-63.44206085764614, -12.605058841130822], [-63.474027216718085, -12.560759566087208], [-63.531795731067724, -12.539791113156427], [-63.565716585940166, -12.501713445060846], [-63.619344008939535, -12.479114460893369], [-63.67205988291757, -12.462467155238675], [-63.7329066130843, -12.438497242107603], [-63.78498299227375, -12.428946293248432], [-63.82625120745764, -12.459762347500357], [-63.876417020112505, -12.446040023771042], [-63.896888942109584, -12.499985457386119], [-63.9414696913289, -12.525796412455202], [-63.990682857548514, -12.504489930824635], [-64.04267733763606, -12.51457783456552], [-64.08903892848154, -12.488230534332866], [-64.1418635346908, -12.479022996296672], [-64.19274467416157, -12.47314034588348], [-64.24837247048526, -12.474580014225799], [-64.29294106005342, -12.5018641407859], [-64.31694926696713, -12.455877011457149], [-64.37312387898194, -12.454419314983577], [-64.42290835133525, -12.434718752130967], [-64.46310162214341, -12.383940129397507], [-64.50870948018152, -12.360813786085854], [-64.49364075118928, -12.28887882330517], [-64.50944429451357, -12.227217950648216], [-64.55909271206798, -12.236189703951604], [-64.60876536587318, -12.218060026117948], [-64.65663270696697, -12.195384731239832], [-64.71463583895233, -12.167110033411342], [-64.69910617039491, -12.100547400409477], [-64.7401011691748, -12.141253150716112], [-64.76532401339844, -12.097332631902523], [-64.82200506030044, -12.118608840399668], [-64.81238863053444, -12.065079015070866], [-64.83507878735952, -12.012946432565196], [-64.89975268463535, -12.019500035990026], [-64.94687239878256, -11.994172659634637], [-65.00309539150624, -11.994921580632122], [-65.04309891654933, -11.96385744369931], [-65.01725178940558, -11.908440992945023], [-65.06315710639609, -11.881736462793478], [-65.06274771568418, -11.829204565703831], [-65.0629422430806, -11.774885525799293], [-65.08281161302071, -11.713310969611689], [-65.13229358592969, -11.723153559692966], [-65.18423171848445, -11.721177519926394], [-65.24563324505733, -11.724856463399279], [-65.22454307181593, -11.66474511284522], [-65.23282384791932, -11.611171340712177], [-65.23195352373327, -11.560495804318625], [-65.26063882581947, -11.512914789908178], [-65.30869699361374, -11.49690710257286], [-65.32238025952981, -11.42757253262364], [-65.32923642307186, -11.376339264931344], [-65.2987827615562, -11.335453435287578], [-65.3428659342462, -11.30967445555918], [-65.3597400592403, -11.261160084705311], [-65.34914597058977, -11.210932079715429], [-65.36250824770923, -11.148233231156622], [-65.32975231637994, -11.106449291661834], [-65.27909575253996, -11.073729647242901], [-65.29707594421932, -11.0247388825634], [-65.25215980560712, -10.991503113252575], [-65.27433480495854, -10.945140627755721], [-65.27398712667815, -10.874804976236328], [-65.31629107945923, -10.825712301690325], [-65.35920271106723, -10.796107732905279], [-65.34933101789099, -10.742746413086378], [-65.34923389848505, -10.670084394990896], [-65.39903542398402, -10.644687210879932], [-65.39787506140857, -10.589200457984203], [-65.41721986211601, -10.541954563444365], [-65.42962903807303, -10.486659564169264], [-65.3958509708661, -10.448346872464574], [-65.3809301803666, -10.398200190566952], [-65.36181686614488, -10.34235948899632], [-65.32669913274691, -10.304835888689366], [-65.31254371112698, -10.254794045191927], [-65.29745660702477, -10.200123501550161], [-65.30196336790188, -10.14498168828507], [-65.30759239314878, -10.094244985372557], [-65.3312040559651, -10.049681735949255], [-65.32482586467522, -9.98711222631855], [-65.33510605061889, -9.935900476334579], [-65.29879627028554, -9.884584492013802], [-65.31781770845667, -9.822369909472771], [-65.3364470530558, -9.77097825807308], [-65.35615635251692, -9.722457988363496], [-65.3623225678167, -9.714458791661228]], [[-67.10412847898144, -18.02614649627311], [-67.05755341616768, -18.056559018321472], [-67.07065962730786, -18.11811292166271], [-67.08226527379357, -18.17048199740129], [-67.1318144993308, -18.1522728246743], [-67.13653682760376, -18.09827601846389], [-67.17074797409015, -18.06020036645285], [-67.12327370788606, -18.039572105236513], [-67.10412847898144, -18.02614649627311]], [[-67.06368235691042, -18.44836842208889], [-67.05769163119305, -18.50356536896526], [-67.08591778547859, -18.54809601681796], [-67.09077461797956, -18.601329454163274], [-67.10554285242256, -18.654779454560256], [-67.03128810582376, -18.687462913816233], [-66.99668002940508, -18.72561377610812], [-66.97458146102792, -18.796241215922283], [-66.95930346094936, -18.85551625277503], [-66.9354459706766, -18.905880461863667], [-66.86972039208914, -18.963821051139885], [-66.8614300905413, -19.014527708253215], [-66.8852958874212, -19.07237804205123], [-66.90448190809126, -19.12254562388548], [-66.94336521528956, -19.156992724470523], [-66.99799331451987, -19.180526577777258], [-67.04215633351278, -19.152202699764576], [-67.05153984474445, -19.101343966087992], [-67.05714644403666, -19.046310117039045], [-67.06943117077874, -18.992329628140492], [-67.08597601718569, -18.929805954927026], [-67.0929532691505, -18.873859873091703], [-67.14536282039442, -18.849207255469203], [-67.19832587242186, -18.813962380590866], [-67.16316186121058, -18.774426505174258], [-67.13537739406303, -18.726635126147773], [-67.16878613208618, -18.68726538290052], [-67.22239718737552, -18.672476008559247], [-67.26642348112973, -18.632883531123213], [-67.24338552209265, -18.57842180407835], [-67.1994040265283, -18.551907827277237], [-67.14854062722526, -18.531067892183717], [-67.12952594192092, -18.47620675626941], [-67.08176399270937, -18.45684565003961], [-67.06368235691042, -18.44836842208889]], [[-67.50667152693379, -19.712645774080773], [-67.44863588654108, -19.706750447023847], [-67.38063535655631, -19.713007474725675], [-67.33146271226207, -19.736935273087564], [-67.28462014154252, -19.764174308456262], [-67.23673480009597, -19.795140810606593], [-67.22213894835984, -19.84373135962566], [-67.19179784696674, -19.885025385513256], [-67.17421346415377, -19.93211577300479], [-67.1830060620368, -19.984191940149632], [-67.152480358511, -20.025806404717795], [-67.15322588915959, -20.07946633999892], [-67.1677728560321, -20.12999418389202], [-67.13533673545153, -20.174855429505268], [-67.08539537456672, -20.218469666189332], [-67.03460365026667, -20.227848958089368], [-66.99908958684763, -20.2873095901542], [-66.96722683581544, -20.327967577756645], [-66.92112013134268, -20.364464612896683], [-66.95436884332328, -20.403097051965513], [-66.9977885863999, -20.431862644942445], [-67.04659070731266, -20.4628817345493], [-67.08626088042944, -20.494088637614006], [-67.10997510121383, -20.544618519454428], [-67.1307357331632, -20.605685065456026], [-67.19377633979693, -20.62461842712614], [-67.24662241877294, -20.61699140428982], [-67.29270337360329, -20.651390413052873], [-67.30553740044616, -20.699906427630744], [-67.35868280878232, -20.70913256832262], [-67.41204582476594, -20.691631165903768], [-67.45961529907346, -20.670474928743488], [-67.52260385728259, -20.6370657833152], [-67.55629104856246, -20.599639047761976], [-67.58292750159744, -20.552173766674986], [-67.62358863353828, -20.504584785599878], [-67.69081405298888, -20.43385823980185], [-67.7262081625982, -20.38531057645051], [-67.7471987846238, -20.43111636898639], [-67.76241403728622, -20.482844360278907], [-67.78897500849507, -20.526750221562285], [-67.84134167008779, -20.514310213632914], [-67.87275915068568, -20.47527298623625], [-67.8584700744113, -20.423119104882293], [-67.83887738863885, -20.36279784179288], [-67.86872097563783, -20.32124259832341], [-67.90077751560541, -20.27981364457404], [-67.92444723694088, -20.230839498071774], [-67.9740224888359, -20.237562341800686], [-67.98475084281887, -20.294261484322796], [-67.99099474527208, -20.354048663774893], [-67.98956354624781, -20.40574108614378], [-68.02814662444382, -20.44935327902494], [-68.02222568821061, -20.506733659412014], [-68.05292525950654, -20.549762224683466], [-68.10620457248493, -20.548471996494644], [-68.15946495092386, -20.536612479145855], [-68.21046774708434, -20.536426243284723], [-68.23333920903393, -20.490037972362163], [-68.24067464006302, -20.43953555122061], [-68.25962896854764, -20.392922550705606], [-68.26739722587536, -20.340995452926858], [-68.23645112527365, -20.287872610644165], [-68.22775662333338, -20.23635768525488], [-68.21675536560929, -20.185297092555643], [-68.18732036977966, -20.14261107665093], [-68.22189501308375, -20.104740898456964], [-68.20925617681428, -20.05262232689188], [-68.20361735839089, -19.994310472405974], [-68.23344238642909, -19.947824464080444], [-68.19989233473468, -19.905566864168634], [-68.16127666531419, -19.87233396515008], [-68.10483963852671, -19.832731428], [-68.0826913661728, -19.787518106300695], [-68.02908800612008, -19.78039394113863], [-67.98252829603466, -19.806570476216557], [-67.92395005254572, -19.796612722351703], [-67.8697963804997, -19.800623774663773], [-67.82920925791475, -19.832848117478708], [-67.78014753258864, -19.844350014702783], [-67.75954602431537, -19.893571538847777], [-67.71047494634038, -19.906426826276025], [-67.65986402055215, -19.9107236838027], [-67.60536221959003, -19.904254514540998], [-67.56318230068243, -19.871664081974927], [-67.52747818193262, -19.836182189982832], [-67.53753801244169, -19.78717903346422], [-67.56777003271847, -19.746812327760733], [-67.5232474484894, -19.71681720542805], [-67.50667152693379, -19.712645774080773]]]]}}]}