{"type": "FeatureCollection", "features": [{"type": "Feature", "properties": {"code": "BRA", "name": "Brazil", "tier": "country"}, "geometry": {"type": "MultiPolygon", "coordinates": [[[[-48.540067916992186, -27.937168526367195], [-48.540067916992186, -27.937168526367195]]], [[[-48.501267916992184, -27.837868526367195], [-48.501267916992184, -27.837868526367195]]], [[[-48.524867916992186, -27.8426685263672], [-48.524867916992186, -27.8426685263672]]], [[[-48.46486791699218, -27.701768526367196], [-48.46486791699218, -27.701768526367196]]], [[[-48.355567916992186, -27.484668526367194], [-48.355567916992186, -27.484668526367194]]], [[[-48.35676791699218, -27.2938685263672], [-48.35676791699218, -27.2938685263672]]], [[[-48.464467916992184, -27.204868526367196], [-48.464467916992184, -27.204868526367196]]], [[[-48.40706791699219, -27.183868526367196], [-48.40706791699219, -27.183868526367196]]], [[[-48.476667916992184, -27.140768526367197], [-48.476667916992184, -27.140768526367197]]], [[[-48.54316791699219, -27.142168526367197], [-48.54316791699219, -27.142168526367197]]], [[[-48.57756791699218, -26.4584685263672], [-48.57756791699218, -26.4584685263672]]], [[[-48.482867916992184, -26.175268526367198], [-48.482867916992184, -26.175268526367198]]], [[[-47.85926791699218, -25.125468526367197], [-47.85926791699218, -25.125468526367197]]], [[[-46.67176791699219, -24.488268526367197], [-46.67176791699219, -24.488268526367197]]], [[[-45.697367916992185, -24.106668526367194], [-45.697367916992185, -24.106668526367194]]], [[[-46.263467916992184, -24.047768526367197], [-46.263467916992184, -24.047768526367197]]], [[[-46.184967916992186, -23.972368526367198], [-46.184967916992186, -23.972368526367198]]], [[[-45.77706791699219, -23.868068526367196], [-45.77706791699219, -23.868068526367196]]], [[[-45.522067916992185, -23.853068526367196], [-45.522067916992185, -23.853068526367196]]], [[[-45.242967916992185, -23.837868526367195], [-45.242967916992185, -23.837868526367195]]], [[[-45.71736791699219, -23.799668526367196], [-45.71736791699219, -23.799668526367196]]], [[[-45.13966791699219, -23.796368526367196], [-45.13966791699219, -23.796368526367196]]], [[[-45.02216791699219, -23.740068526367196], [-45.02216791699219, -23.740068526367196]]], [[[-45.02216791699219, -23.740068526367196], [-45.02216791699219, -23.740068526367196]]], [[[-45.242967916992185, -23.837868526367195], [-45.310167916992185, -23.730668526367197], [-45.39186791699218, -23.831268526367197], [-45.30186791699219, -23.914468526367195], [-45.242967916992185, -23.837868526367195]]], [[[-45.28956791699218, -23.593168526367194], [-45.28956791699218, -23.593168526367194]]], [[[-45.154767916992185, -23.570968526367196], [-45.154767916992185, -23.570968526367196]]], [[[-45.07936791699218, -23.5316685263672], [-45.07936791699218, -23.5316685263672]]], [[[-45.07936791699218, -23.5316685263672], [-45.07936791699218, -23.5316685263672]]], [[[-44.852567916992186, -23.4233685263672], [-44.852567916992186, -23.4233685263672]]], [[[-44.850367916992184, -23.397668526367198], [-44.850367916992184, -23.397668526367198]]], [[[-44.946267916992184, -23.387368526367197], [-44.946267916992184, -23.387368526367197]]], [[[-44.62766791699219, -23.342268526367196], [-44.62766791699219, -23.342268526367196]]], [[[-44.513467916992184, -23.292068526367196], [-44.513467916992184, -23.292068526367196]]], [[[-44.15506791699219, -23.224568526367197], [-44.15506791699219, -23.224568526367197]]], [[[-44.592267916992185, -23.202968526367197], [-44.592267916992185, -23.202968526367197]]], [[[-44.57996791699218, -23.1992685263672], [-44.57996791699218, -23.1992685263672]]], [[[-44.57316791699218, -23.187968526367197], [-44.57316791699218, -23.187968526367197]]], [[[-44.68886791699219, -23.1671685263672], [-44.68886791699219, -23.1671685263672]]], [[[-44.23646791699218, -23.083968526367194], [-44.333267916992185, -23.155568526367198], [-44.20896791699219, -23.192968526367196], [-44.23646791699218, -23.083968526367194]]], [[[-44.23646791699218, -23.083968526367194], [-44.23646791699218, -23.083968526367194]]], [[[-44.63986791699219, -23.073468526367197], [-44.63986791699219, -23.073468526367197]]], [[[-43.19206791699219, -23.072468526367196], [-43.19206791699219, -23.072468526367196]]], [[[-43.50886791699219, -23.064868526367196], [-43.50886791699219, -23.064868526367196]]], [[[-43.14486791699218, -23.062668526367197], [-43.14486791699218, -23.062668526367197]]], [[[-44.59406791699219, -23.0590685263672], [-44.59406791699219, -23.0590685263672]]], [[[-44.313767916992184, -23.0605685263672], [-44.313767916992184, -23.0605685263672]]], [[[-44.557167916992185, -23.061868526367196], [-44.557167916992185, -23.061868526367196]]], [[[-44.48786791699219, -23.044268526367198], [-44.48786791699219, -23.044268526367198]]], [[[-44.48786791699219, -23.044268526367198], [-44.48786791699219, -23.044268526367198]]], [[[-44.124367916992185, -23.038868526367196], [-44.124367916992185, -23.038868526367196]]], [[[-43.469867916992186, -23.034168526367196], [-43.469867916992186, -23.034168526367196]]], [[[-43.83146791699218, -23.069368526367196], [-43.953167916992186, -23.041768526367196], [-43.83146791699218, -23.069368526367196]]], [[[-44.37016791699219, -23.039568526367198], [-44.37016791699219, -23.039568526367198]]], [[[-44.401167916992186, -23.031268526367196], [-44.401167916992186, -23.031268526367196]]], [[[-42.91966791699218, -23.016568526367195], [-42.91966791699218, -23.016568526367195]]], [[[-43.94956791699219, -23.006568526367197], [-43.94956791699219, -23.006568526367197]]], [[[-44.02946791699218, -23.0040685263672], [-44.02946791699218, -23.0040685263672]]], [[[-43.92076791699218, -22.9890685263672], [-43.92076791699218, -22.9890685263672]]], [[[-44.41316791699219, -22.988968526367195], [-44.41316791699219, -22.988968526367195]]], [[[-43.08186791699219, -22.986168526367194], [-43.08186791699219, -22.986168526367194]]], [[[-43.92076791699218, -22.9890685263672], [-43.92076791699218, -22.9890685263672]]], [[[-44.41316791699219, -22.988968526367195], [-44.41316791699219, -22.988968526367195]]], [[[-43.90846791699219, -22.980568526367197], [-43.90846791699219, -22.980568526367197]]], [[[-41.982867916992184, -23.000768526367196], [-41.982867916992184, -23.000768526367196]]], [[[-44.40036791699219, -22.9828685263672], [-44.40036791699219, -22.9828685263672]]], [[[-44.41896791699219, -22.971968526367196], [-44.41896791699219, -22.971968526367196]]], [[[-41.98786791699219, -22.967368526367196], [-41.98786791699219, -22.967368526367196]]], [[[-43.857867916992184, -22.954268526367194], [-43.857867916992184, -22.954268526367194]]], [[[-44.338167916992184, -22.940868526367197], [-44.338167916992184, -22.940868526367197]]], [[[-43.870767916992186, -22.924368526367196], [-43.870767916992186, -22.924368526367196]]], [[[-43.176367916992184, -22.896068526367195], [-43.176367916992184, -22.896068526367195]]], [[[-41.97696791699219, -22.899868526367197], [-41.97696791699219, -22.899868526367197]]], [[[-43.13176791699218, -22.872768526367196], [-43.13176791699218, -22.872768526367196]]], [[[-41.940267916992184, -22.872968526367195], [-41.940267916992184, -22.872968526367195]]], [[[-43.117967916992185, -22.858868526367196], [-43.117967916992185, -22.858868526367196]]], [[[-41.90336791699219, -22.8563685263672], [-41.90336791699219, -22.8563685263672]]], [[[-43.224567916992186, -22.8411685263672], [-43.224567916992186, -22.8411685263672]]], [[[-43.10506791699218, -22.835468526367194], [-43.10506791699218, -22.835468526367194]]], [[[-43.096967916992185, -22.826768526367196], [-43.096967916992185, -22.826768526367196]]], [[[-43.09346791699218, -22.823168526367198], [-43.09346791699218, -22.823168526367198]]], [[[-43.162067916992186, -22.811568526367196], [-43.162067916992186, -22.811568526367196]]], [[[-43.17386791699219, -22.777268526367195], [-43.17386791699219, -22.777268526367195]]], [[[-41.82176791699219, -22.773168526367197], [-41.82176791699219, -22.773168526367197]]], [[[-43.154767916992185, -22.774268526367198], [-43.154767916992185, -22.774268526367198]]], [[[-43.11576791699218, -22.756668526367196], [-43.11576791699218, -22.756668526367196]]], [[[-43.107467916992185, -22.760468526367195], [-43.107467916992185, -22.760468526367195]]], [[[-41.70066791699219, -22.417868526367197], [-41.70066791699219, -22.417868526367197]]], [[[-41.691567916992184, -22.403368526367196], [-41.691567916992184, -22.403368526367196]]], [[[-57.456767916992185, -22.189968526367196], [-57.456767916992185, -22.189968526367196]]], [[[-41.047567916992186, -21.588168526367195], [-41.047567916992186, -21.588168526367195]]], [[[-29.299367916992182, -20.519868526367198], [-29.299367916992182, -20.519868526367198]]], [[[-28.849167916992187, -20.474468526367197], [-28.849167916992187, -20.474468526367197]]], [[[-40.277667916992186, -20.300068526367195], [-40.277667916992186, -20.300068526367195]]], [[[-38.70686791699219, -17.964468526367195], [-38.70686791699219, -17.964468526367195]]], [[[-38.70686791699219, -17.964468526367195], [-38.70686791699219, -17.964468526367195]]], [[[-39.194967916992184, -17.755968526367198], [-39.194967916992184, -17.755968526367198]]], [[[-68.87746791699219, -11.019868526367198], [-68.87746791699219, -11.019868526367198]]], [[[-68.75736791699218, -11.009868526367196], [-68.75736791699218, -11.009868526367196]]], [[[-68.78846791699219, -11.006868526367196], [-68.78846791699219, -11.006868526367196]]], [[[-34.967267916992185, -8.375968526367195], [-34.967267916992185, -8.375968526367195]]], [[[-34.86146791699218, -6.981368526367195], [-34.86146791699218, -6.981368526367195]]], [[[-32.400467916992184, -3.856668526367194], [-32.400467916992184, -3.856668526367194]]], [[[-32.38456791699218, -3.814868526367199], [-32.38456791699218, -3.814868526367199]]], [[[-44.659867916992184, -2.975968526367197], [-44.659867916992184, -2.975968526367197]]], [[[-44.62516791699218, -2.940168526367195], [-44.62516791699218, -2.940168526367195]]], [[[-44.65976791699219, -2.944568526367199], [-44.65976791699219, -2.944568526367199]]], [[[-39.90846791699219, -2.874068526367196], [-39.90846791699219, -2.874068526367196]]], [[[-44.58826791699219, -2.875168526367197], [-44.58826791699219, -2.875168526367197]]], [[[-44.48146791699219, -2.726668526367199], [-44.58656791699219, -2.815468526367198], [-44.60676791699218, -2.934068526367199], [-44.48966791699218, -2.971368526367193], [-44.48176791699218, -2.834268526367197], [-44.48146791699219, -2.726668526367199]]], [[[-44.36166791699218, -2.523268526367197], [-44.36166791699218, -2.523268526367197]]], [[[-43.465167916992186, -2.480368526367194], [-43.465167916992186, -2.480368526367194]]], [[[-43.855567916992186, -2.440768526367194], [-43.855567916992186, -2.440768526367194]]], [[[-44.42116791699218, -2.426568526367198], [-44.42116791699218, -2.426568526367198]]], [[[-43.506867916992185, -2.404468526367197], [-43.506867916992185, -2.404468526367197]]], [[[-43.75766791699218, -2.373268526367198], [-43.75766791699218, -2.373268526367198]]], [[[-43.56666791699219, -2.425068526367198], [-43.56666791699219, -2.425068526367198]]], [[[-44.47056791699219, -2.077868526367197], [-44.47056791699219, -2.077868526367197]]], [[[-44.738667916992185, -1.695268526367194], [-44.738667916992185, -1.695268526367194]]], [[[-44.72556791699218, -1.6667685263672], [-44.72556791699218, -1.6667685263672]]], [[[-44.827067916992185, -1.557268526367196], [-44.827067916992185, -1.557268526367196]]], [[[-44.758167916992186, -1.577468526367198], [-44.758167916992186, -1.577468526367198]]], [[[-44.86506791699219, -1.491068526367194], [-44.86506791699219, -1.491068526367194]]], [[[-44.827067916992185, -1.557268526367196], [-44.827067916992185, -1.557268526367196]], [[-44.773167916992186, -1.490568526367198], [-44.773167916992186, -1.490568526367198]]], [[[-45.07246791699219, -1.453568526367199], [-45.07246791699219, -1.453568526367199]]], [[[-45.08846791699219, -1.438268526367196], [-45.08846791699219, -1.438268526367196]]], [[[-45.108967916992185, -1.468968526367199], [-45.108967916992185, -1.468968526367199]]], [[[-45.410967916992185, -1.418168526367197], [-45.410967916992185, -1.418168526367197]]], [[[-45.09916791699219, -1.429768526367198], [-45.09916791699219, -1.429768526367198]]], [[[-45.04246791699219, -1.395168526367193], [-45.04246791699219, -1.395168526367193]]], [[[-45.105567916992186, -1.408968526367197], [-45.105567916992186, -1.408968526367197]]], [[[-44.966167916992184, -1.271068526367195], [-45.02146791699219, -1.383868526367195], [-44.90236791699218, -1.337868526367195], [-44.966167916992184, -1.271068526367195]]], [[[-45.56966791699219, -1.269268526367199], [-45.56966791699219, -1.269268526367199]]], [[[-45.53586791699219, -1.227868526367196], [-45.53586791699219, -1.227868526367196]]], [[[-45.768667916992186, -1.190868526367197], [-45.768667916992186, -1.190868526367197]]], [[[-45.68886791699219, -1.264568526367199], [-45.68886791699219, -1.264568526367199]]], [[[-45.604267916992185, -1.158468526367194], [-45.604267916992185, -1.158468526367194]]], [[[-45.812967916992186, -1.152568526367197], [-45.812967916992186, -1.152568526367197]]], [[[-46.016267916992184, -1.079268526367194], [-46.016267916992184, -1.079268526367194]]], [[[-46.43446791699218, -1.015368526367197], [-46.43446791699218, -1.015368526367197]]], [[[-46.375467916992186, -1.020068526367197], [-46.375467916992186, -1.020068526367197]]], [[[-46.42996791699218, -0.9869685263672], [-46.42996791699218, -0.9869685263672]]], [[[-46.30876791699219, -1.002968526367198], [-46.30876791699219, -1.002968526367198]]], [[[-46.14956791699218, -0.953968526367198], [-46.14956791699218, -0.953968526367198]]], [[[-46.718767916992185, -0.787768526367195], [-46.718767916992185, -0.787768526367195]]], [[[-47.99216791699219, -0.684468526367198], [-47.99216791699219, -0.684468526367198]]], [[[-48.010267916992184, -0.686168526367197], [-48.010267916992184, -0.686168526367197]]], [[[-47.83876791699218, -0.660668526367196], [-47.83876791699218, -0.660668526367196]]], [[[-47.83876791699218, -0.660668526367196], [-47.83876791699218, -0.660668526367196]]], [[[-47.97806791699219, -0.668968526367195], [-47.97806791699219, -0.668968526367195]]], [[[-47.822167916992186, -0.632668526367198], [-47.822167916992186, -0.632668526367198]]], [[[-47.90806791699218, -0.600368526367198], [-47.90806791699218, -0.600368526367198]]], [[[-47.91556791699219, -0.580768526367194], [-47.91556791699219, -0.580768526367194]]], [[[-48.97056791699218, -0.181868526367197], [-48.97056791699218, -0.181868526367197]]], [[[-48.94216791699219, -0.179768526367198], [-48.94216791699219, -0.179768526367198]]], [[[-48.73166791699218, -0.172168526367194], [-48.73166791699218, -0.172168526367194]]], [[[-48.97506791699219, -0.166968526367199], [-48.97506791699219, -0.166968526367199]]], [[[-48.76106791699219, -0.184668526367197], [-48.76106791699219, -0.184668526367197]]], [[[-48.910567916992186, -0.150168526367196], [-48.910567916992186, -0.150168526367196]]], [[[-49.130967916992184, -0.160868526367196], [-49.130967916992184, -0.160868526367196]]], [[[-49.44986791699219, 0.116731473632804], [-49.44986791699219, 0.116731473632804]]], [[[-49.626267916992184, 0.190131473632803], [-49.626267916992184, 0.190131473632803]]], [[[-49.563367916992185, 0.186731473632804], [-49.563367916992185, 0.186731473632804]]], [[[-49.61806791699219, 0.199231473632807], [-49.61806791699219, 0.199231473632807]]], [[[-50.461467916992184, 2.111331473632802], [-50.521167916992184, 2.005531473632807], [-50.456567916992185, 1.8925314736328], [-50.32936791699218, 1.929031473632804], [-50.36076791699219, 2.057531473632807], [-50.461467916992184, 2.111331473632802]]], [[[-50.461467916992184, 2.111331473632802], [-50.461467916992184, 2.111331473632802]]], [[[-48.010267916992184, -0.686168526367197], [-48.13386791699219, -0.745268526367198], [-48.229467916992185, -0.827868526367197], [-48.33656791699218, -0.921368526367196], [-48.454667916992186, -0.886568526367199], [-48.50846791699219, -0.773968526367199], [-48.473067916992186, -0.644268526367199], [-48.47096791699218, -0.517068526367197], [-48.41366791699218, -0.384068526367194], [-48.396167916992184, -0.252668526367195], [-48.515467916992186, -0.238268526367193], [-48.64376791699219, -0.234268526367195], [-48.775067916992185, -0.237568526367198], [-48.902667916992186, -0.222368526367198], [-49.01076791699219, -0.168568526367196], [-49.136767916992184, -0.168168526367197], [-49.263267916992184, -0.158768526367197], [-49.37956791699219, -0.191068526367197], [-49.41746791699218, -0.068468526367198], [-49.37486791699219, 0.044531473632802], [-49.504967916992186, 0.082231473632802], [-49.63216791699219, 0.074931473632802], [-49.67246791699219, 0.198731473632805], [-49.551167916992185, 0.282331473632802], [-49.56416791699219, 0.409731473632803], [-49.699267916992184, 0.3835314736328], [-49.807767916992184, 0.332131473632806], [-49.925767916992186, 0.360331473632804], [-50.05106791699218, 0.336931473632802], [-50.174667916992185, 0.347931473632805], [-50.088167916992184, 0.453131473632801], [-50.02906791699219, 0.558731473632804], [-50.13346791699219, 0.619731473632804], [-50.231167916992185, 0.730331473632802], [-50.11186791699218, 0.760531473632803], [-50.02536791699218, 0.848131473632805], [-49.956767916992185, 0.949531473632803], [-49.88456791699218, 1.047131473632803], [-49.882967916992186, 1.169131473632802], [-49.90426791699218, 1.295731473632806], [-49.87556791699218, 1.430431473632801], [-49.89846791699219, 1.557131473632801], [-49.92066791699219, 1.676531473632807], [-50.01896791699218, 1.753131473632806], [-50.13216791699219, 1.796531473632804], [-50.26426791699218, 1.812531473632802], [-50.40036791699218, 1.800331473632802], [-50.50736791699218, 1.884531473632805], [-50.58256791699219, 1.989731473632801], [-50.63416791699218, 2.102331473632802], [-50.704667916992186, 2.224131473632802], [-50.747667916992185, 2.356731473632806], [-50.787867916992184, 2.486131473632803], [-50.84726791699218, 2.592731473632803], [-50.88606791699219, 2.710731473632805], [-50.94516791699219, 2.818731473632802], [-50.982867916992184, 2.936931473632804], [-51.02126791699219, 3.052331473632805], [-51.035967916992185, 3.175931473632801], [-51.06906791699218, 3.303331473632802], [-51.105367916992186, 3.425931473632801], [-51.081767916992185, 3.559531473632802], [-51.091167916992184, 3.738531473632804], [-51.080667916992184, 3.884931473632804], [-51.17756791699219, 3.958131473632804], [-51.18956791699219, 4.080331473632803], [-51.251267916992184, 4.199531473632803], [-51.33186791699218, 4.304831473632802], [-51.421867916992184, 4.387131473632806], [-51.637467916992186, 4.508931473632806], [-51.67396791699218, 4.394331473632803], [-51.64926791699219, 4.267231473632805], [-51.637467916992186, 4.133331473632801], [-51.69876791699218, 4.026331473632801], [-51.78196791699219, 3.922731473632801], [-51.859167916992185, 3.825931473632807], [-51.922567916992186, 3.723331473632804], [-52.00296791699218, 3.6091314736328], [-52.07026791699219, 3.507731473632802], [-52.13886791699218, 3.392731473632807], [-52.20606791699218, 3.280731473632805], [-52.30186791699219, 3.201731473632805], [-52.32766791699218, 3.081531473632801], [-52.381667916992185, 2.953931473632807], [-52.44406791699218, 2.851031473632801], [-52.49086791699219, 2.730131473632802], [-52.54576791699219, 2.614731473632801], [-52.584367916992186, 2.495531473632802], [-52.65446791699219, 2.393631473632801], [-52.763967916992186, 2.323731473632805], [-52.87186791699219, 2.259531473632805], [-52.959367916992186, 2.174931473632803], [-53.07956791699219, 2.210531473632805], [-53.208267916992185, 2.199231473632807], [-53.27756791699218, 2.298931473632805], [-53.398967916992184, 2.308331473632805], [-53.520167916992186, 2.266431473632807], [-53.648767916992185, 2.283031473632803], [-53.74156791699218, 2.361831473632805], [-53.853167916992184, 2.311231473632802], [-53.95426791699219, 2.245331473632802], [-54.18906791699219, 2.178931473632801], [-54.43656791699219, 2.209931473632807], [-54.601667916992184, 2.337231473632805], [-54.68486791699219, 2.446931473632802], [-54.87216791699218, 2.433931473632803], [-54.95426791699219, 2.583631473632806], [-55.10306791699219, 2.525831473632806], [-55.23476791699218, 2.503431473632801], [-55.356167916992185, 2.475731473632806], [-55.482267916992186, 2.438731473632807], [-55.604267916992185, 2.430331473632805], [-55.72786791699218, 2.406931473632802], [-55.83576791699218, 2.460831473632801], [-55.93466791699218, 2.533731473632805], [-55.991067916992186, 2.422531473632802], [-56.08896791699219, 2.351731473632803], [-56.05806791699219, 2.233531473632802], [-55.99136791699219, 2.131531473632805], [-55.90316791699219, 2.041031473632806], [-55.920567916992184, 1.919131473632802], [-56.007467916992184, 1.836131473632804], [-56.129967916992186, 1.859331473632807], [-56.258767916992184, 1.885631473632806], [-56.369067916992186, 1.937531473632802], [-56.49556791699219, 1.938131473632801], [-56.617967916992185, 1.943931473632801], [-56.737567916992184, 1.908731473632805], [-56.856367916992184, 1.889331473632801], [-56.97616791699218, 1.903031473632801], [-57.070467916992186, 1.980531473632801], [-57.199967916992186, 1.978931473632805], [-57.32396791699219, 1.9779314736328], [-57.423567916992184, 1.908331473632806], [-57.47416791699219, 1.796131473632805], [-57.55036791699219, 1.700731473632807], [-57.67246791699219, 1.710831473632801], [-57.79226791699219, 1.726731473632803], [-57.90206791699218, 1.667931473632805], [-57.97856791699218, 1.572831473632803], [-58.08506791699219, 1.508131473632801], [-58.18956791699219, 1.571731473632802], [-58.31716791699219, 1.568431473632806], [-58.39676791699219, 1.470931473632803], [-58.505967916992184, 1.409731473632803], [-58.493367916992185, 1.287931473632803], [-58.614967916992185, 1.283031473632803], [-58.72526791699218, 1.218731473632801], [-58.84596791699218, 1.181931473632801], [-58.91856791699219, 1.284931473632803], [-59.03886791699219, 1.324231473632807], [-59.162067916992186, 1.3591314736328], [-59.28196791699219, 1.409931473632803], [-59.33956791699218, 1.518331473632806], [-59.43766791699218, 1.593831473632804], [-59.520167916992186, 1.684731473632802], [-59.632467916992184, 1.7401314736328], [-59.66276791699218, 1.863931473632803], [-59.73776791699218, 1.966331473632806], [-59.735667916992185, 2.089731473632803], [-59.730567916992186, 2.224631473632805], [-59.81546791699218, 2.312931473632801], [-59.908167916992184, 2.393631473632801], [-59.919567916992186, 2.516931473632802], [-59.968767916992185, 2.628731473632804], [-59.98776791699218, 2.750631473632801], [-59.98336791699219, 2.873731473632802], [-59.947367916992185, 2.998931473632801], [-59.92216791699218, 3.120131473632803], [-59.885967916992186, 3.237331473632807], [-59.83426791699219, 3.351931473632803], [-59.82246791699218, 3.4719314736328], [-59.856367916992184, 3.589131473632804], [-59.75156791699219, 3.653031473632801], [-59.66816791699219, 3.740431473632803], [-59.57786791699219, 3.821331473632803], [-59.52426791699219, 3.932931473632806], [-59.613067916992186, 4.015931473632804], [-59.63516791699219, 4.141731473632802], [-59.738667916992185, 4.212131473632802], [-59.68936791699218, 4.335731473632805], [-59.760967916992186, 4.432531473632807], [-59.87446791699219, 4.478231473632803], [-60.002367916992185, 4.495131473632803], [-60.12406791699219, 4.506931473632804], [-60.07096791699219, 4.616531473632804], [-60.035567916992186, 4.732531473632804], [-60.00916791699218, 4.861831473632805], [-59.99006791699219, 4.983731473632801], [-60.03676791699219, 5.108231473632806], [-60.12016791699219, 5.207531473632805], [-60.22806791699219, 5.263731473632802], [-60.33656791699218, 5.207931473632804], [-60.462567916992185, 5.199531473632803], [-60.590967916992184, 5.208331473632803], [-60.712967916992184, 5.217731473632803], [-60.642567916992185, 5.117331473632802], [-60.603867916992186, 5.003431473632801], [-60.65236791699218, 4.882831473632805], [-60.721967916992185, 4.781531473632803], [-60.830067916992185, 4.7279314736328], [-60.93116791699218, 4.661031473632804], [-60.96396791699219, 4.543731473632803], [-61.082867916992186, 4.517931473632807], [-61.203567916992185, 4.517931473632807], [-61.324967916992186, 4.533531473632806], [-61.380167916992185, 4.426731473632806], [-61.499367916992185, 4.407731473632801], [-61.52406791699218, 4.288331473632802], [-61.63876791699219, 4.237531473632806], [-61.769067916992185, 4.248331473632803], [-61.86146791699218, 4.171131473632805], [-61.982867916992184, 4.171731473632803], [-62.09706791699219, 4.127531473632807], [-62.22056791699218, 4.1121314736328], [-62.33846791699219, 4.143931473632804], [-62.45816791699218, 4.176831473632802], [-62.551567916992184, 4.093331473632801], [-62.65766791699218, 4.036331473632806], [-62.757467916992184, 3.947831473632803], [-62.75906791699218, 3.823331473632805], [-62.732867916992184, 3.702731473632802], [-62.853867916992186, 3.711131473632804], [-62.94236791699218, 3.623931473632801], [-63.05686791699219, 3.677131473632805], [-63.103167916992184, 3.793231473632801], [-63.22596791699219, 3.835131473632806], [-63.246567916992184, 3.954531473632805], [-63.39396791699218, 3.980531473632801], [-63.43436791699219, 3.866131473632805], [-63.55476791699218, 3.873331473632803], [-63.63436791699219, 3.974631473632805], [-63.74326791699218, 3.920931473632805], [-63.86246791699219, 3.946431473632806], [-63.96096791699219, 3.877031473632805], [-64.05256791699219, 3.957231473632802], [-64.10886791699218, 4.085531473632805], [-64.23216791699218, 4.123931473632801], [-64.38626791699218, 4.137131473632806], [-64.50326791699219, 4.110431473632801], [-64.62356791699219, 4.134931473632804], [-64.68466791699218, 4.239331473632802], [-64.79686791699218, 4.285731473632801], [-64.78346791699218, 4.152731473632805], [-64.68376791699218, 4.040331473632804], [-64.60276791699218, 3.942831473632801], [-64.52446791699218, 3.841931473632805], [-64.40916791699219, 3.765731473632805], [-64.28846791699219, 3.698731473632805], [-64.20986791699218, 3.594731473632805], [-64.16126791699219, 3.465131473632802], [-64.13276791699218, 3.345231473632801], [-64.15676791699218, 3.212531473632801], [-64.21926791699218, 3.106031473632804], [-64.16086791699219, 2.987331473632807], [-64.07716791699218, 2.901331473632801], [-64.01816791699218, 2.795331473632807], [-63.990367916992184, 2.669331473632802], [-64.04446791699219, 2.553731473632801], [-63.95926791699219, 2.467731473632803], [-63.83406791699218, 2.491131473632805], [-63.718367916992186, 2.444931473632806], [-63.59366791699219, 2.455731473632802], [-63.47506791699219, 2.423731473632806], [-63.35566791699219, 2.387131473632806], [-63.36416791699219, 2.266331473632803], [-63.397667916992184, 2.146931473632804], [-63.528467916992184, 2.128331473632805], [-63.63796791699218, 2.069231473632804], [-63.74266791699219, 2.0085314736328], [-63.86146791699218, 1.979931473632803], [-63.98746791699219, 1.979131473632805], [-64.06186791699218, 1.882731473632802], [-64.07796791699218, 1.759131473632806], [-64.09516791699218, 1.617131473632803], [-64.19376791699219, 1.542731473632806], [-64.30216791699219, 1.468331473632801], [-64.39346791699218, 1.388531473632803], [-64.34886791699219, 1.502031473632805], [-64.47666791699218, 1.468031473632806], [-64.57376791699218, 1.3835314736328], [-64.66026791699218, 1.291331473632802], [-64.77266791699219, 1.247531473632804], [-64.89826791699218, 1.252731473632807], [-64.99156791699218, 1.150531473632803], [-65.11906791699218, 1.146531473632805], [-65.16696791699218, 1.027131473632807], [-65.19716791699219, 0.9109314736328], [-65.32186791699219, 0.928131473632803], [-65.39716791699219, 0.829131473632806], [-65.42356791699218, 0.707931473632804], [-65.53346791699218, 0.659131473632804], [-65.55616791699218, 0.777731473632805], [-65.49356791699219, 0.882031473632807], [-65.56136791699218, 0.985931473632803], [-65.68656791699219, 0.990931473632806], [-65.80156791699218, 0.953631473632804], [-65.90116791699218, 0.883731473632807], [-66.00056791699218, 0.8026314736328], [-66.11446791699218, 0.763531473632803], [-66.31846791699219, 0.755131473632801], [-66.59536791699219, 0.996231473632804], [-66.85676791699218, 1.230331473632802], [-67.08796791699218, 1.166831473632804], [-67.08976791699219, 1.288131473632802], [-67.07236791699219, 1.442731473632804], [-67.07906791699219, 1.587231473632805], [-67.10136791699219, 1.706331473632801], [-67.13966791699218, 1.826731473632805], [-67.26066791699219, 1.865431473632803], [-67.31666791699219, 2.001331473632803], [-67.34046791699218, 2.186731473632804], [-67.46236791699218, 2.199131473632804], [-67.55796791699218, 2.106031473632804], [-67.64296791699219, 2.020331473632801], [-67.76896791699218, 2.039331473632807], [-67.85146791699219, 1.930331473632805], [-67.93076791699218, 1.834931473632807], [-68.04336791699218, 1.899731473632805], [-68.13386791699219, 1.979531473632804], [-68.24326791699218, 1.926831473632802], [-68.24476791699219, 1.794931473632801], [-68.69716791699219, 1.732131473632805], [-69.00076791699219, 1.732131473632805], [-69.17856791699218, 1.733531473632802], [-69.38486791699219, 1.729631473632807], [-69.50326791699219, 1.772131473632804], [-69.62886791699219, 1.750631473632801], [-69.75216791699219, 1.738931473632803], [-69.84556791699218, 1.499731473632806], [-69.84426791699218, 1.085531473632805], [-69.71046791699219, 1.126531473632802], [-69.58756791699219, 1.088531473632806], [-69.45706791699219, 1.081931473632807], [-69.33116791699219, 1.096331473632802], [-69.22536791699218, 1.030231473632803], [-69.18466791699218, 0.915531473632804], [-69.15096791699219, 0.799931473632803], [-69.12746791699219, 0.668231473632801], [-69.23886791699218, 0.602431473632805], [-69.35896791699219, 0.611831473632805], [-69.43746791699219, 0.7097314736328], [-69.56636791699219, 0.684131473632803], [-69.69076791699219, 0.665531473632804], [-69.79206791699218, 0.585831473632801], [-69.91476791699219, 0.585331473632806], [-70.03556791699219, 0.561531473632805], [-70.04646791699219, -0.000468526367193], [-70.04166791699218, -0.124068526367196], [-69.99026791699218, -0.251668526367197], [-69.90756791699218, -0.342368526367196], [-69.79396791699219, -0.391568526367195], [-69.69106791699218, -0.462368526367193], [-69.60346791699219, -0.553668526367197], [-69.58476791699218, -0.674768526367195], [-69.58376791699219, -0.801568526367198], [-69.52736791699219, -0.921868526367199], [-69.42146791699219, -1.000468526367193], [-69.39676791699219, -1.123368526367194], [-69.43076791699218, -1.241868526367199], [-69.39986791699218, -1.370768526367193], [-69.45756791699219, -1.493368526367199], [-69.53446791699218, -2.000468526367193], [-69.61336791699219, -2.440168526367195], [-69.71226791699219, -3.000568526367196], [-69.82536791699218, -3.619768526367196], [-69.89396791699218, -4.000568526367196], [-69.93326791699218, -4.206868526367195], [-69.98086791699218, -4.327368526367195], [-70.09756791699219, -4.2964685263672], [-70.19816791699219, -4.366068526367194], [-70.29826791699219, -4.290668526367199], [-70.29886791699218, -4.166068526367198], [-70.41916791699218, -4.140368526367197], [-70.54926791699219, -4.137168526367198], [-70.67526791699218, -4.145068526367197], [-70.79146791699219, -4.186068526367194], [-70.87936791699218, -4.292568526367198], [-70.96256791699219, -4.379068526367199], [-71.08616791699218, -4.389968526367198], [-71.20136791699218, -4.426068526367196], [-71.32396791699219, -4.4214685263672], [-71.44986791699219, -4.451768526367196], [-71.56956791699218, -4.507168526367195], [-71.68996791699219, -4.502068526367196], [-71.81106791699219, -4.4976685263672], [-71.92696791699218, -4.545068526367196], [-72.00596791699219, -4.641568526367195], [-72.10746791699219, -4.706868526367195], [-72.21646791699219, -4.767868526367195], [-72.33686791699219, -4.797268526367198], [-72.42716791699219, -4.881068526367194], [-72.52806791699219, -4.958168526367196], [-72.62946791699218, -5.051968526367197], [-72.75356791699218, -5.082668526367193], [-72.86216791699218, -5.148368526367193], [-72.86496791699219, -5.272168526367196], [-72.92066791699219, -5.382368526367195], [-72.96366791699218, -5.498068526367199], [-72.97446791699218, -5.624068526367196], [-73.02066791699218, -5.739468526367197], [-73.11026791699219, -5.824268526367199], [-73.18156791699218, -5.922868526367196], [-73.23746791699219, -6.032068526367198], [-73.24056791699219, -6.158168526367199], [-73.16536791699218, -6.274068526367195], [-73.12526791699219, -6.389668526367196], [-73.14906791699218, -6.511068526367197], [-73.24696791699219, -6.584268526367197], [-73.36726791699219, -6.608068526367198], [-73.47596791699219, -6.6652685263672], [-73.58436791699218, -6.724568526367193], [-73.67506791699219, -6.810868526367194], [-73.74726791699219, -6.926068526367196], [-73.74636791699218, -7.051068526367196], [-73.75936791699219, -7.173968526367197], [-73.70066791699219, -7.290568526367196], [-73.81706791699219, -7.335068526367195], [-73.94276791699218, -7.361368526367198], [-73.93216791699219, -7.486768526367197], [-73.93226791699219, -7.607868526367195], [-73.83896791699219, -7.688268526367196], [-73.72206791699219, -7.748068526367195], [-73.69796791699218, -7.866868526367195], [-73.67866791699218, -8.003368526367197], [-73.59376791699219, -8.097368526367195], [-73.57436791699219, -8.217868526367198], [-73.53776791699218, -8.334068526367197], [-73.43336791699218, -8.412068526367197], [-73.33176791699219, -8.476668526367195], [-73.34376791699219, -8.601668526367195], [-73.24776791699219, -8.687268526367195], [-73.13746791699218, -8.742968526367196], [-73.07736791699219, -8.860868526367195], [-72.97056791699218, -8.974768526367196], [-72.94376791699219, -9.102068526367198], [-73.01906791699219, -9.218968526367195], [-73.12796791699219, -9.312468526367198], [-73.21036791699218, -9.406468526367195], [-72.71586791699218, -9.412068526367197], [-72.59666791699219, -9.455468526367195], [-72.47896791699219, -9.485768526367195], [-72.35666791699218, -9.494368526367197], [-72.28426791699218, -9.591468526367198], [-72.26386791699218, -9.712968526367195], [-72.15806791699218, -9.791068526367198], [-72.16726791699219, -9.914268526367195], [-71.79216791699218, -9.999968526367198], [-71.37736791699218, -9.999968526367198], [-71.25906791699218, -9.978068526367196], [-71.17166791699219, -9.887968526367196], [-71.06796791699219, -9.826868526367196], [-70.96676791699218, -9.755168526367196], [-70.87546791699219, -9.675068526367195], [-70.77336791699219, -9.606668526367198], [-70.66446791699218, -9.519368526367195], [-70.57246791699218, -9.435768526367195], [-70.56596791699218, -9.555768526367196], [-70.54896791699218, -9.675768526367197], [-70.58546791699219, -9.790668526367195], [-70.62026791699219, -10.359268526367195], [-70.62076791699218, -10.714768526367195], [-70.62086791699218, -10.999468526367195], [-70.50436791699218, -10.952168526367196], [-70.41056791699219, -11.041668526367197], [-70.28596791699218, -11.057568526367195], [-70.16506791699219, -11.038868526367196], [-70.05286791699218, -10.985868526367195], [-69.94686791699219, -10.923868526367198], [-69.82466791699218, -10.932068526367196], [-69.71176791699219, -10.973368526367196], [-69.59046791699218, -10.944968526367198], [-69.46456791699218, -10.949868526367197], [-69.34486791699219, -10.938468526367195], [-69.22496791699218, -10.946368526367195], [-69.10136791699219, -10.979468526367196], [-68.98446791699219, -11.006768526367196], [-68.86066791699218, -11.015768526367197], [-68.75626791699219, -11.077968526367197], [-68.61496791699219, -11.125468526367197], [-68.50346791699218, -11.062668526367197], [-68.38596791699219, -11.019268526367195], [-68.27036791699219, -10.978968526367197], [-68.19876791699218, -10.872968526367195], [-68.11656791699218, -10.783368526367195], [-68.0552679169922, -10.671468526367196], [-67.92866791699218, -10.654868526367196], [-67.80756791699218, -10.665968526367195], [-67.67536791699219, -10.603068526367196], [-67.58896791699219, -10.510768526367197], [-67.47126791699219, -10.461168526367196], [-67.37906791699218, -10.381368526367197], [-67.27036791699219, -10.324868526367197], [-67.14686791699219, -10.323468526367197], [-67.04216791699218, -10.263268526367195], [-66.94626791699218, -10.164468526367195], [-66.85536791699218, -10.083268526367196], [-66.76456791699218, -9.999068526367196], [-66.65676791699218, -9.935168526367196], [-66.54606791699219, -9.885468526367195], [-66.42476791699218, -9.873668526367197], [-66.30686791699219, -9.839868526367198], [-66.18586791699218, -9.821368526367195], [-66.06986791699218, -9.784468526367196], [-65.94376791699219, -9.760168526367195], [-65.82136791699219, -9.767068526367197], [-65.69676791699219, -9.750168526367197], [-65.60056791699219, -9.824268526367195], [-65.50406791699218, -9.747668526367196], [-65.40006791699219, -9.683568526367196], [-65.32796791699218, -9.780068526367195], [-65.32126791699218, -9.905968526367197], [-65.32926791699218, -10.043168526367197], [-65.30686791699219, -10.166368526367197], [-65.31926791699219, -10.291468526367197], [-65.38026791699218, -10.400868526367198], [-65.41946791699219, -10.527368526367198], [-65.39596791699219, -10.645668526367196], [-65.34476791699218, -10.762168526367198], [-65.27616791699218, -10.869768526367196], [-65.25026791699219, -10.987868526367198], [-65.31796791699219, -11.101368526367196], [-65.35606791699219, -11.215968526367195], [-65.29316791699219, -11.319868526367195], [-65.31886791699219, -11.447368526367196], [-65.21796791699218, -11.520068526367197], [-65.21836791699218, -11.641068526367196], [-65.18136791699219, -11.756568526367197], [-65.05966791699218, -11.790568526367196], [-65.01496791699219, -11.904168526367197], [-64.97556791699219, -12.018568526367197], [-64.84806791699219, -12.008868526367195], [-64.76236791699219, -12.098868526367195], [-64.67146791699219, -12.192668526367196], [-64.55306791699219, -12.241468526367196], [-64.50776791699218, -12.357468526367196], [-64.40666791699219, -12.446668526367198], [-64.29716791699218, -12.495768526367197], [-64.17356791699218, -12.466268526367195], [-64.05056791699218, -12.497668526367196], [-63.920367916992184, -12.511268526367196], [-63.81796791699219, -12.447068526367197], [-63.691567916992184, -12.449368526367195], [-63.57286791699218, -12.502368526367196], [-63.438767916992184, -12.564368526367197], [-63.354267916992185, -12.656268526367196], [-63.23496791699219, -12.688068526367196], [-63.11356791699218, -12.658968526367197], [-63.040267916992185, -12.765168526367198], [-62.95126791699219, -12.850568526367198], [-62.84556791699218, -12.923068526367196], [-62.759667916992186, -13.018168526367198], [-62.65076791699218, -12.965568526367196], [-62.55796791699218, -13.065568526367198], [-62.43696791699219, -13.080468526367195], [-62.33616791699218, -13.147968526367197], [-62.21976791699218, -13.111468526367197], [-62.11766791699219, -13.177168526367197], [-62.074067916992185, -13.292868526367197], [-61.971367916992186, -13.374168526367196], [-61.88326791699218, -13.456768526367195], [-61.78996791699218, -13.537768526367195], [-61.668867916992184, -13.504968526367197], [-61.548367916992184, -13.523668526367196], [-61.42946791699218, -13.545368526367195], [-61.308867916992185, -13.504068526367195], [-61.19276791699218, -13.535968526367196], [-61.075767916992184, -13.499468526367195], [-60.962367916992186, -13.540568526367196], [-60.86136791699219, -13.624368526367196], [-60.755167916992185, -13.687268526367195], [-60.646167916992184, -13.738668526367196], [-60.52296791699219, -13.768968526367196], [-60.467267916992185, -13.876268526367195], [-60.397667916992184, -13.977468526367197], [-60.46206791699218, -14.093668526367196], [-60.470267916992185, -14.213968526367196], [-60.425567916992186, -14.343168526367197], [-60.380567916992185, -14.454668526367197], [-60.33076791699219, -14.564968526367196], [-60.24436791699219, -15.096768526367196], [-60.50096791699218, -15.096168526367197], [-60.23856791699218, -15.473868526367195], [-60.20326791699219, -15.885768526367197], [-60.171467916992185, -16.265968526367196], [-59.869067916992186, -16.272268526367196], [-59.468167916992186, -16.279068526367197], [-58.961467916992184, -16.300068526367195], [-58.430467916992185, -16.321268526367195], [-58.32316791699219, -16.265468526367197], [-58.33376791699219, -16.387668526367197], [-58.343767916992185, -16.517668526367196], [-58.462967916992184, -16.652268526367195], [-58.463667916992186, -16.778668526367195], [-58.460867916992186, -16.899268526367198], [-58.43356791699219, -17.021768526367197], [-58.39756791699219, -17.136768526367195], [-58.327067916992185, -17.247368526367197], [-58.256267916992186, -17.345968526367198], [-58.14736791699218, -17.411468526367198], [-58.04416791699218, -17.478868526367197], [-57.88346791699219, -17.449568526367198], [-57.752367916992185, -17.564368526367197], [-57.74836791699218, -17.693468526367198], [-57.683267916992186, -17.807968526367198], [-57.631867916992185, -17.985568526367196], [-57.57486791699219, -18.131868526367196], [-57.48006791699218, -18.207668526367197], [-57.76656791699219, -18.899268526367198], [-57.69666791699218, -19.000168526367197], [-57.96566791699219, -19.413468526367197], [-58.13176791699219, -19.758468526367196], [-57.858067916992184, -19.971368526367197], [-57.96586791699218, -20.030868526367197], [-58.075367916992185, -20.105268526367198], [-58.147667916992184, -20.211968526367198], [-58.093767916992185, -20.351368526367196], [-57.998067916992184, -20.436868526367196], [-58.002167916992185, -20.563468526367195], [-57.988267916992186, -20.686668526367196], [-57.87016791699219, -20.725368526367195], [-57.857867916992184, -20.850868526367197], [-57.81736791699218, -20.979668526367195], [-57.845867916992184, -21.096968526367196], [-57.85306791699219, -21.227068526367198], [-57.861067916992184, -21.350568526367198], [-57.925067916992184, -21.461968526367198], [-57.918867916992184, -21.582168526367198], [-57.89756791699219, -21.704968526367196], [-57.931067916992184, -21.824568526367198], [-57.954867916992185, -21.965868526367196], [-57.99076791699218, -22.083768526367198], [-57.87296791699218, -22.129068526367195], [-57.747667916992185, -22.138968526367197], [-57.62446791699219, -22.100068526367195], [-57.52836791699218, -22.175768526367197], [-57.409867916992184, -22.199068526367196], [-57.291367916992186, -22.223868526367195], [-57.16926791699218, -22.233568526367197], [-57.048167916992185, -22.233968526367196], [-56.927467916992185, -22.251268526367195], [-56.803967916992185, -22.284168526367196], [-56.695667916992186, -22.231768526367198], [-56.577067916992185, -22.203168526367197], [-56.50776791699219, -22.102368526367197], [-56.386367916992185, -22.104168526367197], [-56.323467916992186, -22.210368526367198], [-56.215367916992186, -22.269268526367195], [-56.09196791699219, -22.285068526367198], [-55.97056791699218, -22.290868526367195], [-55.84946791699218, -22.285968526367196], [-55.779767916992185, -22.384268526367197], [-55.74716791699218, -22.505468526367196], [-55.66666791699218, -22.598468526367196], [-55.61336791699219, -22.716968526367197], [-55.66086791699219, -22.827368526367195], [-55.64756791699219, -22.949868526367197], [-55.61136791699219, -23.076768526367196], [-55.53996791699218, -23.174968526367195], [-55.54916791699219, -23.303668526367197], [-55.52406791699218, -23.423268526367195], [-55.534867916992184, -23.551068526367196], [-55.47506791699219, -23.674768526367195], [-55.43016791699219, -23.790068526367197], [-55.44486791699218, -23.909768526367195], [-55.35246791699218, -23.989968526367196], [-55.22806791699219, -24.0134685263672], [-55.10716791699218, -23.961968526367194], [-54.98106791699219, -23.960968526367196], [-54.86916791699218, -23.906168526367196], [-54.75906791699218, -23.856668526367194], [-54.638267916992184, -23.8304685263672], [-54.52296791699219, -23.873568526367194], [-54.42196791699219, -23.940468526367198], [-54.31886791699219, -24.0117685263672], [-54.343367916992186, -24.133068526367197], [-54.32246791699218, -24.251568526367194], [-54.25776791699219, -24.355268526367198], [-54.32656791699219, -24.4659685263672], [-54.31796791699219, -24.590568526367196], [-54.341667916992186, -24.714068526367196], [-54.40036791699218, -24.832068526367195], [-54.43846791699218, -24.962668526367196], [-54.458467916992184, -25.081468526367196], [-54.47376791699219, -25.211968526367194], [-54.52536791699218, -25.331468526367196], [-54.60246791699218, -25.437968526367197], [-54.593767916992185, -25.588968526367196], [-54.47016791699218, -25.635668526367198], [-54.35286791699218, -25.608168526367194], [-54.234167916992185, -25.587268526367197], [-54.13436791699219, -25.511568526367196], [-54.02476791699219, -25.5637685263672], [-53.91666791699218, -25.617268526367198], [-53.859367916992184, -25.722768526367197], [-53.840367916992186, -25.841968526367197], [-53.829867916992185, -25.963468526367194], [-53.73686791699218, -26.041668526367197], [-53.68226791699219, -26.162468526367196], [-53.64566791699218, -26.285868526367196], [-53.70896791699219, -26.390768526367197], [-53.72916791699218, -26.519368526367195], [-53.740367916992184, -26.6429685263672], [-53.724567916992186, -26.762968526367196], [-53.696067916992185, -26.886368526367196], [-53.73256791699218, -27.004868526367197], [-53.793867916992184, -27.109768526367198], [-53.902667916992186, -27.174368526367196], [-54.016467916992184, -27.216968526367197], [-54.111067916992184, -27.303668526367197], [-54.212967916992184, -27.375168526367197], [-54.328767916992184, -27.4066685263672], [-54.45606791699218, -27.422168526367194], [-54.57326791699219, -27.453568526367196], [-54.679367916992184, -27.512868526367196], [-54.778067916992185, -27.583668526367198], [-54.895167916992186, -27.629168526367195], [-54.937967916992186, -27.770768526367196], [-55.05796791699218, -27.7679685263672], [-55.12406791699219, -27.881368526367197], [-55.25016791699218, -27.9141685263672], [-55.376067916992184, -27.976168526367196], [-55.442467916992186, -28.094268526367195], [-55.549267916992186, -28.155868526367197], [-55.692467916992186, -28.218768526367196], [-55.66916791699218, -28.340668526367196], [-55.80946791699219, -28.365768526367198], [-55.882467916992184, -28.4644685263672], [-56.00206791699219, -28.501968526367197], [-56.03666791699219, -28.6215685263672], [-56.14326791699219, -28.709068526367197], [-56.260967916992186, -28.778968526367194], [-56.30036791699219, -28.896268526367194], [-56.406267916992185, -28.972568526367198], [-56.50296791699218, -29.088668526367197], [-56.616867916992184, -29.171068526367197], [-56.66446791699218, -29.294968526367196], [-56.758767916992184, -29.370868526367197], [-56.82206791699218, -29.489968526367196], [-56.92946791699218, -29.566268526367196], [-57.01146791699219, -29.664468526367195], [-57.099567916992186, -29.748268526367198], [-57.22096791699218, -29.776268526367197], [-57.32456791699218, -29.872768526367196], [-57.352767916992185, -30.008068526367197], [-57.453567916992185, -30.081468526367196], [-57.569167916992185, -30.171468526367196], [-57.525067916992185, -30.285368526367197], [-57.402867916992186, -30.301068526367196], [-57.280867916992186, -30.294168526367194], [-57.16756791699218, -30.248268526367198], [-57.10566791699219, -30.130168526367196], [-56.99216791699219, -30.085968526367196], [-56.86976791699219, -30.093668526367196], [-56.75956791699218, -30.160568526367197], [-56.64646791699219, -30.204568526367197], [-56.574267916992184, -30.305268526367197], [-56.491867916992184, -30.397168526367196], [-56.39786791699218, -30.472568526367198], [-56.28866791699218, -30.526868526367195], [-56.18916791699219, -30.604268526367196], [-56.130167916992185, -30.717368526367196], [-56.023967916992184, -30.785868526367196], [-56.01016791699219, -30.912568526367195], [-56.01746791699219, -31.032868526367196], [-55.89866791699218, -31.066668526367195], [-55.776567916992185, -31.015668526367197], [-55.67026791699219, -30.953768526367195], [-55.62186791699219, -30.841968526367197], [-55.516067916992185, -30.898968526367195], [-55.42716791699219, -30.981168526367195], [-55.340167916992186, -31.083268526367196], [-55.282367916992186, -31.193168526367195], [-55.183267916992186, -31.266568526367195], [-55.07486791699219, -31.330768526367194], [-54.952967916992186, -31.332268526367194], [-54.857867916992184, -31.408168526367195], [-54.73836791699219, -31.426068526367196], [-54.602367916992186, -31.455968526367197], [-54.50296791699218, -31.529068526367197], [-54.45216791699218, -31.6399685263672], [-54.15296791699218, -31.878468526367197], [-54.032767916992185, -31.896768526367197], [-53.932167916992185, -31.962268526367197], [-53.835867916992186, -32.040568526367196], [-53.72696791699218, -32.095168526367196], [-53.693067916992185, -32.213668526367194], [-53.64326791699219, -32.32516852636719], [-53.588667916992186, -32.4357685263672], [-53.47866791699219, -32.483868526367196], [-53.40336791699218, -32.579968526367196], [-53.28886791699219, -32.621068526367196], [-53.07546791699218, -32.740868526367194], [-53.171067916992186, -32.8373685263672], [-53.29446791699219, -32.899268526367194], [-53.444367916992185, -33.052968526367195], [-53.518167916992184, -33.153368526367196], [-53.50776791699219, -33.353068526367196], [-53.52516791699219, -33.5262685263672], [-53.53376791699219, -33.6497685263672], [-53.43376791699218, -33.7208685263672], [-53.264967916992184, -33.671368526367196], [-53.15726791699218, -33.590868526367196], [-52.900467916992184, -33.3835685263672], [-52.776567916992185, -33.283068526367195], [-52.650067916992185, -33.141568526367195], [-52.556067916992184, -32.9764685263672], [-52.490367916992184, -32.85706852636719], [-52.433267916992186, -32.6681685263672], [-52.38416791699218, -32.5200685263672], [-52.32016791699219, -32.384968526367196], [-52.250867916992185, -32.2797685263672], [-52.14396791699218, -32.181368526367194], [-51.96476791699219, -32.0278685263672], [-51.83506791699219, -31.921968526367195], [-51.69956791699218, -31.844868526367197], [-51.48936791699219, -31.735268526367197], [-51.26746791699219, -31.578568526367196], [-51.10396791699219, -31.421368526367196], [-50.97036791699219, -31.304768526367198], [-50.833667916992184, -31.182168526367196], [-50.74246791699218, -31.075368526367196], [-50.66776791699219, -30.962868526367195], [-50.558267916992186, -30.818168526367195], [-50.46486791699218, -30.680768526367196], [-50.37406791699219, -30.563068526367196], [-50.30406791699218, -30.442368526367197], [-50.25186791699218, -30.303668526367197], [-50.171067916992186, -30.096668526367196], [-50.11916791699218, -29.976968526367195], [-50.063367916992185, -29.858968526367196], [-49.93446791699219, -29.624668526367195], [-49.80406791699218, -29.444068526367197], [-49.72996791699218, -29.349568526367197], [-49.595867916992184, -29.181168526367195], [-49.470867916992184, -29.0468685263672], [-49.32016791699219, -28.907268526367197], [-49.187767916992186, -28.802468526367196], [-49.07606791699219, -28.730668526367197], [-48.912867916992184, -28.639668526367196], [-48.795367916992184, -28.568468526367198], [-48.75376791699219, -28.4372685263672], [-48.70816791699218, -28.319568526367195], [-48.665667916992184, -28.205968526367194], [-48.630967916992184, -28.090068526367197], [-48.62126791699218, -27.965068526367197], [-48.58396791699219, -27.847768526367197], [-48.48686791699218, -27.774768526367197], [-48.46646791699219, -27.650168526367196], [-48.41316791699219, -27.517668526367196], [-48.414167916992184, -27.395468526367196], [-48.535367916992186, -27.363968526367195], [-48.614967916992185, -27.274068526367195], [-48.53266791699218, -27.180468526367196], [-48.595067916992186, -27.073868526367196], [-48.628867916992185, -26.948268526367194], [-48.620767916992186, -26.824568526367194], [-48.67976791699218, -26.697968526367198], [-48.654767916992185, -26.5558685263672], [-48.598867916992184, -26.4430685263672], [-48.55476791699218, -26.329068526367195], [-48.494067916992186, -26.218768526367196], [-48.59616791699219, -26.134268526367194], [-48.60206791699218, -25.997968526367195], [-48.56736791699218, -25.882068526367195], [-48.497267916992186, -25.747268526367197], [-48.41446791699218, -25.623268526367198], [-48.30196791699218, -25.566668526367195], [-48.22316791699218, -25.4736685263672], [-48.14036791699219, -25.349968526367196], [-48.03476791699218, -25.247968526367195], [-47.92756791699219, -25.162268526367196], [-47.88236791699218, -25.029668526367196], [-47.78976791699218, -24.927968526367195], [-47.62296791699219, -24.798968526367197], [-47.51036791699219, -24.728868526367194], [-47.39036791699218, -24.660268526367197], [-47.280867916992186, -24.593768526367196], [-47.18266791699219, -24.522068526367196], [-47.05366791699218, -24.433368526367197], [-46.99586791699218, -24.327568526367195], [-46.878267916992186, -24.239768526367197], [-46.709767916992185, -24.143668526367197], [-46.60056791699218, -24.087868526367195], [-46.445467916992186, -24.021068526367195], [-46.33226791699219, -23.972668526367194], [-46.212967916992184, -23.986168526367194], [-46.13796791699219, -23.886568526367196], [-46.03626791699219, -23.821068526367196], [-45.89716791699219, -23.765368526367197], [-45.76986791699218, -23.762368526367197], [-45.64266791699219, -23.778368526367196], [-45.532567916992186, -23.8289685263672], [-45.407767916992185, -23.821068526367196], [-45.430467916992185, -23.680468526367196], [-45.33076791699219, -23.587268526367197], [-45.20926791699218, -23.578868526367195], [-45.10776791699219, -23.5087685263672], [-45.02986791699219, -23.414468526367195], [-44.92066791699219, -23.350268526367195], [-44.801367916992184, -23.375468526367197], [-44.682567916992184, -23.349468526367197], [-44.56196791699219, -23.329968526367196], [-44.639567916992185, -23.234468526367195], [-44.689867916992185, -23.124368526367196], [-44.59706791699219, -23.045268526367195], [-44.480567916992186, -23.006668526367196], [-44.36766791699218, -22.960068526367195], [-44.25306791699219, -22.999368526367196], [-44.12986791699218, -23.031768526367195], [-44.04786791699218, -22.941668526367195], [-43.92756791699219, -22.929168526367196], [-43.80686791699218, -22.919268526367198], [-43.69986791699218, -22.985768526367195], [-43.577467916992184, -23.0558685263672], [-43.446267916992184, -23.022968526367194], [-43.30576791699219, -23.016068526367196], [-43.18716791699219, -22.986668526367197], [-43.21076791699218, -22.867968526367196], [-43.264567916992185, -22.760268526367195], [-43.15226791699219, -22.707968526367196], [-43.03116791699218, -22.704668526367197], [-43.08256791699218, -22.820268526367197], [-43.12956791699219, -22.937968526367197], [-43.013967916992186, -22.976768526367195], [-42.870767916992186, -22.965568526367196], [-42.72896791699218, -22.956168526367197], [-42.60606791699219, -22.933868526367196], [-42.483967916992185, -22.935868526367194], [-42.353867916992186, -22.9355685263672], [-42.19056791699219, -22.944168526367196], [-42.05936791699219, -22.9584685263672], [-41.98636791699219, -22.858968526367196], [-41.88646791699219, -22.777868526367197], [-41.988067916992186, -22.710068526367195], [-41.984367916992184, -22.577668526367198], [-41.892167916992186, -22.487568526367195], [-41.794767916992186, -22.404568526367196], [-41.70266791699218, -22.309168526367195], [-41.49966791699219, -22.217368526367196], [-41.27586791699218, -22.156968526367198], [-41.14546791699218, -22.103968526367197], [-41.01016791699219, -22.024768526367197], [-40.99086791699219, -21.876068526367195], [-41.019267916992185, -21.757068526367195], [-41.01276791699218, -21.621568526367195], [-41.07316791699218, -21.514868526367195], [-40.998267916992184, -21.400468526367195], [-40.96226791699218, -21.270768526367196], [-40.892967916992184, -21.156568526367195], [-40.830467916992184, -21.049168526367197], [-40.795367916992184, -20.925768526367197], [-40.699067916992185, -20.833568526367195], [-40.582867916992186, -20.803068526367195], [-40.512467916992186, -20.695168526367198], [-40.40446791699218, -20.599168526367198], [-40.34726791699219, -20.478168526367195], [-40.29586791699219, -20.362468526367195], [-40.223667916992184, -20.257168526367195], [-40.18166791699218, -20.141368526367195], [-40.159267916992185, -20.020668526367196], [-40.097367916992184, -19.911268526367195], [-40.04566791699219, -19.801368526367195], [-39.93936791699218, -19.704568526367197], [-39.82826791699218, -19.654768526367196], [-39.73066791699218, -19.469268526367195], [-39.68906791699219, -19.304768526367198], [-39.718367916992186, -19.104968526367195], [-39.736067916992184, -18.973668526367195], [-39.74966791699219, -18.838668526367197], [-39.746567916992184, -18.706168526367197], [-39.730567916992186, -18.583668526367195], [-39.690267916992184, -18.393968526367196], [-39.64206791699218, -18.256568526367197], [-39.569367916992185, -18.123868526367197], [-39.49116791699218, -17.997668526367196], [-39.39286791699219, -17.915668526367195], [-39.27896791699219, -17.872168526367197], [-39.206767916992185, -17.773768526367196], [-39.175767916992186, -17.631068526367198], [-39.19206791699219, -17.442668526367196], [-39.220867916992184, -17.302468526367196], [-39.21206791699218, -17.162068526367197], [-39.17136791699218, -17.033968526367197], [-39.12766791699219, -16.908868526367197], [-39.14076791699218, -16.770768526367196], [-39.098667916992184, -16.657068526367198], [-39.078767916992184, -16.522968526367197], [-39.034267916992185, -16.388168526367195], [-39.01016791699219, -16.252368526367196], [-38.95456791699218, -16.139668526367196], [-38.921667916992185, -16.016868526367197], [-38.86246791699219, -15.868368526367195], [-38.91006791699218, -15.724168526367198], [-38.94046791699218, -15.597568526367198], [-38.95216791699219, -15.466568526367197], [-38.98666791699218, -15.301168526367196], [-38.99476791699219, -15.148968526367195], [-38.997667916992185, -14.986768526367197], [-39.02366791699219, -14.861868526367196], [-39.062267916992184, -14.745768526367197], [-39.05296791699219, -14.598368526367196], [-39.02646791699218, -14.469468526367198], [-38.999767916992184, -14.351168526367196], [-38.993367916992185, -14.228168526367195], [-38.96546791699218, -14.105068526367198], [-38.93806791699218, -13.975268526367195], [-38.967667916992184, -13.848668526367195], [-38.98786791699219, -13.711268526367196], [-38.896167916992184, -13.631268526367197], [-38.926167916992185, -13.514968526367195], [-38.90596791699218, -13.386068526367197], [-38.95406791699219, -13.257668526367198], [-38.85476791699219, -13.169968526367196], [-38.75376791699218, -13.104668526367195], [-38.652667916992186, -13.028668526367195], [-38.52756791699218, -13.009968526367196], [-38.38856791699219, -12.957568526367197], [-38.281667916992184, -12.883068526367197], [-38.189867916992185, -12.784868526367195], [-38.102767916992185, -12.686068526367198], [-38.01466791699219, -12.583668526367195], [-37.922767916992186, -12.446568526367198], [-37.83536791699218, -12.323168526367198], [-37.76106791699218, -12.221768526367196], [-37.69056791699219, -12.107868526367195], [-37.629067916992184, -11.992968526367196], [-37.51426791699218, -11.743268526367196], [-37.44466791699219, -11.608568526367197], [-37.348867916992184, -11.461468526367195], [-37.28646791699219, -11.335468526367197], [-37.208667916992184, -11.224768526367196], [-37.134867916992185, -11.117268526367198], [-37.06666791699219, -11.017468526367196], [-36.96116791699219, -10.861168526367198], [-36.85416791699218, -10.743368526367195], [-36.73466791699219, -10.658068526367195], [-36.612567916992184, -10.588368526367198], [-36.43296791699218, -10.515768526367197], [-36.331767916992185, -10.399568526367197], [-36.27756791699218, -10.281968526367198], [-36.185167916992185, -10.198468526367197], [-36.09946791699218, -10.108868526367196], [-36.00416791699219, -10.004468526367198], [-35.937767916992186, -9.902268526367195], [-35.858967916992185, -9.793168526367197], [-35.770767916992185, -9.692068526367198], [-35.67386791699219, -9.596968526367196], [-35.58596791699218, -9.510668526367198], [-35.50076791699219, -9.421768526367195], [-35.42866791699218, -9.322668526367195], [-35.33896791699218, -9.232868526367195], [-35.28116791699218, -9.126868526367197], [-35.22166791699218, -9.015368526367197], [-35.15336791699219, -8.911268526367195], [-35.11336791699218, -8.796768526367195], [-35.081167916992186, -8.678568526367197], [-35.022267916992185, -8.560868526367198], [-34.978867916992186, -8.435868526367198], [-34.943067916992185, -8.303668526367197], [-34.91746791699219, -8.185768526367195], [-34.86586791699219, -8.056568526367197], [-34.82326791699219, -7.942668526367196], [-34.84626791699218, -7.816068526367197], [-34.83976791699219, -7.694568526367195], [-34.83226791699219, -7.567668526367196], [-34.81046791699219, -7.445768526367196], [-34.80196791699218, -7.315268526367195], [-34.79566791699219, -7.169468526367197], [-34.843367916992186, -7.056168526367195], [-34.866067916992186, -6.934068526367195], [-34.914167916992184, -6.806068526367199], [-34.93586791699219, -6.687668526367197], [-34.96756791699219, -6.491368526367197], [-34.991067916992186, -6.372968526367195], [-35.035967916992185, -6.236468526367197], [-35.098467916992185, -6.117168526367195], [-35.112167916992185, -5.996568526367199], [-35.15406791699218, -5.883468526367196], [-35.19426791699218, -5.757668526367198], [-35.21756791699219, -5.639668526367196], [-35.25076791699219, -5.518168526367198], [-35.309067916992184, -5.412468526367199], [-35.370767916992186, -5.284868526367198], [-35.458267916992185, -5.1973685263672], [-35.571067916992185, -5.134268526367194], [-35.694367916992185, -5.1027685263672], [-35.83036791699219, -5.074968526367194], [-35.94956791699219, -5.044168526367194], [-36.07606791699219, -5.065268526367198], [-36.23666791699218, -5.094568526367198], [-36.36356791699219, -5.086768526367194], [-36.489967916992185, -5.064168526367197], [-36.61056791699219, -5.078568526367199], [-36.734167916992185, -5.068068526367199], [-36.86696791699219, -4.958268526367199], [-36.98636791699219, -4.931568526367194], [-37.10776791699219, -4.922768526367193], [-37.22126791699218, -4.881368526367197], [-37.28036791699218, -4.754368526367195], [-37.37556791699218, -4.681168526367195], [-37.495067916992184, -4.628368526367197], [-37.639567916992185, -4.585768526367197], [-37.732467916992185, -4.488368526367196], [-37.830667916992184, -4.387368526367197], [-37.93696791699219, -4.310768526367198], [-38.03306791699219, -4.225368526367198], [-38.13436791699218, -4.122968526367195], [-38.21906791699219, -4.012668526367193], [-38.314867916992185, -3.928568526367194], [-38.39906791699219, -3.8268685263672], [-38.46376791699218, -3.709268526367197], [-38.58546791699219, -3.693068526367199], [-38.70156791699218, -3.638468526367198], [-38.810167916992185, -3.544168526367194], [-38.924467916992185, -3.482168526367197], [-39.01276791699218, -3.400168526367196], [-39.12806791699219, -3.343768526367199], [-39.22166791699218, -3.247168526367197], [-39.33016791699219, -3.195168526367198], [-39.46286791699219, -3.143468526367194], [-39.565967916992186, -3.076068526367195], [-39.676167916992185, -3.001668526367197], [-39.787067916992186, -2.950968526367198], [-39.88856791699219, -2.883768526367199], [-40.00956791699218, -2.843168526367194], [-40.13536791699219, -2.826068526367195], [-40.27476791699218, -2.809468526367198], [-40.42826791699218, -2.811168526367197], [-40.563767916992184, -2.827668526367198], [-40.684767916992186, -2.846268526367197], [-40.80216791699218, -2.872768526367196], [-40.925767916992186, -2.874368526367199], [-41.046067916992186, -2.894068526367199], [-41.177467916992185, -2.886468526367196], [-41.322767916992184, -2.921368526367196], [-41.447367916992185, -2.906168526367196], [-41.57156791699219, -2.902668526367194], [-41.68076791699219, -2.847568526367198], [-41.783367916992184, -2.757068526367199], [-41.91066791699218, -2.718768526367199], [-42.03156791699219, -2.739068526367198], [-42.171867916992184, -2.691268526367196], [-42.276167916992186, -2.753068526367194], [-42.39566791699219, -2.711568526367195], [-42.52796791699218, -2.681368526367194], [-42.69636791699219, -2.573568526367197], [-42.82526791699218, -2.544668526367197], [-42.964267916992185, -2.474868526367196], [-43.10776791699219, -2.414268526367195], [-43.23856791699219, -2.358368526367194], [-43.371567916992184, -2.339268526367199], [-43.483567916992186, -2.384368526367197], [-43.55806791699219, -2.479768526367195], [-43.680867916992185, -2.512768526367196], [-43.64326791699219, -2.394568526367195], [-43.594867916992186, -2.281668526367199], [-43.71806791699218, -2.2887685263672], [-43.75636791699218, -2.406268526367199], [-43.846767916992185, -2.501868526367197], [-43.950967916992184, -2.598068526367193], [-44.04166791699218, -2.682968526367198], [-44.13236791699219, -2.765368526367197], [-44.25486791699218, -2.778968526367194], [-44.16316791699219, -2.697868526367195], [-44.10026791699219, -2.594768526367197], [-44.052467916992185, -2.469468526367194], [-44.17386791699219, -2.458268526367199], [-44.300067916992184, -2.486368526367194], [-44.35496791699219, -2.602068526367198], [-44.391067916992185, -2.720568526367195], [-44.40616791699218, -2.883468526367196], [-44.496567916992184, -3.027668526367194], [-44.618367916992185, -3.028368526367196], [-44.67756791699219, -2.913168526367194], [-44.64566791699219, -2.782068526367198], [-44.59726791699219, -2.666368526367194], [-44.53756791699219, -2.547768526367193], [-44.44296791699219, -2.456768526367199], [-44.37496791699218, -2.355668526367197], [-44.395367916992186, -2.225568526367198], [-44.497667916992185, -2.148468526367196], [-44.58766791699219, -2.239468526367197], [-44.56546791699218, -2.110268526367193], [-44.50186791699218, -2.002468526367196], [-44.52046791699218, -1.880668526367195], [-44.590167916992186, -1.781568526367195], [-44.71376791699218, -1.789568526367198], [-44.798367916992184, -1.702968526367194], [-44.68766791699218, -1.640968526367196], [-44.79206791699219, -1.581168526367193], [-44.912067916992186, -1.595568526367195], [-44.88346791699219, -1.4777685263672], [-44.99696791699218, -1.534768526367195], [-45.095867916992184, -1.455968526367194], [-45.205467916992184, -1.518468526367194], [-45.310567916992184, -1.599468526367197], [-45.330967916992186, -1.4792685263672], [-45.305867916992185, -1.352068526367198], [-45.407367916992186, -1.421768526367195], [-45.41346791699218, -1.297868526367196], [-45.51276791699218, -1.377968526367198], [-45.58726791699218, -1.283468526367194], [-45.61356791699219, -1.162868526367198], [-45.680267916992186, -1.265768526367197], [-45.69206791699219, -1.141568526367195], [-45.81436791699218, -1.164568526367198], [-45.86466791699218, -1.0494685263672], [-45.93016791699218, -1.171068526367193], [-45.968767916992185, -1.052568526367196], [-46.04396791699219, -1.153368526367196], [-46.07096791699219, -1.033368526367198], [-46.19046791699218, -1.076068526367195], [-46.189867916992185, -0.948568526367197], [-46.296467916992185, -1.005468526367196], [-46.416767916992185, -1.001968526367193], [-46.412067916992186, -0.878768526367196], [-46.523167916992186, -0.934168526367195], [-46.64176791699219, -0.910068526367198], [-46.665267916992185, -0.791168526367194], [-46.780867916992186, -0.845368526367196], [-46.85006791699219, -0.739368526367194], [-46.91836791699218, -0.840068526367197], [-46.96006791699219, -0.709668526367196], [-47.045567916992184, -0.798068526367196], [-47.09296791699219, -0.673268526367195], [-47.21176791699219, -0.645368526367193], [-47.320467916992186, -0.591268526367195], [-47.426567916992184, -0.655868526367193], [-47.54276791699218, -0.599568526367193], [-47.61036791699218, -0.699568526367194], [-47.65076791699219, -0.582668526367193], [-47.77046791699218, -0.563368526367199], [-47.83256791699218, -0.670268526367195], [-47.891267916992184, -0.558268526367193], [-47.96376791699218, -0.669568526367193], [-48.010267916992184, -0.686168526367197]], [[-66.97556791699219, -10.188768526367195], [-66.97556791699219, -10.188768526367195]], [[-53.72426791699219, -26.562768526367197], [-53.72426791699219, -26.562768526367197]], [[-43.56686791699219, -23.063068526367196], [-43.56686791699219, -23.063068526367196]], [[-43.21376791699218, -22.869468526367196], [-43.21376791699218, -22.869468526367196]], [[-43.232467916992185, -22.864668526367197], [-43.232467916992185, -22.864668526367197]], [[-45.459367916992186, -23.577068526367196], [-45.459367916992186, -23.577068526367196]], [[-43.58146791699218, -23.046468526367196], [-43.58146791699218, -23.046468526367196]], [[-43.120767916992186, -22.877668526367195], [-43.120767916992186, -22.877668526367195]]]]}}]}