{"type": "FeatureCollection", "features": [{"type": "Feature", "properties": {"code": "BRB", "name": "Barbados", "tier": "country"}, "geometry": {"type": "Polygon", "coordinates": [[[-59.612521108362444, 13.334565960450789], [-59.63652461092204, 13.326542602159407], [-59.65070741061845, 13.30577568679854], [-59.64979882555531, 13.28226789234941], [-59.644989969811206, 13.240422701046839], [-59.64224205172928, 13.219001218631377], [-59.64248581926512, 13.19772888248201], [-59.63752183856195, 13.174469583304699], [-59.638829316119995, 13.144345722976766], [-59.63317835589635, 13.123930172739335], [-59.62901570441119, 13.100328892864184], [-59.610223494318745, 13.090286136595978], [-59.58896347708276, 13.073473619412027], [-59.56539166349444, 13.06409292514843], [-59.53865027748827, 13.05952982803916], [-59.517537194186104, 13.046823226810545], [-59.49459112528018, 13.066648819987108], [-59.47158662382361, 13.079248302966846], [-59.45407086557793, 13.09188858459055], [-59.43963277533226, 13.113534423574833], [-59.422202114535935, 13.140633931310958], [-59.42689662148183, 13.160632056724069], [-59.45022732682963, 13.17234290879827], [-59.477827056373485, 13.189576728683107], [-59.49588176033495, 13.198345072766926], [-59.51573768044955, 13.212677530443727], [-59.55483966072171, 13.251845859099149], [-59.56730634171424, 13.276279726827966], [-59.57395807470533, 13.295424774233993], [-59.585460325433644, 13.312484263238218], [-59.59985586785399, 13.32738962952783], [-59.612521108362444, 13.334565960450789]]]}}]}