{"type": "FeatureCollection", "features": [{"type": "Feature", "properties": {"code": "BRN", "name": "Brunei", "tier": "country"}, "geometry": {"type": "MultiPolygon", "coordinates": [[[[115.05165846446664, 4.796395844992276], [115.03673232203914, 4.820041078333134], [115.03864593006563, 4.799256199014394], [115.05165846446664, 4.796395844992276]]], [[[115.03833376459158, 4.88381929362555], [115.03833376459158, 4.88381929362555]]], [[[115.14433066952483, 4.892146314300987], [115.12302073092201, 4.904348677349617], [115.09945243008565, 4.891707025159121], [115.10674189841995, 4.87241706279724], [115.12563181085943, 4.8617956323626], [115.14695154667663, 4.866325380811702], [115.13433214461281, 4.844144944333777], [115.11395298544198, 4.861483234863442], [115.09387265569853, 4.83845328079434], [115.10905904753713, 4.824297133406048], [115.08934123181245, 4.834060025150109], [115.0591215352307, 4.825189527974374], [115.05950425701587, 4.800400337205872], [115.07710945014105, 4.786479858059067], [115.04859669198379, 4.783619450976914], [115.02525067477893, 4.748912222820877], [115.03271374554299, 4.726408800226011], [115.03654096159619, 4.68750285597207], [115.03937310118772, 4.666851310139918], [115.04023039791457, 4.632184032567125], [115.05406960982475, 4.591044953861569], [115.06314011172685, 4.560280648533137], [115.07462175988633, 4.533383692403504], [115.07844897504026, 4.499427240774594], [115.08738169720766, 4.473230091195774], [115.0892187612369, 4.436233511967032], [115.09670908145904, 4.405702000646841], [115.08957637574917, 4.379208756478988], [115.10465009512586, 4.364188662776598], [115.13612511847953, 4.365898282080082], [115.16810150667925, 4.360008093198985], [115.19740362857465, 4.357026728200992], [115.23447978251602, 4.35881554899845], [115.24942984421205, 4.339436431446188], [115.27215393885331, 4.335858694523154], [115.29248602301163, 4.329597612639759], [115.3077350859055, 4.312006678265618], [115.32806717006395, 4.299484070233689], [115.35707029076138, 4.315584528503223], [115.35886429794903, 4.350169542390518], [115.34630624583667, 4.36984651540439], [115.33315019132829, 4.385349220390253], [115.30982809429122, 4.397572281335783], [115.281123975691, 4.436028891919875], [115.28022697209713, 4.461963616627656], [115.2778349616143, 4.482233798650952], [115.26856592357854, 4.513234164325297], [115.27245294005115, 4.534695180937888], [115.27512959855221, 4.559059816157628], [115.2878665734836, 4.582011128111105], [115.2920305838444, 4.620220985410185], [115.28167413775134, 4.638295179478973], [115.26024172947234, 4.652981551857181], [115.26808752202157, 4.682925543279225], [115.24990824666827, 4.701234614186149], [115.25584043119102, 4.724692407228872], [115.23838832606043, 4.755098628598887], [115.23557149562805, 4.795495784602849], [115.22486263939936, 4.813684710580958], [115.19170731554027, 4.838053006940754], [115.18254159252058, 4.858954762152621], [115.15596540567901, 4.872622070452223], [115.15143398179293, 4.892146314300987], [115.14433066952483, 4.892146314300987]]], [[[115.09815913663488, 5.011719797630576], [115.07593801572693, 5.016336362133472], [115.09067371501999, 4.995956860320916], [115.12583756225376, 4.994395186688564], [115.09815913663488, 5.011719797630576]]], [[[115.0859120467037, 5.042151131669414], [115.05395479337903, 5.046726001803563], [114.97375070103408, 5.024244491190359], [114.9378705527838, 5.014713145195515], [114.90408341201987, 4.99326710769094], [114.85444920686541, 4.967352210336287], [114.69453960631779, 4.859008776334008], [114.63916831376673, 4.819290259537922], [114.62182624248715, 4.800221566372215], [114.60149415742944, 4.783536021770033], [114.59076216614108, 4.761445166761064], [114.56445388463908, 4.743953904249338], [114.52311995252387, 4.713631107589606], [114.31893798669876, 4.626851041142686], [114.2180908480143, 4.593852740711441], [114.18364590533429, 4.590037809397415], [114.19876340820474, 4.572870367573444], [114.18096685463672, 4.587748841435939], [114.07977236540239, 4.58777612416884], [114.13576350847916, 4.577023321669003], [114.16157593977789, 4.572158905808919], [114.1813526287209, 4.55769347257575], [114.1956072545712, 4.541051465053101], [114.2254007066773, 4.531194094132161], [114.25468047952063, 4.510710816850747], [114.2868256246029, 4.448289277428273], [114.31471685499889, 4.404876738670623], [114.3070919143604, 4.367263826164674], [114.32394704681883, 4.354258921611972], [114.32228593334924, 4.317151536014649], [114.31382048272917, 4.295924729842454], [114.31070388217847, 4.272012312418326], [114.33763551976347, 4.251869439323229], [114.37957155068659, 4.25994435574745], [114.41935094708856, 4.256338029376593], [114.43480244827447, 4.275844775116354], [114.45124021526374, 4.238470072336042], [114.46003442025233, 4.204290308251188], [114.47137647924114, 4.17961765163335], [114.49264284029493, 4.139866198066613], [114.51370372964345, 4.141018962555108], [114.5354067187451, 4.12347115157246], [114.5449098026453, 4.101183592348946], [114.56173283020598, 4.073131126100634], [114.58420633955097, 4.053788444581073], [114.61168823092714, 4.041747070970587], [114.6195218547499, 4.019201040295798], [114.65008582799862, 4.001394359462154], [114.68951078449516, 4.022659847274156], [114.70864537278578, 4.035982520077312], [114.7464008683055, 4.082225868329203], [114.77413960066212, 4.105666772103916], [114.787366866188, 4.121934097780411], [114.80496041309266, 4.153058841492395], [114.82578854080862, 4.214592230247263], [114.85046927064036, 4.263218337656212], [114.8261898533791, 4.259216304189124], [114.83602201450447, 4.284828955591877], [114.85147255161701, 4.308239768950216], [114.87173884227377, 4.348056503404962], [114.87916312617745, 4.390271949191174], [114.88092344386189, 4.423686323664981], [114.84810955211424, 4.431460719036977], [114.83424018593587, 4.46372512051795], [114.83602201450447, 4.586312024280517], [114.82819641713104, 4.63631372659728], [114.82177541420401, 4.66131325350392], [114.81836425690494, 4.683712074152936], [114.7954894340902, 4.714509280279117], [114.80451896917509, 4.735506592954948], [114.83602201450447, 4.745705057842201], [114.84685745660636, 4.783897968316637], [114.88264952975203, 4.81196640022921], [114.91776438911529, 4.814465759187499], [114.95789565605969, 4.810404295821627], [114.977020712436, 4.819152032840066], [114.98423179945803, 4.838521620276595], [114.9895617340868, 4.863513816809245], [115.00116217819198, 4.888192700332922], [115.02404954115343, 4.906935549336197], [114.9820371209164, 4.893503227591907], [114.9632255897892, 4.876321957792186], [114.94472758391089, 4.886943158899726], [114.91431560777914, 4.865388193710203], [114.89299587196194, 4.854141851365398], [114.91243445448652, 4.871636080740586], [114.9284242565742, 4.886318387283779], [114.94598168580626, 4.897564190934702], [114.96761494687235, 4.893815610701893], [115.00962736710937, 4.925365504414572], [115.02812537298769, 4.950979169353218], [115.043801648927, 4.968470859042952], [115.04254754703175, 4.993770516696031], [115.07596128478554, 5.026710704735308], [115.10141227045995, 5.037004362861126], [115.13164727620085, 5.038910578460502], [115.10906670256634, 5.041769891067645], [115.0859120467037, 5.042151131669414]]]]}}]}