{"type": "FeatureCollection", "features": [{"type": "Feature", "properties": {"code": "BWA", "name": "Botswana", "tier": "country"}, "geometry": {"type": "Polygon", "coordinates": [[[25.166394886614796, -17.778244754291904], [25.124768327696245, -17.812900648246284], [25.078096330181552, -17.838831352984528], [25.019548731988436, -17.831105866342625], [24.970426549545664, -17.811272942792016], [24.9165698511178, -17.814988942385753], [24.863942664422495, -17.845884130548143], [24.808530937452872, -17.863734579587117], [24.7641229058475, -17.890426189916695], [24.718763830386536, -17.915450150504], [24.68105205001217, -17.948608706526556], [24.64140543851022, -17.980166273254838], [24.611140597760425, -18.02368746450486], [24.57810122798935, -18.06532264702247], [24.528461298650086, -18.058954705894905], [24.483073982678206, -18.03793796156765], [24.465567261719798, -17.98932356333171], [24.423645565090794, -17.95178649245264], [24.372383158056323, -17.949149617260957], [24.335487279514382, -17.986637825275352], [24.293747465373258, -18.030600686172704], [24.244892879802592, -18.019029110305155], [24.192508195297023, -18.020040138941226], [24.15940587118405, -18.059864764946894], [24.11965078615492, -18.093236535837434], [24.07329036236041, -18.114407028261724], [24.02944195458258, -18.13997622262451], [23.98760343445099, -18.167461679812618], [23.947065099274937, -18.19948409351605], [23.932090372772564, -18.2506053942235], [23.885433487465548, -18.27145886303606], [23.84899541600572, -18.310187430405563], [23.807131382107627, -18.33783828101184], [23.787148018166533, -18.384475353354844], [23.746687420388184, -18.414738466507004], [23.699724511077363, -18.432398690047478], [23.663113574631836, -18.473495078834787], [23.615965538079195, -18.502205373978768], [23.567611547534966, -18.480624916606587], [23.555710444781255, -18.428542565287103], [23.551446454090637, -18.378114031237487], [23.53673782349182, -18.327085900294037], [23.52371151147713, -18.276585180361735], [23.48266494063455, -18.244493490981768], [23.441962454004113, -18.211336338800947], [23.40295556714574, -18.17452553252724], [23.371300911408014, -18.13415520419926], [23.343724427540337, -18.089492261558576], [23.32207795723201, -18.040063386016413], [23.098666959012974, -18.001112070965235], [22.65155697447483, -18.08879146845146], [22.273804847415818, -18.161657502991318], [21.87979201458984, -18.237035931263165], [21.452818780562325, -18.31770194598795], [20.999045327779697, -18.31772559635914], [20.998906227840166, -18.75700707331771], [20.999078206094396, -19.235244330461455], [20.99917328242111, -19.68964991221361], [20.998981427351055, -20.158042767559607], [20.99907691107063, -20.606334554795808], [20.99886296955043, -21.089389652810212], [20.998726783414384, -21.5225648427932], [20.998716564417975, -22.00024689088127], [20.511893839429206, -22.000276062190494], [19.999044072525976, -21.999846140387035], [19.999138736063856, -22.34414691195036], [19.99918801801266, -22.687180559435205], [19.999215781882867, -23.022447550214224], [19.999098132572783, -23.373631024951806], [19.99921408126488, -23.722022574182404], [19.998620896537204, -24.06406606449724], [19.999010828187238, -24.41011922352328], [19.99991538608623, -24.76475009643974], [20.038441567324526, -24.80908033758749], [20.085830301127544, -24.82880283428335], [20.11311353765967, -24.87448045321031], [20.166064724007867, -24.893125935313606], [20.219158166016598, -24.918343649439805], [20.26850710711733, -24.93391828580019], [20.29660151145066, -24.980215306491175], [20.348635185165733, -25.007335007604468], [20.38455702328804, -25.052419938229548], [20.4106846804537, -25.10338129630975], [20.428794863592145, -25.150421951112094], [20.456107459391774, -25.206525293607342], [20.492932456068047, -25.245432044553183], [20.524996771883593, -25.286849579444493], [20.54194549498868, -25.336428118362903], [20.56282842379278, -25.390478853616173], [20.601293551855974, -25.42696249912001], [20.64142518122719, -25.46269531683538], [20.62955800899499, -25.513188656031616], [20.668861429311562, -25.549393841752362], [20.697328565760756, -25.596563087916138], [20.652090709019035, -25.625274950578444], [20.674397562297713, -25.671026183511515], [20.707988146335936, -25.70810528992712], [20.73076558246572, -25.770084946562974], [20.73975500059288, -25.82263392641454], [20.78713264035912, -25.802603616064005], [20.78264420136884, -25.853582368831212], [20.803104413737742, -25.920218580123333], [20.84011403763276, -25.956882866151318], [20.815722951553028, -26.00663890695995], [20.818633208056156, -26.057995580031957], [20.82684293285513, -26.111777047472742], [20.84500675605699, -26.160316971051316], [20.814711184573582, -26.204799778586846], [20.79289092657507, -26.257587268537577], [20.753414629581528, -26.30180718984991], [20.710783442501906, -26.352397970589834], [20.67616667355321, -26.39816860999332], [20.631727600048748, -26.434380471381587], [20.61156409560658, -26.487382347117602], [20.60886614835414, -26.557590234801467], [20.63246855777777, -26.6045587585798], [20.633016671182475, -26.65800650829368], [20.618555067262605, -26.70774467147936], [20.637026577314714, -26.766835144526226], [20.6423365065246, -26.823132902461452], [20.678242757597218, -26.86159389724054], [20.729245640074282, -26.866001256053096], [20.786571340195223, -26.84180787962987], [20.841951253647494, -26.81633670957143], [20.89830068482877, -26.79598596987654], [20.94614138371793, -26.81342021537057], [21.011714181764148, -26.846447175396804], [21.072728191353008, -26.847872031568954], [21.12342477823097, -26.86835437715274], [21.179099621650266, -26.86400534027416], [21.245270439179478, -26.845437860868515], [21.29970315607585, -26.848762878404045], [21.362467472995547, -26.829037823136957], [21.412865723274535, -26.822152760141705], [21.463076216694105, -26.839959924810614], [21.524402551836374, -26.860391725797456], [21.576409241393435, -26.839466953337194], [21.62521372213564, -26.865007524077953], [21.677383168298604, -26.85362940587231], [21.736397605465186, -26.82802369633646], [21.779398338362682, -26.801782690418804], [21.783842567580507, -26.74992061724265], [21.768122688011715, -26.69686091060248], [21.825964514450845, -26.65859563258232], [21.884429464048594, -26.669977811226943], [21.93538079738596, -26.665499867324968], [21.999919393065568, -26.646591505293713], [22.049719034805662, -26.63223370292303], [22.078280926523576, -26.57977666705949], [22.124905131366745, -26.546665259793883], [22.163360892091532, -26.508057069378197], [22.18504644783536, -26.46049531051011], [22.190944285450485, -26.405426114623424], [22.235822677774422, -26.371385759844884], [22.28496927321345, -26.33971789306628], [22.339126586223017, -26.32025693900647], [22.38028754273597, -26.28615535928236], [22.411347231289767, -26.24058221459751], [22.460598102220672, -26.22194069580644], [22.514947023886066, -26.216617254282824], [22.563732603576852, -26.205347181527145], [22.575894105028965, -26.146724793014755], [22.628204532513223, -26.123381972899665], [22.67323330227515, -26.07346002246203], [22.665385403513596, -26.016931507483037], [22.720077358083643, -26.01876960932998], [22.72335398669719, -25.95470681077063], [22.712797604226125, -25.89930050941092], [22.7392349177573, -25.85445497831455], [22.78181107352225, -25.824404086279515], [22.73662520299075, -25.796541886898524], [22.765052632572974, -25.750659663212843], [22.809418589396444, -25.71073031205424], [22.83067067461201, -25.663065235472175], [22.853174080119743, -25.61573135491807], [22.81414984174188, -25.581696188328408], [22.853692773103035, -25.533482210535567], [22.863327545629772, -25.48023569851864], [22.909651365218394, -25.42262171082325], [22.971125466167393, -25.38053411895436], [23.00284224077683, -25.33965505313813], [23.04375467323962, -25.301872641808927], [23.09821629974249, -25.31075029129289], [23.147959479346525, -25.303037734204054], [23.19303078344393, -25.276960143195993], [23.247042697662437, -25.275436559449588], [23.294827665564355, -25.293943714131046], [23.350988985553272, -25.284591645288174], [23.403627196138245, -25.307098482608865], [23.449127533508943, -25.27489734303788], [23.491725143500616, -25.31537628878465], [23.534844360279067, -25.352684956145765], [23.584455577862684, -25.375773185384162], [23.62825243020552, -25.40732902451481], [23.67710820018334, -25.42741654433803], [23.729147462285596, -25.446344320034314], [23.760898213281962, -25.4864701208993], [23.8138676657602, -25.508879107484802], [23.84350208535301, -25.551283382122335], [23.88036675382267, -25.58879342207871], [23.918906408703833, -25.62963523078122], [23.96996049677955, -25.614547669938986], [24.00530652687479, -25.65089868702472], [24.0619435621457, -25.651296641526756], [24.11405688341847, -25.63153973856805], [24.159787665768192, -25.60965737698632], [24.20740078132104, -25.632247857552557], [24.238960013593783, -25.672056963058367], [24.28475820103023, -25.69300773491898], [24.323527485205318, -25.730123401473747], [24.36527853277812, -25.759560249006256], [24.42096821051456, -25.750274631968637], [24.470922992502153, -25.740349553788803], [24.543152946451357, -25.77161159340028], [24.599495261297307, -25.79362625604682], [24.659623251611833, -25.81511374060659], [24.71316588249954, -25.80525641645039], [24.76732124757757, -25.81298626030764], [24.817726632178392, -25.81698177279054], [24.868999777118063, -25.80529137129969], [24.915938530638755, -25.785026746187327], [24.96678224480479, -25.766340537385872], [25.01469255122032, -25.72580218422337], [25.067068403484086, -25.735249014630256], [25.113429882183368, -25.75660764252865], [25.165857505719373, -25.762680390187825], [25.22023154005359, -25.766536438505796], [25.27817229461573, -25.768132365516237], [25.328573114257892, -25.769505431530376], [25.377087875704945, -25.750658237787377], [25.425479136852744, -25.730746387036106], [25.4691106110659, -25.695986952335943], [25.52116281261374, -25.676224429513752], [25.56496177026952, -25.648067497117268], [25.662603078569248, -25.469921067303346], [25.690551773845357, -25.374209838113472], [25.701649037373215, -25.28913283311374], [25.826839712282947, -25.01611919054818], [25.861822197736274, -24.92592147999227], [25.88902317418018, -24.882159980898336], [25.87320357868225, -24.827766987056748], [25.844508786051676, -24.780379005086957], [25.911290626361392, -24.752448171246044], [25.97286325163782, -24.743625566566607], [26.18354829881497, -24.687914027210525], [26.387075506029817, -24.638280917430336], [26.438829560735712, -24.6161171085177], [26.482146257843567, -24.56795534536286], [26.49983874905905, -24.51894356639241], [26.530265218664965, -24.476909570520206], [26.566094752171125, -24.43969306118578], [26.608474659677825, -24.4069659603108], [26.654339446408358, -24.384035999161995], [26.681759824156586, -24.34166546708758], [26.724965558413828, -24.313978214622864], [26.77686514051385, -24.301990964911056], [26.82239265719545, -24.278334505333135], [26.865953721686935, -24.25122917808403], [26.878698257218844, -24.201783312549765], [26.87411295674758, -24.14709205225637], [26.877876234600592, -24.095953607772742], [26.8965671468564, -24.041634888039596], [26.911279092356267, -23.98714457046549], [26.931697049179547, -23.93648765987757], [26.943074301338015, -23.88642434680611], [26.95834714680342, -23.830735944308344], [26.964341719095103, -23.777635779867296], [26.970865067568866, -23.727768624222563], [27.002311665151296, -23.688023059416594], [27.010102799604567, -23.63795918696684], [27.03690861214278, -23.682676041266234], [27.078015973558365, -23.65401657940157], [27.079506290482982, -23.60051518332898], [27.11716924576416, -23.565748371490088], [27.14746194930956, -23.52417921090182], [27.197332456727565, -23.53486975153777], [27.22644659513429, -23.485064040273187], [27.27924856686792, -23.471797955511192], [27.315741543737317, -23.43705100789765], [27.349812984481673, -23.397628591985892], [27.408208063051745, -23.38920764521663], [27.460534623474132, -23.383896286983997], [27.51407855478152, -23.385557251166176], [27.55652783958817, -23.351408346417998], [27.568188123683, -23.299767908462172], [27.60170612883485, -23.24719838179982], [27.649986564728238, -23.225453533753523], [27.700294939459923, -23.20003132908255], [27.74254009255128, -23.22994281450923], [27.768081424118463, -23.184391342586366], [27.766922977713307, -23.133750950745707], [27.819158960217862, -23.12721865311829], [27.882350371472512, -23.089583603800236], [27.926290485817333, -23.05768024234925], [27.937974776414876, -23.004298482189142], [27.967830145045184, -22.95362480733894], [28.013050218592753, -22.931444833112494], [28.045918344855806, -22.89371405815723], [28.03942103175524, -22.842547565617622], [28.08483035233894, -22.81629733895096], [28.130427975670614, -22.782187566403024], [28.16414773742821, -22.741235988250196], [28.180885998490112, -22.68717860610775], [28.22735752632883, -22.66015198752416], [28.27452166614205, -22.618194936746875], [28.32373912815831, -22.598382103151494], [28.38365754585908, -22.569711690242286], [28.444435726227823, -22.568539858327767], [28.50201641832308, -22.58179772148759], [28.56485753374824, -22.559675867747046], [28.615003322745224, -22.562508569414888], [28.662569079099796, -22.5407405629266], [28.707532478041458, -22.515795369460704], [28.759877294701425, -22.503103352537664], [28.831407353066936, -22.48834398039031], [28.876211189794617, -22.446771838549466], [28.934686348496257, -22.44117765522458], [28.971935214538576, -22.376079277436645], [28.963920350343926, -22.32052761415804], [28.996844954031474, -22.280581021197122], [29.01427997833838, -22.230589643097517], [29.08165300418284, -22.221055873429748], [29.15027258840928, -22.215824177144043], [29.1916214070024, -22.186308223445735], [29.25731313948984, -22.19348793581952], [29.309604932122, -22.188493676741757], [29.368026128802853, -22.19798397138311], [29.3273607068312, -22.15324888692652], [29.281868631532177, -22.112658746304078], [29.246943813306416, -22.060297508922872], [29.195205279100378, -22.075147558812716], [29.14002559520509, -22.072423539314855], [29.09002229209517, -22.05254193905921], [29.035700792557577, -21.995126383176], [29.020283432334566, -21.942400382571577], [29.025703398093412, -21.891213680466933], [29.055688612639415, -21.838163435594026], [29.0236638265244, -21.79203508095418], [28.96363186941528, -21.776074361142832], [28.89172015945786, -21.75970949050054], [28.839033784781407, -21.739146730237337], [28.781339213334093, -21.718955340516516], [28.716926109052736, -21.69174008283852], [28.664586040813163, -21.675194921508364], [28.608633124319283, -21.644033870366798], [28.555499639996412, -21.643971568033407], [28.509086063571033, -21.66798838325724], [28.458719787788027, -21.65471684950296], [28.4046208263901, -21.62720998035627], [28.34895332053935, -21.607978539577914], [28.294268643283317, -21.589145095569677], [28.241919681648028, -21.597505262557775], [28.184633514824895, -21.59802669937261], [28.129169828624754, -21.58634014787947], [28.076466175273822, -21.583702991200028], [28.01915953268633, -21.57491662200448], [27.99492263357274, -21.530552611313908], [27.96966138416559, -21.478781538736996], [27.95089904145766, -21.425989129494667], [27.920394291263563, -21.361473568150586], [27.903854017748756, -21.301596867301555], [27.859066414683355, -21.248283459214235], [27.82649915930881, -21.20521040913303], [27.780302188195492, -21.16560593806355], [27.736507978060786, -21.13612622524505], [27.69857573428277, -21.096592964293848], [27.704769496515098, -21.037526038196063], [27.700517137655822, -20.982127496186934], [27.69540350526762, -20.92448165360537], [27.693403687330374, -20.86602983051222], [27.716806364522142, -20.819313819277284], [27.728133724991494, -20.767466615491855], [27.733070723335288, -20.71527776825434], [27.70495574341288, -20.66685366656344], [27.703264609674022, -20.603484583446743], [27.728745975346555, -20.55806739649313], [27.694871408788515, -20.48995714690477], [27.62181079423283, -20.479261255302617], [27.54194172363168, -20.482006082414728], [27.47161905187778, -20.467553576036664], [27.37880627558917, -20.47774146129933], [27.288630724328527, -20.4991161115193], [27.298371855177038, -20.425784953013135], [27.29779121419324, -20.368124260825937], [27.303708034698104, -20.317746136474966], [27.291988123752958, -20.267483898762862], [27.26621398738564, -20.2141752328007], [27.24649601787695, -20.143625157574945], [27.21685078843319, -20.093316921338783], [27.16935350915719, -20.07715613654642], [27.11271686778929, -20.065928623307286], [27.040369901250017, -20.00885249045001], [26.988218425340108, -20.014368979544713], [26.933721249536063, -19.999135459633692], [26.884665695165722, -19.97676212846943], [26.833513836394502, -19.960483288772707], [26.781560014383217, -19.9435914738674], [26.726455602843828, -19.93992799378185], [26.70205246854664, -19.894776682397946], [26.642897258701566, -19.872906944599777], [26.58784596202156, -19.822661617739413], [26.54940723355702, -19.782703958620743], [26.494160924287257, -19.75800341312697], [26.431911524097586, -19.744733152812728], [26.405936114060466, -19.69534980005318], [26.353382728430233, -19.67599216190871], [26.34780791110626, -19.621612730742868], [26.312004187243474, -19.575966324586147], [26.246682114787802, -19.58553593493542], [26.184671224697297, -19.550417782254783], [26.156451602359596, -19.503393938479405], [26.14394061446785, -19.45432634758282], [26.113445833258652, -19.386150434894603], [26.090956595670377, -19.32452361647165], [26.07216309864816, -19.272234685482317], [26.04374420902809, -19.215520705116376], [25.99585191873109, -19.154783872877374], [25.964343132129898, -19.108088344601356], [25.974613793691674, -19.052900316796126], [25.98476358906845, -18.97325460901294], [25.954725754290166, -18.92039492688434], [25.906120970706297, -18.88784149139167], [25.86042603533332, -18.85499176885503], [25.819516842228552, -18.808378992596374], [25.79877523828668, -18.759370854980943], [25.793151602164755, -18.70561700841813], [25.787852911782522, -18.647780960123157], [25.756507660600107, -18.60432002075231], [25.703162145816407, -18.579780239866125], [25.669800857423695, -18.541738979370336], [25.647886554620868, -18.496538823108153], [25.595195144640286, -18.467891599217864], [25.556466001704678, -18.41859319282156], [25.517510764710096, -18.375562602432126], [25.490968768294067, -18.298130100123956], [25.457519683586554, -18.243477026843266], [25.43294977271387, -18.189071290507627], [25.393363474245007, -18.12136652274677], [25.340013002398166, -18.086474863424144], [25.288345059576898, -18.02728483812473], [25.26546665206439, -17.94845150863017], [25.243436108289814, -17.897480617736278], [25.252688688732064, -17.841882429830207], [25.2389914905649, -17.79150017039649], [25.181723733763363, -17.78237951600181], [25.166394886614796, -17.778244754291904]]]}}]}