{"type": "FeatureCollection", "features": [{"type": "Feature", "properties": {"code": "CHE", "name": "The Swiss Confederation", "tier": "country"}, "geometry": {"type": "Polygon", "coordinates": [[[8.568880599000067, 47.80722730400004], [8.577329990000067, 47.78166588800008], [8.552919433000056, 47.78463196800004], [8.532461831000035, 47.77802702000008], [8.51031277100003, 47.776197196000055], [8.489018809000072, 47.77320833700003], [8.466521063000073, 47.753610630000026], [8.450112688000047, 47.738952651000034], [8.44018694700003, 47.719744742000046], [8.420148367000024, 47.709509394000065], [8.420788951000077, 47.68386984400007], [8.431993951000038, 47.662133804000064], [8.453666075000058, 47.654769627000064], [8.473502735000068, 47.63840452100004], [8.494354642000076, 47.642069194000044], [8.522972339000034, 47.644852825000044], [8.533454384000038, 47.66312139900003], [8.560890437000069, 47.67031975400005], [8.58726800100004, 47.66625418900003], [8.606613068000058, 47.67214735700003], [8.627294882000058, 47.65407359500006], [8.615558381000028, 47.63770739600005], [8.596043076000058, 47.64327904700008], [8.60480510800005, 47.61702392500007], [8.590182398000024, 47.60120901300007], [8.566641652000044, 47.597147257000074], [8.569337627000039, 47.61720023400005], [8.54433429200003, 47.625151868000046], [8.520771509000042, 47.634315548000075], [8.508345858000041, 47.61751913400008], [8.488471567000033, 47.61505442600003], [8.46814592100003, 47.60539333500003], [8.466868144000046, 47.584248047000074], [8.48870630700003, 47.58782888500008], [8.464897002000043, 47.57234107700003], [8.437964085000033, 47.56718057000006], [8.398290126000063, 47.577178083000035], [8.358738864000031, 47.57013244500007], [8.32920181000003, 47.57104551500004], [8.31085691100003, 47.58335574100005], [8.297735750000072, 47.60518817800005], [8.264900305000026, 47.60930630400003], [8.244895992000068, 47.612489106000055], [8.219726015000049, 47.617585278000035], [8.196946810000043, 47.61841612200004], [8.17518892000004, 47.60195821700006], [8.149137450000069, 47.595832202000054], [8.115875067000047, 47.58389799500003], [8.099498208000057, 47.562828713000044], [8.067265677000023, 47.56448566800003], [8.047320612000021, 47.555712999000036], [8.021349950000058, 47.550348893000034], [8.000712217000057, 47.556318212000065], [7.976573617000042, 47.55528624600004], [7.952646123000022, 47.55473701200003], [7.932534025000052, 47.546924571000034], [7.911962169000049, 47.55077803700004], [7.910618559000056, 47.57138338200008], [7.892073110000069, 47.58742872200003], [7.868118985000024, 47.588741768000034], [7.842623083000035, 47.58214286200007], [7.823087093000026, 47.58798894300003], [7.811469664000072, 47.56919281300003], [7.782451337000055, 47.553111357000034], [7.758419055000047, 47.548471250000034], [7.719600510000021, 47.541786098000046], [7.697106278000035, 47.53296652300003], [7.668034797000075, 47.53592613500007], [7.649945066000043, 47.54786099200004], [7.633943726000041, 47.561203926000076], [7.664234219000036, 47.565403822000064], [7.683508567000047, 47.57125831800005], [7.683653526000057, 47.59602746000007], [7.64567670100007, 47.59696104300008], [7.619141745000036, 47.57687492300005], [7.589044493000074, 47.58990180200004], [7.566489610000076, 47.57766942600006], [7.54686121900005, 47.561499119000075], [7.52732276100005, 47.55278425300003], [7.499180078000052, 47.54011785900008], [7.519358992000036, 47.53472304300004], [7.522191208000038, 47.51420108700006], [7.497875463000071, 47.521252752000066], [7.510451264000039, 47.50263246900005], [7.493798819000062, 47.48841616800007], [7.472011651000059, 47.48038755300007], [7.434988394000072, 47.498105801000065], [7.420820669000022, 47.48037108400007], [7.443615174000058, 47.47851884600004], [7.430033526000045, 47.459496079000075], [7.40320876100003, 47.43868215100008], [7.368251281000028, 47.434362005000025], [7.344842032000031, 47.43614437700006], [7.323450993000051, 47.438668764000056], [7.302399832000049, 47.43864874600007], [7.281906412000069, 47.43481223800006], [7.254962080000041, 47.424387514000045], [7.233445003000043, 47.43862433000004], [7.206687515000056, 47.43484978600003], [7.175606992000041, 47.44295492500004], [7.179095584000038, 47.46548778400006], [7.190860562000069, 47.488510192000035], [7.162278826000033, 47.490004088000035], [7.13919174800003, 47.50178537100004], [7.112524703000076, 47.495108679000055], [7.074851543000023, 47.48818895000005], [7.052429171000028, 47.49511319900006], [7.027646410000045, 47.50131976400007], [7.000380043000064, 47.499723791000065], [6.986440250000044, 47.47633072100007], [7.001285538000047, 47.461920977000034], [6.980981119000035, 47.44923418500008], [6.963710770000034, 47.435793954000076], [6.940302767000048, 47.43332262400003], [6.938433492000058, 47.406081200000074], [6.913250826000024, 47.40457638200007], [6.905120626000041, 47.38252485900006], [6.883598698000071, 47.37286538400008], [6.879292354000029, 47.35257592900007], [6.899640802000022, 47.35771736800007], [6.924076845000059, 47.35517983500006], [6.952091224000071, 47.35997589600004], [6.974587893000034, 47.360144397000056], [6.996379250000075, 47.36361317500007], [7.01556817200003, 47.372918807000076], [7.034839888000022, 47.363346586000034], [7.052818204000062, 47.35154735800006], [7.045643576000032, 47.32649548900008], [7.009990308000056, 47.324526433000074], [7.009356075000028, 47.302343403000066], [6.976580979000062, 47.296347774000026], [6.950886354000033, 47.291984538000065], [6.952008573000057, 47.26990098500005], [6.955665814000042, 47.243103046000044], [6.927926828000068, 47.22866602500005], [6.909961118000069, 47.21819219200006], [6.880697653000027, 47.200549797000065], [6.867277416000036, 47.18534302900008], [6.841062166000029, 47.17142224400004], [6.839315519000024, 47.149976303000074], [6.815714332000027, 47.13592088000007], [6.779372102000025, 47.12377100200007], [6.752063032000024, 47.114592894000054], [6.744566166000027, 47.09268452400005], [6.722710070000062, 47.08957505300003], [6.702728352000065, 47.08213930100004], [6.700386070000036, 47.05934026600005], [6.719170446000021, 47.051182820000065], [6.696539640000026, 47.037306803000035], [6.659195594000039, 47.027343030000054], [6.640355104000037, 47.002811620000045], [6.617973076000055, 46.991646821000074], [6.593110789000036, 46.99180440500004], [6.573178233000021, 46.98241725200006], [6.537294260000067, 46.97346573300007], [6.504806360000032, 46.96569361000007], [6.477747238000063, 46.96177733700006], [6.453533237000045, 46.93874128600004], [6.432689204000042, 46.92868283700005], [6.457924416000026, 46.900785402000054], [6.460031570000069, 46.851303346000066], [6.44316008800007, 46.83271220000006], [6.431039555000041, 46.81235715500003], [6.458410600000036, 46.788773614000036], [6.438442289000022, 46.76667839600003], [6.411332795000021, 46.75151219600008], [6.388399071000038, 46.74329461100007], [6.371104134000063, 46.73064012100008], [6.353757386000041, 46.71820421600006], [6.325111734000075, 46.706474066000055], [6.297060721000037, 46.694280613000046], [6.269130362000055, 46.68254979200003], [6.232757504000062, 46.65446023100003], [6.212865166000029, 46.64104634800003], [6.196302991000039, 46.62824773500006], [6.178966603000049, 46.61575241000003], [6.153689463000035, 46.60365069300008], [6.126519311000038, 46.58991977300008], [6.110471819000054, 46.576438686000074], [6.156661019000069, 46.545297738000045], [6.143684114000052, 46.52773709100006], [6.112603494000041, 46.50956456200004], [6.096900622000021, 46.481299265000075], [6.072792760000027, 46.46544370300006], [6.084388141000034, 46.44744455000006], [6.073891183000057, 46.428362400000026], [6.097629950000055, 46.40903718900006], [6.113818581000032, 46.396826], [6.134695973000021, 46.38870394000003], [6.154773767000052, 46.37862411900005], [6.158449748000066, 46.35590830900003], [6.137920357000041, 46.33873034900006], [6.125256190000073, 46.31930651700003], [6.121791250000058, 46.29911271100008], [6.102389295000023, 46.284939773000076], [6.115425210000069, 46.265942290000055], [6.10882691200004, 46.239870273000065], [6.088055604000033, 46.247125597000036], [6.06728563300004, 46.24178193300003], [6.046110773000066, 46.231393515000036], [6.025495350000028, 46.23322547400005], [6.006570510000074, 46.22654101200004], [5.979171774000065, 46.21725184600007], [5.96563476700004, 46.19953223400006], [5.983812187000069, 46.188871179000046], [5.980098416000033, 46.166279185000064], [5.964294761000076, 46.144767185000035], [5.986989262000066, 46.14256753800004], [6.015012020000029, 46.14307560300006], [6.035393232000047, 46.13433304100005], [6.052262596000048, 46.15134279500006], [6.074914035000063, 46.14884223700005], [6.098493404000067, 46.143819809000036], [6.120159095000076, 46.14275685600006], [6.14189347100006, 46.147225492000075], [6.168565464000039, 46.15716307900004], [6.18877563500007, 46.16638785300006], [6.205189838000024, 46.19176264200007], [6.228148480000073, 46.20244878500006], [6.249550155000065, 46.20498969000005], [6.276972908000062, 46.21552155300003], [6.294679306000035, 46.225153790000036], [6.310281777000057, 46.243974921000074], [6.293924243000049, 46.25952816600005], [6.266785306000031, 46.24769305400008], [6.24984955900004, 46.26219705300008], [6.238001049000047, 46.28212551800004], [6.249307978000047, 46.29890012100003], [6.21955047900002, 46.311884390000046], [6.252969403000066, 46.36042076000007], [6.335201742000038, 46.403716229000054], [6.42563175600003, 46.415806875000044], [6.519117087000041, 46.456367958000044], [6.681870245000027, 46.45433323000003], [6.821069067000053, 46.427156800000034], [6.801924626000073, 46.388892240000075], [6.792671258000041, 46.36758727500006], [6.771443636000072, 46.36102396200005], [6.78451737000006, 46.33683317200007], [6.80037111300004, 46.32004291700008], [6.830276311000034, 46.30612886700004], [6.847367243000065, 46.28987635400006], [6.864935531000071, 46.280196379000074], [6.854450612000051, 46.25929710300005], [6.837150905000044, 46.240799061000075], [6.821588576000067, 46.223118774000056], [6.807257021000055, 46.207912659000044], [6.812594387000047, 46.18154480700008], [6.79171767400004, 46.16293265500008], [6.796537931000046, 46.138680098000066], [6.815113559000054, 46.129265634000035], [6.838188990000049, 46.132948835000036], [6.869509220000054, 46.12513874200005], [6.890711165000027, 46.12556405600003], [6.885433344000035, 46.09675692900004], [6.891799, 46.07373970500004], [6.871726426000066, 46.05115024000003], [6.891271193000023, 46.04269384100007], [6.909636571000021, 46.05075418700005], [6.924587820000056, 46.06524411100003], [6.943928462000031, 46.05061057200004], [6.962888070000076, 46.030431717000056], [6.98131902800003, 46.01957125700005], [7.00057952100002, 45.99892911400008], [7.019899535000036, 45.983908222000025], [7.017427594000026, 45.96042358500006], [7.037438437000048, 45.954873829000064], [7.042654913000035, 45.929680294000036], [7.060567612000057, 45.913389933000076], [7.071531254000035, 45.89597900500007], [7.095431575000021, 45.87586304100006], [7.108805148000044, 45.85818508300008], [7.13228052200003, 45.86744085600003], [7.153541406000045, 45.87925266800005], [7.17532183700007, 45.86290404400006], [7.196488564000049, 45.86025970000003], [7.206062506000023, 45.880163380000056], [7.225815644000022, 45.88975144700004], [7.249485317000051, 45.893133325000065], [7.27147446500004, 45.89996805000004], [7.285275600000034, 45.91567297800003], [7.316299035000043, 45.916522497000074], [7.344302048000031, 45.91523992000003], [7.361211925000021, 45.90330506200007], [7.382386405000034, 45.89645208200005], [7.401751931000035, 45.91151281000003], [7.422292178000021, 45.91468696900006], [7.444371255000021, 45.93160107800003], [7.469556388000058, 45.93379251500005], [7.47766671200003, 45.952270585000065], [7.499184995000064, 45.96241807100006], [7.51953826600004, 45.960310711000034], [7.542716903000041, 45.956962642000065], [7.545697575000077, 45.983765908000066], [7.568473537000045, 45.98771119700007], [7.588630886000033, 45.970504402000074], [7.61034720400005, 45.96934468400008], [7.639537479000069, 45.97011151000004], [7.664273145000038, 45.975657933000036], [7.678320498000062, 45.958836432000055], [7.698820949000037, 45.95449842900007], [7.707320348000053, 45.93489365600004], [7.735092351000048, 45.923972166000055], [7.747750413000063, 45.94100763700004], [7.769266840000057, 45.93711694800004], [7.790812043000074, 45.92494798200005], [7.821764276000067, 45.92695988400004], [7.858499533000042, 45.92086870900005], [7.870373086000029, 45.947362663000035], [7.881810499000039, 45.964008411000066], [7.896281958000031, 45.98343037400008], [7.918982820000053, 45.99589485900003], [7.949490805000039, 45.99760647800008], [7.977113377000023, 45.99945355500006], [8.001083545000029, 46.01221119500008], [8.017500263000045, 46.02470440600007], [8.03541408700005, 46.04404505800005], [8.02387311800004, 46.06298376900003], [8.029583698000067, 46.08960055500006], [8.049125928000024, 46.10227562000006], [8.069218609000075, 46.10599560700007], [8.097143790000075, 46.108407519000025], [8.115415015000053, 46.13034586800006], [8.14438873100005, 46.136823108000044], [8.14974079700005, 46.156937553000034], [8.165283738000028, 46.176914907000025], [8.151391813000032, 46.20282102600004], [8.138877214000047, 46.226148151000075], [8.120478472000059, 46.23603166400005], [8.101617028000021, 46.24946851000004], [8.082613319000075, 46.256538008000064], [8.10049673900005, 46.27370099800004], [8.118312152000044, 46.28601299400003], [8.137562947000049, 46.301766772000065], [8.161420789000033, 46.29588376500004], [8.194437063000066, 46.30344371800004], [8.214926803000026, 46.31622819200004], [8.223994917000027, 46.334448165000026], [8.250041955000029, 46.34075810000007], [8.26503353000004, 46.35710891600007], [8.284281706000058, 46.36363062500004], [8.312898989000075, 46.37706622600007], [8.315731839000023, 46.39896570700006], [8.288933382000039, 46.40810974600004], [8.30749098800004, 46.42585125700003], [8.352463306000061, 46.44164277600004], [8.37529405600003, 46.453126447000045], [8.395953165000037, 46.45455985500007], [8.417098851000048, 46.45876293400005], [8.43852804100004, 46.46429537200004], [8.461989519000042, 46.45070735400003], [8.460759089000021, 46.42839929200005], [8.463052879000031, 46.40486804200003], [8.46651233600005, 46.380055725000034], [8.464671877000058, 46.35833246900006], [8.46328853600005, 46.336812863000034], [8.443721118000042, 46.31949444000003], [8.433019787000035, 46.302209049000055], [8.449770330000035, 46.274323518000074], [8.442275965000022, 46.25415153100005], [8.464105733000054, 46.244550710000055], [8.49238162000006, 46.229102150000074], [8.515135546000067, 46.22015847900008], [8.536402160000023, 46.204265871000075], [8.553591015000052, 46.19203383400003], [8.56984920800005, 46.17689986000005], [8.58430613400003, 46.162870447000046], [8.603175059000023, 46.15533216400007], [8.609704584000042, 46.13287934400006], [8.647577226000067, 46.12348950900008], [8.670272114000056, 46.108832533000054], [8.696571805000076, 46.102014229000076], [8.724265492000029, 46.110208476000025], [8.742342712000038, 46.12231127200005], [8.760017878000042, 46.10156864900006], [8.783033492000072, 46.09417249900008], [8.806038898000054, 46.10127634300005], [8.833767538000075, 46.082850791000055], [8.854588230000047, 46.061584667000034], [8.834532263000028, 46.05136462300004], [8.827148055000066, 46.032273297000074], [8.805913690000068, 46.02192913600004], [8.785882848000028, 45.98907664600006], [8.810218563000035, 45.98981704700003], [8.831322353000076, 45.988015974000064], [8.849632643000064, 45.97287232900004], [8.868298081000034, 45.960619190000045], [8.893657436000069, 45.958981419000054], [8.893496878000064, 45.93738810800005], [8.907445561000031, 45.91779064800005], [8.92412579300003, 45.905638054000065], [8.931552337000028, 45.88581425500007], [8.945301006000022, 45.86697880000003], [8.914225470000076, 45.842228926000075], [8.939089610000053, 45.84127344900003], [8.962016693000066, 45.83903030600004], [8.986668591000068, 45.83851996200008], [9.00424494200007, 45.82024209200006], [9.031397320000053, 45.82084212700005], [9.035707677000062, 45.84101776700004], [9.051825640000061, 45.85443270900004], [9.057708664000074, 45.87521907900003], [9.077840493000053, 45.885066917000074], [9.076575324000032, 45.911416649000046], [9.049080666000066, 45.92041976000007], [9.029841832000045, 45.92650416400005], [9.013567236000029, 45.941510605000076], [8.994024929000034, 45.96655150600003], [9.01115242000003, 45.98317513300003], [9.028460189000043, 45.99362596600008], [9.02254238100005, 46.01685613800004], [9.009524339000052, 46.037287613000046], [9.022670676000075, 46.05269382400007], [9.044768100000056, 46.058972451000045], [9.07713513300007, 46.06412440200006], [9.089614580000045, 46.087015619000056], [9.072504464000076, 46.118101730000035], [9.099776130000066, 46.12670895300005], [9.121497931000022, 46.13480619500007], [9.134484263000047, 46.15331043900005], [9.156494702000032, 46.162116841000056], [9.180842873000074, 46.16914948200008], [9.19477377000004, 46.18395466700008], [9.202200077000043, 46.20840865500003], [9.219979471000045, 46.22086833600008], [9.245836268000062, 46.23216947700007], [9.248998425000025, 46.25587866800004], [9.258823783000025, 46.27848405700007], [9.28488211900003, 46.29704700500008], [9.29508942700005, 46.317753002000075], [9.299866504000022, 46.343602264000026], [9.282583243000033, 46.35804517400004], [9.27816617700006, 46.37920256700005], [9.282025977000046, 46.40157729100008], [9.268782393000038, 46.41899502800004], [9.248186691000058, 46.43323215300006], [9.266275133000022, 46.45137570700007], [9.27739506100005, 46.47920295700004], [9.29055263600003, 46.497225300000025], [9.311118935000025, 46.50412942000003], [9.337072500000033, 46.50600052200008], [9.35839685600007, 46.507407888000046], [9.376363259000073, 46.48466130200006], [9.394023868000033, 46.47257010000004], [9.424114646000021, 46.476126641000064], [9.43418999000005, 46.49790800300008], [9.455070077000073, 46.50532099000003], [9.46103540100006, 46.48484421200004], [9.45917668900006, 46.46308675200004], [9.46070119500007, 46.44226622300005], [9.454434452000044, 46.42077981500006], [9.466786160000026, 46.39835332900003], [9.46108649000007, 46.37598887100006], [9.482979163000039, 46.36718416700006], [9.500469880000026, 46.35606762800006], [9.511485338000057, 46.33660203000005], [9.533218944000055, 46.312689188000036], [9.555205439000076, 46.30624289800005], [9.578176979000034, 46.295444780000025], [9.59913298400005, 46.295780378000075], [9.61868609000004, 46.287363836000054], [9.642300134000038, 46.28690194600006], [9.66212246300006, 46.29665369800006], [9.68738531200006, 46.29392598700008], [9.709752593000076, 46.29190881200003], [9.724422766000032, 46.309862630000055], [9.727523074000032, 46.33268614800005], [9.736934186000042, 46.350917794000054], [9.757594322000045, 46.34451881200005], [9.777649792000034, 46.33492362800007], [9.80226893500003, 46.34388945500007], [9.828675793000059, 46.35601209400005], [9.84914808800005, 46.36437836300007], [9.880586348000065, 46.36835407600006], [9.906797527000037, 46.38087843100004], [9.925179509000031, 46.36598417500005], [9.952815906000069, 46.37931376300003], [9.985109993000037, 46.35164376400007], [9.984254194000073, 46.32859895000007], [10.000065966000022, 46.31318864600007], [9.995929878000027, 46.284924775000036], [10.031240156000024, 46.27703581800006], [10.055534446000024, 46.26583507600003], [10.057068705000063, 46.24405603900004], [10.063081671000077, 46.220194228000025], [10.088498079000033, 46.22780507400006], [10.109171825000033, 46.22571909700008], [10.132323253000038, 46.22487688100006], [10.150872606000064, 46.23964199300008], [10.17493330800005, 46.254612276000046], [10.163350858000058, 46.27145335200004], [10.154281519000051, 46.29278435900005], [10.116608240000062, 46.31408172700003], [10.104400630000043, 46.33362213800007], [10.113116700000035, 46.35252933700008], [10.12599374000007, 46.369821682000065], [10.142565269000045, 46.38622437300006], [10.163991389000046, 46.39068484300003], [10.161133407000023, 46.415387414000065], [10.143009349000067, 46.428323885000054], [10.119220288000065, 46.42922702000004], [10.100730140000053, 46.42134573100003], [10.080173451000064, 46.421085153000035], [10.058009407000043, 46.43202087600008], [10.039148367000053, 46.446982466000065], [10.054463789000067, 46.46466036600003], [10.048489830000051, 46.48781225400006], [10.04226828700007, 46.51004531600006], [10.050433527000052, 46.52896599700006], [10.061414814000045, 46.54570356000005], [10.08233388800005, 46.56349253900004], [10.100675219000038, 46.58272198700007], [10.09885382300007, 46.60586278300008], [10.127623093000068, 46.605102963000036], [10.151361553000072, 46.614577747000055], [10.183066220000057, 46.623969104000025], [10.206369485000039, 46.62076558100006], [10.239308635000043, 46.63535325200007], [10.259084151000025, 46.610215907000054], [10.241839196000058, 46.59159957500003], [10.254134083000054, 46.57124365300007], [10.276702956000065, 46.572586510000065], [10.295994088000043, 46.55887712700007], [10.318549382000072, 46.54822264900008], [10.338189469000042, 46.54272569400007], [10.363874888000055, 46.55550714700007], [10.384265930000026, 46.55004494800005], [10.409030464000068, 46.54927429600008], [10.433617604000062, 46.54131885100003], [10.452799877000075, 46.530682453000054], [10.471464569000034, 46.54269681300008], [10.474065345000042, 46.562713710000025], [10.483391416000075, 46.58093120900003], [10.484436534000054, 46.60507954600007], [10.462564288000067, 46.63305008900005], [10.44344508200004, 46.63937907500008], [10.420208590000072, 46.638310671000056], [10.399857663000034, 46.638583682000046], [10.390978354000026, 46.658994525000026], [10.385352256000033, 46.682088787000055], [10.40332642200002, 46.70550117300007], [10.418770185000028, 46.71913566500007], [10.400167639000074, 46.73269090100007], [10.43554272800003, 46.75267584800008], [10.44048250000003, 46.77401039400007], [10.422718474000021, 46.788242463000074], [10.447558710000067, 46.80077281900003], [10.455803934000073, 46.821804074000056], [10.46646841100005, 46.83936197300005], [10.468006855000056, 46.86210716100004], [10.464695628000072, 46.884275064000065], [10.477735091000056, 46.90344881400006], [10.48830547700004, 46.92628020800004], [10.468820831000073, 46.947095587000035], [10.449152575000028, 46.95231403400004], [10.426384117000055, 46.957319623000046], [10.420495668000058, 46.97998442200003], [10.402179619000037, 46.99085356200004], [10.372051333000059, 46.99066832500006], [10.346516350000059, 46.98958622200007], [10.334522870000058, 46.97251597400003], [10.324550288000069, 46.95217864300008], [10.306125443000042, 46.94029982700005], [10.296877560000041, 46.91995022700007], [10.266886107000062, 46.92882932100008], [10.240595109000026, 46.931369516000075], [10.23330874000004, 46.901639974000034], [10.231964721000054, 46.87578992600004], [10.203834339000025, 46.864612978000025], [10.183505593000064, 46.859005248000074], [10.162701287000061, 46.85098867000005], [10.139420180000059, 46.847377606000066], [10.11913259000005, 46.84416942300004], [10.091963815000042, 46.851425421000044], [10.074941033000073, 46.86194075700007], [10.051207979000026, 46.86394113100005], [10.03931945000005, 46.88580636900008], [10.019870830000059, 46.89877902500007], [9.99741018900005, 46.90203467900005], [9.977876712000068, 46.915882373000045], [9.94613161600006, 46.91234858800004], [9.921540745000073, 46.91882306000008], [9.900034911000034, 46.92733614200006], [9.880734592000067, 46.93501603800007], [9.87872888000004, 46.957066405000035], [9.88455758400005, 46.98084803900008], [9.888785549000033, 47.00072678200007], [9.870704218000071, 47.00965155100005], [9.841015999000035, 47.01511879900005], [9.807572186000073, 47.023562395000056], [9.784923637000077, 47.03848499900005], [9.763086136000027, 47.03737111700008], [9.741857477000053, 47.04267415000004], [9.718219177000037, 47.04337317300008], [9.697567745000072, 47.05238687600007], [9.658221850000075, 47.05818046300004], [9.632679372000041, 47.051250509000056], [9.603478596000059, 47.06177215800005], [9.582165974000077, 47.05270184600005], [9.558948572000077, 47.04842690400005], [9.53976072100005, 47.06514622700007], [9.516546600000027, 47.060087485000054], [9.49131593800007, 47.056249844000035], [9.471785444000034, 47.06151439200005], [9.492282971000066, 47.07384196000004], [9.513537408000047, 47.08563403000005], [9.518863047000025, 47.105502382000054], [9.511843468000052, 47.132016013000054], [9.49973019500004, 47.14976962000003], [9.485848450000049, 47.181440801000065], [9.49960911200003, 47.211278546000074], [9.520458531000031, 47.243960310000034], [9.530119382000066, 47.26248994900004], [9.546160082000029, 47.280013920000044], [9.55642847300004, 47.29835129400004], [9.581612453000048, 47.31115950100008], [9.599463840000055, 47.34511953500004], [9.624462951000055, 47.366142721000074], [9.650537654000061, 47.36753955100005], [9.670613307000053, 47.37779143900008], [9.660091458000068, 47.39754364800007], [9.650299458000063, 47.42107548600006], [9.65799019700006, 47.44778714200004], [9.622380881000026, 47.45745590400003], [9.606622267000034, 47.469809706000035], [9.58187431600004, 47.48306586700005], [9.561996135000072, 47.496294876000036], [9.55871981200005, 47.541893241000025], [9.495603154000037, 47.55145514800006], [9.39471330200007, 47.620326144000046], [9.256560308000076, 47.65870771700003], [9.21483147400005, 47.65509574500004], [9.187101770000027, 47.657450992000065], [9.157836835000069, 47.665762838000035], [9.117991721000067, 47.66870299300007], [9.094202493000068, 47.67942177300006], [9.023379082000076, 47.68685240700006], [8.990074095000068, 47.67528051800008], [8.946061812000039, 47.65949803400008], [8.901781873000061, 47.648538194000025], [8.875400265000053, 47.654948793000074], [8.867888697000069, 47.67588802700004], [8.854740884000023, 47.69449383600005], [8.876149442000042, 47.69684921600003], [8.84834286000006, 47.70336871000006], [8.83008940600007, 47.711870126000065], [8.81270612700007, 47.72376529700006], [8.791819640000028, 47.72879678500004], [8.769758008000053, 47.71844856400003], [8.793967763000069, 47.70423936200007], [8.793531378000068, 47.680103630000076], [8.757781316000035, 47.68937611900003], [8.728022955000029, 47.69276124700008], [8.736307588000045, 47.71632726100006], [8.711157182000022, 47.73013802500003], [8.739536895000072, 47.746518464000076], [8.714070152000033, 47.76539944500007], [8.695130496000047, 47.75571053600004], [8.683211263000032, 47.77730350500008], [8.662320462000025, 47.79176026400006], [8.648111209000035, 47.77406255400007], [8.631669485000032, 47.75818590200004], [8.623370012000066, 47.77727459300007], [8.618601566000052, 47.79832263800006], [8.592861593000066, 47.79870536800007], [8.573099124000066, 47.80606662900004], [8.568880599000067, 47.80722730400004]], [[8.701285791000032, 47.71518972200005], [8.711395207000066, 47.69632877200007], [8.690255364000052, 47.695390934000045], [8.67044087100004, 47.68487513400004], [8.673575852000056, 47.70488624500007], [8.701285791000032, 47.71518972200005]], [[8.967077133000032, 45.98414938900004], [8.975631645000021, 45.96163220100004], [8.967077133000032, 45.98414938900004]]]}}]}