{"type": "FeatureCollection", "features": [{"type": "Feature", "properties": {"code": "CHL", "name": "Republic of Chile", "tier": "country"}, "geometry": {"type": "MultiPolygon", "coordinates": [[[[-69.51008875199994, -17.506588197999946], [-69.63832381799989, -17.62606411], [-69.81805444899993, -17.659137025999897], [-69.82009566799988, -17.846102357999897], [-69.84358260699986, -18.113166160999953], [-69.9703448949999, -18.250625470999907], [-70.13415918599992, -18.318941713999962], [-70.31789473999993, -18.32121547699998], [-70.32933508999992, -18.471856377999927], [-70.35045325399994, -18.636325778999947], [-70.34518712899995, -18.83935780999991], [-70.31380310899993, -19.007084756999916], [-70.28087317599994, -19.160414320999905], [-70.26992753799993, -19.313246351999908], [-70.21398392999993, -19.46109748899994], [-70.18414521599993, -19.629385974999934], [-70.15859941299993, -19.79070403399993], [-70.13459225199995, -19.94931405999995], [-70.14525305899991, -20.12314218499995], [-70.13687089799993, -20.294122002999927], [-70.16668639799991, -20.448069052999926], [-70.19420325399994, -20.64462655999995], [-70.1972000849999, -20.80452936699993], [-70.13046911599992, -20.94657792399994], [-70.12328040299991, -21.11028411299992], [-70.07781762199994, -21.26355824199993], [-70.06625805599992, -21.41515119999991], [-70.0946621569999, -21.573689075999937], [-70.14879309799994, -21.72275155999995], [-70.19212805899991, -21.884372653999947], [-70.18614661399994, -22.04143645599993], [-70.23550370999993, -22.29810963299991], [-70.25422115799995, -22.456638278999947], [-70.26724199099993, -22.60711028399993], [-70.30199133999992, -22.761976820999905], [-70.29702714799993, -22.91773853999996], [-70.37285934899995, -23.05087423899994], [-70.53697669199994, -23.032810153999947], [-70.56779540899993, -23.20022223999996], [-70.60463327199994, -23.357283424999935], [-70.63161225499994, -23.517038645999946], [-70.4662446719999, -23.480260512999905], [-70.39411373599995, -23.614353122999944], [-70.48399817599994, -23.754978122999944], [-70.50059973899994, -23.91269296699994], [-70.50230872299994, -24.06764088299991], [-70.5305883449999, -24.24472421699994], [-70.5419174459999, -24.41522868699991], [-70.55479895699995, -24.60588958099993], [-70.55907141799992, -24.75628020599993], [-70.52098548099991, -24.919040622999944], [-70.49966386599993, -25.08456796699994], [-70.43439693899995, -25.23609791499996], [-70.47642981699994, -25.386325778999947], [-70.58495032499991, -25.493584893999923], [-70.65080870499992, -25.648306369999943], [-70.73338782499991, -25.80396900799991], [-70.64891516799992, -25.943617445999905], [-70.6582738919999, -26.099379164999903], [-70.65705663999995, -26.265802165999958], [-70.68809973899994, -26.423760674999926], [-70.71499589799993, -26.608575127999927], [-70.74893848099993, -26.76055710299994], [-70.80638587099992, -26.916192315999922], [-70.85244706899994, -27.07154713299991], [-70.95995032499991, -27.188164971999925], [-70.94493567599994, -27.349541924999926], [-70.89167232999995, -27.49309661299992], [-70.9395238919999, -27.638278903999947], [-71.05785071499992, -27.744398695999905], [-71.11872311099995, -27.895196221999925], [-71.14732825399994, -28.04892343499995], [-71.16014563699991, -28.211683851999908], [-71.18858801999994, -28.405450127999927], [-71.27009029899995, -28.540459893999923], [-71.31851152299993, -28.69264088299991], [-71.4407445949999, -28.822930596999925], [-71.51480058499993, -28.977634372999944], [-71.49620520699995, -29.134698174999926], [-71.37608801999994, -29.282403252999927], [-71.30724036399994, -29.42115650799991], [-71.31151282499991, -29.586683851999908], [-71.32412675699993, -29.787286065999922], [-71.3196508449999, -29.943291924999926], [-71.37767493399991, -30.114678643999923], [-71.48615475199995, -30.226820570999905], [-71.63776607999995, -30.24146900799991], [-71.68614661399994, -30.44980234199994], [-71.71344967399995, -30.61492278399993], [-71.70726477799991, -30.779473565999922], [-71.67442786399994, -30.925957940999922], [-71.66783606699994, -31.15048593499995], [-71.60846920499995, -31.420179945999905], [-71.5703832669999, -31.591566664999903], [-71.5149633449999, -31.77548593499995], [-71.52879798099991, -31.93010833099993], [-71.52696692599994, -32.08367278399993], [-71.51390540299991, -32.240166924999926], [-71.41246497299994, -32.36956145599993], [-71.47142493399991, -32.51580169099992], [-71.44831295499995, -32.66570403399993], [-71.54869544199994, -32.78484465899993], [-71.55687415299991, -32.94345468499995], [-71.67747962099992, -33.06072356599992], [-71.70726477799991, -33.24667734199994], [-71.70592200399994, -33.43434010199991], [-71.64663652299993, -33.57903411299992], [-71.70579993399991, -33.733086846999925], [-71.83531653599994, -33.826429945999905], [-71.90029863199993, -33.96493905999995], [-72.01854407499991, -34.14080169099992], [-71.98713131399995, -34.335056247999944], [-72.04259192599994, -34.4860979149999], [-72.05724036399994, -34.65878671699994], [-72.14541581899994, -34.82935963299991], [-72.20343990799995, -35.04062265399995], [-72.28823808499993, -35.16855234199994], [-72.41982988199993, -35.26816171699994], [-72.48802649599992, -35.41838958099993], [-72.63206946499992, -35.55291106599992], [-72.58682206899994, -35.72966887799993], [-72.67178300699993, -35.865899346999925], [-72.79332434799994, -35.967461846999925], [-72.8118383449999, -36.13095468499995], [-72.82616126199991, -36.287041924999926], [-72.89586341099994, -36.43808359199994], [-72.9883520169999, -36.57317473799992], [-73.03587805899991, -36.72079843499995], [-73.18691972599993, -36.75212981599992], [-73.15689042899993, -36.94996510199991], [-73.2090551419999, -37.16025155999995], [-73.36168372299994, -37.22771575299993], [-73.55699622299994, -37.18279387799993], [-73.67568925699993, -37.32626718499995], [-73.59788977799991, -37.49187590899993], [-73.68785559799994, -37.62167734199994], [-73.62205969999991, -37.75872161299992], [-73.5032445949999, -37.93328215899993], [-73.46279863199993, -38.091729424999926], [-73.51219641799992, -38.24504973799992], [-73.54185950399994, -38.39918385199991], [-73.50230872299994, -38.570977471999925], [-73.45449785099993, -38.73479583099993], [-73.36131751199991, -38.9138322899999], [-73.28343665299991, -39.075290622999944], [-73.2454320949999, -39.22128671699994], [-73.24901282499991, -39.37965260199991], [-73.27505449099993, -39.52809010199991], [-73.35903886599993, -39.66415780999995], [-73.39610755099994, -39.821384372999944], [-73.53746497299994, -39.89690520599993], [-73.68321692599994, -39.942478122999944], [-73.65998287699995, -40.10955169099992], [-73.74600175699993, -40.24944426899992], [-73.76553300699993, -40.40162525799991], [-73.7490167169999, -40.574265186999924], [-73.82801827499992, -40.71594909099991], [-73.89022173799992, -40.85266292199992], [-73.9406754229999, -40.99395457999992], [-73.91966475399994, -41.152697935999925], [-73.84121670299993, -41.33282054199992], [-73.81369517799993, -41.49706427099994], [-73.69408118399991, -41.59238046699994], [-73.52769934799994, -41.53728606599992], [-73.66893469999991, -41.61663176899992], [-73.7546631109999, -41.74095640399992], [-73.57054602799991, -41.778008721999925], [-73.41291256399995, -41.79851653399993], [-73.20140540299991, -41.78476327899995], [-73.06688391799992, -41.702243747999944], [-73.03590123099991, -41.52922436499995], [-72.88556881399995, -41.511651299999926], [-72.7363988919999, -41.58123137799993], [-72.6094457669999, -41.70671965899993], [-72.45860755099994, -41.67343515399995], [-72.3509008449999, -41.45582447699991], [-72.34341386599993, -41.61296965899993], [-72.48379472599993, -41.713555596999925], [-72.64513098899994, -41.72283294099992], [-72.80919348899994, -41.84514739399992], [-72.73729407499991, -42.013929945999905], [-72.58055579299992, -42.031182549999926], [-72.4759008449999, -42.138929945999905], [-72.47618567599994, -42.30779387799993], [-72.42601477799991, -42.46298593499995], [-72.5579320949999, -42.21111419099992], [-72.76585852799991, -42.22698333099993], [-72.76244055899991, -42.38128020599993], [-72.65876217399995, -42.49114348799992], [-72.82384192599994, -42.504164320999905], [-72.82384192599994, -42.66529713299991], [-72.84219316299993, -42.83806731599992], [-72.7500707669999, -42.97893645599993], [-72.90746008999992, -43.07756926899992], [-72.9121801419999, -43.235446872999944], [-73.05573482999995, -43.28866952899995], [-73.11180579299992, -43.443291924999926], [-73.02603105399993, -43.58668385199991], [-72.99828040299991, -43.73748137799993], [-72.85407467399995, -43.67888762799993], [-72.95128333199995, -43.80364348799992], [-73.07042395699995, -43.91448333099993], [-73.11579342399995, -44.06853606599992], [-73.26260331899994, -44.108493747999944], [-73.1184789699999, -44.15911223799992], [-73.01390540299991, -44.29216887799993], [-72.84845943899995, -44.40243905999995], [-72.72191321499992, -44.50139739399992], [-72.61522376199991, -44.37151458099993], [-72.64403235599991, -44.51921965899993], [-72.72915605399993, -44.66562265399995], [-72.91478430899991, -44.84783294099992], [-73.08385169199994, -44.92392343499995], [-73.23436438699991, -44.96526458099993], [-73.38581295499995, -44.973728122999944], [-73.31387285099993, -45.125664971999925], [-73.45006262899994, -45.199476820999905], [-73.2962133449999, -45.25945403399993], [-73.07909094999991, -45.35475025799991], [-72.92491614499994, -45.407321872999944], [-73.08788001199991, -45.40667083099993], [-73.20864824099993, -45.30217864399992], [-73.35334225199995, -45.37265390399995], [-73.50230872299994, -45.44378020599993], [-73.56533769399994, -45.6325822899999], [-73.37816321499992, -45.64373137799993], [-73.19749915299991, -45.660088799999926], [-73.35631262899994, -45.68808359199994], [-73.53701738199993, -45.80413176899992], [-73.61900794199994, -45.933851820999905], [-73.61900794199994, -46.10230885199991], [-73.69180253799993, -46.25644296699994], [-73.46947180899991, -46.08928801899992], [-73.54328365799995, -46.232679945999905], [-73.67227128799993, -46.35955169099992], [-73.76549231699994, -46.486260674999926], [-73.87389075399994, -46.602227471999925], [-73.85789954299992, -46.430759372999944], [-73.76231848899994, -46.27361419099992], [-73.87267005099994, -46.15488046699994], [-74.01927649599992, -46.20435963299991], [-73.84487870999993, -46.34197356599992], [-74.00853430899991, -46.288995049999926], [-74.18984941299993, -46.24228280999995], [-74.34215247299994, -46.260837497999944], [-74.48989824099993, -46.189385674999926], [-74.33836829299992, -46.25253671699994], [-74.19151770699995, -46.21835702899995], [-74.02131100199995, -46.1482072899999], [-74.03697669199994, -45.9860979149999], [-74.13947506399995, -46.131117445999905], [-74.08006751199991, -45.98186614399992], [-74.19277910099993, -45.881931247999944], [-74.33092200399994, -45.800713799999926], [-74.39976966099994, -45.93718840899993], [-74.55809485599991, -45.90309010199991], [-74.72874915299991, -45.944024346999925], [-74.81126868399991, -46.084649346999925], [-74.92422441299993, -46.18767669099992], [-75.09068762899994, -46.21607838299991], [-75.20494544199994, -46.33049895599993], [-75.34532630099994, -46.394789320999905], [-75.45299231699994, -46.50937265399995], [-75.61318925699993, -46.56780364399992], [-75.71141516799992, -46.744398695999905], [-75.64224199099993, -46.88014088299991], [-75.46861731699994, -46.945245049999926], [-75.38231360599991, -46.80632903399993], [-75.54059811099995, -46.69817473799992], [-75.40465247299994, -46.62981536299992], [-75.24836178299995, -46.63250090899993], [-75.07506262899994, -46.5583635399999], [-74.96458899599992, -46.45403411299992], [-75.05919348899994, -46.602227471999925], [-75.01500403599994, -46.74920012799993], [-74.86953691299993, -46.80592213299991], [-74.72154700399994, -46.84002044099992], [-74.54572506399995, -46.895603122999944], [-74.65086829299992, -46.78834400799991], [-74.48379472599993, -46.78411223799992], [-74.33360755099994, -46.75994231599992], [-74.22166907499991, -46.869398695999905], [-74.11864173099991, -46.9880510399999], [-73.94896399599992, -47.015557549999926], [-74.05719967399995, -47.156914971999925], [-74.10948645699995, -47.306573174999926], [-74.22508704299992, -47.2087541649999], [-74.3665258449999, -47.29070403399993], [-74.49449622299994, -47.40113697699991], [-74.39232337099992, -47.53476327899995], [-74.23607337099992, -47.5837541649999], [-74.07689368399991, -47.54615650799991], [-74.2298070949999, -47.62509530999995], [-74.38556881399995, -47.67831796699994], [-74.47118079299992, -47.5505510399999], [-74.62559973899994, -47.60214609199994], [-74.73623613199993, -47.70452239399992], [-74.57868404899995, -47.772149346999925], [-74.37840735599991, -47.744805596999925], [-74.22166907499991, -47.788181247999944], [-74.06773841099994, -47.77076588299991], [-73.93472245999993, -47.841729424999926], [-73.78966223899994, -47.79802825299993], [-73.73094641799992, -47.623711846999925], [-73.70970618399991, -47.776055596999925], [-73.5501195949999, -47.80803801899992], [-73.48131262899994, -47.96306731599992], [-73.31354732999995, -47.97193775799991], [-73.49852454299992, -47.97991301899992], [-73.64268958199995, -47.89657968499995], [-73.59166419199994, -48.04192473799992], [-73.43545488199993, -48.13990650799991], [-73.29002844999991, -48.062432549999926], [-73.35252844999991, -48.20476653399993], [-73.50234941299993, -48.17717864399992], [-73.6497289699999, -48.109633070999905], [-73.80418860599991, -48.108086846999925], [-73.96157792899993, -48.04810963299991], [-74.20417232999995, -47.98992278399993], [-74.22256425699993, -48.142836195999905], [-74.33438066299993, -48.03215911299992], [-74.48399817599994, -47.97714609199994], [-74.63257070399993, -48.03492355199995], [-74.46865800699993, -48.02776458099993], [-74.44249426999994, -48.18238697699991], [-74.29088294199994, -48.25554778399993], [-74.13560950399994, -48.303399346999925], [-74.02989661399994, -48.41130950299993], [-73.98574785099993, -48.555352471999925], [-74.13687089799993, -48.50017669099992], [-74.28807532499991, -48.53655364399992], [-74.37189693899995, -48.66806405999995], [-74.20799719999991, -48.706149997999944], [-74.05719967399995, -48.73284270599993], [-74.23643958199995, -48.72698333099993], [-74.39976966099994, -48.760837497999944], [-74.41226152299993, -48.91253020599993], [-74.46263587099992, -49.066338799999926], [-74.37189693899995, -49.186618747999944], [-74.40347245999993, -49.346774997999944], [-74.30699622299994, -49.47698333099993], [-74.18130449099993, -49.39470794099992], [-74.15811113199993, -49.244398695999905], [-74.03604081899994, -49.14495208099993], [-73.91274980399993, -49.00725676899992], [-74.04352779899995, -49.08294036299992], [-74.00243079299992, -49.24920012799993], [-73.84487870999993, -49.3435197899999], [-73.99266516799992, -49.294040622999944], [-74.11961829299992, -49.40081145599993], [-73.91527258999992, -49.51051197699991], [-73.85496985599991, -49.65081145599993], [-73.71255449099993, -49.71607838299991], [-73.89268958199995, -49.65829843499995], [-74.03514563699991, -49.605726820999905], [-74.22166907499991, -49.56267669099992], [-74.32677161399994, -49.67717864399992], [-74.16698157499991, -49.71884530999995], [-74.29735266799992, -49.79550546699994], [-74.14590410099993, -49.91155364399992], [-73.99571692599994, -49.939385674999926], [-73.88532467399995, -50.05608489399992], [-74.04893958199995, -50.037041924999926], [-74.19810950399994, -49.96021900799991], [-74.34943600199995, -49.9353166649999], [-74.25072180899991, -50.08098723799992], [-74.15908769399994, -50.20232512799993], [-74.00609290299991, -50.20191822699991], [-73.85789954299992, -50.28948333099993], [-74.09642493399991, -50.22779713299991], [-74.24217688699991, -50.18645598799992], [-74.46031653599994, -50.09840260199991], [-74.61546790299991, -50.11077239399992], [-74.54381262899994, -50.244073174999926], [-74.43932044199994, -50.35711028399993], [-74.31041419199994, -50.26531340899993], [-74.28746497299994, -50.42652760199991], [-74.11180579299992, -50.38982512799993], [-74.00568600199995, -50.50855885199991], [-74.15680904899995, -50.49358489399992], [-74.18195553299995, -50.666680596999925], [-74.0606176419999, -50.81365325299993], [-73.90733801999994, -50.799899997999944], [-73.79832923099991, -50.645196221999925], [-73.72911536399994, -50.50644296699994], [-73.58755449099993, -50.403415622999944], [-73.69782467399995, -50.51482512799993], [-73.56773841099994, -50.62444426899992], [-73.73542232999995, -50.65439218499995], [-73.78966223899994, -50.79656340899993], [-73.80174719999991, -50.9470354149999], [-73.95173092399995, -50.89316171699994], [-74.10496985599991, -50.87118905999995], [-74.25641842399995, -50.939385674999926], [-74.10216223899994, -50.96453215899993], [-74.13597571499992, -51.17693450299993], [-73.98204505099994, -51.152276299999926], [-73.78282630099994, -51.17343515399995], [-73.72142493399991, -51.34775155999995], [-73.5996801419999, -51.45126718499995], [-73.60448157499991, -51.61142343499995], [-73.69953365799995, -51.48007577899995], [-73.86143958199995, -51.392836195999905], [-73.81696529899995, -51.53655364399992], [-73.81200110599991, -51.688571872999944], [-73.68040930899991, -51.76921965899993], [-73.5501195949999, -51.68043385199991], [-73.53062903599994, -51.83473072699991], [-73.41551673099991, -51.99041106599992], [-73.53770911399994, -51.88355885199991], [-73.56354732999995, -52.03997161299992], [-73.41942298099991, -52.10084400799991], [-73.31143144399994, -51.957696221999925], [-73.33263098899994, -51.801853122999944], [-73.38621985599991, -51.65252044099992], [-73.29971269399994, -51.831963799999926], [-73.27501380099994, -52.0232072899999], [-73.14533443899995, -51.94003671699994], [-73.0020238919999, -51.88534921699994], [-73.1680395169999, -51.88982512799993], [-73.04564368399991, -51.79762135199991], [-73.19953365799995, -51.7204729149999], [-73.04881751199991, -51.69687265399995], [-72.90941321499992, -51.757745049999926], [-72.73790442599994, -51.817071221999925], [-72.57803300699993, -51.795993747999944], [-72.70295162699995, -51.69801197699991], [-72.81456458199995, -51.5954729149999], [-72.97777258999992, -51.53281015399995], [-73.14061438699991, -51.48756275799991], [-72.96947180899991, -51.49846770599993], [-72.82754472599993, -51.570570570999905], [-72.66966712099992, -51.60816822699991], [-72.52204342399995, -51.71306731599992], [-72.4981176419999, -51.874118747999944], [-72.61229407499991, -51.973321221999925], [-72.47565670499995, -52.187432549999926], [-72.52647864499994, -52.32976653399993], [-72.69298255099994, -52.4079729149999], [-72.88898678299995, -52.451836846999925], [-72.74006100199995, -52.374932549999926], [-72.58478756399995, -52.32708098799992], [-72.55125891799992, -52.17913176899992], [-72.69395911399994, -52.06715260199991], [-72.8028051419999, -51.937432549999926], [-72.89452063699991, -52.05706145599993], [-72.82795162699995, -52.20061614399992], [-72.99453691299993, -52.18694426899992], [-73.11880449099993, -52.10214609199994], [-73.24282792899993, -52.20208098799992], [-73.4317113919999, -52.153008721999925], [-73.5813695949999, -52.13437265399995], [-73.69896399599992, -52.02629973799992], [-73.6321508449999, -52.18889739399992], [-73.56297766799992, -52.32284921699994], [-73.49486243399991, -52.47551848799992], [-73.62852942599994, -52.56129322699991], [-73.69782467399995, -52.70427825299993], [-73.53477942599994, -52.674899997999944], [-73.38621985599991, -52.62574635199991], [-73.22447669199994, -52.61150481599992], [-73.20059160099993, -52.437432549999926], [-73.02139238199993, -52.47478606599992], [-73.14537512899994, -52.60165780999995], [-73.26235917899993, -52.713148695999905], [-73.38418535099993, -52.803806247999944], [-73.54088294199994, -52.78004322699991], [-73.38263912699995, -52.844821872999944], [-73.21385657499991, -52.887790622999944], [-73.35277258999992, -52.955010674999926], [-73.25291907499991, -53.08147551899992], [-73.01048743399991, -53.05624765399995], [-72.96939042899993, -52.90748463299991], [-72.86042232999995, -52.7888322899999], [-72.71320553299995, -52.69255950299993], [-72.84105383999992, -52.59433359199994], [-72.97264563699991, -52.717054945999905], [-72.88988196499992, -52.588555596999925], [-72.70205644399994, -52.532321872999944], [-72.54743404899995, -52.53435637799993], [-72.38963782499991, -52.5075822899999], [-72.54157467399995, -52.577243747999944], [-72.37393144399994, -52.588148695999905], [-72.2031957669999, -52.523370049999926], [-72.04777239499992, -52.5574188999999], [-71.8333749709999, -52.552792224999905], [-71.63111050099991, -52.57440015299994], [-71.4781028509999, -52.64613773299993], [-71.62943764999994, -52.683783699999935], [-71.85052856599992, -52.69470955799994], [-72.00037768399994, -52.64609812899994], [-72.16087419899992, -52.6521177649999], [-72.30394446499992, -52.74651458099993], [-72.43126380099994, -52.85662200299993], [-72.59585527299993, -52.834242445999905], [-72.69017493399991, -52.708916924999926], [-72.83397376199991, -52.787041924999926], [-72.97647050699993, -52.83879973799992], [-72.91722571499992, -52.98943450299993], [-72.84508216099994, -53.1501604149999], [-72.69212805899991, -53.13128020599993], [-72.71519934799994, -53.280368747999944], [-72.86070716099994, -53.20322030999995], [-73.08482825399994, -53.1696916649999], [-73.30304928299995, -53.153415622999944], [-73.17137610599991, -53.25644296699994], [-72.94367428299995, -53.352634372999944], [-72.80068925699993, -53.42546965899993], [-72.65721594999991, -53.47161223799992], [-72.52253170499995, -53.54436614399992], [-72.3645727199999, -53.5368791649999], [-72.48346920499995, -53.40911223799992], [-72.63727779899995, -53.358493747999944], [-72.51695716099994, -53.26189544099992], [-72.3645727199999, -53.22226327899995], [-72.20628821499992, -53.201104424999926], [-72.36709550699993, -53.0681291649999], [-72.52017167899993, -53.081963799999926], [-72.36412512899994, -53.05201588299991], [-72.19326738199993, -53.06462981599992], [-72.04605058499993, -53.122979424999926], [-71.92308508999992, -53.034274997999944], [-71.77839394699993, -52.96666209999995], [-71.6119878099999, -52.89272641499991], [-71.46751868399991, -52.82561614399992], [-71.30927851899992, -52.80571263399992], [-71.1204931119999, -52.88028949699992], [-71.24339758999992, -52.974867445999905], [-71.33853105399993, -53.10312265399995], [-71.54360917899993, -53.1579729149999], [-71.69212805899991, -53.20712655999995], [-71.77550208199995, -53.341729424999926], [-71.79259192599994, -53.50628020599993], [-71.96275794199994, -53.56023528399993], [-71.82795162699995, -53.47234465899993], [-71.83495032499991, -53.25204843499995], [-72.02171790299991, -53.24732838299991], [-72.06973222599993, -53.407321872999944], [-72.24168860599991, -53.43450286299992], [-72.09064693899995, -53.382745049999926], [-72.28229732999995, -53.24277109199994], [-72.42345130099994, -53.3239885399999], [-72.39806067599994, -53.47893645599993], [-72.28408769399994, -53.58123137799993], [-72.11440995999993, -53.68401458099993], [-71.96178137899994, -53.705743096999925], [-71.81607011599993, -53.76018645599993], [-71.64464270699995, -53.82366301899992], [-71.47984778599994, -53.82935963299991], [-71.33604895699995, -53.879571221999925], [-71.03425045499995, -53.80974700299993], [-70.96987870999993, -53.667901299999926], [-70.98289954299992, -53.46770598799992], [-70.95909583199995, -53.302666924999926], [-70.88711503799993, -53.11386484199994], [-70.81151282499991, -52.97926197699991], [-70.81212317599994, -52.821384372999944], [-70.68402282799991, -52.72457038899995], [-70.52587829099991, -52.659927067999945], [-70.3661392379999, -52.655530925999926], [-70.2077156819999, -52.65100346799994], [-69.94568934699993, -52.53109421399995], [-69.77981956099995, -52.52261401399994], [-69.61632239499994, -52.4880510399999], [-69.49693762899994, -52.38534921699994], [-69.40310363099991, -52.245991346999915], [-69.23470812199992, -52.20314306999995], [-69.08604895699995, -52.22519296699994], [-68.94737708199995, -52.28720468499995], [-68.78188573699993, -52.313305476999915], [-68.56546333799992, -52.34092918199991], [-68.82049739699991, -52.24316660599994], [-69.00756608099994, -52.17908782999993], [-69.21225642899986, -52.13795338999995], [-69.48528885999986, -52.13247568699996], [-69.95275386599988, -52.007418721999976], [-70.48471105999991, -52.002664489999894], [-70.93569128499993, -51.99873708099992], [-71.38661983299994, -51.99470631899993], [-71.91769852799987, -51.99005543999996], [-71.98172562699995, -51.844948018999936], [-72.14212927199992, -51.73942474299987], [-72.30072424399992, -51.69146901499994], [-72.40201005099993, -51.57974456799989], [-72.34831823699994, -51.43050303099993], [-72.27049353099991, -51.25955739299989], [-72.40309525599994, -51.12607716899992], [-72.2770564379999, -51.00732472799986], [-72.2634655359999, -50.83627573699997], [-72.30491003399996, -50.664916686999916], [-72.5059830329999, -50.60125132199992], [-72.66261429899996, -50.667810566999904], [-72.90285803299992, -50.66657033299996], [-73.05173783399988, -50.75783091199987], [-73.18526973599995, -50.6784559119999], [-73.26180253199996, -50.499035338999946], [-73.28433345599987, -50.33305063899994], [-73.4058247479999, -50.21698537199991], [-73.54147538199993, -50.11373586099995], [-73.55444616799988, -49.947131042999985], [-73.48210722501858, -49.81173676818831], [-73.54072607499995, -49.65950001999994], [-73.55594478399988, -49.50808807299999], [-73.46204870599988, -49.37496958399993], [-73.14501379499993, -49.30365610799995], [-73.10718664599995, -49.1348808799999], [-73.00972489499986, -48.990393574999935], [-72.82492997299994, -48.94450490299997], [-72.67196773299989, -48.86295949299991], [-72.57801997899986, -48.721882832999974], [-72.60659704699992, -48.56096242299995], [-72.4964745689999, -48.41513153099993], [-72.35865352399986, -48.34299123099993], [-72.33322871999985, -48.09081024199992], [-72.45611527599993, -48.00109995599993], [-72.50045365499989, -47.85289194799988], [-72.36283931499992, -47.635024108999886], [-72.35829178899988, -47.483405455999886], [-72.20915360599994, -47.420256855999924], [-72.05794836499987, -47.3119430539999], [-71.91253088499985, -47.23453175899995], [-71.98430944899985, -47.080535989999916], [-71.95320023699989, -46.87476043699991], [-71.8195649829999, -46.778952330999886], [-71.68716996299992, -46.690068867999926], [-71.68050370299991, -46.538140156999944], [-71.7518688559999, -46.39303273499992], [-71.78277136199989, -46.22467091799987], [-71.91470129399994, -46.15232391299992], [-71.7559512949999, -46.10064748199997], [-71.61229081299987, -45.970526224999915], [-71.74318721599994, -45.85756154399992], [-71.79951452599994, -45.717105000999965], [-71.7495950929999, -45.54925994799996], [-71.56169958499993, -45.52393849699989], [-71.40791052299994, -45.37872772199992], [-71.33861242799992, -45.23424041699987], [-71.4871821699999, -45.12334279399994], [-71.58872635899988, -44.97813201899989], [-71.74484086099989, -44.940614929999896], [-71.92948075399994, -44.933793639999934], [-72.08094437699992, -44.88656138099991], [-71.8545499279999, -44.79095998099993], [-71.67264888599988, -44.77855763699995], [-71.49710404499987, -44.74290089999997], [-71.33597692899991, -44.801605325999915], [-71.23929032399994, -44.67437794999995], [-71.12239823399997, -44.549424336999905], [-71.23500117999995, -44.42385060599989], [-71.43783117699988, -44.40152638699992], [-71.64319331899986, -44.4025599159999], [-71.82204545099995, -44.40318003399996], [-71.82793656499987, -44.2520781459999], [-71.83522294099996, -44.094361673999956], [-71.66959997599994, -43.95979624399989], [-71.75579626499987, -43.83453257199996], [-71.70918412299991, -43.684360859999956], [-71.78979935699991, -43.54938201899998], [-71.90622635899985, -43.44923309399988], [-71.8243708899999, -43.303402201999944], [-71.75016353399994, -43.17245412199988], [-72.0098376059999, -43.12036427799991], [-72.14853715099989, -42.99871795599995], [-72.12125199399986, -42.71966522199993], [-72.14321447799992, -42.55709116599988], [-72.0606872159999, -42.36888559999993], [-72.05893021599994, -42.19757822699998], [-71.90948197499992, -42.17225677499991], [-71.74944006399994, -42.10435394299995], [-71.77507157499991, -41.95635264099994], [-71.83894364499986, -41.81331227699988], [-71.9259150799999, -41.65301198399992], [-71.88870804899997, -41.50015309699998], [-71.90224727499995, -41.33592539499996], [-71.88943151899988, -41.17975921599994], [-71.86715897699992, -41.02018239399989], [-71.91067053299994, -40.85006357899995], [-71.8733601479999, -40.64707855199991], [-71.8041654059999, -40.426420185999945], [-71.67848832199988, -40.34022389699993], [-71.80194331899992, -40.242348734999936], [-71.80070308499995, -40.07967132599994], [-71.66727453599992, -40.00050303099992], [-71.6793668219999, -39.84785085099995], [-71.69879715999988, -39.69023773199993], [-71.55498164999992, -39.612826436999896], [-71.4824796149999, -39.46110443099987], [-71.41204463699995, -39.31796071399988], [-71.41266475499992, -39.10060963999992], [-71.41576533999998, -38.935348408999914], [-71.27975297099991, -38.85018564799988], [-71.1368676349999, -38.792204690999924], [-70.96723974699992, -38.75076019299986], [-70.87300777199991, -38.627770283999936], [-70.91729447499995, -38.4829729209999], [-71.01669409199985, -38.264691670999895], [-71.0235153809999, -38.1045980839999], [-71.0875941569999, -37.94016367599991], [-71.1850300699999, -37.70606943699991], [-71.13955480999994, -37.55486419699993], [-71.16828690599993, -37.391566670999865], [-71.15758988499994, -37.23571055099991], [-71.1268940839999, -37.07758066799994], [-71.16906205299995, -36.92193125399996], [-71.15154374199989, -36.76049407899998], [-71.06997249399993, -36.60381113699992], [-70.97103796399995, -36.48547210699988], [-70.82882442199991, -36.41984303799994], [-70.71265580299993, -36.30026377299994], [-70.6043678389999, -36.19463714599995], [-70.45148311399987, -36.15226247199993], [-70.41272578999994, -35.96891448999992], [-70.3573286539999, -35.815228779999956], [-70.42153662099994, -35.6596827189999], [-70.40822993999993, -35.5062037149999], [-70.42838374899989, -35.35706553099996], [-70.57889135799991, -35.25970713299992], [-70.38662919099994, -35.16668955399986], [-70.35371130399992, -34.953265888999866], [-70.27671341999988, -34.79823659299993], [-70.24242610699989, -34.61943613699995], [-70.12837622099988, -34.4694711299999], [-70.06450415099994, -34.313511657999925], [-69.91156774999988, -34.28457285599997], [-69.87237117499993, -34.13099049799993], [-69.8656015629999, -33.95766774499994], [-69.91477168799995, -33.79354339599986], [-69.89392024799989, -33.642751566999976], [-69.83415645299993, -33.4745964559999], [-69.81389929299993, -33.289491475999895], [-69.98386307799993, -33.294452412999945], [-70.10083268199989, -33.186862080999916], [-70.10295141699987, -33.018293558999915], [-70.00016699299994, -32.88899912499997], [-70.14002925699995, -32.76828297899989], [-70.18108618199992, -32.60756927499992], [-70.18852758899993, -32.45357350599997], [-70.26919449899995, -32.2990609739999], [-70.34391861999995, -32.16573577899996], [-70.2672049569999, -32.00093963699989], [-70.35722530099986, -31.87650278699998], [-70.48848343899994, -31.773873392999903], [-70.58026078299986, -31.592282409999953], [-70.57899470999993, -31.431982116999905], [-70.54680029299988, -31.26455047599991], [-70.47980179899989, -31.096705423999907], [-70.33978450599992, -31.041721699999954], [-70.31947566799991, -30.80080617199991], [-70.27020218899992, -30.657249043999897], [-70.21710465599989, -30.51513885499989], [-70.17341223199992, -30.364657084999905], [-69.99445674599991, -30.388118183999964], [-69.89808020099991, -30.256549987999932], [-69.88071691999988, -30.099763691999925], [-69.92218725699988, -29.939566751999905], [-69.92908605999995, -29.718288268999885], [-69.99161454299991, -29.488121439999944], [-70.0444795329999, -29.34611460399995], [-69.98505163699994, -29.20834523599993], [-69.84436254899992, -29.12928029399994], [-69.80630285699988, -28.980142109999917], [-69.73584204099993, -28.812400410999942], [-69.74085465599998, -28.640627949999967], [-69.6723575449999, -28.457693379999867], [-69.5535275879999, -28.31785695399988], [-69.47616796899987, -28.18794240299988], [-69.33082800299988, -28.05244679799995], [-69.19019059299987, -27.951367695999892], [-69.12432897999989, -27.734430032999953], [-69.05386816399994, -27.59965789699993], [-69.01014990299987, -27.448866067999873], [-68.88305171699992, -27.294973652999943], [-68.82902400699993, -27.13601694699996], [-68.64947424299996, -27.151209818999888], [-68.51800939899994, -27.07689910899998], [-68.36649410099997, -27.043516132999926], [-68.30536088099987, -26.897995300999895], [-68.51020625799993, -26.62907114699992], [-68.59531734299995, -26.457298685999945], [-68.57516353399987, -26.303509623999958], [-68.41987585499987, -26.179279479999906], [-68.48638342299995, -25.836561380999896], [-68.54131547099988, -25.687319844999934], [-68.6029137779999, -25.510689798999948], [-68.5160456959999, -25.18357798299988], [-68.36664912899991, -25.12342661499993], [-68.44013301599998, -24.98369354199987], [-68.55103063999991, -24.868765156999928], [-68.52131669099992, -24.67528859399995], [-68.39765498899993, -24.500518899999875], [-68.26712032099996, -24.4041940299999], [-68.01023677599997, -24.29505340599995], [-67.51026729399993, -24.09041473399995], [-67.36236934499993, -24.03036671899993], [-67.17767777499995, -23.510243428999914], [-67.0195478919999, -23.03192637099994], [-67.19390417499997, -22.82222340899996], [-67.54711258999993, -22.892503356999967], [-67.77143998299988, -22.888679300999925], [-67.89148433499992, -22.792871195999894], [-67.8587214769999, -22.566838479999973], [-67.9069355879999, -22.420077411999912], [-67.93478918499997, -22.251715596999958], [-67.96062740099998, -22.102887470999917], [-68.08273881099987, -21.98031097399992], [-68.10759517399993, -21.789624938999907], [-68.19058752499987, -21.60638030999992], [-68.19373978699994, -21.32846445699991], [-68.41631018099991, -20.959804788999932], [-68.5719595949999, -20.87236826599988], [-68.56508662999994, -20.719509378999945], [-68.58332841099988, -20.563033141999938], [-68.72967606599985, -20.479213968999957], [-68.67851639899993, -20.32862884499994], [-68.7232681889999, -20.160990498999894], [-68.59717769399995, -20.056707457999963], [-68.54291743999991, -19.91418385799993], [-68.6503527429999, -19.781582132999915], [-68.53211706599987, -19.50087575299993], [-68.60007157499993, -19.303368428999974], [-68.72125280799986, -19.191747334999945], [-68.84736914099992, -19.09201181999994], [-68.96170324699989, -18.969435322999942], [-69.01053747599985, -18.744539488999933], [-69.0416466879999, -18.54889251699997], [-69.07782019099994, -18.39882415799991], [-69.10035111499988, -18.234286396999906], [-69.08921484399994, -18.08308115699991], [-69.2348131919999, -17.99295745799992], [-69.32764990299992, -17.841545510999893], [-69.47578039599998, -17.652409769999906], [-69.51008875199994, -17.506588197999946]]], [[[-68.64199785099993, -54.799167575999945], [-68.63831213399993, -54.24655853299988], [-68.63474646099985, -53.710880634999924], [-68.63123246299989, -53.17509938599995], [-68.6276167764778, -52.639571698869695], [-68.76740475199995, -52.54843515399995], [-68.92065656299991, -52.64017525299994], [-69.08853105399993, -52.680352471999925], [-69.2762235539999, -52.5798162289999], [-69.3963158009999, -52.45574519899992], [-69.58389238199993, -52.50986093499995], [-69.69155853199993, -52.73261308399992], [-69.85321566599993, -52.79929942399991], [-70.00113300999993, -52.84173378899993], [-70.12861520899992, -52.7322824819999], [-70.36876522099993, -52.74568893199995], [-70.25720176399994, -52.868296175999944], [-70.08917481599991, -52.91106302299994], [-70.1834953579999, -53.02938145399992], [-70.33523874899993, -53.051295798999945], [-70.43477675199995, -53.168641822999916], [-70.45909583199995, -53.34514739399992], [-70.30199133999992, -53.43450286299992], [-70.13902747299994, -53.441664320999905], [-69.9502933089999, -53.39943047899993], [-69.67547349699993, -53.358357724999905], [-69.46330742799995, -53.35635950299991], [-69.3186127269999, -53.450522830999944], [-69.65143987999994, -53.63623052499992], [-69.80676495999995, -53.66548269799995], [-69.98036359399993, -53.687584933999915], [-70.13695227799991, -53.73870208099993], [-70.14708411399994, -53.92229583099993], [-70.05675208199995, -54.087009372999944], [-69.91234290299991, -54.142836195999905], [-69.61681067599994, -54.22226327899995], [-69.27961178299995, -54.32154713299991], [-69.09137936099995, -54.39137135199991], [-69.15746008999992, -54.558526299999926], [-69.3164770169999, -54.58342864399992], [-69.23997962099992, -54.441338799999926], [-69.50047766799992, -54.34221770599993], [-69.6524145169999, -54.34099700299993], [-69.83511308499993, -54.279961846999925], [-69.79930579299992, -54.43320077899995], [-69.93858801999994, -54.37322356599992], [-70.0344945949999, -54.256931247999944], [-70.19286048099991, -54.311618747999944], [-70.54043535099993, -54.256524346999925], [-70.93268795499995, -54.113539320999905], [-70.84325110599991, -54.26311614399992], [-70.65802975199995, -54.26409270599993], [-70.51032467399995, -54.32089609199994], [-70.25251217399995, -54.4860979149999], [-70.43976803299995, -54.478448174999926], [-70.58519446499992, -54.390557549999926], [-70.69692949099993, -54.494805596999925], [-70.61046301999994, -54.33879973799992], [-70.77139238199993, -54.31951262799993], [-70.92931067599994, -54.34417083099993], [-71.12515214799993, -54.433526299999926], [-71.30064856699994, -54.39023202899995], [-71.45958411399994, -54.43515390399995], [-71.61412512899994, -54.41090260199991], [-71.77208411399994, -54.39348723799992], [-71.65762285099993, -54.513604424999926], [-71.83185787699995, -54.54241301899992], [-71.97350012899994, -54.44866301899992], [-71.89159094999991, -54.579196872999944], [-71.74046790299991, -54.61419036299992], [-71.5911352199999, -54.58928801899992], [-71.44286048099991, -54.63372161299992], [-71.34707597599993, -54.51718515399995], [-71.21833248599995, -54.621758721999925], [-71.0723363919999, -54.65976327899995], [-70.88418535099993, -54.681573174999926], [-70.72915605399993, -54.721774997999944], [-70.58259029899995, -54.68906015399995], [-70.77969316299993, -54.76018645599993], [-70.62706458199995, -54.80193450299993], [-70.4622289699999, -54.80934010199991], [-70.32241777299993, -54.74651458099993], [-70.20030676999994, -54.85475025799991], [-69.99327551999994, -54.835056247999944], [-69.96955318899995, -54.676853122999944], [-69.91161048099991, -54.818617445999905], [-69.79084225199995, -54.72144947699991], [-69.63914954299992, -54.69768645599993], [-69.56151282499991, -54.845961195999905], [-69.28270423099991, -54.899102471999925], [-69.13011633999992, -54.94215260199991], [-68.78799394399994, -54.920179945999905], [-68.96568762899994, -54.79070403399993], [-68.73981686099995, -54.84710051899992], [-68.64199785099993, -54.799167575999945]]], [[[-80.75934811099995, -33.76677825299993], [-80.75934811099995, -33.76677825299993]]], [[[-78.78897050699993, -33.60906340899993], [-78.94322669199994, -33.61646900799991], [-78.79051673099991, -33.645603122999944], [-78.78897050699993, -33.60906340899993]]], [[[-109.23159745999993, -27.092461846999925], [-109.37962805899991, -27.05950286299992], [-109.45132402299993, -27.195489190999922], [-109.29222571499992, -27.145603122999944], [-109.23159745999993, -27.092461846999925]]], [[[-105.45954342399995, -26.464776299999926], [-105.45954342399995, -26.464776299999926]]], [[[-79.90176347599993, -26.347426039999903], [-79.90176347599993, -26.347426039999903]]], [[[-80.09569251199991, -26.26604583099993], [-80.09569251199991, -26.26604583099993]]], [[[-67.24510657499991, -55.8396135399999], [-67.40347245999993, -55.818617445999905], [-67.25812740799995, -55.89104583099993], [-67.24510657499991, -55.8396135399999]]], [[[-67.09430904899995, -55.826104424999926], [-67.09430904899995, -55.826104424999926]]], [[[-67.50161699099993, -55.82105885199991], [-67.6580138189999, -55.82287287899993], [-67.82750403599994, -55.816664320999905], [-67.69355835499994, -55.88952097799995], [-67.52931525199995, -55.857207408999955], [-67.50161699099993, -55.82105885199991]]], [[[-67.23208574099993, -55.771416924999926], [-67.23208574099993, -55.771416924999926]]], [[[-67.37608801999994, -55.75090911299992], [-67.34825598899994, -55.60035572699991], [-67.49132239499994, -55.65894947699991], [-67.37608801999994, -55.75090911299992]]], [[[-67.64313717399995, -55.49732838299991], [-67.73859615799995, -55.61687590899993], [-67.58775794199994, -55.585870049999926], [-67.64313717399995, -55.49732838299991]]], [[[-69.71450761599993, -55.34498463299991], [-69.71450761599993, -55.34498463299991]]], [[[-70.01402747299994, -55.30592213299991], [-70.01402747299994, -55.30592213299991]]], [[[-66.85533606699994, -55.27117278399993], [-67.02660071499992, -55.236993096999925], [-66.89631100199995, -55.33261484199994], [-66.85533606699994, -55.27117278399993]]], [[[-66.42674719999991, -55.185479424999926], [-66.61913001199991, -55.19801197699991], [-66.43635006399995, -55.209649346999925], [-66.42674719999991, -55.185479424999926]]], [[[-66.86900794199994, -55.024102471999925], [-67.02391516799992, -54.992445570999905], [-66.85171464799993, -55.10662200299993], [-66.86900794199994, -55.024102471999925]]], [[[-67.99925696499992, -55.62753671699994], [-68.09544837099992, -55.510023695999905], [-68.21214758999992, -55.39397551899992], [-68.35578365799995, -55.34254322699991], [-68.51325436099995, -55.33277760199991], [-68.68032792899993, -55.29656340899993], [-68.50007076699995, -55.31145598799992], [-68.30492102799991, -55.28923919099992], [-68.41405188699991, -55.179945570999905], [-68.56403561099995, -55.19198984199994], [-68.76244055899991, -55.169040622999944], [-68.94847571499992, -55.11093515399995], [-68.79173743399991, -55.12200286299992], [-68.62950598899994, -55.15447356599992], [-68.48062089799993, -55.10279713299991], [-68.33482825399994, -55.062432549999926], [-68.44115149599992, -54.939711195999905], [-68.68472245999993, -54.94215260199991], [-68.83438066299993, -54.981540622999944], [-69.01349850199995, -54.98316822699991], [-69.18370520699995, -54.992445570999905], [-69.38341223899994, -55.016696872999944], [-69.5462133449999, -55.03753020599993], [-69.77301998599995, -55.053399346999925], [-69.93529212099992, -55.07927825299993], [-69.8352758449999, -55.20232512799993], [-69.68049068899995, -55.23064544099992], [-69.5078832669999, -55.171807549999926], [-69.65770423099991, -55.236993096999925], [-69.54478919199994, -55.36614348799992], [-69.43708248599995, -55.491306247999944], [-69.24909420499995, -55.46917083099993], [-69.31509355399993, -55.33261484199994], [-69.46153723899994, -55.25750090899993], [-69.29613196499992, -55.22226327899995], [-69.43862870999993, -55.1618791649999], [-69.27383378799993, -55.14080169099992], [-69.1341039699999, -55.24773528399993], [-68.97655188699991, -55.26441822699991], [-68.82477779899995, -55.18759530999995], [-68.89785722599993, -55.32781340899993], [-68.75340735599991, -55.38046640399995], [-68.90420488199993, -55.38730234199994], [-68.79893958199995, -55.499118747999944], [-68.60252844999991, -55.46233489399992], [-68.45750891799992, -55.50310637799993], [-68.26984615799995, -55.51653411299992], [-68.15689042899993, -55.623711846999925], [-67.99290930899991, -55.67701588299991], [-67.99925696499992, -55.62753671699994]]], [[[-67.88316809799994, -55.24382903399993], [-67.71190344999991, -55.25750090899993], [-67.56847083199995, -55.17717864399992], [-67.42324785099993, -55.21648528399993], [-67.27061926999994, -55.306898695999905], [-67.08849036399994, -55.190524997999944], [-67.11538652299993, -55.03093840899993], [-67.30182857999995, -54.92888762799993], [-67.46182206899994, -54.92205169099992], [-67.64981035099993, -54.92107512799993], [-67.80577551999994, -54.91375090899993], [-68.21153723899994, -54.9079729149999], [-68.36050370999993, -54.93092213299991], [-68.20156816299993, -54.97975025799991], [-68.16429602799991, -55.146416924999926], [-67.98558508999992, -55.22356536299992], [-67.75792395699995, -55.2243791649999], [-67.88316809799994, -55.24382903399993]]], [[[-70.29515540299991, -55.08245208099993], [-70.46442623599995, -55.047133070999905], [-70.65143795499995, -55.03093840899993], [-70.50544186099995, -54.95077890399995], [-70.31566321499992, -54.9079729149999], [-70.49205481699994, -54.89999765399995], [-70.64525305899991, -54.96892669099992], [-70.79548092399995, -54.93417734199994], [-70.96760006399995, -54.94589609199994], [-70.85684160099993, -55.058526299999926], [-70.71580969999991, -55.1228166649999], [-70.57530676999994, -55.06023528399993], [-70.54808508999992, -55.213555596999925], [-70.39061438699991, -55.169040622999944], [-70.29515540299991, -55.08245208099993]]], [[[-69.90416419199994, -54.996758721999925], [-69.63727779899995, -55.024102471999925], [-69.48485266799992, -54.99553801899992], [-69.33189856699994, -54.97966887799993], [-69.16429602799991, -54.95582447699991], [-69.32632402299993, -54.92327239399992], [-69.49364173099991, -54.94215260199991], [-69.67145748599995, -54.86646900799991], [-69.82559160099993, -54.87639739399992], [-69.94884192599994, -54.972588799999926], [-69.90416419199994, -54.996758721999925]]], [[[-70.42178300699993, -54.845961195999905], [-70.60708574099993, -54.832289320999905], [-70.45287024599992, -54.87948984199994], [-70.42178300699993, -54.845961195999905]]], [[[-70.98379472599993, -54.92848072699991], [-71.12474524599992, -54.85881926899992], [-71.29576575399994, -54.838555596999925], [-71.45958411399994, -54.87948984199994], [-71.31818600199995, -54.94158294099992], [-71.12067623599995, -54.89226653399993], [-70.98379472599993, -54.92848072699991]]], [[[-71.94684811099995, -54.70256926899992], [-72.09093176999994, -54.63600025799991], [-71.98497473899994, -54.75530364399992], [-71.94684811099995, -54.70256926899992]]], [[[-72.33983313699991, -54.33147551899992], [-72.50169837099992, -54.33147551899992], [-72.3567602199999, -54.376071872999944], [-72.33983313699991, -54.33147551899992]]], [[[-70.38459225199995, -54.18808359199994], [-70.25422115799995, -54.26653411299992], [-70.38459225199995, -54.18808359199994]]], [[[-72.2969457669999, -54.078789971999925], [-72.4192602199999, -54.168226820999905], [-72.26524817599994, -54.20232512799993], [-72.2969457669999, -54.078789971999925]]], [[[-73.18008378799993, -54.07195403399993], [-73.35826575399994, -54.02361419099992], [-73.23326575399994, -54.11150481599992], [-73.18008378799993, -54.07195403399993]]], [[[-71.6309301419999, -54.078789971999925], [-71.65151933499993, -54.23202890399995], [-71.49986731699994, -54.21103280999995], [-71.34170488199993, -54.21249765399995], [-71.24054928299995, -54.34579843499995], [-71.08971106699994, -54.35662200299993], [-70.99864661399994, -54.232354424999926], [-71.06981360599991, -54.065118096999925], [-71.21450761599993, -54.15007903399993], [-71.28209387899994, -54.00994231599992], [-71.43586178299995, -54.004164320999905], [-71.58218339799993, -53.94085051899992], [-71.6309301419999, -54.078789971999925]]], [[[-72.01512610599991, -54.20232512799993], [-71.90526282499991, -54.325290622999944], [-71.76187089799993, -54.26311614399992], [-71.89614824099993, -54.13046640399995], [-71.71344967399995, -54.14771900799991], [-71.70059160099993, -53.985446872999944], [-71.85187740799995, -53.97405364399992], [-71.94570878799993, -53.85279713299991], [-72.07144120999993, -53.9470354149999], [-72.23200436099995, -53.92506275799991], [-72.20531165299991, -54.09189218499995], [-72.05313066299993, -54.10751718499995], [-72.01512610599991, -54.20232512799993]]], [[[-70.45503586899991, -53.61159801499991], [-70.60863196499992, -53.65325286299992], [-70.6992895169999, -53.78720468499995], [-70.88150532299994, -53.842263989999935], [-70.8848363919999, -53.99879322699991], [-70.6856176419999, -54.18808359199994], [-70.51366126199991, -54.21542734199994], [-70.56891842399995, -54.065118096999925], [-70.66996194899991, -53.95034151699991], [-70.49565479599994, -54.03323146699995], [-70.34279526499995, -54.02806889899995], [-70.44432532499991, -53.90520598799992], [-70.46926929699993, -53.691737066999906], [-70.45503586899991, -53.61159801499991]]], [[[-73.82445227799991, -53.47210051899992], [-73.82445227799991, -53.47210051899992]]], [[[-73.39244544199994, -53.413995049999926], [-73.54670162699995, -53.407321872999944], [-73.69115149599992, -53.46721770599993], [-73.55964107999995, -53.5466447899999], [-73.40062415299991, -53.54143645599993], [-73.39244544199994, -53.413995049999926]]], [[[-72.52965247299994, -54.07537200299993], [-72.37979081899994, -54.03997161299992], [-72.35619055899991, -53.87835051899992], [-72.21715247299994, -53.82122161299992], [-72.34752356699994, -53.71013762799993], [-72.44652258999992, -53.58359140399995], [-72.65587317599994, -53.53679778399993], [-72.82384192599994, -53.47551848799992], [-72.86778723899994, -53.62704843499995], [-72.91808020699995, -53.471774997999944], [-73.05724036399994, -53.38681405999995], [-73.16958574099993, -53.49920012799993], [-73.34459387899994, -53.468682549999926], [-73.27635657499991, -53.62639739399992], [-73.11546790299991, -53.63958098799992], [-72.95848548099991, -53.63323333099993], [-73.20421301999994, -53.66619231599992], [-73.33629309799994, -53.588962497999944], [-73.49559485599991, -53.58847421699994], [-73.56578528599994, -53.74041106599992], [-73.36245683499993, -53.71331145599993], [-73.29430091099994, -53.851820570999905], [-73.20409094999991, -53.98943450299993], [-73.04405676999994, -53.999118747999944], [-73.0664770169999, -53.83131275799991], [-72.91942298099991, -53.87273528399993], [-72.74950110599991, -53.8415666649999], [-72.85057532499991, -53.95525481599992], [-73.00450598899994, -54.06454843499995], [-72.8430883449999, -54.13355885199991], [-72.69261633999992, -54.07586028399993], [-72.54328365799995, -54.10003020599993], [-72.52965247299994, -54.07537200299993]]], [[[-74.14590410099993, -53.24277109199994], [-74.14590410099993, -53.24277109199994]]], [[[-73.43342037699995, -52.86541106599992], [-73.61172441299993, -52.82170989399992], [-73.75890051999994, -52.891696872999944], [-73.59683183499993, -52.879164320999905], [-73.4571020169999, -52.953057549999926], [-73.43342037699995, -52.86541106599992]]], [[[-73.20742753799993, -53.31780364399992], [-73.36603756399995, -53.27117278399993], [-73.45954342399995, -53.13290780999995], [-73.60822506399995, -53.06658294099992], [-73.77204342399995, -53.05242278399993], [-73.94546464799993, -53.025323174999926], [-74.07457434799994, -52.947930596999925], [-74.22964433499993, -52.94817473799992], [-74.40147864499994, -52.921807549999926], [-74.48916581899994, -52.79705169099992], [-74.6426488919999, -52.74472421699994], [-74.58608964799993, -52.886976820999905], [-74.42503821499992, -52.97380950299993], [-74.32738196499992, -53.09221770599993], [-74.16974850199995, -53.089776299999926], [-74.01622473899994, -53.08513762799993], [-73.85936438699991, -53.07830169099992], [-73.71458899599992, -53.167087497999944], [-73.59072831899994, -53.257745049999926], [-73.44489498599995, -53.308526299999926], [-73.2962133449999, -53.33831145599993], [-73.10781816299993, -53.3689104149999], [-73.20742753799993, -53.31780364399992]]], [[[-73.33096269399994, -52.694024346999925], [-73.33096269399994, -52.694024346999925]]], [[[-73.83739173099991, -52.70086028399993], [-73.78734290299991, -52.55429452899995], [-73.72516842399995, -52.40471770599993], [-73.89488456799995, -52.4081413639999], [-74.04225415499991, -52.451190442999916], [-74.14383421699995, -52.57453332499995], [-73.9940009199999, -52.61187774299992], [-73.87804114499994, -52.71542734199994], [-73.83739173099991, -52.70086028399993]]], [[[-74.67256560099992, -52.390548821999914], [-74.54194958399995, -52.2890192669999], [-74.67454993399991, -52.21054452899995], [-74.83214270699995, -52.21754322699991], [-74.78408487399992, -52.367861992999906], [-74.67256560099992, -52.390548821999914]]], [[[-73.76984615799995, -52.37932708099993], [-73.89268958199995, -52.221774997999944], [-74.04222571499992, -52.141289971999925], [-73.9426977199999, -52.27890390399995], [-73.82868404899995, -52.393649997999944], [-73.76984615799995, -52.37932708099993]]], [[[-74.12254798099991, -52.39771900799991], [-73.96776282499991, -52.34465911299992], [-74.08291581899994, -52.212009372999944], [-74.23668372299994, -52.10947030999995], [-74.40192623599995, -52.118259372999944], [-74.2551977199999, -52.16326262799993], [-74.10496985599991, -52.248304945999905], [-74.24567623599995, -52.31015390399995], [-74.12254798099991, -52.39771900799991]]], [[[-74.79084225199995, -52.1794572899999], [-74.61034094999991, -52.083916924999926], [-74.75694739499994, -52.124118747999944], [-74.79084225199995, -52.1794572899999]]], [[[-74.34455318899995, -52.06406015399995], [-74.34455318899995, -52.06406015399995]]], [[[-74.49229895699995, -51.97869231599992], [-74.64688066299993, -51.99228280999995], [-74.49388587099992, -51.99228280999995], [-74.49229895699995, -51.97869231599992]]], [[[-73.70767167899993, -52.18694426899992], [-73.93663489499994, -51.96640390399995], [-74.08071855399993, -51.92148202899995], [-73.96495520699995, -52.05046965899993], [-73.81078040299991, -52.13909270599993], [-73.69408118399991, -52.24228280999995], [-73.70767167899993, -52.18694426899992]]], [[[-74.74986731699994, -52.04306405999995], [-74.66588294199994, -51.91139088299991], [-74.83360755099994, -51.98528411299992], [-74.87071692599994, -52.13713958099993], [-74.74986731699994, -52.04306405999995]]], [[[-75.06114661399994, -51.88225676899992], [-74.97398841099994, -51.74920012799993], [-75.11286373599995, -51.86150481599992], [-75.06114661399994, -51.88225676899992]]], [[[-74.43455969999991, -51.84490325299993], [-74.29751542899993, -51.91529713299991], [-74.14590410099993, -51.94736093499995], [-74.22874915299991, -51.81959400799991], [-74.37189693899995, -51.76921965899993], [-74.43455969999991, -51.84490325299993]]], [[[-73.78966223899994, -51.735039971999925], [-73.93040930899991, -51.65642669099992], [-73.85537675699993, -51.801446221999925], [-73.78966223899994, -51.735039971999925]]], [[[-74.88980058499993, -52.00204843499995], [-74.80247962099992, -51.857354424999926], [-74.7903539699999, -51.67937590899993], [-74.86815344999991, -51.82000090899993], [-75.00816809799994, -51.88681405999995], [-74.99453691299993, -52.041680596999925], [-74.88980058499993, -52.00204843499995]]], [[[-73.94391842399995, -51.741306247999944], [-74.03587805899991, -51.58416106599992], [-74.16905676999994, -51.667901299999926], [-74.04963131399995, -51.79338958099993], [-73.94391842399995, -51.741306247999944]]], [[[-74.19713294199994, -51.42669036299992], [-74.19713294199994, -51.42669036299992]]], [[[-75.02358964799993, -51.33098723799992], [-75.16319739499994, -51.27402109199994], [-75.22057044199994, -51.412774346999925], [-75.31468665299991, -51.53655364399992], [-75.16242428299995, -51.57317473799992], [-75.09593665299991, -51.43824635199991], [-75.02358964799993, -51.33098723799992]]], [[[-73.79308020699995, -51.25872161299992], [-73.79308020699995, -51.25872161299992]]], [[[-74.73900305899991, -51.36858489399992], [-74.54381262899994, -51.365166924999926], [-74.60191809799994, -51.20598723799992], [-74.76036536399994, -51.21404387799993], [-74.91026770699995, -51.29225025799991], [-75.00316321499992, -51.43132903399993], [-74.83185787699995, -51.43873463299991], [-74.73900305899991, -51.36858489399992]]], [[[-74.86534583199995, -51.12151458099993], [-75.01622473899994, -51.147556247999944], [-74.86534583199995, -51.152276299999926], [-74.86534583199995, -51.12151458099993]]], [[[-74.42027747299994, -51.111260674999926], [-74.60521399599992, -51.08025481599992], [-74.47508704299992, -51.181898695999905], [-74.42027747299994, -51.111260674999926]]], [[[-74.24893144399994, -51.23479583099993], [-74.2434789699999, -51.06926848799992], [-74.32274329299992, -50.9216447899999], [-74.31615149599992, -51.11012135199991], [-74.24893144399994, -51.23479583099993]]], [[[-74.38556881399995, -50.98105234199994], [-74.41930091099994, -50.82968515399995], [-74.55064856699994, -50.75164153399993], [-74.65672766799992, -50.8747697899999], [-74.87865149599992, -50.88632577899995], [-74.89321855399993, -51.04924895599993], [-74.74478105399993, -51.010023695999905], [-74.57713782499991, -51.03199635199991], [-74.42178300699993, -51.0622697899999], [-74.38556881399995, -50.98105234199994]]], [[[-74.9063207669999, -50.79656340899993], [-74.78197180899991, -50.88201262799993], [-74.75340735599991, -50.72014739399992], [-74.90111243399991, -50.676039320999905], [-74.9063207669999, -50.79656340899993]]], [[[-74.98151607999995, -50.79778411299992], [-75.03795325399994, -50.65837981599992], [-75.01683508999992, -50.812758070999905], [-74.98151607999995, -50.79778411299992]]], [[[-74.6087133449999, -50.51482512799993], [-74.6087133449999, -50.51482512799993]]], [[[-75.12604732999995, -50.49431731599992], [-75.27684485599991, -50.50115325299993], [-75.43419348899994, -50.4880510399999], [-75.47028561099995, -50.63730234199994], [-75.38646399599992, -50.77206796699994], [-75.26317298099991, -50.666273695999905], [-75.16637122299994, -50.54957447699991], [-75.12604732999995, -50.49431731599992]]], [[[-74.31041419199994, -50.83416106599992], [-74.34398352799991, -50.67205169099992], [-74.34748287699995, -50.511651299999926], [-74.49864661399994, -50.467054945999905], [-74.65355383999992, -50.46526458099993], [-74.50145423099991, -50.50920989399992], [-74.5676977199999, -50.65569426899992], [-74.43309485599991, -50.74342213299991], [-74.32217363199993, -50.84587981599992], [-74.31041419199994, -50.83416106599992]]], [[[-74.78335527299993, -50.48064544099992], [-74.62873287699995, -50.43962981599992], [-74.77757727799991, -50.461195570999905], [-74.78335527299993, -50.48064544099992]]], [[[-75.04063880099994, -50.28948333099993], [-74.83385169199994, -50.21949635199991], [-74.98013261599993, -50.16521575299993], [-75.10936438699991, -50.08831145599993], [-75.25959225199995, -50.06015390399995], [-75.11978105399993, -50.13876718499995], [-75.22793535099993, -50.244073174999926], [-75.34788977799991, -50.145196221999925], [-75.43740800699993, -50.26881275799991], [-75.29043535099993, -50.30877044099992], [-75.14647376199991, -50.363946221999925], [-75.04063880099994, -50.28948333099993]]], [[[-75.44810950399994, -49.77499765399995], [-75.31159420499995, -49.87737395599993], [-75.27424068899995, -49.714776299999926], [-75.38157881399991, -49.603236444999936], [-75.5480192839999, -49.588968173999945], [-75.52525159499993, -49.73972354299991], [-75.6173869559999, -49.86422267899991], [-75.47554811899994, -49.78138109199995], [-75.44810950399994, -49.77499765399995]]], [[[-75.52130818799992, -49.37909900199992], [-75.45109330399993, -49.51854777799991], [-75.52130818799992, -49.37909900199992]]], [[[-74.90318762899994, -49.07675546699994], [-75.05337480399993, -49.05478280999995], [-75.22032630099994, -49.106133721999925], [-75.05772864499994, -49.16545989399992], [-74.94912675699993, -49.2771135399999], [-74.89045162699995, -49.0954729149999], [-74.90318762899994, -49.07675546699994]]], [[[-75.55797278599994, -49.24732838299991], [-75.42638098899994, -49.158868096999925], [-75.28742428299995, -49.086602471999925], [-75.42764238199993, -49.02825286299992], [-75.53555253799993, -49.138929945999905], [-75.55797278599994, -49.24732838299991]]], [[[-75.21540279899995, -49.01458098799992], [-75.3059789699999, -48.86492278399993], [-75.46458899599992, -48.88355885199991], [-75.61473548099991, -48.85865650799991], [-75.50527910099993, -48.96306731599992], [-75.35171464799993, -48.965101820999905], [-75.22813880099994, -49.06609465899993], [-75.21540279899995, -49.01458098799992]]], [[[-75.10582434799994, -48.96990325299993], [-75.21060136599993, -48.81178150799991], [-75.22301184799994, -48.97893645599993], [-75.10582434799994, -48.96990325299993]]], [[[-75.19831295499995, -49.77117278399993], [-75.08079993399991, -49.8689104149999], [-74.96202551999994, -49.77418385199991], [-75.00674394399994, -49.63005950299993], [-74.98770097599993, -49.47926197699991], [-74.81737219999991, -49.47625090899993], [-74.67088782499991, -49.35588958099993], [-74.74242102799991, -49.49065520599993], [-74.88695227799991, -49.53460051899992], [-74.75084387899994, -49.626071872999944], [-74.90615800699993, -49.67156340899993], [-74.77375240799995, -49.767510674999926], [-74.89122473899994, -49.867852471999925], [-74.73460852799991, -49.899102471999925], [-74.85627193899995, -49.991306247999944], [-74.68732662699995, -49.99879322699991], [-74.53636633999992, -49.99472421699994], [-74.47549394399994, -49.84319426899992], [-74.42052161399994, -49.68962981599992], [-74.5774633449999, -49.71559010199991], [-74.50283769399994, -49.572930596999925], [-74.47085527299993, -49.42327239399992], [-74.44815019399994, -49.24374765399995], [-74.48534094999991, -49.07927825299993], [-74.48851477799991, -48.91887786299992], [-74.52261308499993, -48.75237395599993], [-74.6348363919999, -48.8552385399999], [-74.66779537699995, -48.696384372999944], [-74.82005774599992, -48.70232512799993], [-74.98501542899993, -48.75904713299991], [-75.01618404899995, -48.91155364399992], [-74.86534583199995, -48.946384372999944], [-74.80451412699995, -49.10393645599993], [-74.88508053299995, -49.254571221999925], [-75.06688391799992, -49.20973072699991], [-75.16836503799993, -49.33798593499995], [-75.30606035099993, -49.254571221999925], [-75.25967363199993, -49.401462497999944], [-75.36896725199995, -49.29501718499995], [-75.37214107999995, -49.4489885399999], [-75.25413977799991, -49.563164971999925], [-75.20693925699993, -49.70842864399992], [-75.19831295499995, -49.77117278399993]]], [[[-75.08503170499995, -48.63730234199994], [-75.20189368399991, -48.74309661299992], [-75.05772864499994, -48.67148202899995], [-75.08503170499995, -48.63730234199994]]], [[[-75.02358964799993, -48.68873463299991], [-74.85204016799992, -48.67620208099993], [-75.00991777299993, -48.63730234199994], [-75.02358964799993, -48.68873463299991]]], [[[-75.33893795499995, -48.62420012799993], [-75.50755774599992, -48.71754322699991], [-75.6536352199999, -48.760837497999944], [-75.49323482999995, -48.77556731599992], [-75.34508216099994, -48.73674895599993], [-75.33893795499995, -48.62420012799993]]], [[[-75.32835852799991, -48.55217864399992], [-75.43862870999993, -48.42848072699991], [-75.59536699099993, -48.44003671699994], [-75.67536373599995, -48.58318450299993], [-75.48912512899994, -48.60369231599992], [-75.32152258999992, -48.60003020599993], [-75.32835852799991, -48.55217864399992]]], [[[-74.47207597599993, -48.45598723799992], [-74.31411699099993, -48.49382903399993], [-74.47687740799995, -48.40553150799991], [-74.47207597599993, -48.45598723799992]]], [[[-74.09068762899994, -48.479587497999944], [-74.19371497299994, -48.36345794099992], [-74.09068762899994, -48.479587497999944]]], [[[-74.4954320949999, -48.349867445999905], [-74.33910071499992, -48.422946872999944], [-74.4954320949999, -48.349867445999905]]], [[[-74.49913489499994, -48.58318450299993], [-74.60521399599992, -48.45916106599992], [-74.68004309799994, -48.303399346999925], [-74.70921790299991, -48.14275481599992], [-74.79865475199995, -48.26637135199991], [-74.75633704299992, -48.42498137799993], [-74.93106035099993, -48.41130950299993], [-75.01671301999994, -48.5446916649999], [-74.86701412699995, -48.62664153399993], [-74.7129613919999, -48.65504322699991], [-74.56265214799993, -48.68059661299992], [-74.49913489499994, -48.58318450299993]]], [[[-74.54381262899994, -48.32195403399993], [-74.39085852799991, -48.281508070999905], [-74.50283769399994, -48.14373137799993], [-74.55581620999993, -48.28557708099993], [-74.54381262899994, -48.32195403399993]]], [[[-75.16075598899994, -48.29843515399995], [-75.06236731699994, -48.42400481599992], [-74.90257727799991, -48.37468840899993], [-74.81053626199991, -48.23202890399995], [-75.01750464499992, -48.0830201359999], [-75.16759192599994, -48.075290622999944], [-75.17442786399994, -48.22942473799992], [-75.16075598899994, -48.29843515399995]]], [[[-75.14989173099991, -48.65837981599992], [-75.08340410099993, -48.507745049999926], [-75.16934160099993, -48.38339609199994], [-75.24836178299995, -48.251885674999926], [-75.3047582669999, -48.10279713299991], [-75.45645097599993, -48.065524997999944], [-75.56582597599993, -48.17131926899992], [-75.54377193899995, -48.32195403399993], [-75.39415442599994, -48.274102471999925], [-75.53408769399994, -48.37029387799993], [-75.38023841099994, -48.39031340899993], [-75.29320227799991, -48.54111093499995], [-75.24941972599993, -48.68694426899992], [-75.14989173099991, -48.65837981599992]]], [[[-75.27061926999994, -48.02776458099993], [-75.11998450399994, -47.9978166649999], [-74.96369381399995, -48.04697030999995], [-74.7933102909999, -48.07799269699996], [-74.8072419639999, -47.92834842099995], [-75.00818474399995, -47.86820653399991], [-75.16777265099995, -47.893604282999945], [-75.27061926999994, -48.02776458099993]]], [[[-74.41372636599993, -47.93824635199991], [-74.16706295499995, -47.95940520599993], [-73.99571692599994, -47.94589609199994], [-73.83702551999994, -47.95387135199991], [-73.97569739499994, -47.85979583099993], [-74.24522864499994, -47.8064104149999], [-74.39635169199994, -47.83945077899995], [-74.41372636599993, -47.93824635199991]]], [[[-75.18236243399991, -47.83147551899992], [-75.02368236099994, -47.80332502999994], [-75.11700417999992, -47.67936435899992], [-75.26767713699991, -47.712333557999955], [-75.18236243399991, -47.83147551899992]]], [[[-74.88522879899995, -47.71206318199995], [-75.04262510099994, -47.66679884999991], [-74.93138587099992, -47.7732072899999], [-74.88522879899995, -47.71206318199995]]], [[[-74.46865800699993, -47.07496510199991], [-74.31578528599994, -47.078057549999926], [-74.46865800699993, -47.07496510199991]]], [[[-74.07457434799994, -47.02027760199991], [-74.22419186099995, -47.07935963299991], [-74.06737219999991, -47.13746510199991], [-74.07457434799994, -47.02027760199991]]], [[[-73.72508704299992, -46.05046965899993], [-73.87531490799995, -46.01018645599993], [-73.83031165299991, -46.166680596999925], [-73.68407141799992, -46.105401299999926], [-73.72508704299992, -46.05046965899993]]], [[[-73.70767167899993, -45.9235979149999], [-73.70767167899993, -45.9235979149999]]], [[[-74.75291907499991, -45.80754973799992], [-74.88939368399991, -45.881931247999944], [-75.05435136599993, -45.863539320999905], [-74.91368567599994, -46.01295338299991], [-75.08438066299993, -46.02678801899992], [-74.95213782499991, -46.11142343499995], [-74.81358801999994, -46.035821221999925], [-74.74522864499994, -45.89999765399995], [-74.75291907499991, -45.80754973799992]]], [[[-73.74185136599993, -45.79387786299992], [-73.8926488919999, -45.86077239399992], [-73.73863684799994, -45.87753671699994], [-73.74185136599993, -45.79387786299992]]], [[[-73.92682857999995, -45.74537525799991], [-74.09459387899994, -45.763929945999905], [-74.02989661399994, -45.90309010199991], [-73.92682857999995, -45.74537525799991]]], [[[-74.79084225199995, -45.63250090899993], [-74.79084225199995, -45.63250090899993]]], [[[-74.55435136599993, -45.57480234199994], [-74.69371497299994, -45.64609140399995], [-74.54381262899994, -45.601495049999926], [-74.55435136599993, -45.57480234199994]]], [[[-74.07144120999993, -45.69085051899992], [-73.92064368399991, -45.69768645599993], [-73.96776282499991, -45.55364348799992], [-74.11465410099993, -45.59970468499995], [-74.07144120999993, -45.69085051899992]]], [[[-74.50283769399994, -45.732354424999926], [-74.34162350199995, -45.733086846999925], [-74.20799719999991, -45.63551197699991], [-74.27354895699995, -45.49529387799993], [-74.42125403599994, -45.45427825299993], [-74.48912512899994, -45.60662200299993], [-74.50283769399994, -45.732354424999926]]], [[[-73.66616777299993, -45.43694426899992], [-73.78620357999995, -45.56991952899995], [-73.69782467399995, -45.72926197699991], [-73.59788977799991, -45.57480234199994], [-73.66616777299993, -45.43694426899992]]], [[[-73.88589433499993, -45.47112395599993], [-74.04710852799991, -45.4216447899999], [-74.14500891799992, -45.55803801899992], [-73.98119055899991, -45.531508070999905], [-73.82152258999992, -45.49260833099993], [-73.88589433499993, -45.47112395599993]]], [[[-74.55435136599993, -45.546807549999926], [-74.44566809799994, -45.42815520599993], [-74.56818600199995, -45.523695570999905], [-74.55435136599993, -45.546807549999926]]], [[[-73.82445227799991, -45.39592864399992], [-73.97667395699995, -45.37070077899995], [-73.82445227799991, -45.39592864399992]]], [[[-74.34142005099994, -45.3376604149999], [-74.49913489499994, -45.28606536299992], [-74.37804114499994, -45.40097421699994], [-74.34142005099994, -45.3376604149999]]], [[[-73.82445227799991, -45.266289971999925], [-73.98607337099992, -45.27076588299991], [-74.13857988199993, -45.22869231599992], [-74.01227779899995, -45.35361093499995], [-73.82787024599992, -45.347588799999926], [-73.82445227799991, -45.266289971999925]]], [[[-74.27354895699995, -45.20794036299992], [-74.27354895699995, -45.20794036299992]]], [[[-73.73192298099991, -45.214776299999926], [-73.75959225199995, -45.06210702899995], [-73.91470292899993, -44.99529387799993], [-74.06330318899995, -45.03134530999995], [-74.23542232999995, -45.07236093499995], [-74.08409583199995, -45.14006926899992], [-73.96251380099994, -45.249118747999944], [-73.80968176999994, -45.25644296699994], [-73.73192298099991, -45.214776299999926]]], [[[-74.27009029899995, -44.94410572699991], [-74.06578528599994, -44.99879322699991], [-73.91783606699994, -44.95647551899992], [-74.13833574099993, -44.868259372999944], [-74.27009029899995, -44.94410572699991]]], [[[-73.96157792899993, -44.81015390399995], [-74.16633053299995, -44.800713799999926], [-74.00328528599994, -44.84775155999995], [-73.96157792899993, -44.81015390399995]]], [[[-73.93053137899994, -44.78923919099992], [-73.83967037699995, -44.95859140399995], [-73.83678137899994, -44.78411223799992], [-73.93053137899994, -44.78923919099992]]], [[[-75.09147325499993, -44.79605605599994], [-75.09147325499993, -44.79605605599994]]], [[[-73.60472571499992, -44.74488697699991], [-73.75552324099993, -44.779554945999905], [-73.60488847599993, -44.758070570999905], [-73.60472571499992, -44.74488697699991]]], [[[-74.34142005099994, -44.80632903399993], [-74.46556555899991, -44.71624114399992], [-74.39354407499991, -44.85702890399995], [-74.34142005099994, -44.80632903399993]]], [[[-74.48232988199993, -44.63632577899995], [-74.66095943899995, -44.65374114399992], [-74.48436438699991, -44.69841887799993], [-74.48232988199993, -44.63632577899995]]], [[[-73.92682857999995, -44.628838799999926], [-74.26716061099995, -44.60312265399995], [-74.41344153599994, -44.65276458099993], [-74.32046464799993, -44.78980885199991], [-74.09316972599993, -44.75335051899992], [-73.87588456899994, -44.694024346999925], [-73.92682857999995, -44.628838799999926]]], [[[-74.77721106699994, -44.581149997999944], [-74.77721106699994, -44.581149997999944]]], [[[-73.65998287699995, -44.67652760199991], [-73.7551977199999, -44.55282968499995], [-73.78709876199991, -44.703789971999925], [-73.62466386599993, -44.71819426899992], [-73.65998287699995, -44.67652760199991]]], [[[-74.19371497299994, -44.49228280999995], [-74.36839758999992, -44.52556731599992], [-74.15420488199993, -44.55974700299993], [-74.19371497299994, -44.49228280999995]]], [[[-74.03604081899994, -44.49846770599993], [-74.03604081899994, -44.49846770599993]]], [[[-74.39297441299993, -44.54697030999995], [-74.24014238199993, -44.47812265399995], [-74.42027747299994, -44.47128671699994], [-74.39297441299993, -44.54697030999995]]], [[[-73.78966223899994, -44.42278411299992], [-73.78966223899994, -44.42278411299992]]], [[[-73.38247636599993, -44.587823174999926], [-73.40941321499992, -44.74651458099993], [-73.21825110599991, -44.79045989399992], [-73.40298417899993, -44.81373463299991], [-73.29141191299993, -44.93238697699991], [-73.05483964799993, -44.858086846999925], [-72.87677975199995, -44.74138762799993], [-72.97744706899994, -44.62232838299991], [-72.81334387899994, -44.63632577899995], [-72.76891028599994, -44.4665666649999], [-72.95555579299992, -44.513604424999926], [-73.0020238919999, -44.361260674999926], [-73.13451087099992, -44.433851820999905], [-73.25865637899994, -44.53264739399992], [-73.38247636599993, -44.587823174999926]]], [[[-73.72647050699993, -44.42506275799991], [-73.72647050699993, -44.42506275799991]]], [[[-74.02989661399994, -44.354587497999944], [-74.02989661399994, -44.354587497999944]]], [[[-73.26280676999994, -44.3884416649999], [-73.26280676999994, -44.3884416649999]]], [[[-73.86538652299993, -44.33407968499995], [-73.86538652299993, -44.33407968499995]]], [[[-74.38662675699993, -44.249932549999926], [-74.38662675699993, -44.249932549999926]]], [[[-73.74185136599993, -44.26506926899992], [-73.74185136599993, -44.26506926899992]]], [[[-74.1087133449999, -44.22747161299992], [-73.9895727199999, -44.327243747999944], [-74.03636633999992, -44.16228606599992], [-74.1087133449999, -44.22747161299992]]], [[[-74.27696692599994, -44.14902109199994], [-74.27696692599994, -44.14902109199994]]], [[[-73.88280188699991, -44.11834075299993], [-73.88280188699991, -44.11834075299993]]], [[[-74.29735266799992, -44.01189544099992], [-74.29735266799992, -44.01189544099992]]], [[[-73.74498450399994, -43.95354583099993], [-73.66812089799993, -44.094414971999925], [-73.70189368399991, -43.944431247999944], [-73.74498450399994, -43.95354583099993]]], [[[-73.22793535099993, -44.01189544099992], [-73.22793535099993, -44.01189544099992]]], [[[-74.1439377929999, -43.82755091699994], [-74.0156957669999, -43.9196916649999], [-73.86538652299993, -43.84734465899993], [-74.04524466499993, -43.7960937979999], [-74.1439377929999, -43.82755091699994]]], [[[-74.81818600199995, -43.635023695999905], [-74.5784301779999, -43.63565279099993], [-74.69580235899991, -43.5407045739999], [-74.81818600199995, -43.635023695999905]]], [[[-73.61148027299993, -42.936211846999925], [-73.45006262899994, -42.99374765399995], [-73.58844967399995, -42.91350676899992], [-73.61148027299993, -42.936211846999925]]], [[[-73.60472571499992, -42.57927825299993], [-73.75503495999993, -42.59880950299993], [-73.60716712099992, -42.637383721999925], [-73.60472571499992, -42.57927825299993]]], [[[-73.41234290299991, -42.525648695999905], [-73.52912350199995, -42.40935637799993], [-73.43203691299993, -42.554620049999926], [-73.41234290299991, -42.525648695999905]]], [[[-73.08763587099992, -42.24749114399992], [-73.08763587099992, -42.24749114399992]]], [[[-72.54271399599992, -42.14104583099993], [-72.54271399599992, -42.14104583099993]]], [[[-74.33462480399993, -43.28167083099993], [-74.16557328099992, -43.34197420899994], [-74.00373301699994, -43.37469491499991], [-73.84749065799991, -43.42348324299991], [-73.68173184999995, -43.381101788999956], [-73.74498450399994, -43.22698333099993], [-73.61241614499994, -43.11077239399992], [-73.62877356699994, -42.94410572699991], [-73.49429277299993, -42.86679452899995], [-73.59776770699995, -42.74814218499995], [-73.72350012899994, -42.661228122999944], [-73.82005774599992, -42.52353280999995], [-73.6231176419999, -42.51620859199994], [-73.68154863199993, -42.37004973799992], [-73.5091039699999, -42.326104424999926], [-73.37401282499991, -42.25741952899995], [-73.48908443899995, -42.145603122999944], [-73.53331458199995, -41.96607838299991], [-73.55455481699994, -41.815524997999944], [-73.70763098899994, -41.82089609199994], [-73.84605872299994, -41.887383721999925], [-73.99571692599994, -41.85711028399993], [-74.04991614499994, -42.04062265399995], [-74.12339540499994, -42.19480723499993], [-74.15384608799991, -42.361516243999915], [-74.1937284249999, -42.51418919899993], [-74.12750680099992, -42.67113293199992], [-74.16697518199993, -42.81685741399991], [-74.2116518659999, -42.96362671999992], [-74.31784979699995, -43.0721185349999], [-74.37553859999991, -43.217010814999924], [-74.33462480399993, -43.28167083099993]]], [[[-73.08763587099992, -41.84343840899993], [-73.08763587099992, -41.84343840899993]]], [[[-73.0371789859999, -54.4564614169999], [-73.0371789859999, -54.4564614169999]]], [[[-70.4026034119999, -54.07863268999995], [-70.4026034119999, -54.07863268999995]]], [[[-70.6868143669999, -52.847389516999954], [-70.6868143669999, -52.847389516999954]]], [[[-74.42775741499992, -52.50366163599995], [-74.42775741499992, -52.50366163599995]]], [[[-74.47636839899991, -52.30966691599991], [-74.47636839899991, -52.30966691599991]]], [[[-73.81514329399994, -51.86405867199994], [-73.96586041199993, -51.81856754899991], [-73.83864973399994, -51.916838611999935], [-73.81514329399994, -51.86405867199994]]], [[[-74.35903594299992, -51.33794079799992], [-74.35903594299992, -51.33794079799992]]], [[[-74.9702766929999, -50.28751639299992], [-75.12117753099994, -50.38208595499992], [-74.97626633699991, -50.43288751599994], [-74.88925839099994, -50.294923200999904], [-74.9702766929999, -50.28751639299992]]], [[[-74.42601477799991, -49.61492278399993], [-74.28799394399994, -49.54843515399995], [-74.40855872299994, -49.44801197699991], [-74.43529212099992, -49.60279713299991], [-74.42601477799991, -49.61492278399993]]], [[[-74.64986523399995, -47.79774223699991], [-74.64986523399995, -47.79774223699991]]], [[[-75.32314685199992, -46.685089311999945], [-75.16177566599993, -46.78157945999993], [-75.32314685199992, -46.685089311999945]]], [[[-74.25336138099993, -43.35039208299992], [-74.25336138099993, -43.35039208299992]]], [[[-73.6910916089999, -43.188156497999955], [-73.6910916089999, -43.188156497999955]]], [[[-73.00919178399994, -42.69525942699994], [-73.00919178399994, -42.69525942699994]]], [[[-73.3073409289999, -42.62734339799994], [-73.3073409289999, -42.62734339799994]]], [[[-73.88243567599994, -38.36077239399992], [-73.88243567599994, -38.36077239399992]]], [[[-73.54083025699993, -36.98944149599993], [-73.54083025699993, -36.98944149599993]]]]}}]}