{"type": "FeatureCollection", "features": [{"type": "Feature", "properties": {"code": "CHN", "name": "China", "tier": "country"}, "geometry": {"type": "MultiPolygon", "coordinates": [[[[108.74408483590865, 19.444120969930932], [108.61027668559527, 19.269957980634175], [108.61240062448913, 19.112786502488337], [108.5847894188689, 18.87915322416345], [108.64638364679092, 18.766584462788728], [108.65487940236636, 18.60728904574903], [108.78550164433892, 18.474542864882615], [108.88957465013821, 18.403390911938224], [108.99152371704362, 18.339672745122343], [109.12745580625082, 18.30356578392668], [109.36321302346958, 18.346044561803932], [109.49277329599519, 18.252591250473976], [109.66481234639805, 18.322681233971448], [109.81985988565002, 18.418258484195267], [109.96428773043269, 18.416134545301404], [110.05774104176264, 18.560562390084065], [110.17880555871281, 18.656139640307885], [110.28500250340595, 18.713485990442173], [110.40606702035612, 18.73260144048694], [110.51226396504924, 18.923755940934576], [110.56005259016116, 19.1074766552537], [110.65987771817275, 19.319870544639965], [110.83616464636336, 19.497219442277498], [110.9869643078276, 19.60978820365222], [111.01988536068245, 19.77970331516123], [110.93280386603408, 19.931564946072406], [110.79687177682688, 19.977229632290456], [110.6588157487258, 19.998469021229084], [110.34128688409336, 19.983601448972045], [110.20960267267388, 19.936874793307066], [110.0269439278017, 19.864660870915735], [109.85702881629268, 19.86890874870346], [109.72322066597934, 19.945370548882515], [109.56392524893964, 19.926255098837753], [109.39825801521835, 19.800942704099857], [109.264449864905, 19.83492572640166], [109.17099655357505, 19.73085272060239], [109.22409502592161, 19.614036081439945], [109.10303050897144, 19.614036081439945], [108.88001692511587, 19.49084762559591], [108.74408483590865, 19.444120969930932]]], [[[120.67000172494734, 21.99921945924767], [120.85956327122445, 21.942404093836817], [120.87974069071616, 22.145240258200705], [120.9115997741241, 22.32577506417903], [120.93177719361583, 22.484008511771798], [121.04859383277828, 22.642241959364565], [121.15585274691831, 22.803661315298125], [121.22806666930967, 22.951275068421587], [121.35550300294143, 23.070215646477894], [121.35975088072914, 23.248626513562353], [121.47444358099771, 23.41429374728364], [121.50205478661793, 23.64898899505546], [121.54984341172982, 23.76368169532404], [121.55833916730528, 23.937844684620778], [121.61780945633343, 24.08014859050957], [121.68205860787278, 24.27714392291533], [121.72347541630309, 24.49166175119547], [121.83179629989009, 24.627593840402678], [121.79356539980056, 24.78264137965465], [121.78082176643738, 24.93556498001276], [121.87215113887348, 25.04176192470589], [121.77975979699048, 25.168136288890718], [121.5737377242858, 25.29238671418168], [121.42506200171542, 25.25946566132681], [121.3432903543017, 25.126719480460395], [121.13939222049092, 25.064063283091446], [120.98009680345122, 24.958928307845245], [120.92062651442306, 24.79326107412396], [120.83885486700935, 24.68600215998389], [120.69973686946133, 24.54794613188282], [120.60203568034366, 24.391836623183913], [120.52451191071769, 24.218735603334114], [120.43530647717546, 24.097671086383944], [120.36415452423108, 23.988288233350023], [120.28875469349896, 23.860851899718263], [120.21123092387296, 23.732353596639573], [120.14538881816323, 23.5942975685385], [120.09229034581669, 23.31712354288944], [120.0211383928723, 23.216236445430965], [120.10503397917988, 23.056941028391265], [120.14326487926941, 22.89339773356384], [120.20698304608528, 22.717110805373242], [120.26432939621958, 22.557815388333545], [120.39813754653292, 22.447370565852687], [120.57867235251125, 22.358165132310454], [120.66362990826576, 22.264711820980498], [120.67000172494734, 21.99921945924767]]], [[[97.5042002095882, 28.32749539351178], [97.57429019308567, 28.48891474944534], [97.71447016008061, 28.597235633032334], [97.9481034384055, 28.516525955065553], [98.1137706721268, 28.431568399311043], [98.28793366142354, 28.31687569904246], [98.30492517257444, 28.01952425390169], [98.43660938399393, 27.758279769956587], [98.60440055660908, 27.79226279225839], [98.72121719577153, 27.724296747654787], [98.85927322387259, 27.609604047386203], [98.79767899595058, 27.43756499698333], [98.79343111816286, 27.233666863172516], [98.86352110166033, 27.07437144613282], [98.85502534608499, 26.804631206612285], [98.87838867391747, 26.63259215620941], [98.8656450405543, 26.367099794476587], [98.78281142369366, 26.258778910889593], [98.7063496235146, 26.165325599559637], [98.80192687373841, 25.995410488050627], [98.63838357891099, 25.84461082658638], [98.53218663421787, 25.776644781982775], [98.38563485054134, 25.625845120518527], [98.2454548835464, 25.530267870294708], [98.18598459451825, 25.377344269936597], [98.0585482608865, 25.31999791980231], [97.82916286034933, 25.16495038055034], [97.78668408247208, 25.024770413555405], [97.84615437150023, 24.914325591074547], [97.66774350441577, 24.816624401956865], [97.6146450320692, 24.704055640582148], [97.62314078764466, 24.464050545575674], [97.7293377323378, 24.39608450097207], [97.74845318238256, 24.16457516154104], [97.62314078764466, 23.964924905517954], [97.72721379344392, 23.839612510780057], [97.86739376043886, 23.91607431095911], [98.0181934219031, 24.060502155741773], [98.25395063912188, 24.13696395592083], [98.39625454501068, 24.190062428267396], [98.65962296784964, 24.164575161541045], [98.88900836838681, 24.166699100434908], [98.80617475152617, 23.977668538881133], [98.74033264581642, 23.86934765529414], [98.87945064336445, 23.688812849315816], [98.90812381843159, 23.504030165549768], [98.88263655170525, 23.322433390124505], [98.98033774082293, 23.16526191197867], [99.10352619666696, 23.08455223401189], [99.44335641968499, 23.07605647843644], [99.46459580862361, 22.94012438922923], [99.3116722082655, 22.753217766569318], [99.3456552305673, 22.54082387718305], [99.27450327762294, 22.39427209350654], [99.17998799684605, 22.179754265226414], [99.42636490853413, 22.101168526153497], [99.57291669221064, 22.086300953896462], [99.71522059809944, 22.03638838989069], [99.91168494578173, 22.024706725974443], [99.86920616790448, 21.846295858889988], [99.89469343463084, 21.723107403045955], [100.02000582936873, 21.59991894720192], [100.13894640742504, 21.44062353016222], [100.2663827410568, 21.508589574765825], [100.45116542482285, 21.46186291910085], [100.60833690296867, 21.463986857994712], [100.81435897567334, 21.661513175123936], [101.02250498727189, 21.75071860866617], [101.15418919869137, 21.578679558263293], [101.17118070984226, 21.44699534684381], [101.22427918218884, 21.30469144095501], [101.43030125489351, 21.196370557368017], [101.62782757202274, 21.194246618474157], [101.76588360012381, 21.187874801792567], [101.77013147791153, 21.34292234104454], [101.79137086685016, 21.480978369145614], [101.82747782804583, 21.629654091716], [101.78499905016857, 21.74434679198458], [101.76588360012381, 21.884526758979515], [101.67455422768771, 22.006653245376622], [101.5789769774639, 22.15745290684087], [101.62464166368194, 22.345421498947722], [101.70428937220179, 22.510026763222076], [101.84128343085591, 22.46860995479175], [102.03137596185663, 22.50153100764662], [102.23208818732665, 22.474981771473338], [102.3489048264891, 22.544009785523873], [102.44235813781906, 22.739412163759237], [102.60059158541182, 22.828617597301466], [102.81086153590425, 22.704367172010507], [102.90962469446886, 22.616223707915207], [102.9892724029887, 22.52383236603218], [103.14219600334684, 22.53020418271377], [103.24414507025224, 22.678879905284155], [103.36202367886162, 22.810564116703638], [103.4937078902811, 22.791448666658876], [103.62008225446593, 22.66719824136791], [103.73265101584064, 22.840299261217716], [103.89619431066805, 22.66719824136792], [104.04274609434458, 22.588612502295], [104.08522487222183, 22.704367172010514], [104.14044728346227, 22.823307750066824], [104.26788361709401, 22.95605393093324], [104.36027495897706, 22.821183811172972], [104.48133947592723, 22.823307750066835], [104.59815611508968, 22.897645611352026], [104.73408820429688, 22.954991961486318], [104.9209948269568, 23.010214372726747], [104.96984542151564, 23.203492812068248], [105.19710688315894, 23.377655801364984], [105.40737683365134, 23.456241540437905], [105.55817649511559, 23.371283984683398], [105.63463829529465, 23.233227956582326], [105.74720705666937, 23.15570418695634], [105.88951096255816, 23.121721164654534], [105.99676987669822, 23.026143914430715], [106.108276668626, 23.097295867375113], [106.29624526073286, 23.088800111799664], [106.39819432763827, 22.977293319871876], [106.55005595854948, 23.02401997553685], [106.72846682563394, 23.00915240327981], [106.85908906760649, 22.88808788632964], [106.77519348129893, 22.739412163759255], [106.70191758946062, 22.636401127406913], [106.65731487268951, 22.518522518797536], [106.70510349780142, 22.408077696316678], [106.69342183388515, 22.253030157064696], [106.73377667286854, 22.136213517902252], [106.88457633433279, 22.065061564957855], [107.12139552099848, 21.945059017454614], [107.38476394383744, 21.775143905945605], [107.68530129731901, 21.69337225853189], [107.86052625606268, 21.758152394794703], [108.03575121480638, 21.69337225853189], [108.3447843238634, 21.7039919530012], [108.45098126855652, 21.779391783733324], [108.47009671860128, 22.01727293984594], [108.59222320499842, 22.06399959551093], [108.65169349402656, 21.916385842387474], [108.78656361378684, 21.757090425347776], [108.90975206963088, 21.810188897694342], [109.05842779220126, 21.69443422797883], [109.11896005067634, 21.511775483106646], [109.28568925384455, 21.57018380268786], [109.43755088475574, 21.627530152822153], [109.47153390705753, 21.758152394794706], [109.59047448511384, 21.70611589189507], [109.78056701611455, 21.57443168047559], [109.97596939434992, 21.572307741581728], [109.86127669408133, 21.463986857994733], [109.7444600549189, 21.379029302240234], [109.66799825473986, 21.2218578240944], [109.67012219363372, 20.979728790194056], [109.74021217713118, 20.527329805801315], [109.84428518293045, 20.444496188940672], [109.8591527551875, 20.300068344158014], [110.21066464212176, 20.22679245231976], [110.38270369252463, 20.256527596833838], [110.45066973712824, 20.381839991571734], [110.56323849850295, 20.513524202991217], [110.44854579823436, 20.655828108880012], [110.35934036469213, 20.749281420209968], [110.31686158681488, 20.938311981763743], [110.19154919207698, 21.074244070970952], [110.31686158681488, 21.242035243586102], [110.48359078998313, 21.187874801792603], [110.57279622352536, 21.310001288189703], [110.69173680158167, 21.437437621821463], [110.87439554645385, 21.49266003306189], [111.0591782302199, 21.51602336089438], [111.23758909730438, 21.560626077665503], [111.42237178107044, 21.55850213877164], [111.63051779266897, 21.57124577213482], [111.8450356209491, 21.736913005856103], [112.00645497688265, 21.807002989353574], [112.13389131051441, 21.870721156169456], [112.24433613299527, 21.807002989353574], [112.3845160999902, 21.807002989353574], [112.5671748448624, 21.88346478953263], [112.60540574495191, 21.696558166872716], [112.69885905628188, 21.8452338894431], [112.82629538991362, 21.696558166872716], [112.91125294566814, 21.798507233778125], [112.8560305344277, 21.917447811834432], [113.0726723016017, 21.90045630068353], [113.1576298573562, 22.087362923343445], [113.16187773514393, 22.257278034852455], [113.23409165753526, 22.142585334583874], [113.41250252461973, 22.04488414546619], [113.4422376691338, 22.304004690517434], [113.61640065843054, 22.23603864591383], [113.7438369920623, 22.376218612908765], [113.65463155852007, 22.529142213266873], [113.65887943630783, 22.830741536195376], [113.80012137274969, 22.758527613804045], [113.90844225633668, 22.624719463490695], [114.08366721508035, 22.49197328262428], [114.1919880986674, 22.373032704567972], [114.33853988234392, 22.33055392669072], [114.46491424652875, 22.463300107557135], [114.33853988234392, 22.588612502295028], [114.51164090219376, 22.594984318976618], [114.64969693029482, 22.49091131317735], [114.66987434978653, 22.69162353864737], [114.82704582793237, 22.70649111090441], [114.90669353645221, 22.566311143909473], [115.06386501459802, 22.599232196764348], [115.16050423426877, 22.684189752518854], [115.30174617071064, 22.76808533882642], [115.44511204604636, 22.755341705463245], [115.58316807414744, 22.627905371831485], [115.7074184994384, 22.73622625541848], [115.83379286362323, 22.77551912495494], [115.98140661674668, 22.71073898869213], [116.10353310314379, 22.820121841726056], [116.3233607786586, 22.833927444536165], [116.56761375145281, 22.888087886329664], [116.66850084891132, 23.061188906179474], [116.85965534935896, 23.12915495078308], [116.82567232705715, 23.273582795565737], [116.72478522959868, 23.34261080961627], [116.8692130743813, 23.32243339012458], [117.00408319414159, 23.261901131649495], [117.12727164998562, 23.3298671762531], [117.14001528334879, 23.470047143248035], [117.25470798361738, 23.527393493382327], [117.39064007282458, 23.52526955448847], [117.55312139820506, 23.596421507432872], [117.57648472603756, 23.73447753553394], [117.75170968478123, 23.74084935221553], [117.75170968478123, 23.878905380316603], [117.97897114642454, 23.992536111138264], [118.10959338839709, 24.07961760578663], [118.14145247180504, 24.20174409218373], [118.08729203001155, 24.342986028625596], [118.26995077488374, 24.406704195441474], [118.3942012001747, 24.450244942765657], [118.60022327287939, 24.462988576128833], [118.73190748429887, 24.470422362257352], [118.81686504005339, 24.576619306950494], [118.78288201775158, 24.777331532420515], [118.93474364866276, 24.7327288156494], [119.10996860740643, 24.826182126979365], [119.0207631738642, 24.930255132778637], [119.18643040758549, 25.05344358862267], [119.3669652135638, 25.1596405333158], [119.25652039108296, 25.306192316992323], [119.41369186922878, 25.408141383897732], [119.57511122516235, 25.348671094869577], [119.81936419795655, 25.34442321708185], [119.97228779831468, 25.430442742283287], [119.8650288841746, 25.554693167574253], [119.73122073386126, 25.43893849785874], [119.58679288907861, 25.55256922868039], [119.72060103939195, 25.67469571507749], [119.73122073386128, 25.86691218497208], [119.66113075036381, 25.983728824134523], [119.77369951173853, 26.07718213546448], [119.85016131191759, 26.242849369185766], [119.78750511454868, 26.454181289125106], [119.72484891717973, 26.613476706164807], [119.88414433421946, 26.61560064505868], [120.11352973475663, 26.505155822577823], [120.10078610139344, 26.63046821731572], [119.97972158444327, 26.607104889483228], [120.1029100402873, 26.76958621486373], [120.21760274055589, 26.813126962187916], [120.34928695197546, 27.00109555429476], [120.41725299657905, 27.158267032440598], [120.5340696357415, 27.203931718658648], [120.65619612213861, 27.299508968882467], [120.71779035006062, 27.585178750106994], [120.79743805858051, 27.731730533783523], [120.94398984225704, 27.88253019524777], [121.02894739801154, 27.97598350657773], [121.05231072584404, 28.133154984723564], [121.09691344261515, 28.24784768499215], [121.22434977624691, 28.256343440567598], [121.23496947071622, 28.101295901315623], [121.39001700996819, 28.13740286251129], [121.5365687936447, 28.257405410014538], [121.56311802981797, 28.4220106742889], [121.55462227424252, 28.55157094681452], [121.60347286880136, 28.725733936111258], [121.72666132464539, 28.90414480319572], [121.80737100261217, 28.997598114525676], [121.87108916942805, 29.12291050926357], [121.95604672518256, 29.399022565465714], [121.87108916942805, 29.522211021309747], [121.73940495800856, 29.539202532460646], [121.8456019027017, 29.67301068277399], [122.03463246425547, 29.770711871891674], [122.25764604811106, 29.819562466450517], [122.33623178718396, 30.025584539155194], [122.2257869647031, 30.093550583758798], [121.95392278628867, 30.09992240044039], [121.84135402491395, 29.980981822384084], [121.72241344685764, 29.917263655568203], [121.49090410742664, 30.0935505837588], [121.35709595711329, 30.242226306329187], [121.12771055657612, 30.265589634161675], [121.01301785630754, 30.15514481168082], [120.8792097059942, 30.11691391159129], [120.74964943346858, 30.02770847804906], [120.52026403293141, 30.080806950395626], [120.39495163819352, 30.159392689468543], [120.42043890491986, 30.278333267524854], [120.64770036656317, 30.282581145312577], [120.78788033355805, 30.286829023100317], [120.96204332285478, 30.390902028899585], [121.02363755077681, 30.537453812576107], [121.16381751777175, 30.537453812576107], [121.27426234025259, 30.607543796073575], [121.49939986300204, 30.688253474040355], [121.64807558557243, 30.779582846476448], [121.78613161367349, 30.875160096700267], [121.87746098610963, 31.08118216940494], [121.81799069708147, 31.435879964679998], [121.91781582509303, 31.51977555098756], [122.00914519752912, 31.634468251256145], [121.91675385564609, 31.75765670710018], [121.76064434694719, 31.915890154692946], [121.65763331059486, 32.04014057998391], [121.42293806282305, 32.06775178560413], [121.41444230724764, 32.19200221089509], [121.3486002015379, 32.35235959738172], [121.1521358538556, 32.42457351977305], [121.00558407017908, 32.473424114331884], [120.86646607263108, 32.55307182285174], [120.80274790581521, 32.70387148431599], [120.82823517254157, 32.89290204586976], [120.68168338886504, 33.09892411857444], [120.6158412831553, 33.29645043570367], [120.5478752385517, 33.423886769335425], [120.45866980500945, 33.54919916407331], [120.35034892142245, 33.69575094774983], [120.33972922695312, 33.876285753728155], [120.28025893792497, 34.02071359851082], [120.13583109314231, 34.131158420991675], [120.016890515086, 34.24585112126025], [119.8639669147279, 34.31381716586386], [119.73228270330841, 34.33080867701476], [119.55811971401168, 34.42426198834472], [119.32023855789906, 34.64515163330643], [119.16306707975322, 34.64090375551871], [119.01439135718284, 34.78108372251364], [119.15032344639005, 34.94675095623493], [119.23952887993228, 35.142153334470294], [119.3967003580781, 35.273837545889776], [119.53688032507304, 35.45649629076196], [119.71529119215751, 35.545701724304195], [119.81724025906294, 35.628535341164834], [119.91918932596836, 35.77933500262908], [120.05936929296328, 35.87916013064062], [119.98078355389038, 36.02783585321101], [120.10184807084055, 36.09155402002689], [120.27388712124342, 36.02571191431715], [120.52026403293148, 36.0172161587417], [120.60309764979213, 36.17226369799367], [120.67106369439573, 36.39102940406152], [120.8558463781618, 36.49935028764854], [121.10859510653145, 36.56519239335828], [121.28063415693433, 36.67563721583914], [121.42081412392929, 36.73829341320808], [121.59710105211988, 36.788205977213856], [121.79356539980218, 36.85298611347667], [121.93799324458483, 36.9082085247171], [122.12277592835088, 36.96661684429832], [122.22684893415014, 36.84980020513588], [122.34260360386565, 36.78502006887307], [122.50083705145843, 36.92413806642107], [122.56667915716817, 37.11529256686871], [122.62933535453712, 37.250162686629004], [122.68455776577756, 37.4264496148196], [122.36384299280428, 37.49441565942322], [122.11534214222235, 37.49972550665787], [121.97410020578052, 37.54751413176979], [121.73303314132711, 37.481672026060046], [121.6204643799524, 37.43706930928893], [121.4611689629127, 37.454060820439835], [121.33798050706866, 37.544328223429], [121.15107388440875, 37.56238170402682], [121.02151361188312, 37.68344622097699], [120.91319272829614, 37.798138921245574], [120.72416216674236, 37.85442330193294], [120.51707812459075, 37.81513043239648], [120.30362226575754, 37.73866863221742], [120.203797137746, 37.664330770932224], [120.09547625415901, 37.545390192875914], [119.92343720375612, 37.434945370395056], [119.78962905344278, 37.36060750910987], [119.7662657256103, 37.231047236584246], [119.61546606414605, 37.10785878074021], [119.4582945860002, 37.044140613924355], [119.11209254630059, 37.09511514737706], [118.94430137368545, 37.17370088644997], [118.7935017122212, 37.31175691455105], [118.84235230678009, 37.464680514909155], [118.83385655120463, 37.66008289314452], [118.78288201775193, 37.79389104345786], [118.67880901195267, 37.87672466031851], [118.54075298385159, 37.8767246603185], [118.42712225302994, 37.9478766132629], [118.2593310804148, 38.05725946629683], [118.0756103660957, 38.04132992459285], [117.83348133219536, 37.998851146715594], [117.70392105966975, 38.11460581643111], [117.5669270010156, 38.23779427227514], [117.42993294236146, 38.403461505996425], [117.42249915623297, 38.53833162575673], [117.43099491180843, 38.74647763735527], [117.50427080364668, 38.932322290568244], [117.68374364017806, 39.03002347968593], [117.83666724053617, 39.125600729909735], [118.03206961877153, 39.076750135350906], [118.21366639419679, 39.01834181576969], [118.33260697225309, 39.062944532540804], [118.50995586989063, 39.06719241032853], [118.63739220352241, 39.06719241032854], [118.82111291784153, 39.125600729909756], [118.85297200124947, 39.25409903298845], [118.96607174734766, 39.44525353343607], [119.10253482127833, 39.54189275310682], [119.15669526307184, 39.659771361716196], [119.27138796334042, 39.700126200699586], [119.43705519706171, 39.754286642493085], [119.49758745553679, 39.86048358718622], [119.6675025670458, 39.926325692895965], [119.88839221200752, 39.96243265409163], [120.09229034581833, 40.07924929325407], [120.34503907418798, 40.15146321564541], [120.50008661343995, 40.24066864918763], [120.5659287191497, 40.45731041636162], [120.66362990826738, 40.53377221654068], [120.83991683645797, 40.59324250556883], [120.97372498677136, 40.75466186150241], [121.07567405367676, 40.83112366168147], [121.21160614288397, 40.89271788960349], [121.33267065983414, 40.90758546186053], [121.60028696046083, 40.82899972278761], [121.71073178294169, 40.899089706285075], [121.90401022228319, 40.901213645178935], [122.25870801755825, 40.59324250556885], [122.33941769552503, 40.470054049724816], [122.2502122619828, 40.389344371758035], [122.1588828895467, 40.281023488171044], [122.07180139489833, 40.17695048237177], [122.00171141140086, 40.06862959878478], [121.84453993325502, 39.970928409667096], [121.68949239400305, 39.93482144847143], [121.56842787705288, 39.86685540386783], [121.50258577134313, 39.75216270359925], [121.28275809582841, 39.56525608093934], [121.45479714623129, 39.437819747307586], [121.62683619663416, 39.375163549938634], [121.79356539980238, 39.33799461929604], [121.68205860787458, 39.27640039137402], [121.64170376889119, 39.079936043691724], [121.40276064333165, 39.0693163492224], [121.29125385140385, 38.963119404529266], [121.16806539555982, 38.94931380171916], [121.06399238976056, 38.81338171251195], [121.30399748476704, 38.763469148506175], [121.41762821558868, 38.81231974306502], [121.61834044105872, 38.885595634903275], [121.77657388865148, 38.98754470180869], [121.88808068057928, 39.05126286862456], [122.02932261702114, 39.073564227010124], [122.15888288954685, 39.170203446680915], [122.27782346760314, 39.29657781086574], [122.39039222897787, 39.36241991657548], [122.55605946269915, 39.43569580841375], [122.65588459071076, 39.51215760859278], [122.75995759651002, 39.57693774485559], [122.88208408290713, 39.63322212554295], [123.10084978897497, 39.667205147844754], [123.32280140338362, 39.761720428621636], [123.46298137037857, 39.75959648972778], [123.59572755124498, 39.81906677875593], [123.71785403764208, 39.83287238156604], [123.96104504098936, 39.89234267059419], [124.13308409139223, 39.90296236506351], [124.33698222520304, 39.90083842616964], [124.4548608338124, 39.940131295706124], [124.58760701467881, 40.02084097367289], [124.69168002047807, 40.158897001773965], [124.79469105683042, 40.26297000757323], [124.93062314603762, 40.35748528835012], [125.09098053252423, 40.47961177474721], [125.22478868283757, 40.52527646096526], [125.34054335255308, 40.581560841652625], [125.46266983895019, 40.70156338915586], [125.61028359207364, 40.70899717528438], [125.86728019823109, 40.79714063937968], [126.02976152361157, 40.9298868202461], [126.23259768797546, 40.95537408697245], [126.39720295224981, 41.05519921498399], [126.52570125532851, 41.16989191525259], [126.61490668887075, 41.300514157225145], [126.85703572277112, 41.410958979705995], [126.8665934477935, 41.57450227453342], [126.92287782848086, 41.77521450000344], [127.03863249819638, 41.8516763001825], [127.24359260145413, 41.867605841886466], [127.3880204462368, 41.90689871142293], [127.56324540498046, 41.77840040834425], [127.76395763045048, 41.648840135818624], [128.12715118130095, 41.59255575513127], [128.28750856778757, 41.61804302185762], [128.43618429035797, 41.601051510706725], [128.56362062398972, 41.596803632919], [128.7122963465601, 41.71999208876303], [128.6135331879955, 41.91008461976373], [128.5179559377717, 41.99079429773051], [128.5763642573529, 42.15858547034566], [128.94274371654421, 42.225489545502334], [129.12965033920412, 42.21911772882075], [129.26558242841134, 42.225489545502334], [129.41638208987558, 42.29982740678753], [129.63939567373117, 42.36566951249727], [129.69886596275933, 42.49735372391676], [129.87302895205605, 42.60355066860989], [130.09391859701776, 42.59293097414058], [130.17038039719682, 42.77983759680049], [130.244718258482, 42.88391060259976], [130.27657734188995, 43.02196663070083], [130.36153489764445, 43.11541994203079], [130.53782182583507, 43.177014169952805], [130.72472844849497, 42.99860330286835], [130.956237787926, 42.87116696923658], [130.98809687133394, 43.00497511954993], [131.08792199934547, 43.09842843087989], [131.35129042218446, 43.16427053658963], [131.50846190033027, 43.24710415345027], [131.6082870283418, 43.32781383141706], [131.6996164007779, 43.45737410394268], [131.72085578971652, 43.578438620892854], [131.76545850648765, 43.70587495452461], [131.65926156179447, 43.82906341036865], [131.65926156179447, 43.967119438469716], [131.7038642785656, 44.11154728325238], [131.7144839730349, 44.33243692821409], [131.6528897451129, 44.447129628482685], [131.63377429506815, 44.61916867888556], [131.52332947258728, 44.687134723489166], [131.52120553369343, 44.825190751590235], [131.37040587222918, 44.95687496300972], [131.52970128926887, 45.05882402991513], [131.7675824453815, 45.09917886889852], [131.87165545118077, 45.17776460797144], [131.99696784591868, 45.252102469256634], [132.09891691282408, 45.32856426943569], [132.2624602076515, 45.44325696970427], [132.49396954708251, 45.34980365837431], [132.77857735886013, 45.30307700270934], [133.14601878749832, 45.26697004151369], [133.3584126768846, 45.27546579708914], [133.4497420493207, 45.42838939744725], [133.44124629374525, 45.60255238674399], [133.6366486719806, 45.755475987102095], [133.74709349446147, 45.84680535953819], [133.79169621123262, 45.999728959896295], [133.89789315592574, 46.20787497149484], [134.0083379784066, 46.32469161065728], [134.1272785564629, 46.42239279977496], [134.11453492309974, 46.55832488898217], [134.10816310641815, 46.711248489340285], [134.2419712567315, 46.83018906739659], [134.23772337894377, 47.01709569005651], [134.2929457901842, 47.1997544349287], [134.3534780486593, 47.35055409639295], [134.47772847395024, 47.474804521683915], [134.5945451131127, 47.514097391220375], [134.70180402725273, 47.641533724852145], [134.79738127747657, 47.74454476120448], [134.70498993559355, 47.91445987271351], [134.6253422270737, 48.044020145239124], [134.68906039388958, 48.15552693716692], [134.6582632799286, 48.27659145411708], [134.52445512961526, 48.35836310153079], [134.39808076543042, 48.34030962093296], [134.21223611221745, 48.27765342356401], [134.03701115347377, 48.22561692066438], [133.78851030289184, 48.160836784401596], [133.62178109972362, 48.05145393136767], [133.44655614097994, 48.04189620634526], [133.2214186182305, 48.03552438966367], [133.0483175983807, 47.98136394787017], [132.86778279240235, 47.852865644791486], [132.7297267643013, 47.76684611959005], [132.63202557518363, 47.667020991578504], [132.47804000537857, 47.66171114434385], [132.27732777990855, 47.651091449874535], [132.022455112645, 47.65427735821532], [131.76121062869987, 47.650029480427605], [131.47872675581615, 47.665959022131574], [131.27164271366453, 47.606488733103426], [131.1580119828429, 47.67870265549474], [131.06668261040682, 47.76578415014311], [130.97216732962994, 47.88684866709329], [130.84260705710432, 47.973930161741656], [130.97216732962994, 48.11411012873659], [130.83942114876353, 48.28508720969254], [130.6482666483159, 48.46137413788314], [130.71517072347257, 48.634475157732936], [130.52826410081266, 48.69182150786723], [130.38808413381773, 48.73430028574448], [130.1969296333701, 48.755539674683114], [130.07852004003723, 48.85483381797119], [129.94842878278814, 48.92333084729826], [129.83426706724302, 49.00297855581811], [129.56665076661636, 49.17607957566793], [129.40098353289505, 49.18457533124338], [129.19920933797812, 49.17607957566793], [129.03460407370372, 49.23554986469609], [128.7223850563059, 49.432014212378384], [128.57795721152326, 49.417146640121345], [128.42184770282444, 49.35236650385853], [128.16485109666704, 49.37041998445637], [127.99599795460496, 49.391659373394994], [127.82183496530817, 49.44688178463542], [127.63386637320133, 49.62316871282602], [127.48625262007788, 49.743171260329255], [127.54890881744682, 49.90140470792203], [127.4936864062064, 50.05432830828015], [127.28766433350171, 50.19026039748736], [127.30465584465261, 50.35274172286784], [127.26961085290388, 50.509913201013674], [127.11456331365196, 50.66920861805337], [126.91066517984115, 50.82850403509306], [126.85756670749458, 50.93894885757392], [126.85650473804768, 51.118421694105315], [126.72588249607512, 51.25222984441868], [126.61543767359426, 51.390285872519755], [126.49224921775021, 51.56869673960421], [126.35206925075529, 51.71949640106846], [126.38392833416322, 51.89790726815296], [126.2140132226542, 52.0720702574497], [126.02710659999428, 52.282340207942106], [125.861439366273, 52.4182722971493], [125.63205396573584, 52.62641830874784], [125.5152373265734, 52.7028801089269], [125.33470252059507, 52.79845735915072], [125.150981806276, 52.84730795370955], [124.95345548914676, 52.96518656231893], [124.8292050638558, 52.96200065397813], [124.62105905225727, 52.96306262342507], [124.40016940729555, 52.960938684531214], [124.26742322642914, 53.02890472913481], [124.07414478708765, 53.1064284987608], [123.87130862272377, 53.17545651281134], [123.68015412227614, 53.275281640822875], [123.50068128574475, 53.33793783819181], [123.23200301567113, 53.34537162432033], [123.0036795845809, 53.34749556321421], [122.79234766464155, 53.341123746532624], [122.49977508201196, 53.291211182526844], [122.1514491034185, 53.29014921307993], [121.87852295555716, 53.28696330473913], [121.61037567020698, 53.281122472781], [121.50364774079037, 53.223245137923236], [121.2742623402532, 53.22112119902936], [120.99337142153989, 53.16058894055428], [120.82451827947781, 53.14572136829724], [120.59194697059985, 53.066073659777395], [120.45389094249877, 52.97262034844747], [120.25742659481648, 52.8547417398381], [120.03759891930169, 52.764474336848934], [120.03759891930169, 52.63385209487638], [120.29194060183994, 52.649781636579554], [120.5107063079078, 52.60093104202071], [120.64876233600889, 52.399156847103775], [120.71460444171862, 52.2950838413045], [120.66362990826592, 52.08268995191824], [120.40450936321469, 51.99348451837601], [120.19848729051002, 51.86180030695653], [120.07742277355985, 51.787462445671345], [120.01370460674396, 51.64515853978254], [119.87352463974902, 51.600555823011426], [119.82892192297791, 51.40940132256379], [119.59953652244074, 51.13116532746778], [119.44024110540104, 50.93151507144469], [119.31917658845087, 50.82744206564542], [119.17687268256208, 50.62566787072848], [119.32767234402633, 50.40477822576676], [119.09191512680756, 50.14778161960938], [118.92412395419244, 50.13079010845849], [118.65438371467188, 50.050080430491704], [118.5269473810401, 50.02034528597762], [118.34216469727406, 49.92901591354153], [118.18924109691595, 49.77184443539569], [118.02994567987628, 49.68901081853504], [117.88764177398747, 49.6231687128253], [117.67100000681349, 49.62741659061302], [117.54993548986332, 49.678391124065726], [117.38214431724816, 49.674143246277985], [117.15063497781713, 49.69113475742889], [117.01682682750379, 49.727241718624555], [116.88726655497817, 49.77184443539567], [116.71947538236302, 49.81857109106065], [116.59841086541284, 49.82706684663609], [116.4752224095688, 49.621044773931416], [116.29893548137824, 49.474492990254916], [116.28619184801506, 49.32369332879067], [116.13114430876308, 49.096431867147366], [116.0589303863718, 48.977491289091056], [116.05043463079635, 48.79908042200659], [115.93998980831549, 48.69288347731346], [115.82317316915305, 48.51234867133513], [115.78069439127579, 48.29570690416114], [115.65325805764404, 48.26809569854093], [115.47909506834729, 48.15340299827235], [115.5470611129509, 48.01109909238357], [115.67237350768879, 47.811448836360476], [115.78706620795738, 47.75197854733232], [115.94636162499708, 47.705251891667345], [116.2012342922606, 47.83693610308683], [116.39451273160209, 47.841183980874554], [116.51557724855226, 47.77746581405867], [116.6663769100165, 47.77321793627095], [116.81505263258688, 47.84543185866229], [116.96372835515727, 47.84543185866229], [117.12089983330311, 47.72436734171212], [117.24408828914714, 47.660649174896236], [117.4458624840641, 47.75197854733233], [117.55630730654495, 47.87091912538864], [117.7007351513276, 47.93888516999224], [117.85365875168571, 48.0323384813222], [118.22747199700554, 48.038710298003785], [118.36340408621275, 48.00260333680812], [118.48022072537518, 47.95800062003701], [118.71385400370006, 47.79658126410345], [118.9963378765838, 47.78596156963414], [119.07492361565672, 47.679764624941], [119.21297964375779, 47.50772557453813], [119.39351444973612, 47.38028924090637], [119.55493380566968, 47.295331685151865], [119.69723771155847, 47.15727565705079], [119.77582345063139, 47.05745052903925], [119.88414433421839, 46.91302268425659], [119.86502888417363, 46.770718778367794], [119.7694516339498, 46.68788516150715], [119.59741258354693, 46.596555789071054], [119.46997624991516, 46.60717548354037], [119.30006113840616, 46.598679727964914], [119.06430392118742, 46.63478668916056], [118.87314942073978, 46.66876971146237], [118.73934127042644, 46.726116061596656], [118.61190493679467, 46.71974424491507], [118.3888913529391, 46.69425697818872], [118.15950595240193, 46.70912455044577], [117.94923600190953, 46.624166994691265], [117.7517096847803, 46.52646580557359], [117.62852122893626, 46.48398702769634], [117.45223430074569, 46.52434186667973], [117.32479796711394, 46.47124339433316], [117.08904074989518, 46.34805493848913], [116.76195416024034, 46.35655069406457], [116.57292359868656, 46.250353749371456], [116.45185908173639, 46.167520132510816], [116.32229880921076, 46.086810454544036], [116.17999490332197, 45.91477140414116], [116.1438879421263, 45.73423659816284], [116.01645160849455, 45.60042844784949], [115.88476739707507, 45.577065120017004], [115.70635652999059, 45.475116053111584], [115.55343292963246, 45.40502606961412], [115.3644023680787, 45.33281214722279], [115.0797945563011, 45.34980365837369], [114.77607129447874, 45.36254729173686], [114.61889981633291, 45.36254729173689], [114.4829677271257, 45.31582063607191], [114.28756534889034, 45.14165764677517], [114.16012901525858, 45.01846919093114], [113.96897451481094, 44.95475102411526], [113.86490150901167, 44.87616528504234], [113.57604581944635, 44.7933316681817], [113.19373681855109, 44.80607530154487], [112.96647535690778, 44.85067801831599], [112.72647026190134, 44.882537101723926], [112.55018333371073, 44.99510586309865], [112.3823921610956, 45.033336763188174], [112.23584037741907, 45.084311296640884], [112.07017314369779, 45.137409768987446], [111.84928349873607, 45.097054930004056], [111.78556533192018, 44.97174253526616], [111.65494308994764, 44.832624537718154], [111.55511796193609, 44.69032063182936], [111.48927585622634, 44.55226460372828], [111.39582254489639, 44.41102266728642], [111.53494054244439, 44.19544286955938], [111.83866380426674, 43.93419838561427], [111.85565531541765, 43.70693692397097], [111.73671473736134, 43.6432187571551], [111.49246176456715, 43.54551756803741], [111.31936074471736, 43.47861349288073], [111.12077245814119, 43.41383335661792], [110.91156447709571, 43.298078686902414], [110.7862520823578, 43.17064235327066], [110.6779311987708, 43.1111720642425], [110.58660182633471, 42.9348851360519], [110.40394308146253, 42.86054727476671], [110.29562219787555, 42.75647426896744], [110.11933526968494, 42.6736406521068], [109.84534715237666, 42.67151671321293], [109.62233356852107, 42.51009735727937], [109.46940996816296, 42.47823827387143], [109.18480215638537, 42.488857968340746], [108.98090402257456, 42.43788343488804], [108.71965953862946, 42.425139801524864], [108.59647108278541, 42.461246762720535], [108.43717566574573, 42.48885796834074], [108.21416208189014, 42.49947766281005], [108.04212303148726, 42.46974251829597], [107.72565613630174, 42.41664404594941], [107.5918479859884, 42.454874946038935], [107.43892438563027, 42.47186645718984], [107.26476139633355, 42.442131312675755], [107.12458142933862, 42.374165268072154], [106.97590570676823, 42.32531467351331], [106.8017427174715, 42.318942856831725], [106.61483609481158, 42.29133165121151], [106.33660009971558, 42.17239107315521], [106.15818923263113, 42.11292078412706], [106.00101775448529, 42.03858292284187], [105.7164099427077, 42.01097171722164], [105.59322148686365, 41.938757794830316], [105.46366121433805, 41.81132146119855], [105.33622488070628, 41.7348596610195], [105.1981688526052, 41.713620272080874], [105.05586494671643, 41.641406349689554], [104.81798379060382, 41.64565422747728], [104.71178684591068, 41.75185117217041], [104.6374489846255, 41.84955236128809], [104.52488022325078, 41.911146589210105], [104.34859329506017, 41.91327052810397], [104.15531485571867, 41.845304483500364], [104.01513488872374, 41.89627901695309], [103.7496425269909, 41.915394466997846], [103.59247104884507, 41.9578732448751], [103.42892775401764, 41.99822808385849], [103.30149142038589, 42.049202617311195], [103.12308055330142, 42.11079684523321], [103.00413997524511, 42.14902774532274], [102.78112639138953, 42.15539956200431], [102.63669854660687, 42.23823317886496], [102.3797019404495, 42.23398530107723], [102.24801772903001, 42.282835895636076], [102.10146594535347, 42.38690890143534], [101.86783266702858, 42.531336746218], [101.67667816658094, 42.60355066860933], [101.37507884365245, 42.60355066860933], [101.1159582986012, 42.663020957637485], [100.85258987576223, 42.701251857727016], [100.54674267504602, 42.74797851339199], [100.24939122990524, 42.77346578011834], [99.83309920670817, 42.73523488002882], [99.59946592838327, 42.675764591000664], [99.19166966076163, 42.66302095763748], [98.93254911571039, 42.667268835425205], [98.46953043684833, 42.73523488002881], [97.90668662997474, 42.79045729126923], [97.60508730704625, 42.79045729126923], [97.43517219553723, 42.73311094113494], [97.22490224504483, 42.72673912445335], [96.95303806663041, 42.78408547458764], [96.79268068014379, 42.844617733062734], [96.53249816564562, 42.87860075536453], [96.33497184851636, 43.09099464475081], [96.0652316089958, 43.31188428971252], [96.01000919775538, 43.473303645646084], [95.95691072540882, 43.60073997927784], [95.84646590292796, 43.672953901669175], [95.78274773611209, 43.8195056853457], [95.69354230256985, 43.95543777455291], [95.60858474681535, 44.12322894716806], [95.46840477982042, 44.14871621389441], [95.41743024636772, 44.30801163093411], [95.38769510185364, 44.43332402567201], [95.1689293957858, 44.37810161443158], [95.026625489897, 44.37810161443158], [94.90768491184069, 44.4163325145211], [94.6230771000631, 44.53739703147127], [94.50201258311289, 44.630850342801224], [94.36183261611797, 44.70306426519256], [94.25351173253097, 44.77315424869003], [94.08996843770355, 44.80076545431024], [93.93492089845157, 44.86448362112612], [93.73102276464076, 45.01103540480264], [93.58659491985809, 45.0131593436965], [93.38482072494116, 45.10024083834488], [93.15755926329786, 45.134223860646685], [92.80498540691666, 45.134223860646685], [92.39081732261349, 45.13740976898747], [92.20178676105971, 45.073691602171586], [91.93841833822074, 45.142719616222124], [91.74301595998537, 45.086435235534765], [91.5720388790294, 45.180950516311654], [91.43185891203447, 45.22555323308277], [91.24070441158683, 45.25316443870298], [91.09840050569802, 45.274403827641606], [90.8838826774179, 45.28502352211092], [90.76494209936159, 45.36998107786542], [90.72883513816592, 45.56750739499466], [90.7245872603782, 45.69069585083869], [90.77768573272476, 45.80751249000114], [90.89662631078107, 45.94981639588993], [91.04954991113921, 46.10911181292964], [90.95822053870312, 46.289646618907966], [90.94760084423379, 46.49566869161264], [91.03255839998828, 46.6804513753787], [91.00494719436807, 46.824879220161364], [90.89237843299334, 46.918332531491316], [90.81379269392043, 47.07975188742488], [90.6736127269255, 47.196568526587335], [90.57166366002009, 47.29851759349275], [90.42935975413131, 47.48436224670571], [90.39537673182951, 47.631975999829166], [90.22015177308586, 47.815696714148295], [90.0863436227725, 47.91552184215984], [89.97802273918552, 47.991983642338894], [89.82085126103968, 48.03021454242842], [89.63606857727363, 48.01109909238366], [89.42792256567508, 48.15340299827245], [89.27712290421083, 48.14278330380313], [89.14119081500361, 48.0875608925627], [89.00313478690255, 48.051453931367035], [88.85021118654443, 48.049329992473176], [88.7843690808347, 48.160836784400956], [88.64418911383976, 48.28721114858578], [88.5135668718672, 48.4199573294522], [88.37657281321304, 48.45712626009481], [88.24807451013436, 48.54951760197783], [88.0887790930947, 48.585624563173496], [87.94859912609977, 48.75129179689478], [87.85089793698208, 48.857488741587915], [87.74894887007667, 48.938198419554695], [87.79992340352938, 49.197318964605934], [87.54929861405358, 49.06563475318645], [87.19035294099082, 49.06988263097417], [86.97371117381682, 48.98704901411353], [86.89087755695618, 48.84262116933087], [86.92698451815184, 48.69819332454821], [86.81229181788326, 48.53040215193306], [86.5659149061952, 48.398717940513585], [86.41511524473096, 48.33287583480384], [86.00519503821546, 48.32438007922839], [85.81828841555554, 48.179952234445736], [85.69509995971151, 47.99304561178582], [85.60801846506315, 47.763660211248656], [85.65049724294039, 47.566133894119446], [85.68023238745445, 47.39834272150429], [85.76943782099669, 47.19869246548121], [85.70784359307467, 47.05426462069855], [85.5931508928061, 46.99479433167039], [85.39774851457072, 46.97780282051949], [85.18747856407833, 46.924704348172924], [85.04942253597726, 46.82487922016138], [84.9219862023455, 46.76540893113324], [84.73295564079173, 46.943819798217696], [84.56091659038886, 46.9608113093686], [84.26356514524807, 46.96718312605019], [84.09365003373905, 46.956563431580875], [83.94497431116866, 47.01603372060902], [83.7495719329333, 47.03514917065379], [83.53717804354704, 47.158337626497826], [83.33752778752395, 47.19656852658735], [83.16548873712108, 47.198692465481216], [83.07415936468499, 47.120106726408295], [83.02955664791389, 46.92258040927906], [82.91486394764532, 46.76540893113322], [82.80229518627058, 46.533899591702195], [82.68123066932043, 46.34380706070149], [82.5314929773031, 46.13990892689067], [82.51662540504607, 45.98698532653256], [82.44441148265477, 45.82450400115208], [82.37113559081651, 45.66839449245316], [82.43697769652626, 45.56007360886617], [82.55273236624177, 45.432637275234434], [82.60476886914141, 45.21387156916658], [82.46777481048727, 45.14909143290377], [82.32440893515154, 45.159711127373086], [82.17573321258114, 45.145905524562956], [82.04404900116165, 45.143781585669096], [81.83802692845697, 45.26272216372541], [81.7169624115068, 45.39440637514489], [81.574658505618, 45.36891910841854], [81.35589279955015, 45.25847428593768], [81.12863133790688, 45.26059822483154], [80.99482318759354, 45.20325187469725], [80.88013048732496, 45.13953370788137], [80.6273817589553, 45.196880058015665], [80.49994542532355, 45.141657646775236], [80.0815294632326, 45.09493099111026], [79.97108464075174, 45.020593129825066], [79.7799301403041, 44.88678497951172], [79.90311859614812, 44.801827423757224], [80.1537433856239, 44.79333166818177], [80.3703851527979, 44.75934864587997], [80.31728668045133, 44.64677988450525], [80.29817123040657, 44.508723856404174], [80.24294881916614, 44.363234042174575], [80.30348107764122, 44.21986816683884], [80.24401078861307, 44.10729940546414], [80.3332162221553, 43.977739132938524], [80.4415371057423, 43.788708571384745], [80.51375102813363, 43.682511626691614], [80.54136223375384, 43.548703476378265], [80.5774691949495, 43.24285627566204], [80.68791401743036, 43.05594965300213], [80.54136223375384, 43.06019753078986], [80.43091741127299, 43.00709905844329], [80.34383591662461, 42.83081213025269], [80.19303625516038, 42.69488004104548], [80.075157646551, 42.592930974140074], [80.1091406688528, 42.46443267106138], [80.11657445498132, 42.309385131809435], [80.20259398018275, 42.111858814680204], [80.136751874473, 41.98442248104845], [79.96152691572934, 41.96212112266289], [79.73320348463912, 41.872915689120674], [79.61213896768895, 41.817693277880245], [79.48682657295105, 41.74123147770119], [79.12150908320667, 41.67326543309758], [79.01956001630127, 41.58193606066149], [78.82840551585363, 41.53308546610265], [78.62663132093668, 41.433260338091095], [78.47583165947243, 41.38228580463839], [78.33140381468978, 41.22936220428028], [78.21671111442119, 41.07643860392217], [78.07653114742631, 40.9150192479886], [77.83652605241983, 40.965993781441306], [77.52643097391588, 40.90439955351929], [77.3958087319433, 40.907054477136604], [77.22961051349856, 40.96864870505863], [76.96093224342492, 40.96174590365358], [76.8313719708993, 40.8810362256868], [76.72198911786539, 40.68350990855757], [76.67207655385963, 40.55713554437274], [76.51065719792607, 40.378724677288275], [76.28870558351741, 40.27996151872367], [76.12091441090224, 40.360671196690454], [75.95843308552176, 40.22898698527097], [75.82356296576148, 40.292705152086846], [75.72055192940914, 40.46155829414893], [75.58249590130806, 40.545453880456506], [75.46674123159255, 40.47005404972438], [75.290454303402, 40.4031499745677], [75.10567161963596, 40.46474420248971], [74.97292543876954, 40.35536134945579], [74.86354258573562, 40.28527136595832], [74.70424716869591, 40.21411941301392], [74.55026159889084, 40.11641822389623], [74.37822254848797, 40.086683079382155], [74.19343986472191, 40.08031126270056], [74.06812746998402, 39.97411431800743], [73.96405446418474, 39.846677984375674], [74.05113595883311, 39.642779850564864], [73.83343222221224, 39.478174586290514], [73.72298739973138, 39.31781719980388], [73.75803239148011, 39.15533587442341], [73.86847721396097, 39.08312195203208], [73.79201541378191, 38.86648018485809], [73.84723782502235, 38.62222721206388], [73.93219538077685, 38.524526022946205], [74.10848230896745, 38.620103273170024], [74.32937195392917, 38.6158553953823], [74.486543432075, 38.62222721206388], [74.68831762699195, 38.55638510635414], [74.84548910513779, 38.44169240608556], [74.89752560803744, 38.33337152249858], [74.80194835781363, 38.13159732758163], [74.86141864684177, 38.01053281063146], [74.91026924140061, 37.81300649350223], [74.92088893586991, 37.608046390244475], [75.0185901249876, 37.45724672878023], [74.89752560803743, 37.30219918952825], [74.65752051303095, 37.29157949505894], [74.50459691267284, 37.268216167226456], [74.35592119010245, 37.149275589170145], [74.42176329581217, 37.04520258337087], [74.57468689617028, 37.043078644477006], [74.94212832480852, 36.98785623323658], [75.1311588863623, 36.96449290540409], [75.26921491446336, 36.922014127526836], [75.34567671464241, 36.79457779389509], [75.50709607057597, 36.74997507712397], [75.70674632659906, 36.730859627079205], [75.74710116558245, 36.594927537871996], [75.83843053801854, 36.514217859905216], [75.83630659912468, 36.36129425954712], [75.86816568253262, 36.21899035365833], [75.8065714546106, 36.072438569981806], [75.95949505496871, 35.98323313643957], [76.04020473293549, 35.872788313958715], [76.31206891134991, 35.82606165829374], [76.53508249520549, 35.75384773590241], [76.62216398985386, 35.66464230236018], [76.74747638459176, 35.66676624125404], [76.95562239619031, 35.590304441075], [77.08093479092821, 35.526586274259124], [77.23173445239246, 35.50959476310822], [77.3485510915549, 35.460744168549375], [77.67563768120975, 35.46286810744324], [77.81581764820469, 35.471363863018695], [77.94325398183643, 35.50747082421436], [78.02608759869707, 35.38640630726419], [77.96661730966893, 35.19100392902883], [78.05369880431729, 35.023212756413685], [78.18963089352451, 34.88303278941875], [78.25547299923426, 34.727985250166775], [78.3319347994133, 34.63028406104912], [78.48061052198368, 34.58780528317186], [78.69300441136996, 34.528334994143705], [78.81194498942625, 34.48160833847873], [78.96062071199664, 34.43912956060148], [79.06256977890204, 34.362667760422426], [78.89265466739303, 34.17151325997479], [78.74822682261038, 34.124786604309804], [78.769466211549, 34.0058460262535], [78.83318437836488, 33.83593091474449], [78.89690254518077, 33.72548609226363], [78.80344923385081, 33.610793391995045], [78.91389405633167, 33.49610069172646], [79.04133038996342, 33.343177091368354], [79.16451884580745, 33.313441946854276], [79.33443395731646, 33.249723780038394], [79.47036604652368, 33.16476622428389], [79.46930407707674, 32.942814609875214], [79.61266995241246, 32.817502215137324], [79.5224025494233, 32.69325178984636], [79.36841697961826, 32.562629547873804], [79.24841443211503, 32.56050560897994], [79.09655280120384, 32.493601533823266], [78.90752223965006, 32.45218472539295], [78.78858166159375, 32.58068302847164], [78.57884269582487, 32.63962233277632], [78.41529940099744, 32.555195761745274], [78.42591909546674, 32.3523595973814], [78.46096408721547, 32.16332903582762], [78.60326799310427, 32.08155738841391], [78.69672130443426, 31.98067029095544], [78.66167631268553, 31.862791682346064], [78.65424252655701, 31.656769609641398], [78.69247342664653, 31.525085398221915], [78.66273828213245, 31.38490543122698], [78.87300823262485, 31.359418164500628], [79.02593183298296, 31.469862986981486], [79.10876544984362, 31.3211872644111], [79.21708633343061, 31.17888335852229], [79.33815085038079, 31.059942780465985], [79.45709142843708, 30.99197673586238], [79.7013444012313, 30.99197673586238], [79.86701163495258, 30.921886752364912], [80.04542250203704, 30.858168585549034], [80.31728668045146, 30.734980129705], [80.35126970275327, 30.54594956815123], [80.54242420320091, 30.4907271569108], [80.64224933121245, 30.405769601156294], [80.850395342811, 30.28895296199385], [80.96933592086731, 30.18381798674765], [81.05004559883409, 30.054257714222025], [81.19872132140448, 30.04045211141192], [81.33677734950554, 30.182756017300715], [81.49713473599218, 30.353733098256658], [81.6638639391604, 30.420637173413333], [81.72652013652934, 30.30488250369782], [81.81360163117772, 30.222048886837175], [82.06422642065351, 30.160454658915157], [82.18529093760368, 30.062753469797475], [82.3488342324311, 29.996911364087733], [82.47627056606287, 29.984167730724558], [82.63131810531483, 29.918325625014816], [82.7247714166448, 29.80150898585237], [82.88406683368449, 29.72929506346104], [83.04336225072419, 29.60185872982928], [83.13893950094801, 29.52752086854409], [83.26212795679206, 29.47867027398526], [83.36407702369746, 29.338490306990323], [83.40655580157471, 29.13459217317951], [83.57434697418987, 29.019899472910925], [83.73576633012343, 29.104857028665432], [83.88231811379994, 29.274772140174445], [84.01825020300716, 29.22379760672174], [84.09895988097391, 29.0156515951232], [84.00125869185624, 28.873347689234404], [84.18391743672842, 28.70980439440698], [84.35170860934358, 28.656705922060414], [84.52587159864034, 28.58555396911601], [84.66286565729447, 28.574934274646697], [84.94110165239049, 28.501658382808436], [85.03774087206125, 28.3646643241543], [85.1311941833912, 28.21917450992471], [85.2565065781291, 28.2053689071146], [85.41686396461573, 28.200059059879944], [85.62819588455507, 28.134216954170203], [85.75881812652767, 28.050321367862637], [85.85227143785762, 27.827307784007058], [85.97545989370163, 27.90164564529225], [86.08059486894783, 27.99297501772834], [86.19528756921642, 27.829431722900917], [86.38007025298246, 27.826245814560124], [86.49688689214491, 27.94624836206336], [86.62326125632977, 27.94093851482871], [86.87494801525249, 27.879344286906694], [87.04486312676151, 27.7540318921688], [87.32097518296365, 27.700933419822235], [87.46646499719324, 27.76889946442584], [87.62257450589215, 27.71367705318542], [87.74788690063004, 27.732792503230186], [87.87107535647407, 27.758279769956538], [88.00488350678742, 27.790138853364475], [88.17267467940256, 27.917575186996235], [88.31922646307909, 27.936690637041], [88.45728249118017, 28.05775515399117], [88.58471882481192, 28.070498787354346], [88.81835210313683, 28.019524253901643], [88.88207026995272, 27.756155831062678], [88.79923665309207, 27.63933919190023], [88.7864930197289, 27.50977891937461], [88.83959149207547, 27.36535107459195], [88.939416620087, 27.29313715220062], [89.05410932035561, 27.41420166915079], [89.12419930385308, 27.579868902872075], [89.25163563748482, 27.773147342213576], [89.35995652107182, 27.86235277575581], [89.48526891580973, 28.01740031500778], [89.5829701049274, 28.117225443019326], [89.82297519993388, 28.25315753222655], [90.01837757816925, 28.31899963793629], [90.14793785069486, 28.39333749922148], [90.31360508441615, 28.308379943466978], [90.43679354026018, 28.251033593332686], [90.61095652955692, 28.119349381913196], [90.78087164106593, 28.01952425390165], [90.92742342474246, 27.996160926069162], [91.027248552754, 28.068374848460493], [91.23539456435253, 28.01740031500779], [91.36920271466589, 28.0110284983262], [91.56035721511354, 27.958991995426576], [91.78124686007526, 27.82624581456016], [91.70743998351237, 27.68447289339445], [91.68620059457375, 27.54854080418724], [91.88160297280912, 27.44659173728183], [92.13647564007263, 27.416856592767754], [92.14497139564808, 27.217206336744667], [92.11098837334627, 27.072778491962005], [92.17895441794988, 26.877376113726644], [92.3488695294589, 26.885871869302093], [92.57825492999606, 26.94959003611797], [92.73967428592962, 27.03029971408475], [92.90958939743864, 26.962333669481147], [93.03277785328267, 26.94534215833025], [93.17720569806532, 26.962333669481147], [93.53827531002197, 26.97932518063205], [93.72093405489416, 26.992068813995225], [93.87810553304, 27.064282736386556], [93.89084916640317, 27.242693603471018], [94.02678125561039, 27.34889054816415], [94.18820061154395, 27.51030990409771], [94.2986454340248, 27.625002604366294], [94.6682108015569, 27.73544742684716], [94.88485256873086, 27.750314999104194], [95.07175919139077, 27.8522640660096], [95.17583219719005, 27.913858293931618], [95.33087973644201, 28.030674933094062], [95.4530062228391, 28.16554505285433], [95.63354102881742, 28.26112230307815], [95.72699434014737, 28.336522133810277], [95.86823627658924, 28.359885461642765], [96.03496547975743, 28.35988546164277], [96.13797651610977, 28.26430821141895], [96.40453084728954, 28.245192761374184], [96.58825156160866, 28.196342166815345], [96.76984833703389, 28.07740158875903], [96.91533815126348, 28.014745391390086], [97.0788814460909, 27.969080705172043], [97.17445869631473, 27.888371027205263], [97.30401896884035, 27.92660192729479], [97.48030589703096, 28.052976291479617], [97.525970583249, 28.208023830731587], [97.5042002095882, 28.32749539351178]]]]}}]}