{"type": "FeatureCollection", "features": [{"type": "Feature", "properties": {"code": "CIV", "name": "C\u00f4te d\u2019Ivoire", "tier": "country"}, "geometry": {"type": "MultiPolygon", "coordinates": [[[[-7.98966263899996, 10.16199066200005], [-8.015707560999942, 10.110365906000027], [-8.057875529999933, 10.07308136000006], [-8.108776814999942, 10.05419362300006], [-8.14774084499993, 10.01003611300007], [-8.14009273299996, 9.959703268000055], [-8.167894652999962, 9.914693095000075], [-8.15099645999993, 9.866143088000058], [-8.161590128999933, 9.575644023000052], [-8.152856811999925, 9.513115540000058], [-8.087176065999927, 9.415395406000073], [-8.03229569499996, 9.384647929000039], [-7.971059122999975, 9.392967835000036], [-7.911889607999967, 9.418651021000073], [-7.891735798999946, 9.33023264600007], [-7.930648152999936, 9.220291036000049], [-7.878713337999955, 9.163912049000032], [-7.823367878999932, 9.131976013000042], [-7.759392455999944, 9.091668397000035], [-7.807813272999965, 9.060042420000059], [-7.916747192999935, 9.012345073000063], [-7.946461140999929, 8.948602193000056], [-7.968940388999954, 8.812848205000023], [-7.913129841999933, 8.768225606000044], [-7.831015990999958, 8.747658387000058], [-7.772053182999969, 8.714533793000044], [-7.741202351999959, 8.662909037000077], [-7.696812296999951, 8.624849346000076], [-7.693970092999962, 8.567772725000054], [-7.67924230999995, 8.505089213000076], [-7.689577597999971, 8.438659160000043], [-7.662447468999972, 8.374864604000038], [-7.72073848499997, 8.36853424100002], [-7.771019653999929, 8.386517639000033], [-7.802438923999944, 8.449201151000068], [-7.84574377399997, 8.474315898000043], [-7.865587524999967, 8.42088246700007], [-7.923826863999977, 8.443775126000048], [-7.956279662999975, 8.494366354000022], [-8.015707560999942, 8.48720916800005], [-8.068107462999933, 8.500464172000022], [-8.130119180999941, 8.488604433000035], [-8.186343139999963, 8.493694560000051], [-8.248871622999957, 8.453567811000028], [-8.236882689999959, 8.400082703000066], [-8.247631387999945, 8.322568054000044], [-8.264581257999964, 8.256499736000023], [-8.182932494999932, 8.191671652000025], [-8.085522419999961, 8.162035218000028], [-8.015707560999942, 8.183894348000024], [-8.021702026999947, 8.117722677000074], [-7.980412556999966, 8.058992411000077], [-8.05384476699993, 8.02876169800004], [-8.079114542999946, 7.957654928000068], [-8.128878946999976, 7.882569072000024], [-8.12376297999998, 7.832029521000038], [-8.110482136999963, 7.782420146000049], [-8.122626098999945, 7.727488098000038], [-8.159523070999967, 7.676328430000069], [-8.197866983999972, 7.618554179000057], [-8.228976194999973, 7.544295146000024], [-8.303235229999927, 7.589305318000072], [-8.37227494299998, 7.587289936000047], [-8.440022745999954, 7.599898987000074], [-8.485446329999945, 7.557989400000054], [-8.425605020999967, 7.501920471000062], [-8.405141155999956, 7.431278789000032], [-8.393048868999927, 7.334333801000071], [-8.36400671399997, 7.278884989000062], [-8.333000853999977, 7.211860657000045], [-8.311503458999937, 7.157290344000046], [-8.284114950999935, 7.017867330000058], [-8.314552367999966, 6.968568013000038], [-8.320908569999972, 6.910173646000032], [-8.314965779999966, 6.850280661000056], [-8.337496703999932, 6.777261863000035], [-8.461313436999944, 6.633420512000043], [-8.533557088999942, 6.576343892000068], [-8.57272782399997, 6.530842794000023], [-8.618719847999955, 6.49283477900002], [-8.568076944999973, 6.490405985000052], [-8.515625366999927, 6.437592672000051], [-8.472372192999956, 6.478649597000071], [-8.418266968999944, 6.451209411000036], [-8.417233439999961, 6.398189392000063], [-8.411807413999952, 6.340027568000039], [-8.35294795699997, 6.36105987600007], [-8.30271846599993, 6.340647685000022], [-8.208486489999927, 6.292536927000072], [-8.154355427999974, 6.274217632000045], [-8.106606403999933, 6.294681498000045], [-8.033019164999928, 6.301761169000031], [-7.934885620999978, 6.271427104000054], [-7.862125202999948, 6.216391703000056], [-7.857370970999966, 6.14538828600007], [-7.86181514499998, 6.081490377000023], [-7.809673624999959, 6.071206767000035], [-7.786470906999966, 6.025111390000063], [-7.799648396999942, 5.974468486000035], [-7.747145140999976, 5.937597353000058], [-7.703220174999956, 5.907883403000028], [-7.648339802999942, 5.911294047000069], [-7.584157673999925, 5.88369883200005], [-7.559146280999926, 5.839851379000038], [-7.508813435999969, 5.826182963000065], [-7.44654333699998, 5.845949198000028], [-7.44855871599998, 5.769054668000024], [-7.431040404999976, 5.653971253000066], [-7.396675577999929, 5.585086568000065], [-7.393626668999957, 5.523979186000076], [-7.432383992999974, 5.479563294000059], [-7.449953978999929, 5.422770895000042], [-7.429696818999957, 5.374298401000033], [-7.38882075999993, 5.328383891000044], [-7.413780476999932, 5.26670806900006], [-7.468247436999945, 5.273451845000068], [-7.490468301999954, 5.222188822000021], [-7.483026895999956, 5.158239238000021], [-7.515841430999956, 5.091809184000056], [-7.57578609199993, 5.072068787000035], [-7.570205037999926, 4.996879578000062], [-7.555322223999951, 4.948432923000041], [-7.605500038999935, 4.897428284000057], [-7.600229044999935, 4.845803528000033], [-7.585552938999967, 4.791543274000048], [-7.572478800999932, 4.723356222000064], [-7.576871297999958, 4.50933827700004], [-7.572840535999944, 4.45538808200007], [-7.577853148999964, 4.397277934000044], [-7.540666123999927, 4.352844582000046], [-7.480865037999934, 4.346136786000045], [-7.359852667999974, 4.416083075000074], [-7.306019660999937, 4.445461330000057], [-7.255238410999937, 4.465521552000041], [-7.173451299999954, 4.518784898000035], [-7.099191860999952, 4.526516018000052], [-6.996001755999941, 4.57648346600007], [-6.94212805899997, 4.621568101000037], [-6.903146938999953, 4.662014064000061], [-6.853667772999927, 4.680609442000048], [-6.753325975999928, 4.687323309000021], [-6.626820441999939, 4.724595445000034], [-6.583851691999939, 4.76040273600006], [-6.441517706999946, 4.793931383000029], [-6.138579880999941, 4.915228583000044], [-6.059722459999932, 4.955796617000033], [-6.007435675999943, 4.97524648600006], [-5.851307745999975, 5.029974677000041], [-5.630238410999937, 5.063218491000043], [-5.550526495999975, 5.087713934000021], [-5.495676234999962, 5.095282294000071], [-5.294300910999937, 5.10602448100002], [-5.002430792999974, 5.128648179000038], [-5.033192511999971, 5.183294989000046], [-5.094960089999972, 5.173732815000051], [-5.181385870999975, 5.202337958000044], [-5.221587693999936, 5.170314846000053], [-5.283070442999929, 5.177069403000075], [-5.328114386999971, 5.148504950000074], [-5.269398566999939, 5.128648179000038], [-5.357899542999974, 5.123521225000047], [-5.413929816999939, 5.170314846000053], [-5.359364386999971, 5.128648179000038], [-5.338286912999934, 5.183294989000046], [-5.310943162999934, 5.225490627000056], [-5.253041144999941, 5.214097398000035], [-5.191395636999971, 5.219224351000037], [-5.129017706999946, 5.197699286000045], [-5.064279751999948, 5.209214585000041], [-5.009755011999971, 5.216050523000035], [-5.003773566999939, 5.160589911000045], [-4.915191209999932, 5.136379298000065], [-4.784657355999968, 5.143947657000069], [-4.620513475999928, 5.180731512000023], [-3.995757615999935, 5.231675523000035], [-4.070220506999931, 5.266506252000056], [-4.183827277999967, 5.280178126000067], [-4.26626542899993, 5.255031643000052], [-4.324696417999974, 5.252183335000041], [-4.385568813999953, 5.252183335000041], [-4.441639777999967, 5.225043036000045], [-4.500599738999938, 5.228705145000049], [-4.564930791999927, 5.22321198100002], [-4.63939368399997, 5.211167710000041], [-4.695383265999965, 5.200181382000039], [-4.747670050999943, 5.172349351000037], [-4.79954993299998, 5.174505928000031], [-4.742176886999971, 5.234564520000049], [-4.702504035999937, 5.278306382000039], [-4.680287238999938, 5.231675523000035], [-4.630604620999975, 5.25055573100002], [-4.575510219999956, 5.263006903000075], [-4.472767706999946, 5.263373114000046], [-4.42650305899997, 5.299994207000054], [-4.370472785999937, 5.289211330000057], [-4.321441209999932, 5.310980536000045], [-4.248931443999936, 5.307440497000073], [-4.193267381999931, 5.298814195000034], [-4.138742641999954, 5.303412177000041], [-4.078521287999934, 5.287787177000041], [-3.989084438999953, 5.269110419000071], [-3.940541144999941, 5.293158270000049], [-3.999623175999943, 5.304632881000032], [-3.940744593999966, 5.314601955000057], [-3.899525519999941, 5.348374742000033], [-3.866688605999968, 5.303615627000056], [-3.808990037999934, 5.287787177000041], [-3.759429490999935, 5.275376695000034], [-3.792713995999975, 5.344631252000056], [-3.741851365999935, 5.310532945000034], [-3.76667232899996, 5.266058660000056], [-3.834136522999927, 5.272853908000059], [-3.885731574999966, 5.283880927000041], [-3.943837042999974, 5.27179596600007], [-4.001942511999971, 5.266506252000056], [-3.95579993399997, 5.234564520000049], [-3.885853643999951, 5.225490627000056], [-3.840891079999949, 5.201157945000034], [-3.786854620999975, 5.198960679000038], [-3.739654099999939, 5.21710846600007], [-3.678537563999953, 5.179836330000057], [-3.378041144999941, 5.123195706000047], [-3.312163865999935, 5.119940496000027], [-3.30304928299995, 5.177069403000075], [-3.275786912999934, 5.225490627000056], [-3.282622851999975, 5.280178126000067], [-3.262074347999942, 5.340887762000023], [-3.211822069999926, 5.361476955000057], [-3.146066859999962, 5.368841864000046], [-3.134755011999971, 5.318589585000041], [-3.167958136999971, 5.266302802000041], [-3.205067511999971, 5.218654689000061], [-3.162464972999942, 5.184149480000031], [-3.122385219999956, 5.149969794000071], [-3.06281490799995, 5.156642970000064], [-2.993397588999926, 5.119533596000053], [-2.943511522999927, 5.136786200000074], [-2.879383917999974, 5.181341864000046], [-2.803855142999964, 5.147568054000033], [-2.757010456999978, 5.179865825000036], [-2.774890502999938, 5.239577942000039], [-2.79612951699994, 5.284975688000031], [-2.789566608999962, 5.346858216000044], [-2.732670857999949, 5.355720725000026], [-2.761713012999962, 5.454913636000072], [-2.779438028999948, 5.526485494000042], [-2.781815144999939, 5.578885398000068], [-2.877494059999947, 5.636814677000075], [-2.92630244999998, 5.610718078000048], [-2.974904133999928, 5.647279155000035], [-2.96480139099998, 5.709781798000051], [-3.029758667999943, 5.704252422000025], [-3.019965982999963, 5.818353984000055], [-3.034719604999964, 5.890700989000038], [-3.073244384999953, 5.960955098000056], [-3.11807369099995, 6.163475037000069], [-3.139364379999961, 6.219285584000033], [-3.183599405999928, 6.263908183000069], [-3.262509316999967, 6.617142435000062], [-3.230056518999959, 6.661119080000049], [-3.210419474999981, 6.715999451000073], [-3.238738158999979, 6.764626974000066], [-3.224940551999964, 6.849402161000057], [-3.109598753999933, 7.046392720000028], [-3.045933390999949, 7.071249084000044], [-3.032600871999932, 7.128351542000075], [-2.981699584999944, 7.195530905000055], [-2.989528564999944, 7.258937887000059], [-2.941521158999933, 7.577161357000023], [-2.85594498699993, 7.771568095000021], [-2.840002806999962, 7.820247294000069], [-2.797886515999949, 7.861278381000034], [-2.793545694999978, 7.93595082500002], [-2.709261433999927, 7.996722309000063], [-2.631178344999967, 8.02958852100005], [-2.599759073999962, 8.070387065000034], [-2.619447793999939, 8.123097026000039], [-2.604254923999974, 8.170794373000035], [-2.513201049999964, 8.194022929000027], [-2.598363810999956, 8.769465840000066], [-2.595573282999965, 8.828066915000022], [-2.615933796999968, 8.897830099000032], [-2.653295857999979, 8.978393657000026], [-2.686058715999934, 9.028261414000042], [-2.736960001999933, 9.035134379000056], [-2.761299601999951, 9.084795431000032], [-2.75938757299997, 9.134818217000031], [-2.716496134999943, 9.20026641800007], [-2.67308793199993, 9.234889628000076], [-2.692983357999935, 9.285325826000076], [-2.703060261999951, 9.34325510800005], [-2.67241613799996, 9.401003519000028], [-2.674586547999979, 9.457485861000066], [-2.744918171999927, 9.408109030000048], [-2.810418050999942, 9.411106262000033], [-2.910153564999973, 9.542726136000056], [-2.959892130999947, 9.638611755000056], [-2.989993651999953, 9.708426616000054], [-3.059059203999936, 9.718555196000068], [-3.104379435999931, 9.757131653000044], [-3.136935587999972, 9.829530335000072], [-3.200006672999962, 9.845369161000065], [-3.202564656999925, 9.908233541000072], [-3.264059610999936, 9.857073873000047], [-3.313565632999939, 9.874566345000062], [-3.376559204999978, 9.908491923000042], [-3.546471313999973, 9.92613942500003], [-3.606260945999963, 9.918181254000046], [-3.661658080999928, 9.948928731000024], [-3.755037394999931, 9.935880433000023], [-3.804259195999975, 9.901386414000058], [-3.889706175999947, 9.894461772000056], [-3.947738810999965, 9.864360249000072], [-3.988253133999933, 9.834801331000051], [-4.050316527999939, 9.810306702000048], [-4.133050496999942, 9.820409444000063], [-4.196974242999943, 9.764960632000054], [-4.253094848999979, 9.750051982000059], [-4.297794961999955, 9.695843404000072], [-4.302988443999936, 9.641712341000073], [-4.349678099999949, 9.62003407800006], [-4.400165975999926, 9.633134053000049], [-4.469205688999978, 9.651763407000033], [-4.515921182999932, 9.67568959600004], [-4.501606810999931, 9.737107035000065], [-4.548425658999975, 9.70679880800003], [-4.604029500999957, 9.727159322000034], [-4.655809284999975, 9.706075338000062], [-4.709087687999954, 9.720312195000076], [-4.748645996999926, 9.754496155000027], [-4.801226765999957, 9.766459249000036], [-4.790323038999929, 9.827514953000048], [-4.838459634999936, 9.869450379000057], [-4.89005855299996, 9.879501445000074], [-4.966074584999944, 9.901024679000045], [-4.952948771999957, 9.953372904000048], [-4.976926634999927, 9.997607931000061], [-4.974523681999926, 10.055537211000058], [-5.015580607999937, 10.097110901000065], [-5.070099242999959, 10.110159200000055], [-5.070719360999931, 10.161008809000066], [-5.08441361499996, 10.227438864000021], [-5.111802123999951, 10.278650208000045], [-5.168439492999937, 10.291336771000033], [-5.217583779999927, 10.319939677000036], [-5.279802204999953, 10.32242014600007], [-5.327086141999928, 10.302576396000063], [-5.385738891999949, 10.296478577000073], [-5.437828734999925, 10.34001597100007], [-5.487489786999959, 10.392932638000048], [-5.549708211999928, 10.435643209000034], [-5.621796834999941, 10.446934510000062], [-5.677555705999964, 10.441508484000053], [-5.806281697999964, 10.413474020000024], [-5.878060262999952, 10.376060283000072], [-5.908962767999981, 10.33006825900003], [-5.904725300999928, 10.275291239000069], [-5.963016316999926, 10.282732645000067], [-5.985237182999981, 10.227283834000048], [-6.105333210999959, 10.189275818000056], [-6.180884153999955, 10.215837504000035], [-6.224809122999943, 10.255034078000051], [-6.240673786999935, 10.302576396000063], [-6.183933064999962, 10.358852031000026], [-6.180574096999976, 10.420217794000052], [-6.187498737999931, 10.475408224000034], [-6.238658406999946, 10.512744446000056], [-6.230028441999934, 10.572043152000049], [-6.20444860799995, 10.629610698000022], [-6.246616576999941, 10.657619324000052], [-6.245841430999974, 10.720742087000076], [-6.303564005999931, 10.713171489000047], [-6.367539429999965, 10.692268372000058], [-6.427019002999941, 10.686093038000024], [-6.435855671999946, 10.628706360000024], [-6.39921708299994, 10.59248118100004], [-6.445984252999949, 10.55225107900003], [-6.521380167999951, 10.56421417200005], [-6.578069213999981, 10.591137594000031], [-6.633983113999932, 10.653020122000044], [-6.681938843999944, 10.627388610000025], [-6.682817342999954, 10.565971172000047], [-6.697545124999976, 10.48830149400004], [-6.65398189299998, 10.44003570600006], [-6.668916381999964, 10.361022441000046], [-6.722556518999966, 10.344046733000027], [-6.782087768999929, 10.373037212000042], [-6.862754679999966, 10.343840027000056], [-6.938719034999963, 10.348335877000068], [-6.997113402999958, 10.252760316000035], [-6.961611693999942, 10.211031596000055], [-6.992410847999963, 10.149097392000044], [-7.058246622999945, 10.155970357000058], [-7.089459187999978, 10.197569886000053], [-7.204749308999965, 10.234492697000064], [-7.284020955999949, 10.24655914300007], [-7.346962850999944, 10.247902731000067], [-7.366341511999963, 10.329448141000057], [-7.431402140999978, 10.333737284000051], [-7.461477823999928, 10.388643494000064], [-7.471606404999932, 10.441095072000053], [-7.539612588999944, 10.427633362000051], [-7.607773803999976, 10.41871917700007], [-7.664411173999952, 10.437141825000026], [-7.708646199999976, 10.402466939000021], [-7.73533707699994, 10.347095643000046], [-7.776342325999963, 10.292732035000029], [-7.805074421999961, 10.24183074900003], [-7.847423258999981, 10.197931621000066], [-7.910959430999981, 10.16940623000005], [-7.970904093999934, 10.15506602000005], [-7.98966263899996, 10.16199066200005]]], [[[-3.115305141999954, 5.107814845000064], [-3.163400845999945, 5.125474351000037], [-3.207386847999942, 5.156642970000064], [-3.272328254999934, 5.132391669000071], [-3.163807745999975, 5.101548570000034], [-3.115305141999954, 5.107814845000064]]]]}}]}