{"type": "FeatureCollection", "features": [{"type": "Feature", "properties": {"code": "CMR", "name": "the Republic of Cameroon", "tier": "country"}, "geometry": {"type": "Polygon", "coordinates": [[[14.652975126001309, 12.728379298665743], [14.571626618473715, 12.7765721342966], [14.56861371065429, 12.867055766310614], [14.561985314170954, 12.926968534470348], [14.459546453705912, 13.073165665463137], [14.08534332213668, 13.079035233789057], [14.12210079591506, 12.884091247912806], [14.149216964491359, 12.720738129760946], [14.176935714811464, 12.575512348416169], [14.198026068648176, 12.507280739814348], [14.18958992693365, 12.453741595598217], [14.186577019114168, 12.399014348033802], [14.232975797195309, 12.367820557073117], [14.392057321788002, 12.365466158036838], [14.451712893735134, 12.357814212555922], [14.500521997891951, 12.334268361495731], [14.52763816646825, 12.29070296227195], [14.55415175420012, 12.241830481091881], [14.602358276613245, 12.19766081839208], [14.659603522484645, 12.19177097305203], [14.658398358997147, 12.133454458356596], [14.647069826711174, 12.076138685851731], [14.625473304749278, 12.021828213801086], [14.651167380770062, 11.969039432423926], [14.640923494723552, 11.914212119993408], [14.604768602688921, 11.871167868902091], [14.608384092252095, 11.809832815731909], [14.572831781961213, 11.742584387359614], [14.626461538269439, 11.66056630219316], [14.645744146874904, 11.593871861597165], [14.624653793937512, 11.533656117236092], [14.572229200217464, 11.498229052828549], [14.51799686216549, 11.47460853375685], [14.458943871962163, 11.466340884524243], [14.43363544771779, 11.419092538489906], [14.37699278359014, 11.389558323158155], [14.31974753771874, 11.36829178853526], [14.199231231236354, 11.278482288326984], [14.120895632427562, 11.246569510074892], [14.054009082253401, 11.284982605163123], [13.996763836382002, 11.312164153552885], [13.967839923473718, 11.239477300836825], [13.922646307980756, 11.201058140720647], [13.891312068996854, 11.153174817563809], [13.867811389084409, 11.102918400264002], [13.827438425742798, 11.065663942237165], [13.79610418675884, 11.014209522751344], [13.718371168794476, 10.985817024636049], [13.68583176632302, 10.898256322371424], [13.629189102195369, 10.795280389478421], [13.603880677950997, 10.733122640997124], [13.565315459840633, 10.668583454462919], [13.532776056469856, 10.630090259457972], [13.536391546033087, 10.577968662623732], [13.552661247718447, 10.521691090871172], [13.538801872108763, 10.471921312918312], [13.522532170423403, 10.412068502559407], [13.511685702633145, 10.361688417686366], [13.505659887893557, 10.292328470182781], [13.468299832371429, 10.230069376200788], [13.455645620249243, 10.180253305645579], [13.408644261323673, 10.129243079304729], [13.353809341527949, 10.117379070887466], [13.30198732955165, 10.091276711650949], [13.264627274928841, 10.040845709861685], [13.286922791353788, 9.977944274208937], [13.24956273673098, 9.920372877506338], [13.243536921092073, 9.865759726929923], [13.290538280916962, 9.840824623857372], [13.25920404103374, 9.758287905062843], [13.24956273673098, 9.697114400709097], [13.244139502835822, 9.597312335395998], [13.213407844696349, 9.543240587483183], [13.135674826731929, 9.517092925797954], [13.04167210798147, 9.508178492243644], [12.991657840337098, 9.477867683546833], [12.956105530046216, 9.438637957275944], [12.907296425889399, 9.40415966323792], [12.857282159144404, 9.376217833386363], [12.905488681557472, 9.351246636023461], [12.91633514934773, 9.266212239103595], [12.901873191994241, 9.213278324235318], [12.891026724203982, 9.155577271374], [12.903680937225545, 9.088941726479561], [12.877769931237367, 9.032410782431725], [12.82896082708055, 8.951466852013652], [12.796421423709774, 8.904439669055535], [12.793408515890349, 8.853834046803854], [12.810883381063206, 8.803816944496418], [12.7723181629529, 8.7537930783879], [12.718085824900925, 8.731161023062839], [12.68855932934963, 8.656108084620485], [12.619865034843542, 8.619171770760659], [12.56442753420339, 8.600702259002105], [12.498746146617407, 8.621554867163411], [12.455360276355691, 8.572698379526628], [12.4330647599308, 8.518472241400843], [12.384858237517676, 8.478542586271374], [12.326407829058098, 8.46721849573703], [12.267354838854772, 8.449933714869076], [12.23119994682014, 8.397478608950678], [12.234815435483995, 8.347401211596662], [12.255303207577015, 8.254383318835153], [12.259521278883938, 8.19474492393914], [12.234212853740246, 8.144045255983826], [12.210109592983372, 8.09274258720069], [12.219750897286133, 8.010406064688198], [12.199263125193113, 7.954312220832378], [12.156479836675146, 7.894629495654726], [12.099837172547552, 7.837922919407276], [12.058259046617763, 7.751952973051289], [12.036566111936565, 7.684478136756638], [12.021501572839384, 7.634312898121777], [12.03415578496157, 7.540535920896104], [11.984141518216518, 7.501705095214049], [11.939550484467361, 7.46824806589558], [11.881702657751475, 7.410887204980554], [11.827470319699557, 7.347542578926948], [11.809392873682214, 7.283591202771845], [11.813008363245444, 7.200500566348126], [11.849163255280075, 7.091084667423502], [11.800354151123202, 7.059391036866884], [11.749737301735138, 7.063577112993414], [11.695504963683163, 7.02470495357079], [11.643682952606241, 6.987025759231472], [11.622592598769472, 6.929604009717309], [11.576193820688331, 6.894908309071241], [11.585835124991092, 6.837475365695639], [11.579809310251505, 6.781830618088577], [11.562334445078648, 6.711816812196162], [11.521358900892608, 6.611865157251259], [11.450856862054593, 6.60049212561114], [11.43277941603725, 6.550806877635353], [11.386380637956108, 6.526261734091804], [11.339379278131219, 6.507702412436458], [11.292377919205649, 6.532248465194584], [11.229106857695399, 6.535241804665588], [11.179092590950347, 6.552602815667456], [11.122449926822696, 6.540031109148401], [11.095333757347078, 6.671120393291574], [11.048332398421508, 6.714809061688868], [11.000728456852869, 6.69326445309207], [10.948303864032141, 6.69386292763204], [10.913956716329437, 6.733959023889895], [10.876596661706628, 6.798584554333786], [10.823569486242832, 6.821919419945345], [10.826582394062257, 6.887131338040888], [10.842249514003925, 6.934987597000031], [10.784401687288096, 6.96489529178433], [10.716309973626437, 6.998987737993787], [10.666295706881442, 7.045038489234912], [10.607845298421807, 7.067165148053164], [10.60061431929546, 7.135930415256496], [10.56325426467265, 7.071351153133264], [10.558433612521242, 7.018126266214267], [10.541561329092133, 6.943361943598859], [10.498175458830417, 6.91165827570893], [10.21676988342341, 6.893711860913697], [10.18061499138878, 6.951137988327559], [10.18001240964503, 7.017528199067158], [10.116138767290352, 6.995997271856652], [10.067932244877227, 6.957717619072923], [9.980557922610103, 6.876363013242496], [9.918492024587295, 6.816534552027974], [9.8739009917374, 6.776445300510261], [9.808822185895224, 6.7920027202494], [9.76423115214601, 6.713612163870323], [9.751576940023824, 6.645982680156635], [9.729281423598877, 6.584928605770585], [9.714819467144764, 6.526261734091804], [9.652150987378207, 6.525064379417643], [9.594303160662378, 6.526860410079905], [9.580443785052694, 6.475371633793941], [9.51536497921046, 6.445433881868212], [9.44787584819187, 6.389744968555476], [9.431003564762761, 6.332852184980425], [9.373758319790682, 6.332852184980425], [9.310487258280375, 6.22264206238134], [9.282165926216578, 6.163334632387432], [9.195394185693146, 6.115404590349613], [9.141764429384978, 6.093235491624682], [9.055595270605295, 6.027321962938288], [9.000157769065822, 5.961400426688385], [8.926040240664634, 5.909856250365692], [8.90133439816401, 5.864901012771554], [8.856743364414797, 5.839724495688984], [8.856743364414797, 5.771382543869379], [8.832640103657923, 5.725217084101189], [8.843486570548862, 5.663457460993072], [8.893500838193177, 5.610686724512789], [8.888077604298076, 5.551313940785803], [8.862166598309898, 5.499132918549378], [8.837460755809275, 5.384558593804115], [8.81396007589683, 5.310763665710624], [8.81396007589683, 5.22675869305931], [8.809742004589907, 5.173949788452035], [8.78744648816496, 5.12533769517853], [8.741650291827568, 5.094127979922405], [8.712726378019966, 5.036506069199788], [8.67295599732148, 4.964471503756954], [8.644634665257627, 4.912241518831081], [8.60606944714732, 4.87801965118598], [8.628364963572267, 4.82758424901391], [8.570517136856438, 4.801764673500941], [8.563286158629353, 4.747120028666416], [8.557260342990503, 4.686465411549534], [8.504835749270455, 4.635415365027143], [8.531951918746074, 4.588566193874783], [8.505438331014204, 4.515283131111687], [8.556657761246754, 4.494858658700196], [8.665122437350647, 4.482843994954465], [8.721765101478297, 4.503268804611707], [8.666930181682574, 4.563338441515896], [8.661506947787473, 4.619799318483786], [8.63198045313544, 4.684063139802106], [8.692238605926946, 4.632412305683431], [8.708508307612362, 4.577754408439262], [8.753701922206005, 4.551925595090211], [8.812754912409332, 4.565140453569143], [8.867589832205056, 4.529099360846885], [8.906757632059112, 4.493056471279147], [8.88747502255427, 4.443194207946362], [8.894103419936926, 4.370497406929815], [8.920617006769476, 4.325433860384408], [8.926040240664634, 4.273757695061647], [8.977862252640875, 4.229289367510376], [8.997747442990146, 4.174000863848846], [8.982682904792284, 4.110895099529273], [9.018837796826915, 4.065816490238888], [9.086326928744825, 4.038768112558387], [9.144777337204403, 4.011718833757243], [9.199009675256377, 4.008713302177227], [9.225523262088927, 3.961825595974517], [9.279755600140902, 3.972646073357623], [9.330975030373395, 4.014724353646045], [9.296025301826262, 3.969039263151501], [9.328564704297719, 3.921548135238311], [9.379784134530212, 3.892691446652975], [9.463542968133538, 3.902310453164944], [9.455709408162704, 3.957617594376529], [9.521993376593116, 3.960623312116184], [9.50933916447093, 4.015926558364015], [9.46836362028489, 4.061609023737503], [9.529224354820144, 4.027948508416955], [9.585867018947795, 4.008112195321587], [9.65636905778581, 4.054396174044257], [9.703972999354505, 4.088656635195605], [9.675049085546902, 4.030953968950541], [9.626842563133835, 3.963629019064001], [9.703370417610756, 3.939583060409973], [9.761820826070334, 3.938380744176072], [9.702165255022578, 3.918542276305061], [9.71301172191346, 3.865036191167349], [9.757602755662674, 3.819944171186592], [9.705780743686432, 3.85241066651912], [9.641907101331697, 3.85241066651912], [9.595508323250556, 3.809121732382096], [9.628650307465762, 3.688262010783205], [9.64974066130253, 3.64135676690131], [9.64009935699977, 3.584826690699288], [9.6762542490344, 3.52167726429434], [9.734704657493978, 3.475364956927251], [9.800423705989317, 3.407283250921353], [9.871980262878878, 3.33021090730756], [9.904933940748833, 3.257832602092947], [9.95954289149131, 3.129982951152328], [9.967075160590241, 3.061351296225382], [9.913407743372716, 2.969208753181476], [9.897401670750526, 2.898686296135679], [9.887986334601692, 2.843205535407208], [9.878570998452858, 2.744462022504365], [9.853149589681891, 2.685211980048905], [9.83620198443407, 2.601504656015095], [9.821137446236207, 2.512148014819104], [9.828669715335138, 2.384216341211243], [9.833377382959895, 2.327772077419468], [9.851266522631988, 2.247805514013294], [9.892694003125769, 2.219580967887396], [9.956718290916456, 2.193237570557471], [10.03015791485592, 2.166893710076693], [10.091357602071753, 2.165011988412573], [10.158206490437237, 2.167834570009461], [10.414303641599815, 2.173479718814008], [10.873772060232454, 2.173479718814008], [11.161881355740036, 2.175361429686291], [11.355837286161886, 2.171598004344446], [11.353954219111984, 2.226166743700333], [11.368077223784894, 2.281674249367143], [11.459405987396451, 2.29766754262306], [11.562033155106064, 2.306134507701415], [11.671251057490338, 2.312719889611287], [11.757872152577818, 2.276029515150071], [11.870856189961273, 2.277911095620595], [11.942412746850835, 2.285437393221173], [12.095882731203119, 2.285437393221173], [12.191919162439433, 2.2807334622795], [12.241820446456472, 2.258154378821587], [12.28983866162497, 2.275088724465093], [12.46308085269925, 2.252509552873619], [12.522397471965803, 2.257213575546132], [12.592070961805518, 2.260976783251976], [12.667393653694205, 2.245923894871908], [12.722944137961633, 2.230870850909071], [12.796383762800474, 2.251568746000885], [12.865115719115181, 2.237456577259309], [12.934789208055577, 2.253450358847033], [13.029942952005683, 2.242925058744504], [13.093202244088332, 2.259095180298402], [13.17264414571082, 2.281145056799005], [13.222663120406708, 2.264975180760018], [13.282980119437013, 2.239985017594506], [13.299162728976796, 2.171598004344446], [13.355654747668495, 2.169716288975621], [13.667302383997878, 2.173479718814008], [14.24917017616275, 2.171598004344446], [14.312252930428428, 2.187592496396633], [14.395107891416103, 2.181006549712549], [14.4431261065846, 2.165952849244661], [14.512799596424259, 2.188533343738868], [14.571174682165918, 2.207350162879777], [14.633315902906645, 2.161248536990456], [14.70958012832034, 2.117027295473349], [14.778312084635047, 2.069041115954803], [14.831037968327621, 2.074686625387471], [14.891296122018446, 2.073745708797446], [14.899769924642385, 2.022935380163688], [14.96661881300787, 2.015407788438722], [15.031584634323451, 1.999411539111293], [15.11067346121132, 1.986238040453259], [15.169990080477874, 2.022935380163688], [15.228365166219476, 2.034226703899321], [15.287681786385406, 1.986238040453259], [15.321576996880935, 1.929779007994853], [15.37524441499778, 1.93072000732252], [15.431736433689537, 1.96459563597989], [15.496702255005118, 1.973064436574532], [15.571083413368854, 1.950480873593506], [15.646406104358277, 1.936365992496633], [15.7047811909992, 1.9231919974128], [15.754682474116919, 1.908135878667906], [15.79234381961163, 1.874259130354631], [15.839420502154496, 1.83944067854452], [15.894970986421924, 1.79238764007755], [15.9561706736377, 1.772625001242886], [16.024902629952464, 1.766037407900114], [16.023961096427513, 1.671926425164429], [16.084219249219018, 1.685102240476056], [16.138828200860814, 1.688866742306345], [16.13600359938664, 1.790505493034118], [16.10869912446509, 1.883669404219688], [16.070096244546107, 1.958949745234577], [16.061622441922225, 2.017289689967242], [16.083277715694067, 2.109500148912787], [16.087043850693192, 2.187592496396633], [16.146360469959745, 2.186651649054397], [16.187787950453583, 2.230870850909071], [16.152951205533782, 2.325890562599454], [16.10210838889111, 2.41525970257328], [16.074803913070184, 2.470759696203061], [16.073862379545233, 2.524376131753115], [16.084219249219018, 2.58551497983251], [16.06904172739388, 2.652820738186563], [16.079285613440334, 2.705188032501724], [16.0594004221918, 2.753941758205599], [16.074464960389662, 2.815934349790439], [16.06964430823831, 2.910421540521725], [16.040117813586278, 2.960370182837721], [15.962384795621858, 2.998883263651749], [15.901524061086604, 3.075905337861116], [15.85090721259786, 3.102982097246013], [15.695441176669021, 3.216095205329509], [15.564680984140182, 3.377319753204119], [15.409817530854411, 3.539720397578321], [15.256159239257556, 3.703896543790506], [15.142873911901575, 3.87525671732368], [15.095872552076685, 3.976853997613944], [15.120578394577308, 4.025544133155279], [15.180233966524384, 4.053194025983544], [15.138655840594595, 4.094667092212603], [15.102500948559964, 4.13373395665684], [15.096475133820434, 4.187222383606183], [15.089244155593349, 4.292986444169117], [15.038024724461536, 4.357879886247815], [15.01090855588518, 4.41555824561658], [14.954868473501278, 4.435984925863693], [14.900033553705612, 4.468426138555515], [14.810248905362755, 4.528498660484843], [14.74637526300802, 4.592770733082887], [14.717451349200473, 4.662442322655124], [14.712630697049065, 4.803566070417844], [14.701181648414376, 4.898432905454285], [14.689732598880369, 4.957267613109877], [14.673462898094328, 5.034105044812009], [14.690335180624118, 5.102530745097852], [14.677680968501932, 5.169748890598896], [14.639718332135374, 5.214156970767647], [14.564998221990379, 5.236959901778107], [14.52763816646825, 5.27596298450419], [14.556562080275853, 5.334163019907464], [14.572229200217464, 5.39055778951041], [14.611999581815326, 5.474540273714695], [14.606576347920168, 5.558510961511729], [14.613204744403504, 5.670653097662353], [14.624051212193763, 5.734810215319214], [14.62164088611803, 5.798960117715296], [14.618627978298605, 5.877488845933556], [14.59512729838616, 5.922443063696505], [14.537279471670331, 5.9002661048969], [14.487867785769765, 5.917048750199683], [14.466777431932996, 5.975783985642465], [14.422788979927532, 6.027321962938288], [14.429417377310187, 6.086644501542537], [14.485457459694032, 6.115404590349613], [14.525227840392574, 6.16093823321296], [14.579460178444549, 6.19388777689943], [14.690937762367867, 6.231028432915878], [14.746977844751768, 6.261577647390538], [14.800005019316245, 6.332852184980425], [14.810851487106504, 6.400523942226187], [14.892199993734778, 6.572956336066113], [14.9687278482117, 6.743533721703955], [15.054294426146896, 6.764477712676353], [15.10912934594262, 6.879354238407416], [15.127809372804336, 6.929005830155006], [15.142271330157826, 6.997791554236869], [15.165169428326521, 7.05879302277981], [15.215786276815265, 7.133538752811262], [15.221209510710423, 7.204087528516652], [15.231453396756876, 7.25609527837446], [15.330879349402494, 7.343956763393976], [15.415843345593998, 7.416265104051377], [15.465857613238313, 7.48736668312597], [15.512858972163883, 7.542328028715588], [15.558655169400595, 7.588920226687151], [15.589386827540125, 7.686866810754736], [15.596015224023404, 7.754341264837535], [15.54539837553466, 7.781208616184756], [15.465255031494564, 7.864187982189662], [15.429100139459933, 7.96505419099816], [15.397163317832906, 8.039046752305808], [15.39475299175723, 8.095725480146825], [15.289301224372082, 8.302683821301343], [15.27001861486724, 8.383767581908444], [15.228440488937451, 8.525027459149953], [15.213978532483338, 8.584019344916896], [15.177823640448707, 8.626916780784882], [15.097077714664863, 8.668617950158307], [15.020549860187941, 8.667426552593383], [14.98439496815331, 8.70912322805458], [14.922329071029878, 8.751410821951936], [14.89702064588613, 8.805007906789513], [14.82953151486754, 8.791907112023637], [14.761439801205938, 8.813940000330774], [14.66201384856032, 8.9080115666805], [14.610191836584022, 8.964561948675055], [14.552946591611942, 9.00860562355075], [14.492085856177368, 9.046098036795001], [14.477623899723255, 9.099056850293437], [14.437853518125394, 9.134160060738282], [14.380005691409565, 9.195433641649288], [14.389646995712326, 9.248964983347378], [14.3360172394041, 9.332219757735686], [14.281182320507753, 9.36729975487981], [14.223937074636353, 9.426154834877764], [14.188384764345471, 9.467169111065687], [14.116074980276153, 9.526007126427771], [14.062445223967984, 9.591370806017949], [14.025085168445798, 9.641870479139357], [14.02870065800903, 9.71255731247004], [14.065458131787409, 9.757694041346952], [14.124511121990736, 9.827168888033782], [14.164884084433027, 9.882975721352523], [14.193807998240572, 9.979724671056772], [14.305285581264627, 10.003462363697167], [14.359517919316545, 9.9957478029188], [14.419173491263678, 10.002868942447776], [14.483649715362105, 10.007022867811145], [14.598742787949334, 9.982098517932286], [14.673462898094328, 9.95539174053647], [14.739144284780991, 9.949456603539488], [14.835557329607127, 9.92274715605646], [14.879545781612592, 9.948863084263962], [14.934983283152064, 9.980318134574304], [15.008498229809504, 9.99337405586806], [15.0585124965545, 9.967261689875158], [15.123591302396733, 9.991593733663933], [15.175413314373031, 9.970229109086176], [15.232658560244431, 9.985065803144323], [15.293519294779685, 9.977944274208937], [15.34353356152468, 9.96132676871548], [15.430305302947431, 9.93521183605742], [15.522500277365964, 9.94708251924294], [15.587579082308878, 9.954204721770566], [15.6695301706809, 9.97913120663992], [15.63940109428512, 10.02719832064605], [15.552026772017939, 10.078224737481719], [15.486345385331333, 10.122124726774757], [15.452600819372378, 10.178474015863173], [15.356790355390615, 10.28106344712046], [15.292916713035936, 10.340941319786111], [15.27604443050609, 10.406734524578667], [15.238081793240212, 10.477254172142352], [15.188670108238966, 10.511026813136993], [15.147091982309178, 10.566121608225671], [15.15613070486819, 10.62357554537516], [15.130219699779389, 10.699374504729633], [15.09888545989611, 10.7455552161004], [15.072974453907989, 10.818364283085259], [15.095269970332936, 10.873995075012772], [15.08261575821075, 10.953872199942111], [15.049473773995544, 11.011843586312523], [15.034409235797625, 11.09877925076188], [15.038024724461536, 11.222928135724942], [15.052486681814969, 11.310982400317585], [15.063935730449657, 11.365928741618177], [15.073577035651738, 11.43385849367462], [15.133835188443243, 11.515943143061634], [15.138053258850846, 11.571440058312078], [15.095872552076685, 11.611579907486771], [15.077192524315592, 11.671778841720197], [15.089846736437778, 11.727244725863443], [15.11455257983772, 11.781519693579071], [15.087436410362102, 11.853476478456741], [15.051281518327471, 11.896523526439637], [15.062730567861479, 11.955481023030814], [15.086231247773924, 12.007352997742714], [15.055499589634394, 12.066875568053092], [15.01512662629284, 12.11990434790738], [14.95426589175753, 12.110477777427548], [14.906059369344462, 12.174100652822915], [14.906059369344462, 12.39724876212074], [14.875327711204932, 12.474334884247583], [14.854839939111969, 12.566690313906918], [14.840377982657799, 12.61961797219169], [14.781927573298901, 12.640785974393225], [14.754811404722602, 12.68605608621948], [14.712630697049065, 12.721913709150385], [14.652975126001309, 12.728379298665743]]]}}]}