{"type": "FeatureCollection", "features": [{"type": "Feature", "properties": {"code": "COD", "name": "Democratic Republic of the Congo", "tier": "country"}, "geometry": {"type": "MultiPolygon", "coordinates": [[[[29.3978364, -5.6349501], [29.3978364, -5.6349501]]], [[[12.48056875, -6.001707420858748], [12.48056875, -6.001707420858748]]], [[[12.48056875, -5.985156786226608], [12.4252756, -5.992758], [12.4756949, -6.0002699], [12.48056875, -5.985156786226608]]], [[[12.566, -6.000171], [12.566, -6.000171]]], [[[12.611574, -5.992644], [12.611574, -5.992644]]], [[[12.739454, -5.993702], [12.739454, -5.993702]]], [[[12.786665, -5.899215], [12.786665, -5.899215]]], [[[12.7582848, -5.945257], [12.7582848, -5.945257]]], [[[12.874932, -5.861428], [12.828146, -5.884564], [12.7854179, -5.9122268], [12.7564162, -5.9567676], [12.811141, -5.955992], [12.8452455, -5.9182126], [12.9039101, -5.8968045], [12.953902, -5.901787], [13.000212, -5.867558], [12.950628, -5.882193], [12.892031, -5.864197], [12.874932, -5.861428]]], [[[12.810396, -5.883851], [12.810396, -5.883851]]], [[[12.945039, -5.862849], [12.945039, -5.862849]]], [[[12.852161, -5.861727], [12.852161, -5.861727]]], [[[12.921625, -5.862891], [12.921625, -5.862891]]], [[[12.944538, -5.859111], [12.895455, -5.843212], [12.943775, -5.856532], [12.944538, -5.859111]]], [[[12.2009869, -5.7711367], [12.2293469, -5.8153524], [12.266994, -5.856216], [12.315097, -5.907442], [12.354237, -5.951928], [12.3923411, -5.9964996], [12.443383, -5.977075], [12.490562, -5.955141], [12.542391, -5.928328], [12.591355, -5.908966], [12.632772, -5.939541], [12.629083, -5.989758], [12.679745, -5.996157], [12.72819, -5.979615], [12.7451895, -5.9317807], [12.779497, -5.89017], [12.826154, -5.867424], [12.883838, -5.853475], [12.945097, -5.846874], [12.995998, -5.858911], [13.057487, -5.861189], [13.100095, -5.8894798], [13.1696529, -5.8750593], [13.2226696, -5.8619111], [13.2896827, -5.8784523], [13.3541509, -5.90899], [13.3872334, -5.8703938], [13.44029, -5.8655016], [13.506708, -5.8667056], [13.5604695, -5.8865235], [13.616959, -5.872888], [13.711775, -5.869172], [13.773884, -5.869351], [13.829343, -5.865338], [13.884415, -5.854643], [13.959918, -5.850908], [14.004474, -5.828105], [14.051483, -5.850571], [14.102277, -5.837449], [14.153576, -5.846461], [14.200033, -5.865792], [14.251038, -5.872864], [14.303856, -5.871642], [14.36139, -5.89147], [14.412307, -5.896794], [14.5054, -5.887366], [14.595772, -5.904712], [14.699551, -5.877845], [14.944686, -5.865682], [15.225235, -5.869698], [15.303715, -5.866757], [15.419506, -5.869892], [15.680059, -5.861875], [15.814429, -5.8778], [15.887956, -5.873063], [16.101252, -5.865814], [16.174366, -5.860046], [16.354584, -5.862075], [16.404471, -5.868191], [16.4542843, -5.8587876], [16.5081212, -5.8542414], [16.5548744, -5.8745283], [16.580512, -5.9219034], [16.5898645, -5.9720754], [16.5886388, -6.0284903], [16.6331232, -6.0637496], [16.6649694, -6.1073014], [16.7120874, -6.1284413], [16.7241037, -6.178619], [16.7101103, -6.253397], [16.714973, -6.3061657], [16.6945669, -6.3553522], [16.7222513, -6.4001385], [16.7182562, -6.4502006], [16.7297372, -6.50051], [16.7414945, -6.5499251], [16.7567285, -6.6026916], [16.7547669, -6.6549928], [16.7630799, -6.707211], [16.8013604, -6.7443756], [16.8080952, -6.7947543], [16.8417008, -6.8645445], [16.9048722, -6.9023786], [16.9051633, -6.9540315], [16.9033273, -7.0189296], [16.9623788, -7.0501072], [16.9563706, -7.1035982], [16.9284361, -7.147301], [16.9531091, -7.197448], [16.9541906, -7.2504294], [16.9989427, -7.2972378], [17.0526727, -7.3237993], [17.106231, -7.3498485], [17.1012529, -7.4131773], [17.1541246, -7.4208374], [17.1536096, -7.4763268], [17.2015031, -7.5073025], [17.2092279, -7.5585266], [17.2427447, -7.6029244], [17.2923145, -7.6213953], [17.2980626, -7.6719405], [17.3279128, -7.7131556], [17.3270551, -7.7639429], [17.3808586, -7.7768503], [17.4028754, -7.8220369], [17.4249857, -7.8684064], [17.4433542, -7.9223547], [17.4849658, -7.961242], [17.5023159, -8.011496], [17.5322409, -8.0546944], [17.5398695, -8.1120279], [17.5917666, -8.1262213], [17.6416207, -8.1160081], [17.6901784, -8.1039989], [17.7432827, -8.1004113], [17.7942501, -8.1117306], [17.8427842, -8.0887185], [17.8962089, -8.0810444], [17.9485683, -8.088488], [18.103629, -8.096584], [18.0980287, -8.0447023], [18.1449386, -8.0242935], [18.1887217, -7.9974063], [18.2376609, -7.9853584], [18.28937, -7.9905821], [18.3333656, -8.0168529], [18.3837267, -8.0187861], [18.531911, -8.0], [18.53332, -7.948331], [18.761, -7.916667], [18.780571, -7.963038], [19.381333, -8.0], [19.358454, -7.949362], [19.341656, -7.901446], [19.365354, -7.852931], [19.369915, -7.80218], [19.389709, -7.755302], [19.406746, -7.707077], [19.394809, -7.658093], [19.374785, -7.609188], [19.473334, -7.571971], [19.492607, -7.525462], [19.521598, -7.48379], [19.534095, -7.434345], [19.508736, -7.390616], [19.501406, -7.340041], [19.490501, -7.289426], [19.506855, -7.240978], [19.504981, -7.183688], [19.516455, -7.132932], [19.537977, -7.085823], [19.5557085, -7.0343408], [19.9243796, -7.0000403], [20.302885, -7.0], [20.308938, -6.949325], [20.6271616, -6.9166681], [20.6200663, -6.9711783], [20.5995876, -7.018316], [20.589363, -7.0687336], [20.5659251, -7.1129812], [20.5587992, -7.1652093], [20.5585454, -7.2182662], [20.5528984, -7.2680288], [21.162186, -7.283333], [21.789226, -7.283333], [21.8156332, -7.3288157], [21.8439022, -7.3748555], [21.8579085, -7.4252379], [21.8623119, -7.4778472], [21.8422052, -7.5243454], [21.8530839, -7.5772859], [21.8334975, -7.6267915], [21.8168394, -7.6812648], [21.8022583, -7.7326276], [21.7764635, -7.7823961], [21.7712759, -7.8341551], [21.7729187, -7.8989624], [21.7528497, -7.9447885], [21.7637784, -7.9999379], [21.791975, -8.0423234], [21.827104, -8.0795103], [21.8455223, -8.1330885], [21.883612, -8.1763496], [21.8809673, -8.2289744], [21.8927378, -8.2911631], [21.9327003, -8.3274325], [21.9216273, -8.3891523], [21.9491689, -8.4404672], [21.9487617, -8.4920255], [21.9414247, -8.5436905], [21.9201723, -8.5911583], [21.9076165, -8.6463562], [21.9012317, -8.697175], [21.8957027, -8.7531027], [21.8860826, -8.8073028], [21.8610634, -8.8544319], [21.8604333, -8.9139624], [21.8529345, -8.9668764], [21.8474077, -9.0194599], [21.8380327, -9.0720172], [21.841058, -9.1264754], [21.8549532, -9.1749547], [21.8595372, -9.2274816], [21.8398498, -9.2748351], [21.8084461, -9.3320713], [21.8029538, -9.3826453], [21.8060271, -9.4343188], [21.8294168, -9.4848763], [21.847252, -9.533802], [21.8610142, -9.5957329], [21.875324, -9.6443564], [21.9157754, -9.6794673], [21.955859, -9.7203776], [21.9977801, -9.7498684], [22.0093091, -9.8066762], [22.0494531, -9.8479808], [22.0878524, -9.8811188], [22.1396461, -9.8869819], [22.1868376, -9.9212768], [22.1981439, -9.9721802], [22.2138389, -10.0206589], [22.2216682, -10.0711118], [22.2195408, -10.121824], [22.230902, -10.174132], [22.2432136, -10.2231351], [22.2771469, -10.261011], [22.2921507, -10.3091651], [22.3145512, -10.3550714], [22.3204115, -10.4080278], [22.2910514, -10.4585805], [22.2718315, -10.5085286], [22.3095672, -10.5550517], [22.3117705, -10.6128154], [22.3109047, -10.663419], [22.3233998, -10.7187936], [22.316377, -10.768756], [22.2681435, -10.7849817], [22.2243582, -10.810978], [22.1824314, -10.8446257], [22.180282, -10.89809], [22.204086, -10.94221], [22.205341, -10.993531], [22.216665, -11.045966], [22.212992, -11.098208], [22.248904, -11.13432], [22.269064, -11.192854], [22.250276, -11.244241], [22.311464, -11.236191], [22.347332, -11.189615], [22.410873, -11.174281], [22.462472, -11.153394], [22.502364, -11.111912], [22.490605, -11.058026], [22.540571, -11.038145], [22.593693, -11.036606], [22.633432, -11.070574], [22.685682, -11.095547], [22.745569, -11.110822], [22.799697, -11.09288], [22.845461, -11.068695], [22.906682, -11.086697], [22.960712, -11.087496], [23.011969, -11.089182], [23.064764, -11.107367], [23.122954, -11.098638], [23.18472, -11.105912], [23.237091, -11.071544], [23.287158, -11.039539], [23.334922, -11.012323], [23.379612, -10.976635], [23.424628, -10.948995], [23.486616, -10.938246], [23.558949, -10.963623], [23.610351, -10.982131], [23.661832, -10.998941], [23.720588, -10.999103], [23.778212, -10.994173], [23.825614, -11.020843], [23.881753, -11.019183], [23.921733, -10.957053], [23.966237, -10.915581], [24.015149, -10.8959229], [24.0796981, -10.8960881], [24.1324772, -10.9247491], [24.1369329, -10.9763122], [24.1439542, -11.0312432], [24.1938803, -11.0258135], [24.2405699, -11.0483922], [24.3018313, -11.0413872], [24.3462565, -11.0701999], [24.3878212, -11.0982543], [24.3861324, -11.1553282], [24.3987466, -11.2181922], [24.3929162, -11.2702572], [24.3636486, -11.3287269], [24.3211908, -11.372169], [24.3549208, -11.4097708], [24.4036127, -11.4247983], [24.438963, -11.4639181], [24.4964686, -11.4662061], [24.5456667, -11.4472311], [24.5914361, -11.4198315], [24.641617, -11.4012204], [24.672015, -11.3527283], [24.7282618, -11.3289475], [24.773068, -11.3031865], [24.8253106, -11.2965694], [24.8676499, -11.2683305], [24.9218349, -11.264815], [24.9719695, -11.2602677], [25.0278243, -11.2450459], [25.0992144, -11.251179], [25.1489382, -11.236792], [25.2051103, -11.2361329], [25.2541176, -11.2137787], [25.3021791, -11.191711], [25.3523996, -11.1961246], [25.3368472, -11.244616], [25.3204541, -11.293031], [25.313482, -11.3468936], [25.2833325, -11.3970281], [25.3061834, -11.458206], [25.3218887, -11.5069267], [25.3073229, -11.5566674], [25.3316769, -11.6066491], [25.3697363, -11.6495488], [25.4205332, -11.6734442], [25.4723491, -11.6824114], [25.4949199, -11.7292342], [25.4953275, -11.7842089], [25.5533422, -11.7646971], [25.5959104, -11.7344903], [25.6510647, -11.7314337], [25.6845079, -11.7835314], [25.7257725, -11.8144124], [25.7804235, -11.8284113], [25.8327359, -11.8285901], [25.8869431, -11.8082625], [25.9008009, -11.8576437], [25.9496925, -11.8841047], [25.9937066, -11.9100109], [26.0414618, -11.9424035], [26.0938412, -11.9369167], [26.1454974, -11.9364974], [26.1968867, -11.9277292], [26.249229, -11.9427113], [26.3027511, -11.947529], [26.3543303, -11.9479952], [26.4049374, -11.929176], [26.4599842, -11.9150099], [26.4999318, -11.9520049], [26.5462748, -11.9725311], [26.599979, -11.9736205], [26.6504957, -11.988711], [26.7025052, -12.0041645], [26.7425312, -11.9737416], [26.7980393, -11.9732002], [26.848213, -11.9867272], [26.8943014, -11.9648783], [26.9387557, -11.9399125], [26.9681699, -11.8888007], [27.0069199, -11.8424046], [27.0050571, -11.791545], [27.0201617, -11.7412349], [27.0440886, -11.6936637], [27.0220581, -11.6470608], [27.0390046, -11.5974318], [27.0912966, -11.6046946], [27.1428624, -11.5992879], [27.1906757, -11.5843588], [27.2202513, -11.6280565], [27.2353821, -11.6833747], [27.2223898, -11.7405086], [27.2430585, -11.7943711], [27.3030846, -11.8167103], [27.3543534, -11.8512576], [27.3991469, -11.8770444], [27.4428358, -11.915515], [27.4763167, -11.9543284], [27.4626615, -12.0069917], [27.4753919, -12.0555434], [27.5125927, -12.0922369], [27.5217522, -12.1494963], [27.5545361, -12.1903386], [27.5990823, -12.215815], [27.6300206, -12.2574765], [27.6740443, -12.2845092], [27.7288511, -12.2797417], [27.7809806, -12.2663933], [27.8182192, -12.2312944], [27.8753158, -12.2349357], [27.9274198, -12.2427063], [27.9431862, -12.2912816], [27.9458139, -12.3422219], [27.9975049, -12.3386557], [28.0518404, -12.3502729], [28.094447, -12.3767003], [28.1201612, -12.4307938], [28.1644195, -12.3890506], [28.2199771, -12.403991], [28.2768969, -12.4254779], [28.3329613, -12.4292506], [28.374667, -12.4605205], [28.4073258, -12.5011376], [28.4476426, -12.5342093], [28.4741826, -12.5776418], [28.518929, -12.6107887], [28.5163763, -12.6649573], [28.4670502, -12.6901084], [28.4757968, -12.7473927], [28.5189665, -12.7960807], [28.5433292, -12.8446185], [28.5626993, -12.8951083], [28.6001256, -12.8575319], [28.6345863, -12.8172151], [28.6753536, -12.8464204], [28.7184482, -12.8794546], [28.7444856, -12.9244158], [28.7856948, -12.9557498], [28.823484, -13.0025761], [28.8264346, -13.0537701], [28.8474512, -13.1096689], [28.8669947, -13.1578431], [28.9167456, -13.1862247], [28.93277, -13.2543148], [28.9449876, -13.3065378], [28.9590909, -13.3547962], [28.9891066, -13.398336], [29.0486747, -13.4025669], [29.0979437, -13.3781962], [29.149653, -13.3869353], [29.172078, -13.4341927], [29.2173896, -13.4099539], [29.2625343, -13.3849033], [29.3107436, -13.3553385], [29.3588937, -13.3377298], [29.4096185, -13.315534], [29.4644569, -13.2966528], [29.4997335, -13.2601333], [29.53977, -13.2271206], [29.5855634, -13.2036685], [29.6408829, -13.2435669], [29.646308, -13.2944437], [29.6519895, -13.346004], [29.6044446, -13.3647997], [29.6261452, -13.414096], [29.6810375, -13.4282356], [29.7264037, -13.459035], [29.7764238, -13.4331696], [29.8147589, -13.0969077], [29.8147589, -12.7949488], [29.8147589, -12.4565465], [29.81479, -12.1499468], [29.7605885, -12.156851], [29.737252, -12.2017683], [29.6910229, -12.2279896], [29.6367757, -12.2279034], [29.5871408, -12.1946252], [29.5313331, -12.2307705], [29.4823812, -12.2493992], [29.4591787, -12.3092565], [29.4786404, -12.3718841], [29.5256741, -12.3927331], [29.5113764, -12.4417166], [29.4619444, -12.4519984], [29.4121565, -12.4370047], [29.3595508, -12.4126831], [29.3004719, -12.4109337], [29.2771099, -12.3646425], [29.2282868, -12.3755562], [29.1753517, -12.3728042], [29.1249994, -12.396716], [29.0640283, -12.3857435], [29.0199471, -12.3403983], [29.0056953, -12.2853517], [28.9479895, -12.2049821], [28.9003871, -12.1613626], [28.8547226, -12.1349997], [28.8162912, -12.0840667], [28.7762063, -12.0464297], [28.7649516, -11.9935668], [28.7000621, -11.9843965], [28.6590587, -11.9546922], [28.6207883, -11.9176752], [28.5699791, -11.9053853], [28.5241863, -11.8839766], [28.4851931, -11.8395927], [28.43559, -11.8159595], [28.4455707, -11.7506009], [28.4378311, -11.6980611], [28.4249083, -11.6323344], [28.3874222, -11.5914436], [28.3886573, -11.533028], [28.3966685, -11.4733107], [28.4239069, -11.4297494], [28.4459453, -11.3777264], [28.4512509, -11.3221892], [28.4765732, -11.258443], [28.4811805, -11.2007647], [28.4997516, -11.1469419], [28.4784395, -11.0981218], [28.4977441, -11.0478787], [28.5134996, -10.9981421], [28.540304, -10.9475375], [28.5441761, -10.8823124], [28.5571129, -10.8285677], [28.5965954, -10.7800457], [28.6087259, -10.7249918], [28.6623354, -10.7223004], [28.6892241, -10.6784283], [28.6704094, -10.6269964], [28.6672323, -10.5769305], [28.6318789, -10.521339], [28.6335701, -10.4655853], [28.6397885, -10.4157461], [28.6183737, -10.3646911], [28.6360626, -10.3106433], [28.6072789, -10.2614482], [28.5770502, -10.2211896], [28.6111272, -10.1782737], [28.6255575, -10.1242125], [28.6289263, -10.0625892], [28.6352778, -10.008012], [28.6281869, -9.9581311], [28.6471249, -9.9047261], [28.6658148, -9.8543588], [28.6946559, -9.8122095], [28.6777925, -9.7646989], [28.6316564, -9.7372056], [28.6233829, -9.6765344], [28.6079633, -9.6256875], [28.5856742, -9.5802771], [28.5711417, -9.5159763], [28.535243, -9.4780829], [28.5151104, -9.4287682], [28.5023017, -9.3753519], [28.4997268, -9.431747], [28.5234161, -9.4766194], [28.5560317, -9.5181], [28.5436721, -9.5685471], [28.5100265, -9.5253797], [28.4430785, -9.5262262], [28.3591361, -9.50354], [28.361711, -9.4471567], [28.3298753, -9.3728061], [28.3306501, -9.3149245], [28.324127, -9.2634238], [28.3532212, -9.217629], [28.340175, -9.1625552], [28.3460996, -9.1088765], [28.381717, -9.0662826], [28.4194619, -9.0332873], [28.4613523, -8.9974924], [28.4958607, -8.9576137], [28.528823, -8.9173133], [28.5684605, -8.8711405], [28.6032063, -8.832658], [28.6374335, -8.7928682], [28.6712214, -8.7448526], [28.7265012, -8.7110193], [28.755484, -8.6680526], [28.7936066, -8.615537], [28.8306751, -8.5590981], [28.8615408, -8.5135872], [28.89954040332713, -8.479585705863274], [29.2300621, -8.4452049], [29.6070479, -8.4067668], [30.1013847, -8.3451636], [30.566652000311578, -8.29544517340708], [30.581, -8.2452499], [30.58375, -8.1884999], [30.5755067, -8.138832], [30.535, -8.1082499], [30.51775, -8.0609999], [30.47225, -8.0264999], [30.443, -7.9839999], [30.40075, -7.9459999], [30.36325, -7.9069999], [30.3065, -7.8959999], [30.2825, -7.8507499], [30.26725, -7.7982499], [30.26675, -7.7469999], [30.232, -7.7087499], [30.217, -7.6587499], [30.202, -7.6059999], [30.21825, -7.5564999], [30.2135, -7.4989999], [30.203, -7.4409999], [30.18875, -7.3879999], [30.15925, -7.3444999], [30.138, -7.2882499], [30.122, -7.2407499], [30.08475, -7.2029999], [30.04325, -7.1692499], [30.0025, -7.1347499], [29.9593313, -7.0991851], [29.9012173, -7.0826126], [29.8477411, -7.0785541], [29.7991194, -7.0573444], [29.7609145, -7.0189306], [29.736, -6.9714999], [29.695, -6.9304999], [29.6621469, -6.8747373], [29.5568599, -6.7755245], [29.5272211, -6.7274656], [29.4964102, -6.6838623], [29.48575, -6.6294999], [29.496, -6.5714999], [29.49025, -6.5199999], [29.43725, -6.5107499], [29.413, -6.4642499], [29.4045, -6.4117499], [29.37775, -6.3684999], [29.36325, -6.3194999], [29.341, -6.2707499], [29.334, -6.2187499], [29.29825, -6.1759999], [29.282, -6.1274999], [29.23225, -6.1037499], [29.1985, -6.0627499], [29.1933178, -6.00753], [29.1962157, -5.9573069], [29.2147832, -5.9083512], [29.2633402, -5.8713381], [29.3338398, -5.8180962], [29.3504936, -5.766568], [29.3609957, -5.7153342], [29.3471595, -5.665897], [29.3874191, -5.6359933], [29.3712021, -5.5869728], [29.3426543, -5.5438835], [29.3137998, -5.4965928], [29.2863379, -5.453847], [29.2530547, -5.4096292], [29.2268693, -5.3596217], [29.1986285, -5.3172302], [29.174709, -5.2710257], [29.152, -5.2257499], [29.14675, -5.1754999], [29.12625, -5.1262499], [29.11075, -5.0784999], [29.1245, -5.0302499], [29.1187908, -4.9800968], [29.109, -4.9207499], [29.10825, -4.8644999], [29.10375, -4.8132499], [29.102, -4.7617499], [29.1165, -4.7002499], [29.10925, -4.6489999], [29.12375, -4.5972499], [29.1575, -4.5527499], [29.16325, -4.5019999], [29.2115, -4.5209999], [29.212, -4.4692499], [29.20875, -4.4137499], [29.2185, -4.3644999], [29.22975, -4.3039999], [29.24125, -4.2549999], [29.25025, -4.2049999], [29.2595, -4.1544999], [29.26125, -4.0967499], [29.24275, -4.0499999], [29.2185, -4.0964999], [29.20475, -4.1597499], [29.1865, -4.2112499], [29.1685, -4.2614999], [29.155, -4.3122499], [29.10625, -4.3314999], [29.0575, -4.3042499], [29.08225, -4.2564999], [29.1095, -4.2129999], [29.0903589, -4.1598454], [29.0971835, -4.110158], [29.0909446, -4.058624], [29.1057529, -4.0077577], [29.10875, -3.9547499], [29.10275, -3.9014999], [29.1135, -3.8479999], [29.10625, -3.7954999], [29.1118645, -3.7385172], [29.132069, -3.6917482], [29.1530973, -3.6443557], [29.1476751, -3.5944101], [29.1490705, -3.5399925], [29.1426875, -3.4857078], [29.1319137, -3.4367847], [29.1457047, -3.3830497], [29.1878315, -3.3467787], [29.2134209, -3.2988327], [29.2310954, -3.2510653], [29.2291506, -3.2005989], [29.2394824, -3.1489141], [29.2469847, -3.0962129], [29.2401013, -3.0410925], [29.1939677, -3.0086604], [29.1660252, -2.9643333], [29.1285419, -2.929934], [29.0897522, -2.8896918], [29.0662556, -2.8448863], [29.0198689, -2.8206508], [29.0180373, -2.7705273], [29.0214636, -2.720199], [28.9751106, -2.6955956], [28.9223163, -2.6821218], [28.9041937, -2.6272732], [28.8954559, -2.5752299], [28.8630048, -2.5335924], [28.8930159, -2.4909568], [28.8680604, -2.4455225], [28.8830718, -2.3935685], [28.9313799, -2.3719108], [28.9783492, -2.3442957], [28.9984275, -2.297711], [29.0920513, -2.2765001], [29.1635324, -2.1569793], [29.1735035, -2.0943262], [29.1620014, -2.0372474], [29.1275344, -1.9359661], [29.1316563, -1.8774349], [29.1493609, -1.8297384], [29.2422663, -1.6999423], [29.2615917, -1.649551], [29.2986246, -1.6064464], [29.3280433, -1.5651216], [29.3618133, -1.5089122], [29.4503258, -1.506156], [29.4852873, -1.4580605], [29.5212862, -1.4214682], [29.5592572, -1.3881318], [29.608076, -1.318062], [29.596223, -1.252404], [29.584635, -1.199913], [29.580558, -1.147997], [29.5908, -1.05358], [29.586335, -0.997818], [29.590308, -0.946703], [29.638262, -0.90053], [29.6308635, -0.8478341], [29.6335389, -0.7973497], [29.6322705, -0.7463337], [29.6332596, -0.6955249], [29.6515494, -0.6483776], [29.650721, -0.597361], [29.6550695, -0.5467871], [29.6789324, -0.5000943], [29.6859182, -0.4494177], [29.6412461, -0.477322], [29.6161835, -0.534998], [29.5948975, -0.5828892], [29.5627968, -0.6218542], [29.501857, -0.6429673], [29.4558518, -0.6094953], [29.4149152, -0.6385038], [29.3952559, -0.6858847], [29.3698532, -0.623069], [29.3390054, -0.58329], [29.3396207, -0.5312421], [29.3166847, -0.4860958], [29.3694084, -0.4547923], [29.3812858, -0.3995485], [29.4098352, -0.351304], [29.4428404, -0.3035046], [29.4626201, -0.238358], [29.4832561, -0.1927704], [29.529892, -0.1640508], [29.5895913, -0.1482335], [29.6472933, -0.1356119], [29.6988185, -0.0854956], [29.7292355, -0.0426818], [29.725276, 0.0088399], [29.7211885, 0.0587226], [29.7342842, 0.1091183], [29.7673894, 0.1479977], [29.8153837, 0.1628118], [29.8724054, 0.388035], [29.961919, 0.5001196], [29.9796867, 0.5484668], [29.9699775, 0.6053131], [29.9585152, 0.6584661], [29.972436, 0.7101943], [29.9712852, 0.7605835], [29.9734725, 0.8145286], [30.0080211, 0.8549058], [30.0593293, 0.8721578], [30.1047368, 0.8943753], [30.1554492, 0.8860915], [30.172768, 0.9344651], [30.2010458, 0.9763561], [30.2263733, 1.02008], [30.2291976, 1.0722916], [30.234646, 1.1264716], [30.2730096, 1.1617775], [30.3236094, 1.1568934], [30.3599558, 1.2016562], [30.4112451, 1.1980135], [30.4611094, 1.2022516], [30.4673342, 1.2594171], [30.4148867, 1.2689325], [30.3648796, 1.2691684], [30.3851186, 1.3192653], [30.4243256, 1.3559321], [30.4521767, 1.4016887], [30.4890926, 1.4594194], [30.5014233, 1.5109936], [30.5407659, 1.5544109], [30.5848591, 1.5818842], [30.652826, 1.6306174], [30.6782225, 1.677992], [30.7304061, 1.710809], [30.7542964, 1.7579744], [30.8101309, 1.7866221], [30.8453905, 1.829896], [30.8809146, 1.8689313], [30.9214083, 1.9034464], [30.9660999, 1.9400352], [31.0117971, 1.960703], [31.0595333, 2.0004038], [31.1191896, 2.0330696], [31.1746859, 2.0717318], [31.2123587, 2.1101536], [31.2502115, 2.1432474], [31.2483626, 2.1996687], [31.2032741, 2.2932141], [31.1526116, 2.280148], [31.1014779, 2.2788513], [31.0738251, 2.3224324], [31.0299782, 2.3787763], [30.9824241, 2.4047873], [30.9417926, 2.3743962], [30.9111017, 2.3318747], [30.8736231, 2.3657307], [30.8410068, 2.4041392], [30.7960307, 2.4278252], [30.7418058, 2.4479669], [30.7585413, 2.4977705], [30.7588593, 2.5503489], [30.7720205, 2.6023263], [30.7928862, 2.6531431], [30.8071569, 2.7037772], [30.8316109, 2.7521977], [30.8665572, 2.7888221], [30.8839104, 2.8378825], [30.8743079, 2.8909527], [30.8544959, 2.9409375], [30.8254696, 2.9886784], [30.7807101, 3.0226612], [30.7931062, 3.0753014], [30.8021889, 3.12676], [30.8147254, 3.1766444], [30.8296733, 3.2270681], [30.8562536, 3.2748867], [30.887477, 3.3165593], [30.9098081, 3.362282], [30.9371383, 3.4095847], [30.9372498, 3.4600569], [30.9186965, 3.5065121], [30.8695683, 3.4780262], [30.8513675, 3.5247733], [30.8532859, 3.5760521], [30.8050186, 3.5933767], [30.7956189, 3.6437448], [30.7356054, 3.6409911], [30.6757581, 3.6411727], [30.6266173, 3.6062957], [30.5777487, 3.6203057], [30.5741924, 3.6708422], [30.5787803, 3.741481], [30.5666838, 3.7915868], [30.5519684, 3.8426811], [30.4932245, 3.836492], [30.4459825, 3.8824176], [30.3957242, 3.8917154], [30.3495326, 3.9199542], [30.2993656, 3.9152273], [30.2598152, 3.9480588], [30.2080844, 3.9510403], [30.1956214, 4.0134679], [30.1626662, 4.0541942], [30.1632868, 4.1155339], [30.096034, 4.1226626], [30.0514368, 4.1506807], [30.0278763, 4.2046164], [29.9763932, 4.2098177], [29.9548441, 4.2602057], [29.9436395, 4.3136387], [29.9029845, 4.3476102], [29.8458409, 4.3357853], [29.7999096, 4.3730821], [29.7987224, 4.4245656], [29.80407, 4.4791957], [29.8128615, 4.5355195], [29.7794535, 4.5750028], [29.7296845, 4.5910484], [29.6864208, 4.6205746], [29.6378009, 4.6509368], [29.5875862, 4.6560814], [29.5347085, 4.6550495], [29.5022144, 4.694274], [29.4731181, 4.6485713], [29.4745222, 4.5924704], [29.4470922, 4.5497569], [29.4308921, 4.5001433], [29.3805333, 4.469051], [29.3487989, 4.4191622], [29.3080668, 4.3829069], [29.2530442, 4.3838933], [29.2214292, 4.3411199], [29.185367, 4.3773871], [29.1355657, 4.4157003], [29.0787426, 4.4345239], [29.042321, 4.4719249], [28.9919186, 4.4826565], [28.9363574, 4.4768858], [28.8712846, 4.4921882], [28.8183929, 4.4961923], [28.8009123, 4.546685], [28.7448709, 4.5451112], [28.6976569, 4.5106953], [28.685445, 4.4580991], [28.639451, 4.425491], [28.5880647, 4.3881249], [28.5159046, 4.3785743], [28.4895425, 4.3350891], [28.4616292, 4.2929426], [28.3997585, 4.2891899], [28.3680994, 4.3319998], [28.3095866, 4.3612513], [28.2564007, 4.3484749], [28.1944106, 4.3690808], [28.1467319, 4.3958078], [28.1152653, 4.4470625], [28.0629713, 4.449821], [28.0379769, 4.4947674], [28.0498186, 4.5478334], [27.999636, 4.5583934], [27.9538499, 4.5785247], [27.9226587, 4.5353769], [27.8576022, 4.570008], [27.8128586, 4.6055289], [27.779445, 4.6698478], [27.782158, 4.7248263], [27.7707537, 4.7783973], [27.7092291, 4.78986], [27.7012915, 4.8408479], [27.6663184, 4.8792521], [27.6148529, 4.8915727], [27.5587866, 4.8919625], [27.5209673, 4.9250252], [27.4998352, 4.9715002], [27.4591264, 5.0006856], [27.4484871, 5.0580164], [27.4008265, 5.0929721], [27.3520067, 5.1136318], [27.2893918, 5.1359642], [27.2403605, 5.1503234], [27.1858534, 5.1833045], [27.1376247, 5.2063256], [27.0848421, 5.2074821], [27.028638, 5.1874219], [26.9815859, 5.1668354], [26.9332703, 5.1420626], [26.9121785, 5.0962344], [26.8789526, 5.0563922], [26.8288889, 5.0601699], [26.7794365, 5.0747196], [26.7406935, 5.1064083], [26.6898126, 5.0914186], [26.6374517, 5.0935106], [26.5893799, 5.0783001], [26.5442797, 5.0565087], [26.4918542, 5.0592543], [26.4535608, 5.0927254], [26.415303, 5.1256532], [26.3674283, 5.1426187], [26.3150563, 5.1537308], [26.2645166, 5.1769067], [26.2259306, 5.2090146], [26.1858843, 5.241002], [26.1377002, 5.266486], [26.0895161, 5.2441667], [26.0605819, 5.1948642], [26.0102801, 5.2121153], [25.9746596, 5.24726], [25.9576702, 5.1958398], [25.9033947, 5.2055004], [25.8547347, 5.2244171], [25.8046947, 5.2177071], [25.791798, 5.2697221], [25.7452319, 5.2436194], [25.7092069, 5.2863783], [25.6670666, 5.314908], [25.6141712, 5.3246162], [25.577361, 5.3607603], [25.5316515, 5.3919312], [25.4986008, 5.3438661], [25.4474662, 5.3448417], [25.4046597, 5.3097922], [25.3627812, 5.278764], [25.3324989, 5.2380427], [25.3080822, 5.1911578], [25.3413898, 5.1529381], [25.3350128, 5.0959262], [25.326975, 5.0456256], [25.2776088, 5.0281228], [25.2280085, 5.013121], [25.1791364, 5.0022228], [25.1288801, 5.0124786], [25.0891032, 4.9803049], [25.0661575, 4.935265], [25.014547, 4.9600828], [24.9631983, 4.9870421], [24.9157756, 4.9565136], [24.8647124, 4.9552763], [24.8207161, 4.9271511], [24.7730317, 4.8931248], [24.7211119, 4.8963846], [24.6665509, 4.9133502], [24.671286, 4.9685299], [24.6254814, 4.9979163], [24.5863154, 5.031657], [24.5470543, 5.0683007], [24.5019873, 5.0924998], [24.4427626, 5.0949507], [24.3856555, 5.1124635], [24.3563881, 5.0691573], [24.3976004, 5.039771], [24.3537469, 5.006054], [24.2993524, 5.0014379], [24.2757244, 4.952183], [24.2236856, 4.9548004], [24.1789279, 4.928198], [24.136169, 4.8950522], [24.0795616, 4.9031661], [24.0425123, 4.867342], [23.9868095, 4.8770909], [23.9595754, 4.8295637], [23.9076464, 4.8294654], [23.8547509, 4.8130709], [23.7978818, 4.8079313], [23.7355399, 4.786873], [23.6875462, 4.7722394], [23.6306057, 4.7661479], [23.5814223, 4.7472788], [23.5391273, 4.702307], [23.4939057, 4.6760615], [23.4416337, 4.6591553], [23.4298316, 4.6028858], [23.3756227, 4.5926614], [23.3268437, 4.6084373], [23.279659, 4.6328029], [23.2538419, 4.6757046], [23.2076803, 4.6985474], [23.1740347, 4.7399263], [23.1190692, 4.715751], [23.0584881, 4.7380227], [23.0109465, 4.756059], [22.9909114, 4.8026251], [22.9391343, 4.8157121], [22.8850492, 4.7946301], [22.8683454, 4.7360002], [22.8161787, 4.7268065], [22.7723847, 4.6842975], [22.7335697, 4.6268335], [22.7314818, 4.5596256], [22.7025419, 4.4956542], [22.6474606, 4.4943641], [22.596165, 4.4799777], [22.5926128, 4.4218941], [22.6166526, 4.3718665], [22.5750836, 4.3438231], [22.5441907, 4.2877639], [22.5499252, 4.2307044], [22.5144951, 4.1928948], [22.4681693, 4.147735], [22.4126042, 4.1308313], [22.3476163, 4.1251777], [22.2879966, 4.1161548], [22.2207331, 4.1308867], [22.1649199, 4.1548449], [22.130388, 4.193526], [22.0828738, 4.2187059], [22.0163523, 4.2355533], [21.961702, 4.24062], [21.8972424, 4.243523], [21.8349005, 4.2617258], [21.7841466, 4.2959425], [21.7149757, 4.3062694], [21.6638887, 4.3092437], [21.6158474, 4.2895893], [21.5602631, 4.253826], [21.5093903, 4.2604409], [21.453811, 4.2872691], [21.4007931, 4.2839978], [21.3415709, 4.2936989], [21.3006416, 4.3325479], [21.2478875, 4.334109], [21.220143, 4.2904459], [21.1615845, 4.3150258], [21.1158356, 4.3398759], [21.0927942, 4.3861003], [21.0432301, 4.4129406], [20.9933328, 4.4321428], [20.9312303, 4.4428694], [20.8751159, 4.4506993], [20.8231173, 4.4413636], [20.7637906, 4.4325299], [20.7096839, 4.4331322], [20.6619014, 4.4179743], [20.6109065, 4.4116501], [20.5545914, 4.4318272], [20.5141569, 4.4746162], [20.4790837, 4.5136394], [20.4482458, 4.5608241], [20.4596084, 4.6214697], [20.4206032, 4.6602744], [20.3907227, 4.7096073], [20.3520183, 4.7666611], [20.2980729, 4.7792952], [20.249141, 4.7906257], [20.2032734, 4.8461647], [20.1728163, 4.8919773], [20.1225938, 4.905334], [20.0681835, 4.9235765], [20.020396, 4.9644358], [19.9648197, 4.9822064], [19.9134551, 4.9826189], [19.8753202, 5.0204681], [19.854032, 5.0672325], [19.8196885, 5.1073224], [19.7214326, 5.1266675], [19.661946, 5.1429668], [19.6041225, 5.1329876], [19.556068, 5.1506273], [19.5020489, 5.1356526], [19.4491297, 5.1285882], [19.3970565, 5.11649], [19.3618122, 5.0736638], [19.3005244, 5.0413625], [19.2548811, 5.020254], [19.2181634, 4.9848899], [19.1882139, 4.9384005], [19.1344486, 4.9491874], [19.0924855, 4.9219452], [19.0661118, 4.8702752], [19.0415558, 4.8246372], [19.0192602, 4.7791419], [18.9699992, 4.7310954], [18.9402643, 4.6876774], [18.8986277, 4.6498797], [18.8364048, 4.5872047], [18.8184398, 4.5289555], [18.8057573, 4.4679699], [18.7798926, 4.4195478], [18.73987, 4.3890431], [18.6937323, 4.3631784], [18.6380263, 4.3614138], [18.5861695, 4.3554136], [18.5448718, 4.3210852], [18.5628483, 4.2683089], [18.5939822, 4.2097071], [18.6127077, 4.1528539], [18.6324484, 4.1006256], [18.6478462, 4.0285438], [18.6563629, 3.9715213], [18.6133647, 3.9319117], [18.5977792, 3.8805391], [18.5937341, 3.8181972], [18.5897689, 3.7253147], [18.5920056, 3.673371], [18.6041885, 3.6211657], [18.6059017, 3.5465933], [18.6234096, 3.4957869], [18.634722, 3.425833], [18.635278, 3.370833], [18.643611, 3.311667], [18.6325, 3.261667], [18.641389, 3.204444], [18.62, 3.144167], [18.579722, 3.103056], [18.539167, 3.07], [18.520556, 3.013889], [18.500556, 2.967222], [18.47, 2.915833], [18.444722, 2.866389], [18.425278, 2.8175], [18.407778, 2.7475], [18.382778, 2.701667], [18.358611, 2.6575], [18.320556, 2.580833], [18.246667, 2.5325], [18.226667, 2.484444], [18.22, 2.427222], [18.197778, 2.377222], [18.168333, 2.331667], [18.1227747, 2.2957183], [18.100833, 2.2425], [18.096667, 2.164167], [18.075, 2.066944], [18.081944, 2.005], [18.084167, 1.938056], [18.065278, 1.875], [18.067222, 1.785], [18.077778, 1.728889], [18.077778, 1.675], [18.076389, 1.569444], [18.048102, 1.4912442], [17.9924837, 1.3834748], [17.9620996, 1.3196345], [17.9473368, 1.2460103], [17.9389254, 1.1940087], [17.9260508, 1.1456103], [17.8812471, 1.0795331], [17.8479448, 1.0289016], [17.8398767, 0.9779259], [17.8405634, 0.924375], [17.8652826, 0.8754575], [17.8819338, 0.8145244], [17.8857103, 0.7609711], [17.8692308, 0.7019244], [17.8668276, 0.6471682], [17.8855387, 0.5711265], [17.9365221, 0.5306163], [17.965833, 0.477778], [17.961944, 0.426389], [17.953889, 0.361667], [17.9201285, 0.3143999], [17.8459708, 0.2606705], [17.7740447, 0.1224839], [17.7342192, -0.0641119], [17.6873557, -0.1473675], [17.6677863, -0.2024705], [17.6646964, -0.2574017], [17.7136199, -0.3561056], [17.7165381, -0.4142975], [17.6942221, -0.5572862], [17.671667, -0.617778], [17.6355922, -0.6693192], [17.5822055, -0.6945517], [17.5296771, -0.7446728], [17.4314868, -0.8771821], [17.3439395, -0.9901203], [17.2488254, -1.0362639], [17.1910752, -1.0505075], [17.121944, -1.068333], [17.075, -1.096667], [17.0175, -1.128333], [16.953333, -1.166944], [16.885556, -1.23], [16.831944, -1.293333], [16.795833, -1.3325], [16.763056, -1.389167], [16.730278, -1.452778], [16.706389, -1.504444], [16.680833, -1.561944], [16.663056, -1.62], [16.586111, -1.761944], [16.555833, -1.814444], [16.530833, -1.858333], [16.4690523, -1.9265137], [16.427778, -1.968333], [16.3849383, -2.0097203], [16.341111, -2.045556], [16.265556, -2.093611], [16.220278, -2.144444], [16.192222, -2.186111], [16.1830794, -2.2715854], [16.174668, -2.3446539], [16.188889, -2.403889], [16.208056, -2.480278], [16.216944, -2.532778], [16.233056, -2.585], [16.237222, -2.642222], [16.215833, -2.696944], [16.201111, -2.765556], [16.195833, -2.8225], [16.1798639, -2.8914536], [16.1824388, -2.9566], [16.1918802, -3.0106], [16.1804017, -3.0633572], [16.1714753, -3.1178661], [16.1792001, -3.1711724], [16.1781701, -3.2248187], [16.2063226, -3.2781195], [16.2015161, -3.3518103], [16.1640939, -3.4230967], [16.1244401, -3.4719317], [16.0914811, -3.5565729], [16.0545739, -3.5999186], [16.0272798, -3.6591943], [15.999623, -3.7249378], [15.9676751, -3.7687269], [15.9359093, -3.8422522], [15.9184203, -3.9000731], [15.8947221, -3.9469691], [15.8349012, -3.9718138], [15.7196163, -3.988946], [15.6343127, -4.0100042], [15.5647134, -4.0353455], [15.5168863, -4.0781757], [15.5001111, -4.1541995], [15.4769602, -4.2156458], [15.4371798, -4.2666463], [15.3795494, -4.2801614], [15.3282939, -4.2690688], [15.2785685, -4.294569], [15.2241235, -4.3193237], [15.1832252, -4.3534722], [15.1634841, -4.3995144], [15.1217704, -4.4580473], [15.0644355, -4.5174312], [15.0113921, -4.5614098], [14.9832397, -4.6067545], [14.928823, -4.6582558], [14.8914008, -4.7046208], [14.8690849, -4.753891], [14.8481422, -4.8070919], [14.7849528, -4.8429482], [14.7152583, -4.8916953], [14.670798, -4.915811], [14.6126048, -4.9064042], [14.5695877, -4.8773303], [14.5061151, -4.856095], [14.4557104, -4.8700185], [14.3988508, -4.8601934], [14.3966238, -4.8010765], [14.4031684, -4.7454652], [14.413876, -4.6850269], [14.3946024, -4.6376756], [14.3777053, -4.5886399], [14.3566296, -4.5419444], [14.4019932, -4.5156978], [14.443389, -4.4864398], [14.4806724, -4.438226], [14.4369505, -4.4036378], [14.393079, -4.3555738], [14.4088008, -4.3057129], [14.3578456, -4.292995], [14.3116647, -4.3176569], [14.2657362, -4.34186], [14.2226754, -4.3698484], [14.1758522, -4.3977909], [14.1263219, -4.4047651], [14.0721116, -4.4043292], [14.0266419, -4.4286699], [13.9969714, -4.469352], [13.9621962, -4.5060766], [13.9076896, -4.5042914], [13.8570869, -4.4941709], [13.8447342, -4.4433309], [13.7963498, -4.4241052], [13.7484144, -4.4437501], [13.7230146, -4.4889232], [13.7322869, -4.5415682], [13.7265222, -4.5953113], [13.7048332, -4.6416488], [13.7256988, -4.6892849], [13.676421, -4.7067612], [13.6851643, -4.7613111], [13.6410955, -4.7356993], [13.6217041, -4.7842183], [13.5728287, -4.7973264], [13.5409562, -4.7551765], [13.4986565, -4.78328], [13.470997, -4.827218], [13.4280951, -4.8651777], [13.4308044, -4.9160287], [13.394125, -4.881999], [13.3808168, -4.832458], [13.3471675, -4.7931034], [13.2962974, -4.7663969], [13.2508497, -4.7283255], [13.2075435, -4.686209], [13.1779216, -4.64451], [13.1439327, -4.6066964], [13.0958328, -4.6220122], [13.1105974, -4.6768044], [13.0553068, -4.6771536], [13.0126833, -4.7091728], [12.9593103, -4.7198036], [12.9131526, -4.7454436], [12.8647232, -4.7587474], [12.8288393, -4.7961396], [12.8102802, -4.8435523], [12.7667701, -4.8770091], [12.7297675, -4.9107981], [12.7012683, -4.9523178], [12.6491421, -4.9447601], [12.622664, -4.9882398], [12.5884281, -5.0296605], [12.540608, -5.0501354], [12.4920925, -5.0729883], [12.4718364, -5.1206924], [12.5319179, -5.1420641], [12.5233471, -5.7395958], [12.270832, -5.7394422], [12.2158993, -5.751721], [12.2009869, -5.7711367]]]]}}]}