{"type": "FeatureCollection", "features": [{"type": "Feature", "properties": {"code": "COG", "name": "Congo", "tier": "country"}, "geometry": {"type": "Polygon", "coordinates": [[[17.510278, 3.686944], [17.463611, 3.711111], [17.413889, 3.679722], [17.363611, 3.621111], [17.312222, 3.621667], [17.256389, 3.616944], [17.202222, 3.584167], [17.129444, 3.574722], [17.077222, 3.576667], [17.033333, 3.540278], [16.981667, 3.536111], [16.926111, 3.553611], [16.876667, 3.565833], [16.840833, 3.526667], [16.775833, 3.545], [16.699167, 3.545278], [16.643056, 3.522778], [16.588889, 3.481944], [16.5625, 3.351389], [16.5325, 3.285833], [16.527778, 3.234167], [16.4925, 3.181111], [16.485, 3.121389], [16.512222, 3.060556], [16.475, 3.002778], [16.466111, 2.949722], [16.49, 2.8925], [16.369167, 2.565278], [16.207222, 2.220833], [16.164394899999976, 2.194253599999959], [16.097361, 2.202230300000037], [16.077640499999966, 2.1518023], [16.086768, 2.097667500000041], [16.0831895, 2.046686099999958], [16.051437300000035, 2.00456409999998], [16.071292099999965, 1.953571400000028], [16.083534500000027, 1.899468500000042], [16.115186899999987, 1.84709330000001], [16.139503300000033, 1.787848500000018], [16.1404852, 1.725229700000015], [16.09810389999998, 1.695426600000034], [16.056206400000015, 1.654665899999981], [16.0240274, 1.6995204], [16.03125979999996, 1.751797800000028], [15.979337099999977, 1.766975699999969], [15.93069330000004, 1.7805167], [15.879233199999963, 1.790307], [15.841030099999962, 1.832754], [15.791787899999985, 1.870303700000028], [15.759407800000034, 1.913073799999983], [15.704193, 1.927064800000041], [15.6527083, 1.9327997], [15.594740699999985, 1.94756], [15.544206899999988, 1.965469600000032], [15.48565939999996, 1.983595], [15.4260779, 1.958949], [15.37104259999996, 1.928132199999984], [15.3130982, 1.933311399999967], [15.287792099999962, 1.990405299999983], [15.249450300000031, 2.028164500000026], [15.1889137, 2.031354199999976], [15.1418944, 2.011461600000027], [15.099770599999971, 1.984021499999985], [15.04831369999998, 1.982890500000019], [14.9996382, 2.014596399999965], [14.946596599999982, 2.001404300000017], [14.893273, 2.015646399999978], [14.91118710000002, 2.0637664], [14.87700359999998, 2.102728800000039], [14.828143700000016, 2.068423799999982], [14.771695699999974, 2.063159599999983], [14.750211399999955, 2.110309799999973], [14.697887399999985, 2.112168500000019], [14.64415510000002, 2.1327], [14.615598200000033, 2.181412700000026], [14.5634065, 2.178034799999958], [14.5129381, 2.162767900000025], [14.4649034, 2.1479637], [14.4219491, 2.1746883], [14.372287599999964, 2.181778700000022], [14.306655899999985, 2.162707900000035], [13.86249730000003, 2.1719005], [13.294223500000033, 2.1705888], [13.288961300000022, 2.119056], [13.2955766, 2.068578299999976], [13.2711556, 2.024787500000032], [13.228076, 1.997490099999984], [13.214720699999969, 1.9459109], [13.177480599999978, 1.908353899999989], [13.1933958, 1.860608699999974], [13.19553919999997, 1.808711599999975], [13.180031700000026, 1.760090200000026], [13.151622700000019, 1.718433800000025], [13.143265800000012, 1.667044], [13.147351500000024, 1.6110839], [13.13756, 1.560606100000013], [13.177401900000039, 1.529774799999957], [13.2000179, 1.4835493], [13.225138599999973, 1.437360200000044], [13.247208899999983, 1.391252399999972], [13.2405998, 1.340868799999968], [13.228226400000018, 1.290790199999976], [13.181050300000017, 1.266909], [13.191635700000024, 1.215702199999975], [13.243468400000022, 1.221924700000039], [13.2984718, 1.228914399999987], [13.33574580000004, 1.262511], [13.383411799999987, 1.282965], [13.4373797, 1.300284600000041], [13.476667200000012, 1.269126], [13.527808800000027, 1.274284200000015], [13.5771797, 1.290962099999988], [13.60899, 1.330013800000036], [13.656740100000029, 1.344938100000044], [13.709665099999988, 1.3499967], [13.761017400000028, 1.3484586], [13.785120899999956, 1.395079399999983], [13.82481460000001, 1.427036700000035], [13.875251199999958, 1.428114], [13.92695189999996, 1.416275699999976], [13.981411499999972, 1.414112599999968], [14.030832199999974, 1.4046633], [14.073889, 1.375278], [14.135, 1.395556], [14.188889, 1.391389], [14.236111, 1.363333], [14.287222, 1.358889], [14.305556, 1.296667], [14.326944, 1.183889], [14.392222, 1.143056], [14.399167, 1.093333], [14.432778, 1.023889], [14.483056, 0.9775], [14.491389, 0.926944], [14.483889, 0.8725], [14.460278, 0.826667], [14.413056, 0.798889], [14.376389, 0.742222], [14.374444, 0.686944], [14.342778, 0.644444], [14.296667, 0.618333], [14.254722, 0.578056], [14.186111, 0.573889], [14.136389, 0.594167], [14.082778, 0.566389], [14.081389, 0.513056], [14.055278, 0.460556], [14.007778, 0.426667], [13.964444, 0.393889], [13.939167, 0.350278], [13.920556, 0.299722], [13.884167, 0.261111], [13.895, 0.197222], [13.910278, 0.133611], [13.916389, 0.083056], [13.945278, 0.024167], [13.9475, -0.026944], [13.900556, -0.071389], [13.878611, -0.126111], [13.890278, -0.176667], [13.916389, -0.226389], [13.946667, -0.181389], [14.000278, -0.198611], [14.062222, -0.2125], [14.106944, -0.2375], [14.153056, -0.260278], [14.177778, -0.303889], [14.183333, -0.401667], [14.236944, -0.399444], [14.287222, -0.403611], [14.346944, -0.405], [14.400556, -0.441111], [14.443889, -0.466667], [14.480278, -0.504167], [14.505833, -0.5475], [14.539444, -0.589167], [14.533889, -0.639722], [14.496111, -0.685556], [14.474722, -0.753333], [14.488611, -0.81], [14.465833, -0.866111], [14.43, -0.906389], [14.432778, -0.959722], [14.428611, -1.020556], [14.435278, -1.091389], [14.445556, -1.160556], [14.478333, -1.2025], [14.4825, -1.26], [14.4475, -1.314722], [14.473611, -1.370278], [14.503056, -1.418333], [14.465278, -1.456667], [14.463889, -1.508056], [14.438611, -1.564167], [14.398889, -1.598333], [14.419444, -1.662778], [14.466667, -1.680556], [14.426944, -1.734722], [14.429167, -1.786111], [14.415278, -1.840833], [14.429722, -1.891667], [14.381667, -1.925278], [14.328333, -1.938056], [14.275556, -1.963611], [14.248889, -2.011389], [14.259722, -2.076389], [14.253611, -2.126389], [14.218611, -2.165556], [14.189167, -2.208611], [14.174167, -2.264167], [14.221389, -2.292778], [14.253056, -2.3375], [14.201667, -2.358611], [14.156944, -2.391389], [14.14, -2.445556], [14.113889, -2.488611], [14.063056, -2.475], [14.0125, -2.498889], [13.967778, -2.470833], [13.919167, -2.490833], [13.865833, -2.468889], [13.866389, -2.418056], [13.900833, -2.376389], [13.881389, -2.318889], [13.846667, -2.255833], [13.813611, -2.179167], [13.782778, -2.1225], [13.727222, -2.151111], [13.624444, -2.2875], [13.590278, -2.325833], [13.551944, -2.369444], [13.504722, -2.396944], [13.476667, -2.438611], [13.424444, -2.419444], [13.374444, -2.420833], [13.275, -2.388611], [13.227222, -2.371667], [13.175833, -2.363333], [13.125556, -2.36], [13.074167, -2.343611], [13.024167, -2.338056], [12.984444, -2.372222], [13.0125, -2.315556], [13.007778, -2.265556], [12.976944, -2.208056], [12.924167, -2.188056], [12.900833, -2.142778], [12.888611, -2.089444], [12.866667, -2.039444], [12.846667, -1.9875], [12.824722, -1.940833], [12.793333, -1.899722], [12.724722, -1.857222], [12.670556, -1.836111], [12.606944, -1.824444], [12.558333, -1.848333], [12.5275, -1.888889], [12.471944, -1.906111], [12.447222, -1.96], [12.448611, -2.011389], [12.467222, -2.066944], [12.517193300000038, -2.09500759999997], [12.493056, -2.145], [12.491944, -2.204444], [12.484167, -2.264167], [12.463611, -2.313333], [12.349601500000027, -2.3537668], [12.264281, -2.371865099999986], [12.12552729999997, -2.401167099999984], [12.0525, -2.416944], [12.008056, -2.377778], [11.964167, -2.333333], [11.916111, -2.357222], [11.863333, -2.360556], [11.813333, -2.370278], [11.763333, -2.4025], [11.698889, -2.397778], [11.671667, -2.3525], [11.618056, -2.3325], [11.594722, -2.379722], [11.601667, -2.433333], [11.594722, -2.485278], [11.629722, -2.550278], [11.6475, -2.613333], [11.6325, -2.6675], [11.611944, -2.715833], [11.572778, -2.761944], [11.542778, -2.831667], [11.5975, -2.838611], [11.654444, -2.826944], [11.690833, -2.879444], [11.731111, -2.935556], [11.770833, -2.971111], [11.804444, -3.013056], [11.766111, -3.047222], [11.714167, -3.060833], [11.707778, -3.121667], [11.698889, -3.173056], [11.763333, -3.197778], [11.816944, -3.226389], [11.870833, -3.275833], [11.936667, -3.285278], [11.975, -3.322222], [11.9375, -3.366667], [11.903056, -3.407778], [11.875833, -3.476944], [11.856667, -3.532222], [11.8525, -3.589722], [11.909444, -3.615], [11.884722, -3.699167], [11.814167, -3.701944], [11.757778, -3.689444], [11.694722, -3.696389], [11.6525, -3.636111], [11.594167, -3.552222], [11.551667, -3.5125], [11.496944, -3.506944], [11.463889, -3.548056], [11.431111, -3.591111], [11.363889, -3.599444], [11.302222, -3.633333], [11.244722, -3.678611], [11.218611, -3.727778], [11.198611, -3.776389], [11.167778, -3.841389], [11.141944, -3.918611], [11.189096500000026, -3.982580199999979], [11.229201600000014, -4.0135185], [11.276760399999972, -4.048425100000014], [11.314824099999985, -4.081293], [11.372865399999963, -4.145011699999973], [11.388186699999956, -4.2057618], [11.434881, -4.245545300000014], [11.509736600000018, -4.303777499999978], [11.606300200000028, -4.3886684], [11.689532799999967, -4.456066700000033], [11.74911030000004, -4.510910899999981], [11.796524400000017, -4.56210670000004], [11.8263673, -4.613751300000018], [11.803832099999987, -4.658650199999986], [11.837746100000022, -4.730876299999981], [11.849673699999972, -4.784096300000012], [11.888466800000028, -4.859676399999962], [11.932111100000018, -4.923292300000043], [11.989828700000036, -5.00005279999996], [12.088528, -4.959547299999972], [12.16620960000002, -4.896200699999969], [12.19759339999996, -4.790754299999961], [12.249246700000036, -4.810994399999974], [12.298119800000027, -4.793965], [12.343161099999964, -4.765384399999967], [12.372795899999964, -4.72086729999997], [12.392599600000018, -4.671417499999958], [12.388757700000017, -4.620484300000044], [12.4354998, -4.59922870000003], [12.481864299999987, -4.5722161], [12.531551800000038, -4.58416], [12.6377631, -4.563374500000045], [12.674147199999961, -4.5275486], [12.696158299999958, -4.4815909], [12.7638336, -4.50662029999998], [12.7432984, -4.44239539999996], [12.762248, -4.390406700000021], [12.805994900000037, -4.429234700000034], [12.863853800000022, -4.436526899999965], [12.906570800000026, -4.4736238], [12.9591396, -4.527231499999967], [13.0001401, -4.577359], [13.03260370000002, -4.6203044], [13.075560599999978, -4.660445899999971], [13.104653, -4.6178152], [13.158523900000016, -4.623978], [13.185652400000034, -4.666459499999981], [13.227530900000026, -4.712859], [13.267981800000026, -4.748075], [13.31033619999996, -4.779246], [13.360178300000012, -4.797925], [13.380251100000038, -4.844218], [13.4042476, -4.889233700000034], [13.4464944, -4.8572583], [13.481536400000014, -4.812153300000027], [13.507545200000024, -4.765255799999984], [13.56064179999997, -4.789224200000014], [13.615879200000034, -4.787673200000025], [13.6192827, -4.735604300000023], [13.673893800000023, -4.757227100000044], [13.676421, -4.706761199999981], [13.725698800000039, -4.689284900000029], [13.690587399999963, -4.6506253], [13.722252099999963, -4.597507399999984], [13.730060399999964, -4.5480955], [13.72731530000003, -4.495145500000014], [13.731799, -4.4447522], [13.779338199999955, -4.423988700000031], [13.829161200000026, -4.433100399999962], [13.8601975, -4.4756204], [13.90329419999997, -4.505598800000016], [13.953456799999984, -4.513114499999965], [13.9863455, -4.474135299999965], [14.022581300000034, -4.432524099999974], [14.072111599999957, -4.4043292], [14.126321900000036, -4.404765100000013], [14.175852199999959, -4.397790900000015], [14.2193489, -4.370444900000031], [14.26573620000001, -4.34186], [14.313133, -4.3224516], [14.3577309, -4.295862699999958], [14.4072612, -4.281914299999961], [14.391881100000035, -4.331167400000041], [14.4252714, -4.397349099999964], [14.4806724, -4.432087], [14.4483302, -4.47790510000004], [14.414215499999958, -4.517264699999984], [14.366971600000031, -4.535363099999984], [14.377705299999963, -4.5886399], [14.394602400000043, -4.637675600000041], [14.413876, -4.685026899999972], [14.40316840000003, -4.745465200000037], [14.4014827, -4.795610200000016], [14.397636, -4.851285399999977], [14.4557104, -4.8700185], [14.506115099999981, -4.856095], [14.561731499999961, -4.8648069], [14.612604799999982, -4.9064042], [14.670798, -4.915811], [14.7152583, -4.891695299999959], [14.76813, -4.852184799999964], [14.82462459999999, -4.8308685], [14.855008599999984, -4.78639370000003], [14.875951300000043, -4.739349800000042], [14.898610600000026, -4.688196699999963], [14.98323969999996, -4.606754500000015], [15.011392099999963, -4.561409800000021], [15.048642700000023, -4.528041], [15.099969399999988, -4.4890234], [15.137662199999955, -4.425836200000038], [15.175500399999962, -4.3907854], [15.187195400000029, -4.338041600000025], [15.260017, -4.314818099999989], [15.30304870000002, -4.2838589], [15.36348420000003, -4.275826300000013], [15.431697299999989, -4.274933799999975], [15.476577700000025, -4.234898499999989], [15.482978900000042, -4.177756199999966], [15.502966400000027, -4.125289099999968], [15.539015299999956, -4.053905200000024], [15.6343127, -4.010004200000022], [15.71961629999997, -3.988946], [15.803135399999988, -3.98145069999996], [15.876303799999967, -3.958964800000025], [15.91163879999998, -3.9214882], [15.926986400000018, -3.859384299999973], [15.95304150000004, -3.807274100000018], [15.977668899999973, -3.760874599999969], [16.009770299999957, -3.6955115], [16.03878110000002, -3.626987099999961], [16.075001600000025, -3.577817699999968], [16.11534210000004, -3.505857599999956], [16.16409390000003, -3.423096699999966], [16.192418, -3.372031499999966], [16.207524199999988, -3.322334600000026], [16.186581500000017, -3.263380600000026], [16.180230100000035, -3.212478600000029], [16.17147529999997, -3.117866099999982], [16.180401700000022, -3.063357199999977], [16.19188020000003, -3.0106], [16.1824388, -2.9566], [16.179863900000022, -2.891453599999987], [16.195833, -2.8225], [16.201111, -2.765556], [16.215833, -2.696944], [16.237222, -2.642222], [16.233056, -2.585], [16.216944, -2.532778], [16.208056, -2.480278], [16.188889, -2.403889], [16.174668, -2.344653899999965], [16.179302899999968, -2.281190900000012], [16.186389, -2.220278], [16.206944, -2.158889], [16.265556, -2.093611], [16.329167, -2.054444], [16.3773852, -2.027047399999975], [16.406739300000037, -1.980040899999973], [16.460640899999976, -1.938523099999983], [16.507778, -1.890278], [16.539722, -1.839722], [16.576111, -1.786667], [16.663056, -1.62], [16.680833, -1.561944], [16.706389, -1.504444], [16.730278, -1.452778], [16.763056, -1.389167], [16.795833, -1.3325], [16.831944, -1.293333], [16.875278, -1.24], [16.923611, -1.198889], [16.985833, -1.144444], [17.045833, -1.108889], [17.121944, -1.068333], [17.191075200000014, -1.05050749999998], [17.248825399999976, -1.036263899999983], [17.319167, -1.007222], [17.410572199999983, -0.8990576], [17.4991214, -0.784151400000037], [17.55714290000002, -0.7223587], [17.603834800000016, -0.6904321], [17.656389, -0.636667], [17.686840700000026, -0.582347500000018], [17.716538099999966, -0.41429750000002], [17.7136199, -0.356105600000016], [17.676884300000015, -0.300488200000042], [17.663666399999975, -0.230966099999956], [17.676712700000028, -0.1677951], [17.72134460000002, -0.096040799999968], [17.774044700000022, 0.122483900000021], [17.8212516, 0.2333766], [17.879101400000028, 0.28641950000003], [17.931111, 0.323333], [17.958056, 0.378056], [17.968333, 0.453056], [17.946944, 0.507222], [17.904593099999975, 0.549326599999973], [17.87197739999998, 0.600135800000019], [17.86923080000001, 0.701924399999982], [17.8857103, 0.760971100000014], [17.8819338, 0.8145244], [17.8652826, 0.875457499999972], [17.84056340000003, 0.924375], [17.839876699999966, 0.977925899999961], [17.84794479999997, 1.028901600000016], [17.881247100000017, 1.079533100000014], [17.911459500000024, 1.122097299999987], [17.93892539999998, 1.194008699999967], [17.947336799999967, 1.2460103], [17.962099600000023, 1.319634500000029], [17.992483700000026, 1.383474800000024], [18.02870430000004, 1.449887499999964], [18.070556, 1.528611], [18.076944, 1.630833], [18.077778, 1.728889], [18.067222, 1.785], [18.063611, 1.855833], [18.081389, 1.927222], [18.081944, 2.005], [18.075, 2.066944], [18.094444, 2.138889], [18.095556, 2.195556], [18.104167, 2.2525], [18.14268740000001, 2.310812299999961], [18.197778, 2.377222], [18.22, 2.427222], [18.226667, 2.484444], [18.246667, 2.5325], [18.294722, 2.559444], [18.3419597, 2.612804200000026], [18.376667, 2.687222], [18.407778, 2.7475], [18.420833, 2.795833], [18.444722, 2.866389], [18.47, 2.915833], [18.500556, 2.967222], [18.520556, 3.013889], [18.539167, 3.07], [18.579722, 3.103056], [18.62, 3.144167], [18.641389, 3.204444], [18.6325, 3.268333], [18.643611, 3.325278], [18.631944, 3.394444], [18.631667, 3.456389], [18.593989799999967, 3.489420600000011], [18.568333, 3.538889], [18.540278, 3.585278], [18.490833, 3.637778], [18.445833, 3.598611], [18.398056, 3.5775], [18.331667, 3.586111], [18.279167, 3.583056], [18.253611, 3.533611], [18.222222, 3.490556], [18.165833, 3.491667], [18.154722, 3.541111], [18.1025, 3.563889], [18.043333, 3.565833], [17.995, 3.539722], [17.9475, 3.572778], [17.885, 3.550278], [17.842222, 3.578333], [17.774167, 3.6175], [17.723056, 3.626667], [17.661389, 3.630833], [17.610556, 3.631944], [17.563889, 3.653333], [17.521944, 3.686111], [17.510278, 3.686944]]]}}]}