{"type": "FeatureCollection", "features": [{"type": "Feature", "properties": {"code": "COK", "name": "Cook Islands", "tier": "country"}, "geometry": {"type": "MultiPolygon", "coordinates": [[[[-157.91298550399998, -21.891089944999976], [-157.96039373899998, -21.93141727999995], [-157.90223133799998, -21.95453205299998], [-157.90667431399996, -21.89410070399998], [-157.91298550399998, -21.891089944999976]]], [[[-159.72484679699997, -21.250751212999944], [-159.72484679699997, -21.250751212999944]]], [[[-159.72668847499997, -21.24963112599994], [-159.72668847499997, -21.24963112599994]]], [[[-159.79037726899998, -21.200403451999932], [-159.82713616899997, -21.242060012999957], [-159.76974295099998, -21.267165115999944], [-159.72466638799997, -21.243119743999955], [-159.76297146099998, -21.203014180999958], [-159.79037726899998, -21.200403451999932]]], [[[-157.34940131499997, -20.133939776999966], [-157.34739519499996, -20.184968993999973], [-157.34940131499997, -20.133939776999966]]], [[[-158.12073335399998, -19.965766045999942], [-158.12002856199996, -20.027422050999974], [-158.10752864599996, -19.970652038999958], [-158.12073335399998, -19.965766045999942]]], [[[-157.70665688799997, -19.840006828999947], [-157.71299527299996, -19.896080646999962], [-157.68005780899998, -19.854178453999964], [-157.70665688799997, -19.840006828999947]]], [[[-158.29508756299998, -19.80994765899993], [-158.29508756299998, -19.80994765899993]]], [[[-158.93370616199996, -19.267231927999944], [-158.93370616199996, -19.267231927999944]]], [[[-158.94368114599996, -19.262530510999966], [-158.94368114599996, -19.262530510999966]]], [[[-158.96227021699997, -19.262114338999936], [-158.96227021699997, -19.262114338999936]]], [[[-158.93935923199996, -19.261975380999957], [-158.93935923199996, -19.261975380999957]]], [[[-158.92148275899996, -19.255866836999928], [-158.92148275899996, -19.255866836999928]]], [[[-159.73272464399997, -18.946569189999934], [-159.73272464399997, -18.946569189999934]]], [[[-159.73576637099998, -18.93683580499993], [-159.73576637099998, -18.93683580499993]]], [[[-159.75795392299997, -18.929459092999934], [-159.75795392299997, -18.929459092999934]]], [[[-159.73046394299996, -18.919810625999958], [-159.73046394299996, -18.919810625999958]]], [[[-159.73005627899997, -18.915495203999967], [-159.73005627899997, -18.915495203999967]]], [[[-159.83638013099997, -18.913123089999942], [-159.83638013099997, -18.913123089999942]]], [[[-159.82761331099996, -18.91360874199995], [-159.82761331099996, -18.91360874199995]]], [[[-159.72902576099997, -18.90305634599997], [-159.72902576099997, -18.90305634599997]]], [[[-159.73924137699998, -18.895588398999962], [-159.73924137699998, -18.895588398999962]]], [[[-159.74284468199997, -18.891705290999937], [-159.74284468199997, -18.891705290999937]]], [[[-159.74875378099998, -18.868791234999946], [-159.74875378099998, -18.868791234999946]]], [[[-159.74987610399998, -18.864090519999934], [-159.74987610399998, -18.864090519999934]]], [[[-159.75141986399998, -18.857698445999972], [-159.75141986399998, -18.857698445999972]]], [[[-159.75451207799998, -18.848920221999947], [-159.75451207799998, -18.848920221999947]]], [[[-159.76775165599997, -18.825193470999977], [-159.80027053499998, -18.86424632099994], [-159.76775165599997, -18.825193470999977]]], [[[-157.95958385099996, -9.083749730999955], [-157.95958385099996, -9.083749730999955]]], [[[-157.96477039299998, -9.08343580299993], [-157.96477039299998, -9.08343580299993]]], [[[-157.92504117499996, -9.083455277999974], [-157.92504117499996, -9.083455277999974]]], [[[-157.98777392999997, -9.051994199999967], [-157.98777392999997, -9.051994199999967]]], [[[-158.00417151599999, -9.029038912999965], [-158.00417151599999, -9.029038912999965]]], [[[-158.02288261499996, -9.024608042999944], [-158.02288261499996, -9.024608042999944]]], [[[-157.88195239799998, -9.027110868999955], [-157.88195239799998, -9.027110868999955]]], [[[-157.88789127899997, -9.020566808999945], [-157.88789127899997, -9.020566808999945]]], [[[-157.88877959399997, -9.01929552699994], [-157.88877959399997, -9.01929552699994]]], [[[-157.89367295499997, -9.012935822999964], [-157.89367295499997, -9.012935822999964]]], [[[-157.89807382299998, -9.003526760999932], [-157.89807382299998, -9.003526760999932]]], [[[-157.90971033799997, -8.991807080999934], [-157.90971033799997, -8.991807080999934]]], [[[-158.03071339699997, -9.01812771699997], [-158.03071339699997, -9.01812771699997]]], [[[-157.92102910999998, -8.97303229299996], [-157.92102910999998, -8.97303229299996]]], [[[-157.92587316899997, -8.955015326999956], [-157.92587316899997, -8.955015326999956]]], [[[-157.92929360999997, -8.945454015999928], [-157.92929360999997, -8.945454015999928]]], [[[-157.96432790299997, -8.93314709799995], [-157.96432790299997, -8.93314709799995]]], [[[-158.04969118299996, -8.930949558999941], [-158.04969118299996, -8.930949558999941]]], [[[-158.05075179199997, -8.92441582899994], [-158.05075179199997, -8.92441582899994]]], [[[-158.00954526599998, -8.92218418699997], [-158.00954526599998, -8.92218418699997]]], [[[-158.03583379399998, -8.924343608999948], [-158.03583379399998, -8.924343608999948]]], [[[-158.00148200999996, -8.918935163999947], [-158.00148200999996, -8.918935163999947]]], [[[-157.99855371299998, -8.916887592999956], [-157.99855371299998, -8.916887592999956]]]]}}]}