{"type": "FeatureCollection", "features": [{"type": "Feature", "properties": {"code": "COM", "name": "Comoros", "tier": "country"}, "geometry": {"type": "MultiPolygon", "coordinates": [[[[43.67238679999998, -12.39939309999996], [43.6715916, -12.422474200000027], [43.67238679999998, -12.39939309999996]]], [[[43.71002390000004, -12.394257899999976], [43.70378380000003, -12.414830499999967], [43.71500159999996, -12.3954357], [43.71002390000004, -12.394257899999976]]], [[[43.656723, -12.249698], [43.63176739999998, -12.2569367], [43.623078500000034, -12.276376799999982], [43.63003440000003, -12.297493799999986], [43.63913960000004, -12.316672500000019], [43.65652057043433, -12.32804458498669], [43.667780399999955, -12.34848689999997], [43.685748199999985, -12.3649959], [43.70523229999998, -12.358872399999958], [43.72428719999998, -12.3698865], [43.74477690000004, -12.367524], [43.76911469999999, -12.366896699999979], [43.7890146, -12.3730167], [43.8157456, -12.3741652], [43.8361508, -12.383272199999977], [43.857373799999976, -12.385552099999968], [43.869109799999976, -12.368981], [43.858050800000036, -12.350381699999984], [43.83558689999997, -12.333021799999981], [43.815969200000026, -12.324434], [43.7947842, -12.315064899999966], [43.77543870000002, -12.304929399999969], [43.75715609999996, -12.2933547], [43.738882, -12.279548799999978], [43.715211700000026, -12.271597], [43.696782, -12.260374799999978], [43.673757100000024, -12.254209799999964], [43.656723, -12.249698]]], [[[44.47328160000003, -12.071348100000039], [44.4522963, -12.07315269999996], [44.420864100000045, -12.092119599999966], [44.4310367, -12.111469799999979], [44.421564299999986, -12.131810300000039], [44.4193606, -12.152451700000038], [44.39572409999998, -12.1650492], [44.37528759999997, -12.183402400000025], [44.35388179999996, -12.188776200000033], [44.32808779999996, -12.194873699999969], [44.307722299999966, -12.197137599999968], [44.28770359999997, -12.188453599999987], [44.247543, -12.18103860000002], [44.227900200000036, -12.168964300000011], [44.204849, -12.168898900000018], [44.222748799999955, -12.1880953], [44.255707800000025, -12.203867299999986], [44.27527719999996, -12.2152762], [44.319789, -12.23929510000004], [44.3405597, -12.236133099999984], [44.36308860000003, -12.24555449999996], [44.38422780000001, -12.2533664], [44.403988300000044, -12.28415240000003], [44.42581480000004, -12.29169279999998], [44.4377048, -12.312179599999977], [44.45834130000003, -12.32053], [44.48005119999997, -12.3435675], [44.49315210000001, -12.363127799999978], [44.511345400000046, -12.3847678], [44.529574, -12.3754866], [44.5335459, -12.349993700000033], [44.53125939999999, -12.330100300000018], [44.528950299999984, -12.308437299999957], [44.52405969999999, -12.2838514], [44.53337890000003, -12.263426699999984], [44.52677070000003, -12.231781099999965], [44.51914380000003, -12.210248699999964], [44.517061100000014, -12.190239100000015], [44.5045272, -12.168052599999983], [44.49984850000003, -12.148457100000014], [44.4941277, -12.126282299999973], [44.49141650000003, -12.10540169999999], [44.47328160000003, -12.071348100000039]]], [[[43.3432708, -11.3666648], [43.32355009999996, -11.3730336], [43.302499599999955, -11.378498199999969], [43.2864145, -11.39264490000003], [43.2745132, -11.410618199999982], [43.27036560000003, -11.430704699999987], [43.26388430000004, -11.450950700000044], [43.27222150000002, -11.475733300000028], [43.276011199999964, -11.496882], [43.26522150000002, -11.5366772], [43.2676451, -11.562014300000039], [43.2643247007607, -11.586787641182577], [43.25977740262205, -11.610403584169875], [43.262897400000014, -11.63781959999997], [43.265436400000034, -11.6623183], [43.253422200000024, -11.6849831], [43.248731100000015, -11.705106500000033], [43.2301602, -11.7294573], [43.2342264, -11.756947], [43.23961230000003, -11.78040089999997], [43.262196500000016, -11.797320499999957], [43.26986760000003, -11.823438300000015], [43.28644370000002, -11.842528800000034], [43.31089470000001, -11.8575546], [43.33694430000003, -11.859707], [43.35819909999997, -11.855632400000031], [43.3803833, -11.862816900000022], [43.39741720000002, -11.8883423], [43.4193797, -11.907455699999963], [43.43694060000002, -11.9249954], [43.457316199999966, -11.938237700000025], [43.47767869999998, -11.93602860000003], [43.49712260000002, -11.9247646], [43.5055264, -11.9030077], [43.5101261, -11.877787400000033], [43.493283900000016, -11.862329600000026], [43.479016, -11.837826399999978], [43.4675412, -11.817205800000012], [43.46141630000001, -11.79808589999996], [43.45759910000001, -11.775911400000032], [43.455138, -11.748329100000037], [43.443894600000036, -11.725079100000029], [43.43550970000002, -11.698704200000014], [43.42087, -11.681925300000033], [43.41129939999996, -11.66409449999997], [43.39612859999998, -11.6493692], [43.395555900000026, -11.628966799999967], [43.39201670000003, -11.608077399999965], [43.3964722, -11.582852499999978], [43.403113100000034, -11.563823], [43.40466720000001, -11.543219399999964], [43.405850400000034, -11.518748800000038], [43.3989133, -11.498098600000022], [43.40690530000001, -11.474974799999975], [43.41059629999996, -11.450875899999984], [43.413851, -11.425551500000024], [43.4062546, -11.406883499999969], [43.39823180000001, -11.3870464], [43.381548, -11.371173600000022], [43.3599846, -11.369467], [43.3432708, -11.3666648]]]]}}]}