{"type": "FeatureCollection", "features": [{"type": "Feature", "properties": {"code": "CPV", "name": "Cabo Verde", "tier": "country"}, "geometry": {"type": "MultiPolygon", "coordinates": [[[[-24.685113699999988, 14.897831799999969], [-24.716107199999964, 14.889172199999964], [-24.736732300000035, 14.8826772], [-24.748892, 14.85998690000003], [-24.7437747, 14.839892], [-24.72954450000004, 14.820954199999955], [-24.706892899999982, 14.81030049999998], [-24.6854015, 14.8152355], [-24.6665228, 14.830112800000036], [-24.66528679999997, 14.854015599999967], [-24.67333769999997, 14.874713700000038], [-24.679122, 14.894801100000029], [-24.685113699999988, 14.897831799999969]]], [[[-24.68313389999996, 14.977820099999969], [-24.69365479999996, 14.960030600000037], [-24.68313389999996, 14.977820099999969]]], [[[-24.3583495, 15.048429], [-24.380911199999982, 15.044828900000025], [-24.402325900000015, 15.028168099999958], [-24.424048899999978, 15.026399900000028], [-24.45152379999997, 15.010361899999976], [-24.468643800000017, 14.996135499999982], [-24.486059600000026, 14.9790786], [-24.491869499999968, 14.957773599999987], [-24.5009458, 14.926617599999977], [-24.500639799999984, 14.897881], [-24.481438400000027, 14.875657300000041], [-24.465504499999973, 14.857331399999959], [-24.4436032, 14.841152100000029], [-24.4274595, 14.82595009999996], [-24.4076875, 14.81802340000002], [-24.38554619999997, 14.8149177], [-24.35429350000004, 14.8173319], [-24.326292434218793, 14.827946956224066], [-24.30851109999998, 14.83894], [-24.29270869999997, 14.8540718], [-24.277925800000027, 14.882728299999966], [-24.2819852, 14.907231800000039], [-24.2852454, 14.9322407], [-24.2896872, 14.9545759], [-24.291262200000013, 14.980193200000032], [-24.29896, 14.9998488], [-24.309138799999957, 15.022365700000014], [-24.328304900000013, 15.035978], [-24.35234349999999, 15.049030899999979], [-24.3583495, 15.048429]]], [[[-23.178452499999985, 15.334033299999957], [-23.18366929999997, 15.313051300000021], [-23.202503800000034, 15.292285400000024], [-23.22235879999998, 15.2778515], [-23.2304142, 15.258114100000016], [-23.217000800000037, 15.235552], [-23.22736429999998, 15.21814259999998], [-23.233206600000027, 15.181752599999983], [-23.229739, 15.152319599999982], [-23.21373239999997, 15.1389693], [-23.185002699999984, 15.118805299999979], [-23.157017, 15.1166597], [-23.134729499999967, 15.129602600000021], [-23.115955500000023, 15.13878930000003], [-23.09570439999999, 15.16434759999998], [-23.093433799999968, 15.189116299999968], [-23.094342600000022, 15.214108399999967], [-23.09593580000004, 15.235183699999984], [-23.10341249999996, 15.259815600000023], [-23.10569, 15.288636299999988], [-23.112137699999973, 15.309949200000036], [-23.134135400000016, 15.307551], [-23.153364499999956, 15.314138199999979], [-23.17298749999998, 15.3212156], [-23.178452499999985, 15.334033299999957]]], [[[-23.7413495, 15.340184], [-23.7581834, 15.3276371], [-23.760252200000014, 15.305846799999975], [-23.75249179999998, 15.28268819999998], [-23.756616400000013, 15.258654599999973], [-23.740076099999968, 15.244232799999976], [-23.7537468, 15.224903900000038], [-23.756852099999975, 15.198266100000032], [-23.767848, 15.1769781], [-23.765443700000038, 15.154076300000026], [-23.76272230000002, 15.130687299999975], [-23.771227899999985, 15.10896389999998], [-23.77662910000004, 15.08871490000003], [-23.77826790000001, 15.066448200000023], [-23.76330540000004, 15.051941], [-23.75030719999997, 15.034857800000042], [-23.728365400000023, 15.0261399], [-23.71445140000003, 15.008699099999975], [-23.7278101, 14.9908179], [-23.711475, 14.9759558], [-23.6944977, 14.959403799999956], [-23.6750779, 14.941766700000022], [-23.65634, 14.93199850000004], [-23.63835530000002, 14.921013800000035], [-23.619175299999966, 14.912956899999982], [-23.599164800000032, 14.91297240000002], [-23.576956299999956, 14.909593599999967], [-23.554427500000024, 14.903234], [-23.53383220000002, 14.902723699999983], [-23.51353990000004, 14.903672399999964], [-23.4945156, 14.911122], [-23.478537899999957, 14.9241114], [-23.468144700000042, 14.94147409999997], [-23.456428800000023, 14.95910830000002], [-23.448821500000044, 14.9790753], [-23.4297737, 14.98757229999996], [-23.4371913, 15.00697580000003], [-23.441841199999985, 15.027002200000036], [-23.45707439999997, 15.041081400000019], [-23.46869630000003, 15.05981840000001], [-23.48215009999996, 15.0754284], [-23.493510300000036, 15.09542969999997], [-23.50193360000003, 15.1141199], [-23.5220507, 15.129436799999981], [-23.5319941, 15.147279400000043], [-23.55521440000003, 15.1510897], [-23.574310200000042, 15.16130209999997], [-23.587360900000014, 15.181569500000021], [-23.5969122, 15.200583500000016], [-23.610614599999973, 15.2166228], [-23.6242295, 15.231710500000025], [-23.6395412, 15.245091699999987], [-23.66039460000004, 15.251157200000028], [-23.68054010000004, 15.25765959999998], [-23.690207899999976, 15.277278899999965], [-23.687115299999977, 15.2992432], [-23.687033799999984, 15.321128599999986], [-23.706633699999962, 15.329541], [-23.72939539999998, 15.331748099999972], [-23.7413495, 15.340184]]], [[[-22.909115300000032, 16.230611500000023], [-22.91947530000004, 16.2095276], [-22.915438, 16.189577600000014], [-22.914033, 16.166784399999965], [-22.905969399999975, 16.143417], [-22.912935500000014, 16.115690299999972], [-22.928943, 16.10102560000004], [-22.9512695, 16.091624699999983], [-22.955266399999957, 16.0710908], [-22.96246170000004, 16.04751], [-22.960418, 16.02597720000003], [-22.944893300000018, 16.010415799999976], [-22.9189467, 16.000373], [-22.89434340000002, 15.993864399999987], [-22.878487700000044, 15.974256200000033], [-22.83950930000002, 15.977103], [-22.809068400000026, 15.974244899999986], [-22.782088, 15.990446399999977], [-22.7592695, 16.004786], [-22.728843299999973, 16.022173199999965], [-22.70710660000003, 16.033937299999977], [-22.68868339999998, 16.042237099999966], [-22.680324, 16.06305449999996], [-22.668780299999963, 16.080066300000027], [-22.67119909999999, 16.100187], [-22.677406799999982, 16.122358399999957], [-22.6730874, 16.1456217], [-22.6895445, 16.161694700000016], [-22.7051258, 16.17625090000003], [-22.7062089, 16.202169], [-22.726962499999964, 16.2049202], [-22.758765899999982, 16.214445899999983], [-22.781328200000022, 16.220876600000043], [-22.80030480000003, 16.212033599999963], [-22.832087600000033, 16.20301249999998], [-22.8673351, 16.202960600000036], [-22.890684499999974, 16.2111367], [-22.9097698, 16.225234099999984], [-22.909115300000032, 16.230611500000023]]], [[[-24.582286499999977, 16.628891400000033], [-24.60363429999998, 16.619356], [-24.57960150000004, 16.60744380000003], [-24.582286499999977, 16.628891400000033]]], [[[-24.671314199999966, 16.664408600000023], [-24.65605060000004, 16.645699899999975], [-24.671314199999966, 16.664408600000023]]], [[[-24.34021720000003, 16.679212600000024], [-24.362059299999988, 16.667424100000037], [-24.3838892, 16.668829], [-24.4013939, 16.6579806], [-24.42070189999998, 16.6519156], [-24.42457850000001, 16.631627899999966], [-24.42337779999996, 16.6115344], [-24.4093773, 16.596764], [-24.3861272, 16.5824964], [-24.363162499999962, 16.576317900000024], [-24.35908119999996, 16.5546327], [-24.34597339999997, 16.5324369], [-24.331376499999962, 16.516935700000033], [-24.324494, 16.495728500000027], [-24.305537, 16.48494370000004], [-24.304329600000035, 16.509019199999962], [-24.290764150914306, 16.53262850675987], [-24.283843600000015, 16.554210499999964], [-24.2680861, 16.56963809999996], [-24.2457562, 16.58105310000004], [-24.222151699999966, 16.59430580000003], [-24.19998450000002, 16.58972550000004], [-24.17863279999996, 16.589694300000033], [-24.1589978, 16.58183489999998], [-24.134586500000015, 16.57223489999997], [-24.116246700000026, 16.5583415], [-24.093532300000014, 16.5515917], [-24.07167260000002, 16.55025619999999], [-24.053146399999974, 16.5578436], [-24.033495899999984, 16.551645800000035], [-24.014448900000012, 16.558322], [-24.015192800000012, 16.579306500000033], [-24.035680900000028, 16.583202299999964], [-24.045273599999966, 16.601610600000026], [-24.070992200000035, 16.6114067], [-24.091274, 16.61306870000003], [-24.11146990000003, 16.614482699999964], [-24.13562270000004, 16.614737700000013], [-24.160556500000013, 16.61474589999998], [-24.17766249999997, 16.6306601], [-24.198202, 16.63898979999998], [-24.22686409999996, 16.645628800000043], [-24.2518503, 16.63615779999996], [-24.271562699999965, 16.631163299999983], [-24.298037399999977, 16.64585009999997], [-24.311370699999973, 16.661561700000014], [-24.331063, 16.672646300000025], [-24.34021720000003, 16.679212600000024]]], [[[-24.7719497, 16.8038175], [-24.7879773, 16.7854121], [-24.780173700000024, 16.76691849999998], [-24.751144699999966, 16.75297710000003], [-24.72341690000001, 16.735161900000016], [-24.7008914, 16.737213699999963], [-24.68279239310484, 16.749071610847775], [-24.709449, 16.75182979999996], [-24.72885860000004, 16.760555], [-24.743894799999982, 16.77930220000001], [-24.761629, 16.798643800000022], [-24.7719497, 16.8038175]]], [[[-22.917257200000012, 16.852746199999967], [-22.9409353, 16.8408065], [-22.9607479, 16.83532969999999], [-22.98048890000001, 16.828293899999956], [-22.993495499999977, 16.810473], [-22.9916624, 16.779077100000038], [-22.989398099999974, 16.758693], [-22.9788507, 16.73974130000002], [-22.983397499999974, 16.7200926], [-22.98985009999998, 16.699747900000038], [-22.969672100000043, 16.7002938], [-22.949027699999974, 16.696093600000015], [-22.93752869999996, 16.67942219999996], [-22.94254389999996, 16.656801399999964], [-22.936335700000015, 16.633818600000037], [-22.928656799999974, 16.614850099999988], [-22.928129899999988, 16.589372300000036], [-22.908584900000022, 16.597021500000018], [-22.88937149999996, 16.591330499999966], [-22.89865460000004, 16.617487199999957], [-22.898726699999965, 16.638422400000017], [-22.88367230000003, 16.65757950000004], [-22.877053899999982, 16.680066499999977], [-22.885226, 16.701807600000016], [-22.89392260000002, 16.720818700000038], [-22.893705299999983, 16.7430064], [-22.889836499999976, 16.76271029999996], [-22.888242, 16.7831698], [-22.901402600000036, 16.8012176], [-22.896135599999983, 16.8208263], [-22.905066599999973, 16.840639799999966], [-22.917257200000012, 16.852746199999967]]], [[[-24.916358799999976, 16.92141560000002], [-24.93864489999999, 16.91365939999998], [-24.961949399999977, 16.91054580000002], [-24.9872852, 16.909557200000023], [-24.997645400000017, 16.8916883], [-25.01154340000002, 16.87459720000004], [-25.0278189, 16.88709229999996], [-25.04732109999998, 16.88034909999998], [-25.06194459999997, 16.862591799999958], [-25.077337500000024, 16.8478011], [-25.0852603, 16.82874230000002], [-25.06108540000002, 16.82269289999998], [-25.052147299999977, 16.80378919999996], [-25.028928299999958, 16.799963], [-25.0084129, 16.7933278], [-24.990367, 16.78079240000003], [-24.9694638, 16.78586550000003], [-24.940503600000035, 16.792156199999962], [-24.9156141, 16.79704359999996], [-24.8997056, 16.809498700000034], [-24.87937089999998, 16.8110923], [-24.85944180000003, 16.8361189], [-24.86004769999998, 16.86166390000001], [-24.8865569, 16.862148200000025], [-24.906194900000028, 16.875739], [-24.912104200000023, 16.894851], [-24.909197, 16.9159353], [-24.916358799999976, 16.92141560000002]]], [[[-25.089094100000036, 17.204200899999964], [-25.10694460000004, 17.1951671], [-25.126853, 17.187578599999974], [-25.1485027, 17.175894], [-25.170553499999986, 17.1656591], [-25.189047, 17.15695140000002], [-25.209353900000025, 17.15139139999997], [-25.2261112, 17.1354595], [-25.244243699999974, 17.122108300000026], [-25.268150100000025, 17.118234699999977], [-25.30010609999997, 17.107859200000018], [-25.32060689999997, 17.101550099999983], [-25.338138, 17.08753030000003], [-25.3530426, 17.07043259999996], [-25.358830100000034, 17.048553200000025], [-25.348534500000024, 17.024035], [-25.327057199999963, 17.017034400000018], [-25.3181007, 16.992592599999988], [-25.3190895, 16.9691742], [-25.311074, 16.9489923], [-25.315252599999976, 16.928575700000035], [-25.29520806599465, 16.907225330181184], [-25.27349250000001, 16.916755900000034], [-25.251949, 16.922237099999958], [-25.229479900000012, 16.912143400000044], [-25.207469900000017, 16.908010600000043], [-25.1872651, 16.919020900000035], [-25.168270099999972, 16.930584100000033], [-25.15580419999998, 16.949212700000025], [-25.13320789999997, 16.961496200000024], [-25.11072960000004, 16.988457299999958], [-25.09612669999998, 17.0035141], [-25.07576089999996, 17.016368800000013], [-25.051262, 17.017850200000016], [-25.03064619999999, 17.030431799999988], [-25.002008599999986, 17.0458715], [-24.987223500000038, 17.060867199999972], [-24.97061529999997, 17.080200099999974], [-24.964593299999976, 17.102147799999965], [-24.9815025, 17.1160623], [-25.0005318, 17.1286228], [-25.0130643, 17.1489013], [-25.01634959999996, 17.170382600000032], [-25.04665630000004, 17.17943309999996], [-25.06668619999998, 17.185844], [-25.086599300000028, 17.19561979999997], [-25.089094100000036, 17.204200899999964]]]]}}]}