{"type": "FeatureCollection", "features": [{"type": "Feature", "properties": {"code": "CRI", "name": "Costa Rica", "tier": "country"}, "geometry": {"type": "MultiPolygon", "coordinates": [[[[-87.04795, 5.557100099999975], [-87.08886, 5.52796], [-87.0356, 5.52539], [-87.04795, 5.557100099999975]]], [[[-83.17050989999997, 8.624996100000011], [-83.1591156, 8.57006860000001], [-83.17394189999999, 8.6183759], [-83.17050989999997, 8.624996100000011]]], [[[-83.8683497, 8.712984900000016], [-83.8683497, 8.712984900000016]]], [[[-84.8944435, 9.773245800000037], [-84.8944435, 9.773245800000037]]], [[[-84.86779, 9.85181], [-84.86779, 9.85181]]], [[[-84.90097489999995, 9.953965600000021], [-84.90097489999995, 9.953965600000021]]], [[[-85.06583540000001, 9.9928533], [-85.06583540000001, 9.9928533]]], [[[-85.00650150000003, 9.994925599999956], [-85.00650150000003, 9.994925599999956]]], [[[-85.0430501, 10.00548], [-85.0430501, 10.00548]]], [[[-85.17578280000002, 10.049967800000033], [-85.17578280000002, 10.049967800000033]]], [[[-85.14981409999996, 10.120893800000015], [-85.1187799, 10.078440100000037], [-85.15942369999996, 10.1148566], [-85.10420820000002, 10.107200100000043], [-85.14981409999996, 10.120893800000015]]], [[[-85.08366120000002, 10.158984200000017], [-85.08366120000002, 10.158984200000017]]], [[[-85.25912609999997, 11.077993500000012], [-85.35717060000003, 11.126204400000013], [-85.4236556, 11.128836199999988], [-85.52328349999998, 11.168113], [-85.56039540000002, 11.21004350000004], [-85.6099005, 11.219568399999964], [-85.69285086105624, 11.079306675585617], [-85.67536709999999, 11.03236770000003], [-85.7277409, 11.0491207], [-85.71743009999997, 10.99924], [-85.70565009999997, 10.94881], [-85.75628, 10.93936], [-85.7955199, 10.90808], [-85.83058, 10.94532], [-85.88428, 10.94977], [-85.9144401, 10.905690099999983], [-85.8698864, 10.87868260000003], [-85.81192, 10.849899900000011], [-85.77582990000003, 10.81291], [-85.72578989999995, 10.812449899999972], [-85.67737, 10.79717], [-85.6617301, 10.749600100000041], [-85.65705540000002, 10.694873699999981], [-85.67992990000005, 10.648910100000027], [-85.629, 10.628559899999964], [-85.66228430000002, 10.587532699999976], [-85.70572270000004, 10.550174499999983], [-85.75307749999999, 10.5300453], [-85.80279, 10.5182], [-85.77786, 10.46707], [-85.793851, 10.41869349999996], [-85.8383217, 10.3870937], [-85.8724, 10.34913], [-85.8382378, 10.308458400000038], [-85.8515499, 10.25241], [-85.83640790000003, 10.201026299999956], [-85.80812389999997, 10.1589035], [-85.79506089999995, 10.1095527], [-85.76698340000002, 10.067581900000018], [-85.73777160000003, 10.025009299999972], [-85.69586009999996, 9.98536], [-85.66192, 9.926460099999986], [-85.62473, 9.892030700000028], [-85.57572630000001, 9.8819893], [-85.52012969999998, 9.8801901], [-85.47502949999996, 9.854128599999974], [-85.41423539999995, 9.85204509999998], [-85.36384, 9.84011], [-85.30191, 9.8063099], [-85.26259, 9.77519], [-85.23130222308417, 9.73289907669886], [-85.20267, 9.68805], [-85.16773, 9.64096989999997], [-85.14319, 9.594719900000033], [-85.09752009999998, 9.5687001], [-85.07779, 9.61524], [-85.05750990000003, 9.664850099999985], [-85.00751, 9.68994], [-85.01058989999999, 9.74006], [-84.96001990000002, 9.72972], [-84.93106, 9.772820099999986], [-84.90624, 9.816849899999987], [-84.92151010000005, 9.86628], [-84.919452, 9.9214129], [-84.97112309999997, 9.94237230000002], [-85.02106549999998, 9.949851399999961], [-85.06996710000001, 9.96796150000004], [-85.12156079999995, 9.97951969999998], [-85.16043949999998, 10.0166507], [-85.19826640000004, 10.04935719999996], [-85.22515449999997, 10.09199389999998], [-85.24584920000002, 10.143521100000015], [-85.24280260000002, 10.2010149], [-85.26696039999999, 10.2577083], [-85.3069809, 10.306038099999977], [-85.3579193, 10.314711], [-85.30626, 10.3188199], [-85.2844169, 10.272960699999974], [-85.23835269999998, 10.25291619999998], [-85.225849, 10.1998148], [-85.182626, 10.1732619], [-85.13350790000001, 10.1612909], [-85.08093, 10.172173900000033], [-85.04354540000003, 10.137765], [-85.00323410000004, 10.1031967], [-84.957804, 10.069903700000012], [-84.91426429999996, 10.044362399999958], [-84.87563749999998, 10.0077915], [-84.82671819999999, 9.989160399999982], [-84.774021, 9.995576900000021], [-84.82494550000004, 9.9791925], [-84.7716182, 9.9784529], [-84.73546809999996, 9.9411977], [-84.72317870000002, 9.888589], [-84.678116, 9.8412549], [-84.64494990000003, 9.794338499999984], [-84.63250809999998, 9.739705800000038], [-84.66818009999999, 9.701372099999979], [-84.68013, 9.6511701], [-84.63924660000002, 9.62001780000002], [-84.58473260000004, 9.561020800000016], [-84.541204, 9.528997900000043], [-84.48402, 9.52927], [-84.4244699, 9.514019900000033], [-84.371241, 9.501707500000041], [-84.3150154, 9.489096899999979], [-84.25543109999998, 9.473404], [-84.2011027, 9.461018], [-84.16959090000003, 9.421954300000042], [-84.14771539999997, 9.3763642], [-84.09282840000003, 9.371968099999968], [-84.0334414, 9.345334200000018], [-83.9783669, 9.326933300000036], [-83.9308516, 9.301240200000034], [-83.87278489999997, 9.25635109999999], [-83.83400009999997, 9.21708], [-83.78874009999997, 9.195810100000042], [-83.75730990000001, 9.15098], [-83.71254, 9.126339899999987], [-83.67733240000001, 9.0905715], [-83.64028819999999, 9.0517481], [-83.63195, 8.98221], [-83.62106809999999, 8.93104019999998], [-83.57669320000004, 8.894382799999974], [-83.58622339999995, 8.84335189999997], [-83.63853680000003, 8.811808200000034], [-83.64011429999998, 8.736794300000035], [-83.66403990000002, 8.69124], [-83.7122807, 8.6778389], [-83.732307, 8.626721400000033], [-83.69805680000005, 8.578592299999961], [-83.65882, 8.535989900000025], [-83.60422639999996, 8.488016], [-83.56834060000003, 8.448134499999956], [-83.51259009999997, 8.44875], [-83.4442299, 8.43798], [-83.39469, 8.417159900000033], [-83.34052390000002, 8.396957], [-83.290369, 8.374170400000043], [-83.27368350000005, 8.424583299999984], [-83.27698, 8.480729899999957], [-83.28493779999997, 8.532712899999957], [-83.3238422, 8.568612100000024], [-83.37368, 8.57519], [-83.41557, 8.60996], [-83.43467159999997, 8.65892419999997], [-83.47013260000003, 8.69808], [-83.4237699, 8.718980100000014], [-83.3801899, 8.74669], [-83.33076159999999, 8.725169199999979], [-83.3199349, 8.6738401], [-83.27234409999997, 8.65614160000004], [-83.22309770000001, 8.639236600000018], [-83.17097269999998, 8.641868099999968], [-83.13487539999996, 8.6039144], [-83.12511, 8.55474], [-83.11784, 8.50403], [-83.1463265, 8.545610100000019], [-83.11784380000003, 8.4962043], [-83.09192989999997, 8.45032], [-83.11964, 8.4061201], [-83.13732790000002, 8.355484600000025], [-83.03936, 8.29240989999996], [-82.98979, 8.258140099999974], [-82.93289, 8.17983], [-82.91471149999997, 8.132442899999955], [-82.90055560000003, 8.083871100000025], [-82.90361910000001, 8.136200199999973], [-82.9104051, 8.195173399999963], [-82.929379, 8.245319799999969], [-82.96721959999998, 8.278950700000028], [-83.01355209999998, 8.30280639999997], [-83.04790830000002, 8.341087], [-82.99971170000005, 8.366618799999966], [-82.96010760000003, 8.403654], [-82.91509030000005, 8.42866310000004], [-82.8395788, 8.480287699999963], [-82.83823830000001, 8.531330599999983], [-82.82944729999997, 8.583154599999972], [-82.83000649999997, 8.63599480000002], [-82.86455339999996, 8.678968500000035], [-82.8899893, 8.722582], [-82.91915889999997, 8.765125800000025], [-82.86640429999999, 8.805268099999982], [-82.85524290000002, 8.8561842], [-82.797644, 8.8773023], [-82.74707049999996, 8.899679299999981], [-82.71688719999997, 8.949383900000026], [-82.7507314, 8.992577699999956], [-82.801389, 9.003611], [-82.83949540000002, 9.03980740000004], [-82.87977570000002, 9.070107400000012], [-82.9359299, 9.078469299999988], [-82.9360778, 9.473124799999962], [-82.8425801, 9.501413200000027], [-82.8672675, 9.545224200000042], [-82.8628577, 9.601298900000018], [-82.80887, 9.595563799999958], [-82.75053659999996, 9.581288600000011], [-82.71154889999997, 9.549350200000013], [-82.6763207, 9.508087099999958], [-82.62605450000002, 9.502234599999955], [-82.60400890000001, 9.553030100000022], [-82.55493629999995, 9.54010509999997], [-82.59149990000002, 9.586509900000014], [-82.61845, 9.63044], [-82.6738421, 9.6335151], [-82.72363690000005, 9.643482], [-82.78232579999995, 9.666282099999986], [-82.8142968, 9.7176372], [-82.85471409999997, 9.747074199999968], [-82.8980101, 9.801639899999966], [-82.93201009999996, 9.84215], [-82.98454880000001, 9.909877900000026], [-83.015938, 9.950906200000016], [-83.024666, 10.000435], [-83.0729689, 10.013423399999962], [-83.13502010000002, 10.04161], [-83.16688, 10.08442], [-83.20149, 10.128240099999982], [-83.27336540000002, 10.219101399999982], [-83.3477888, 10.3061469], [-83.40535, 10.37702], [-83.44022989999998, 10.42994], [-83.49791010000001, 10.53431], [-83.52360079999998, 10.5884766], [-83.55779, 10.6783], [-83.57605990000003, 10.740054199999978], [-83.58463609999998, 10.79400139999996], [-83.6209706, 10.877327199999971], [-83.66659470000002, 10.930489500000025], [-83.66691570000002, 10.880094599999975], [-83.66262129999997, 10.825865], [-83.6959685, 10.787313700000041], [-83.76092489999998, 10.774565400000043], [-83.82357989999996, 10.749139500000034], [-83.86268650000002, 10.717579299999976], [-83.9137022, 10.711022300000035], [-83.965157, 10.727695399999966], [-84.00227940000002, 10.762293799999963], [-84.05085960000002, 10.779494799999963], [-84.10195619999996, 10.774399900000027], [-84.16430530000004, 10.7851566], [-84.22217769999997, 10.800741699999968], [-84.219158, 10.8541538], [-84.25732249999997, 10.890994399999972], [-84.30542860000001, 10.915659199999979], [-84.34852040000003, 10.94909079999998], [-84.39958369999997, 10.9753551], [-84.45002979999998, 10.962099300000013], [-84.4859338, 11.00091220000002], [-84.564502, 11.0330822], [-84.66620479999997, 11.072379700000042], [-84.74364320000004, 11.048299900000032], [-84.91023320000002, 10.943439], [-85.23025029999998, 11.063717099999966], [-85.25912609999997, 11.077993500000012]]]]}}]}