{"type": "FeatureCollection", "features": [{"type": "Feature", "properties": {"code": "CUB", "name": "Cuba", "tier": "country"}, "geometry": {"type": "MultiPolygon", "coordinates": [[[[-77.88422540000003, 20.57580719999996], [-77.88422540000003, 20.57580719999996]]], [[[-78.3670562, 20.539215399999964], [-78.40613120000002, 20.577127699999973], [-78.45200190000001, 20.61344029999996], [-78.41207740000004, 20.574476800000017], [-78.36337519999998, 20.533647100000028], [-78.3670562, 20.539215399999964]]], [[[-78.0852859, 20.6377265], [-78.0852859, 20.6377265]]], [[[-74.90794909999995, 20.695796899999984], [-74.90794909999995, 20.695796899999984]]], [[[-78.8127591, 20.755030600000033], [-78.78292639999997, 20.713066599999983], [-78.8127591, 20.755030600000033]]], [[[-78.2326548, 20.767099], [-78.2326548, 20.767099]]], [[[-78.82984240000003, 20.754861399999978], [-78.82984240000003, 20.754861399999978]]], [[[-78.4814498, 20.732389599999966], [-78.50779309999997, 20.776046], [-78.48881180000002, 20.728947], [-78.4814498, 20.732389599999966]]], [[[-78.18866509999995, 20.771545600000028], [-78.18866509999995, 20.771545600000028]]], [[[-78.84114819999996, 20.770612], [-78.84114819999996, 20.770612]]], [[[-78.893871, 20.804323799999967], [-78.94331329999999, 20.826622499999957], [-78.89730269999997, 20.7757415], [-78.893871, 20.804323799999967]]], [[[-78.62950659999998, 20.84677830000001], [-78.62950659999998, 20.84677830000001]]], [[[-79.065459, 20.910870100000032], [-79.11233960000003, 20.94346330000003], [-79.15207660000003, 20.9840932], [-79.19672490000005, 21.022490700000017], [-79.16591760000001, 20.96668039999998], [-79.10073110000002, 20.90506580000002], [-79.054946, 20.884935500000033], [-79.0152893, 20.850747399999968], [-78.96542060000004, 20.840377600000036], [-79.02750790000003, 20.89122480000003], [-79.065459, 20.910870100000032]]], [[[-78.73032170000005, 21.110485499999985], [-78.73032170000005, 21.110485499999985]]], [[[-79.3215839, 21.103125699999968], [-79.39153529999997, 21.119584799999956], [-79.33324249999997, 21.096724899999984], [-79.3151832, 21.04734750000001], [-79.3215839, 21.103125699999968]]], [[[-79.39565, 21.105183100000023], [-79.45074239999995, 21.12712860000001], [-79.401365, 21.09878230000004], [-79.39565, 21.105183100000023]]], [[[-78.75574720000002, 21.429723499999962], [-78.75574720000002, 21.429723499999962]]], [[[-78.7786544, 21.45443], [-78.7786544, 21.45443]]], [[[-78.82852180000002, 21.479494399999986], [-78.82852180000002, 21.479494399999986]]], [[[-78.760694, 21.47800319999997], [-78.760694, 21.47800319999997]]], [[[-82.1775747, 21.5611124], [-82.1775747, 21.5611124]]], [[[-82.34913850000002, 21.568159299999976], [-82.34913850000002, 21.568159299999976]]], [[[-82.46613549999996, 21.577648], [-82.420912, 21.5522445], [-82.46613549999996, 21.577648]]], [[[-82.22654189999996, 21.577636200000015], [-82.22654189999996, 21.577636200000015]]], [[[-82.28196239999998, 21.586957200000032], [-82.33137119999998, 21.57392459999996], [-82.27653289999998, 21.572409800000035], [-82.28196239999998, 21.586957200000032]]], [[[-82.19747169999995, 21.58403439999996], [-82.19747169999995, 21.58403439999996]]], [[[-82.96635530000002, 21.597208600000027], [-82.96635530000002, 21.597208600000027]]], [[[-82.0446803, 21.609135199999983], [-82.08874810000003, 21.584568700000027], [-82.034924, 21.590819300000017], [-82.0446803, 21.609135199999983]]], [[[-82.33376259999996, 21.6091236], [-82.33376259999996, 21.6091236]]], [[[-82.05474520000001, 21.61018560000003], [-82.10520339999998, 21.60681209999997], [-82.05471769999997, 21.607398399999987], [-82.05474520000001, 21.61018560000003]]], [[[-82.11785519999998, 21.62007950000002], [-82.11785519999998, 21.62007950000002]]], [[[-82.37999290000003, 21.6242099], [-82.37999290000003, 21.6242099]]], [[[-81.58750619999996, 21.632914099999965], [-81.58750619999996, 21.632914099999965]]], [[[-81.66078510000003, 21.636158099999967], [-81.66078510000003, 21.636158099999967]]], [[[-82.46995040000004, 21.64416250000003], [-82.46995040000004, 21.64416250000003]]], [[[-81.98323610000001, 21.645938399999974], [-82.02693249999997, 21.619529499999988], [-81.9713142, 21.612348], [-81.98323610000001, 21.645938399999974]]], [[[-82.44449240000004, 21.65376990000003], [-82.44449240000004, 21.65376990000003]]], [[[-81.8047219, 21.654724399999957], [-81.8047219, 21.654724399999957]]], [[[-81.82782119999997, 21.664706100000018], [-81.8755815, 21.6482219], [-81.91853, 21.615839400000024], [-81.87057080000001, 21.638402], [-81.82782119999997, 21.664706100000018]]], [[[-82.44572169999996, 21.67456969999999], [-82.44572169999996, 21.67456969999999]]], [[[-81.9438403, 21.6956663], [-81.9438403, 21.6956663]]], [[[-81.83249169999998, 21.69757], [-81.83249169999998, 21.69757]]], [[[-81.3594591, 21.699964299999984], [-81.4102229, 21.685762900000014], [-81.442359, 21.6460891], [-81.49472009999995, 21.644165], [-81.5430732, 21.617751], [-81.4602831, 21.6300022], [-81.38821640000005, 21.682065599999987], [-81.3594591, 21.699964299999984]]], [[[-82.51758619999998, 21.704119399999964], [-82.51758619999998, 21.704119399999964]]], [[[-82.45823030000003, 21.7065684], [-82.45823030000003, 21.7065684]]], [[[-82.47563779999997, 21.715739799999987], [-82.47563779999997, 21.715739799999987]]], [[[-82.50011850000003, 21.714497200000025], [-82.50011850000003, 21.714497200000025]]], [[[-82.07037719999997, 21.734718800000017], [-82.07037719999997, 21.734718800000017]]], [[[-82.54364170000004, 21.7466232], [-82.54364170000004, 21.7466232]]], [[[-82.56945510000004, 21.76138220000001], [-82.55102690000002, 21.7118884], [-82.56945510000004, 21.76138220000001]]], [[[-77.44622689999996, 21.778325900000038], [-77.44622689999996, 21.778325900000038]]], [[[-83.19207809999997, 21.799715699999965], [-83.19207809999997, 21.799715699999965]]], [[[-82.5936611, 21.843080800000035], [-82.5936611, 21.843080800000035]]], [[[-81.822161, 21.877768799999984], [-81.822161, 21.877768799999984]]], [[[-82.60482549999996, 21.896905700000023], [-82.60482549999996, 21.896905700000023]]], [[[-82.63991559999997, 21.912392], [-82.63991559999997, 21.912392]]], [[[-77.55265649999996, 21.909595599999985], [-77.60255460000002, 21.9054125], [-77.58526509999999, 21.857129399999973], [-77.55518840000002, 21.813845799999985], [-77.50626180000003, 21.79328520000001], [-77.45557560000005, 21.79578479999997], [-77.48199420000003, 21.83851010000004], [-77.51475810000004, 21.877776299999983], [-77.55265649999996, 21.909595599999985]]], [[[-82.63457109999999, 21.9311228], [-82.63457109999999, 21.9311228]]], [[[-82.97446410000002, 21.94339209999998], [-82.9971782, 21.895092099999978], [-83.03816119999998, 21.8579412], [-83.07618580000005, 21.81610429999998], [-83.07484150000002, 21.763951599999974], [-83.04129129999997, 21.713783], [-83.00517660000001, 21.669177200000032], [-82.982265, 21.618053100000044], [-82.97432480000003, 21.564399], [-83.01925769999998, 21.5417033], [-83.0700548, 21.547832299999968], [-83.11676950000002, 21.56966290000004], [-83.15502269999999, 21.6036458], [-83.1569453, 21.5535167], [-83.1132656, 21.52235309999999], [-83.08188780000003, 21.47955539999997], [-83.0312398, 21.46505710000004], [-82.97279920000003, 21.457579500000044], [-82.92024190000002, 21.44430930000003], [-82.84722189999998, 21.44359130000004], [-82.79765360000002, 21.457125699999978], [-82.714006, 21.48330770000002], [-82.66513510000004, 21.5085926], [-82.61424480000004, 21.526311899999982], [-82.5611698, 21.5587412], [-82.56645560000001, 21.61162889999999], [-82.59409009999997, 21.65583], [-82.59372040000004, 21.706365700000017], [-82.60509839999999, 21.757628500000024], [-82.6519023, 21.790222099999966], [-82.6921717, 21.821802], [-82.68574779999997, 21.874248600000044], [-82.73908290000003, 21.89921490000004], [-82.793633, 21.90834819999998], [-82.841222, 21.92881620000002], [-82.89621480000002, 21.9287622], [-82.961805, 21.9372393], [-82.97446410000002, 21.94339209999998]]], [[[-83.52153640000003, 21.95088349999996], [-83.52153640000003, 21.95088349999996]]], [[[-77.6116831, 21.939929600000017], [-77.65552859999995, 21.913711199999984], [-77.69957779999996, 21.94058110000001], [-77.70948140000004, 21.88589540000003], [-77.6499214, 21.8714045], [-77.60827290000003, 21.90680290000002], [-77.6116831, 21.939929600000017]]], [[[-83.39890969999996, 21.954026], [-83.448886, 21.94553339999996], [-83.38635779999996, 21.9471892], [-83.39890969999996, 21.954026]]], [[[-82.63436689999996, 21.966915599999968], [-82.63436689999996, 21.966915599999968]]], [[[-83.60341160000002, 21.97762190000003], [-83.54319669999997, 21.954127300000035], [-83.59242930000003, 21.965358], [-83.60341160000002, 21.97762190000003]]], [[[-83.63104340000002, 21.991487600000024], [-83.63104340000002, 21.991487600000024]]], [[[-82.69890780000001, 22.010717799999966], [-82.65337420000003, 21.976835], [-82.6955262, 22.0063675], [-82.69890780000001, 22.010717799999966]]], [[[-82.76811259999997, 22.032297499999974], [-82.71990519999999, 22.00753409999998], [-82.7650193, 22.03113110000001], [-82.76811259999997, 22.032297499999974]]], [[[-81.57370189999999, 22.01975180000004], [-81.57370189999999, 22.01975180000004]]], [[[-81.2632844, 22.050328], [-81.2632844, 22.050328]]], [[[-82.86051390000002, 22.06370310000003], [-82.86051390000002, 22.06370310000003]]], [[[-82.7732892, 22.066075], [-82.7732892, 22.066075]]], [[[-81.45311089999996, 22.07725889999996], [-81.3990094, 22.031106700000034], [-81.34851809999996, 22.023836300000042], [-81.29942829999999, 22.034300100000024], [-81.35015, 22.0518271], [-81.39851869999998, 22.035389899999956], [-81.4361552, 22.06930579999997], [-81.45311089999996, 22.07725889999996]]], [[[-81.54339269999997, 22.0558193], [-81.59077130000003, 22.079363899999958], [-81.55214740000002, 22.047545899999974], [-81.54339269999997, 22.0558193]]], [[[-81.61085560000002, 22.1033818], [-81.61085560000002, 22.1033818]]], [[[-77.78736020000002, 22.120258], [-77.78736020000002, 22.120258]]], [[[-82.92323839999997, 22.1296309], [-82.92323839999997, 22.1296309]]], [[[-81.90395129999996, 22.150823], [-81.90395129999996, 22.150823]]], [[[-81.60398919999997, 22.157446899999965], [-81.60398919999997, 22.157446899999965]]], [[[-81.73501210000002, 22.17377439999999], [-81.68012450000003, 22.15548039999997], [-81.73209379999997, 22.173456499999975], [-81.73501210000002, 22.17377439999999]]], [[[-82.01032089999997, 22.219118400000013], [-82.01032089999997, 22.219118400000013]]], [[[-82.805482, 22.233280700000034], [-82.805482, 22.233280700000034]]], [[[-82.78049690000005, 22.249620700000026], [-82.78049690000005, 22.249620700000026]]], [[[-78.30909909999997, 22.267035200000016], [-78.33197620000003, 22.2225426], [-78.297453, 22.26348689999997], [-78.30909909999997, 22.267035200000016]]], [[[-77.87125890000002, 22.316726700000043], [-77.83491650000005, 22.263241], [-77.81483530000004, 22.217432699999982], [-77.77178560000004, 22.189550899999986], [-77.8166759, 22.24118330000002], [-77.84209430000001, 22.29299550000001], [-77.87125890000002, 22.316726700000043]]], [[[-77.92516059999996, 22.3462611], [-77.89952, 22.302051699999968], [-77.92516059999996, 22.3462611]]], [[[-78.055265, 22.365615900000034], [-78.055265, 22.365615900000034]]], [[[-84.38007869999998, 22.4088381], [-84.38007869999998, 22.4088381]]], [[[-79.25657849999996, 22.411730200000022], [-79.25657849999996, 22.411730200000022]]], [[[-84.4276434, 22.419653300000018], [-84.4276434, 22.419653300000018]]], [[[-78.08712109999998, 22.423992500000043], [-78.08712109999998, 22.423992500000043]]], [[[-79.2234674, 22.43569559999998], [-79.2234674, 22.43569559999998]]], [[[-78.2037283, 22.438387300000027], [-78.26601829999997, 22.429187800000026], [-78.31323580000002, 22.4032808], [-78.26404089999996, 22.355586400000014], [-78.23234270000003, 22.31611739999999], [-78.16931060000003, 22.301202799999984], [-78.12979470000003, 22.257215799999972], [-78.10005920000005, 22.298880699999966], [-78.06421010000004, 22.33722969999996], [-78.092592, 22.3920558], [-78.14310679999996, 22.4225052], [-78.194367, 22.42923219999997], [-78.2037283, 22.438387300000027]]], [[[-78.93748, 22.4390526], [-78.98438549999997, 22.406016400000038], [-78.93748, 22.4390526]]], [[[-79.27851809999999, 22.45765570000002], [-79.27851809999999, 22.45765570000002]]], [[[-79.30482340000002, 22.469795300000015], [-79.30482340000002, 22.469795300000015]]], [[[-78.16251890000002, 22.482568], [-78.15793339999996, 22.43107649999998], [-78.16251890000002, 22.482568]]], [[[-78.8182605, 22.4967387], [-78.8182605, 22.4967387]]], [[[-82.36861720000002, 22.49417059999996], [-82.36861720000002, 22.49417059999996]]], [[[-78.79487379999996, 22.5004936], [-78.79487379999996, 22.5004936]]], [[[-78.80969189999998, 22.498758699999975], [-78.80969189999998, 22.498758699999975]]], [[[-78.84588679999999, 22.50883849999998], [-78.84588679999999, 22.50883849999998]]], [[[-84.32063680000003, 22.509282200000012], [-84.32063680000003, 22.509282200000012]]], [[[-78.888731, 22.524915], [-78.888731, 22.524915]]], [[[-78.96888450000003, 22.527754200000015], [-78.96888450000003, 22.527754200000015]]], [[[-78.9107823, 22.5318062], [-78.9107823, 22.5318062]]], [[[-78.75532550000004, 22.542882600000034], [-78.75532550000004, 22.542882600000034]]], [[[-79.19442379999998, 22.543117], [-79.19442379999998, 22.543117]]], [[[-79.4826179, 22.55028349999999], [-79.4826179, 22.55028349999999]]], [[[-79.15430510000003, 22.551334700000012], [-79.15430510000003, 22.551334700000012]]], [[[-78.82028889999997, 22.549216199999965], [-78.82028889999997, 22.549216199999965]]], [[[-79.26812769999995, 22.5549843], [-79.26812769999995, 22.5549843]]], [[[-79.13519780000004, 22.55942780000004], [-79.0894769, 22.530097099999978], [-79.13441459999999, 22.5540353], [-79.13519780000004, 22.55942780000004]]], [[[-78.67236880000002, 22.5572771], [-78.6941009, 22.5075796], [-78.62989959999999, 22.48061739999998], [-78.5727363, 22.46427890000002], [-78.52950440000004, 22.43744839999997], [-78.47820419999995, 22.43453030000002], [-78.42819749999995, 22.4382603], [-78.44657729999997, 22.389672199999964], [-78.406842, 22.422373400000016], [-78.35554229999998, 22.423824700000015], [-78.30450650000002, 22.4400412], [-78.31581520000002, 22.48900739999997], [-78.3627227, 22.5221249], [-78.404273, 22.5545903], [-78.4534155, 22.52944410000004], [-78.51398149999997, 22.52930919999998], [-78.577858, 22.5295456], [-78.6265192, 22.5606167], [-78.67236880000002, 22.5572771]]], [[[-82.50349370000005, 22.581076900000017], [-82.50349370000005, 22.581076900000017]]], [[[-79.1930487, 22.5866682], [-79.1930487, 22.5866682]]], [[[-82.50627389999995, 22.588611], [-82.50627389999995, 22.588611]]], [[[-79.23098950000005, 22.592581799999987], [-79.23098950000005, 22.592581799999987]]], [[[-82.6858234, 22.5974618], [-82.6858234, 22.5974618]]], [[[-79.1714316, 22.60261360000002], [-79.1714316, 22.60261360000002]]], [[[-82.50830340000002, 22.599353], [-82.50830340000002, 22.599353]]], [[[-79.1923135, 22.607087299999982], [-79.1923135, 22.607087299999982]]], [[[-79.20838919999997, 22.614698600000025], [-79.20838919999997, 22.614698600000025]]], [[[-82.5097491, 22.61282750000002], [-82.5097491, 22.61282750000002]]], [[[-78.6830657, 22.6134315], [-78.65193949999997, 22.5680729], [-78.6830657, 22.6134315]]], [[[-78.99036, 22.6261413], [-78.99036, 22.6261413]]], [[[-82.50930429999995, 22.624286199999986], [-82.50930429999995, 22.624286199999986]]], [[[-79.10310160000004, 22.626983300000035], [-79.10310160000004, 22.626983300000035]]], [[[-79.13430719999998, 22.637943499999967], [-79.18231179999997, 22.6222296], [-79.132136, 22.619758399999988], [-79.13430719999998, 22.637943499999967]]], [[[-82.67026070000003, 22.626949299999975], [-82.67026070000003, 22.626949299999975]]], [[[-82.52262130000003, 22.63695], [-82.52262130000003, 22.63695]]], [[[-79.16849659999998, 22.645225], [-79.22250240000001, 22.64367220000003], [-79.16849659999998, 22.645225]]], [[[-79.08538989999998, 22.64593160000001], [-79.08538989999998, 22.64593160000001]]], [[[-79.08680809999998, 22.6687639], [-79.03803659999997, 22.649635499999963], [-78.98987309999998, 22.633613299999976], [-79.05871229999997, 22.661444699999976], [-79.08680809999998, 22.6687639]]], [[[-79.47172959999997, 22.66667210000004], [-79.524773, 22.6668305], [-79.47567779999997, 22.645919800000012], [-79.43327739999997, 22.61549850000004], [-79.38675719999996, 22.5876064], [-79.40993150000001, 22.645444500000032], [-79.46263150000001, 22.664137600000032], [-79.47172959999997, 22.66667210000004]]], [[[-79.57664410000002, 22.8077136], [-79.62804249999996, 22.799096], [-79.56974820000002, 22.792069500000032], [-79.5359309, 22.75392410000001], [-79.49988209999998, 22.708484], [-79.44598040000004, 22.6825114], [-79.39070539999997, 22.65970220000004], [-79.34590179999998, 22.62326289999996], [-79.36890440000003, 22.668097700000043], [-79.41405140000002, 22.6948648], [-79.47190129999997, 22.725110199999985], [-79.52700460000004, 22.758514799999972], [-79.56357119999998, 22.798144100000027], [-79.57664410000002, 22.8077136]]], [[[-83.77985480000001, 22.817243499999982], [-83.82308659999997, 22.77619540000004], [-83.78232310000004, 22.808917100000013], [-83.77985480000001, 22.817243499999982]]], [[[-79.66009669999995, 22.817618899999957], [-79.66009669999995, 22.817618899999957]]], [[[-79.69099580000002, 22.86046570000004], [-79.69099580000002, 22.86046570000004]]], [[[-79.7008188, 22.872472], [-79.7008188, 22.872472]]], [[[-83.51114530000002, 22.88657740000004], [-83.51114530000002, 22.88657740000004]]], [[[-79.7300401, 22.8865081], [-79.7300401, 22.8865081]]], [[[-79.72021859999995, 22.895998099999957], [-79.72021859999995, 22.895998099999957]]], [[[-83.45460760000003, 22.906206699999963], [-83.45460760000003, 22.906206699999963]]], [[[-79.818141, 22.90545859999997], [-79.818141, 22.90545859999997]]], [[[-83.4372366, 22.91416309999996], [-83.4372366, 22.91416309999996]]], [[[-79.79807639999999, 22.9409194], [-79.79807639999999, 22.9409194]]], [[[-79.84062860000003, 22.945300400000022], [-79.84062860000003, 22.945300400000022]]], [[[-79.8634596, 22.937554300000016], [-79.8634596, 22.937554300000016]]], [[[-79.8737593, 22.964268599999958], [-79.92542939999996, 22.963636300000044], [-79.87839409999997, 22.914313399999962], [-79.8737593, 22.964268599999958]]], [[[-79.93984890000003, 22.96379439999998], [-79.93984890000003, 22.96379439999998]]], [[[-79.83599379999997, 22.968536], [-79.83599379999997, 22.968536]]], [[[-80.1269652, 22.9757422], [-80.1269652, 22.9757422]]], [[[-79.94770760000003, 22.97440070000003], [-79.94770760000003, 22.97440070000003]]], [[[-79.9956338, 23.00616879999997], [-79.9956338, 23.00616879999997]]], [[[-80.16816839999998, 22.9949173], [-80.16816839999998, 22.9949173]]], [[[-80.06457589999998, 23.00494279999996], [-80.11362639999999, 23.022849099999963], [-80.06561069999998, 22.999799099999983], [-80.06457589999998, 23.00494279999996]]], [[[-80.00115490000003, 23.027661299999956], [-80.00115490000003, 23.027661299999956]]], [[[-80.02008219999996, 23.0332331], [-80.02008219999996, 23.0332331]]], [[[-80.01016750000002, 23.045220700000034], [-80.01016750000002, 23.045220700000034]]], [[[-80.07391040000005, 23.0736153], [-80.05435510000002, 23.023150300000015], [-80.06755269999998, 23.0717914], [-80.07391040000005, 23.0736153]]], [[[-80.70760079999998, 23.12360940000002], [-80.70760079999998, 23.12360940000002]]], [[[-80.2241201, 23.146069500000042], [-80.27544689999996, 23.145753800000033], [-80.3274603, 23.135809200000022], [-80.28540329999997, 23.10676060000003], [-80.250556, 23.0679141], [-80.18206309999998, 23.05985920000002], [-80.12901969999999, 23.06601890000004], [-80.17639829999996, 23.09602370000001], [-80.22497849999996, 23.131073499999964], [-80.2241201, 23.146069500000042]]], [[[-80.36934570000003, 23.1523831], [-80.44230180000002, 23.149542], [-80.38754180000002, 23.13849280000002], [-80.36934570000003, 23.1523831]]], [[[-80.77576509999999, 23.170672], [-80.77576509999999, 23.170672]]], [[[-80.83623449999996, 23.173287], [-80.88736609999995, 23.145058699999986], [-80.9340094, 23.1199411], [-80.98576610000003, 23.107273199999987], [-80.9332245, 23.119106699999968], [-80.87878480000003, 23.12521850000002], [-80.82381090000001, 23.128542199999956], [-80.83623449999996, 23.173287]]], [[[-82.02506709999999, 23.187043399999972], [-82.08151180000003, 23.179214899999987], [-82.1365292, 23.171324500000033], [-82.19078280000002, 23.176982], [-82.24538830000003, 23.17824439999998], [-82.2950717, 23.168313600000044], [-82.34896880000002, 23.156568099999973], [-82.40786119999999, 23.13767659999999], [-82.4473505, 23.104091800000013], [-82.49952490000003, 23.09063649999996], [-82.53949170000003, 23.058865499999957], [-82.60156119999996, 23.042613300000035], [-82.65529230000001, 23.032944600000025], [-82.71780390000002, 23.021954800000042], [-82.76007330000003, 22.9934338], [-82.80238140000004, 23.02422490000002], [-82.86907179999996, 23.019406200000024], [-82.9279319, 23.015826100000012], [-82.9879808, 23.009909600000043], [-83.0416653, 23.005794099999964], [-83.09067989999998, 22.9957985], [-83.14449050000003, 22.9890046], [-83.14991440000001, 22.939264], [-83.19806540000003, 22.961473200000036], [-83.24341039999996, 22.987621899999986], [-83.30571689999996, 22.952825899999983], [-83.34863879999996, 22.916173600000043], [-83.38132219999996, 22.870810799999973], [-83.42644460000004, 22.898853], [-83.46731979999997, 22.866473], [-83.5164251, 22.854176399999957], [-83.561355, 22.818966900000024], [-83.61178790000002, 22.828719], [-83.64270279999998, 22.7888283], [-83.69017460000003, 22.808227], [-83.73181519999997, 22.774106699999972], [-83.77936929999998, 22.756656799999984], [-83.8291026, 22.742741499999973], [-83.879978, 22.742408500000042], [-83.93137119999997, 22.721492100000027], [-83.967684, 22.6864533], [-84.01721489999996, 22.70400570000004], [-84.0346216, 22.654361899999962], [-84.08806160000003, 22.645769199999986], [-84.1201146, 22.603279799999985], [-84.16812810000002, 22.578072400000025], [-84.217514, 22.569771899999978], [-84.20497430000002, 22.520358699999974], [-84.24269279999999, 22.483496199999962], [-84.29747150000001, 22.474804399999957], [-84.31211260000003, 22.425610599999988], [-84.34309269999997, 22.386067699999977], [-84.38576190000002, 22.352208699999963], [-84.39834730000004, 22.303043799999987], [-84.40974740000004, 22.252700799999968], [-84.44667290000002, 22.190544400000032], [-84.39891119999997, 22.17242880000003], [-84.363119, 22.133331], [-84.34092219999998, 22.087348900000013], [-84.32083369999998, 22.036975499999965], [-84.28064620000002, 22.0679396], [-84.27553369999995, 22.0168369], [-84.3279134, 21.990196], [-84.36585429999998, 22.03036509999996], [-84.4219145, 22.021294399999956], [-84.47321449999998, 22.01877470000002], [-84.52078830000002, 22.0370286], [-84.58438610000003, 21.99688319999997], [-84.70369080000003, 21.956767900000028], [-84.7534114, 21.926953], [-84.8000198, 21.90263170000004], [-84.84478139999997, 21.93276049999997], [-84.8644936, 21.885869700000036], [-84.91600609999998, 21.915836], [-84.9514496, 21.86954169999997], [-84.91756430000004, 21.828604100000025], [-84.8606666, 21.821437099999972], [-84.80817449999998, 21.811682], [-84.76172959999998, 21.83845989999997], [-84.72301529999997, 21.878952200000022], [-84.63294179999995, 21.911168900000042], [-84.55615770000004, 21.9337151], [-84.50621559999998, 21.9300825], [-84.4628344, 21.90375069999999], [-84.47300179999996, 21.8474976], [-84.50834160000002, 21.808027699999986], [-84.51626360000002, 21.75857620000001], [-84.45424119999997, 21.76422849999997], [-84.400965, 21.798266300000034], [-84.341144, 21.847089900000014], [-84.2975443, 21.876606900000038], [-84.23557019999996, 21.897210899999962], [-84.177587, 21.9127806], [-84.0873408, 21.93143230000003], [-84.03481859999997, 21.9063036], [-83.99555809999997, 21.9554698], [-83.96817539999996, 22.013366600000015], [-83.99549460000004, 22.061367300000033], [-83.97395230000002, 22.1096798], [-83.92222390000003, 22.1638462], [-83.86896589999996, 22.172374100000035], [-83.81047249999997, 22.174579800000014], [-83.74119890000001, 22.168432300000028], [-83.69075410000002, 22.173403899999975], [-83.6255504, 22.182448699999966], [-83.58670560000003, 22.22639789999996], [-83.53874649999999, 22.19731379999996], [-83.4911445, 22.1809247], [-83.442464, 22.199962800000026], [-83.37699189999996, 22.19968839999997], [-83.33146479999998, 22.2452954], [-83.2936088, 22.287947100000014], [-83.26539870000002, 22.345988099999968], [-83.21365759999996, 22.33195120000002], [-83.15638980000004, 22.34341350000002], [-83.13246570000003, 22.3876407], [-83.10714539999996, 22.4333266], [-83.08144470000005, 22.4839175], [-83.028418, 22.508476200000025], [-82.97659940000004, 22.520632399999972], [-82.92368, 22.547677099999984], [-82.88077020000004, 22.574037899999986], [-82.82653529999996, 22.5969938], [-82.78629829999998, 22.629943], [-82.78025459999998, 22.683535900000027], [-82.73526739999998, 22.706775399999966], [-82.65811760000001, 22.6873785], [-82.60455580000003, 22.685494800000015], [-82.55442589999997, 22.66835979999997], [-82.50147850000002, 22.683846599999978], [-82.4498281, 22.683559], [-82.34008620000003, 22.677998900000016], [-82.28097019999996, 22.68588570000003], [-82.216063, 22.685825799999957], [-82.16069170000002, 22.678927400000013], [-82.1106406, 22.6615105], [-82.05555829999997, 22.667625300000037], [-81.95784179999995, 22.677214], [-81.88553959999997, 22.679255199999957], [-81.7991261, 22.6577888], [-81.74140890000002, 22.63069630000003], [-81.69853830000002, 22.596180700000044], [-81.6494856, 22.57515419999998], [-81.650143, 22.517852800000025], [-81.67105829999996, 22.46972130000002], [-81.7260925, 22.4560217], [-81.77434440000002, 22.440462499999956], [-81.82755780000004, 22.4311487], [-81.8889384, 22.43441760000002], [-81.94002489999998, 22.43219470000004], [-82.00355560000003, 22.42734020000001], [-82.05869010000002, 22.429117199999958], [-82.10879209999999, 22.431315400000027], [-82.15784129999999, 22.394912899999973], [-82.11008009999998, 22.377495600000017], [-82.0554083, 22.331919200000037], [-81.99376460000002, 22.297537799999965], [-81.94720580000003, 22.27417429999998], [-81.89440490000004, 22.262479800000044], [-81.85046469999999, 22.223849599999966], [-81.81748220000001, 22.18199059999999], [-81.7678434, 22.173126799999963], [-81.71745739999997, 22.19162440000004], [-81.66561560000002, 22.1690523], [-81.61092039999997, 22.189058], [-81.56151159999997, 22.169681900000036], [-81.52121690000003, 22.2027964], [-81.48085180000001, 22.17159340000001], [-81.42974040000001, 22.184668100000014], [-81.3838276, 22.148599599999972], [-81.3991339, 22.099871800000013], [-81.35409789999996, 22.074859], [-81.3031683, 22.080484699999968], [-81.27116839999997, 22.119336399999987], [-81.22109189999998, 22.12358169999997], [-81.20777579999998, 22.071560600000016], [-81.2040265, 22.12528309999997], [-81.19767339999997, 22.1760385], [-81.20470129999997, 22.2326598], [-81.20922189999999, 22.284046200000017], [-81.16168279999998, 22.250776], [-81.1422162, 22.202489900000042], [-81.13231749999998, 22.142568600000033], [-81.10024020000003, 22.093171], [-81.04747360000003, 22.0663595], [-80.99486460000003, 22.050717400000018], [-80.9341016, 22.041716], [-80.88376609999999, 22.03770290000002], [-80.82947990000002, 22.04987], [-80.776987, 22.054134599999962], [-80.72384670000001, 22.057025699999986], [-80.67231390000005, 22.0551119], [-80.613718, 22.046095699999977], [-80.55655939999997, 22.0610095], [-80.50296939999997, 22.055719900000035], [-80.48948010000002, 22.108233100000028], [-80.53079779999999, 22.14567310000004], [-80.4870558, 22.1803343], [-80.46296250000002, 22.134590099999983], [-80.412, 22.10575], [-80.45580319999998, 22.073164799999965], [-80.42022239999997, 22.034839200000043], [-80.37783360000003, 21.9825303], [-80.328914, 21.9425013], [-80.29017010000003, 21.89755630000003], [-80.24055720000003, 21.86890060000004], [-80.19241319999996, 21.84471790000004], [-80.13191869999996, 21.820808600000017], [-80.07731219999995, 21.813068499999975], [-80.03284989999996, 21.785822600000014], [-80.013625, 21.7372252], [-79.963764, 21.743769499999964], [-79.9113314, 21.7343374], [-79.86741540000001, 21.708484], [-79.82769990000003, 21.6686917], [-79.807697, 21.71520480000004], [-79.7573778, 21.704820399999967], [-79.71622710000001, 21.675243799999986], [-79.6552958, 21.688449299999977], [-79.6074025, 21.66891180000001], [-79.563623, 21.64074250000003], [-79.50637759999998, 21.640997299999974], [-79.4572095, 21.59922780000003], [-79.36039249999999, 21.6024199], [-79.31343060000005, 21.57604479999997], [-79.25437909999997, 21.55002229999998], [-79.1839158, 21.548103600000033], [-79.12947170000001, 21.556530699999986], [-79.07514750000001, 21.58062930000004], [-79.0045496, 21.594422399999978], [-78.94246580000004, 21.600099500000034], [-78.89141360000005, 21.591566400000016], [-78.84957579999995, 21.62310709999997], [-78.78291969999995, 21.625942], [-78.7769293, 21.55563290000004], [-78.72348360000002, 21.561996], [-78.67293209999998, 21.551238200000043], [-78.62660809999997, 21.509767], [-78.59727059999996, 21.4672744], [-78.57904190000002, 21.416330700000017], [-78.55501, 21.3698038], [-78.5406057, 21.305359899999974], [-78.4863705, 21.29337369999997], [-78.522835, 21.25858749999998], [-78.52302290000003, 21.1980461], [-78.49717569999999, 21.149042499999958], [-78.49109390000001, 21.092698299999977], [-78.48763440000003, 21.041902299999958], [-78.4435719, 21.00957769999998], [-78.39950009999998, 20.97521649999998], [-78.3464439, 20.948683300000013], [-78.30540280000002, 20.913216700000035], [-78.257181, 20.884992], [-78.24022129999999, 20.83313649999998], [-78.19018429999997, 20.823439799999964], [-78.15368349999996, 20.78443670000003], [-78.1164942, 20.74805], [-78.0724966, 20.723323], [-78.01669680000002, 20.7004699], [-77.9615435, 20.703915900000023], [-77.9101359, 20.70812380000002], [-77.85499019999997, 20.725767599999976], [-77.80842829999999, 20.70557789999996], [-77.757463, 20.692425700000026], [-77.70667469999998, 20.69397150000003], [-77.65410610000002, 20.68712309999996], [-77.58814450000001, 20.694585500000027], [-77.53772, 20.687998900000036], [-77.48903749999998, 20.67113429999998], [-77.43583260000004, 20.68970560000003], [-77.38503990000002, 20.70921919999997], [-77.32661769999997, 20.71005720000003], [-77.2760532, 20.6566194], [-77.2253347, 20.64953429999998], [-77.22445680000003, 20.59691769999996], [-77.240593, 20.5477391], [-77.18469889999999, 20.5277642], [-77.12866969999996, 20.520410799999976], [-77.08955080000004, 20.46602759999998], [-77.095547, 20.416007], [-77.1158081, 20.366872400000034], [-77.15186839999998, 20.33194950000001], [-77.18349739999996, 20.284995700000017], [-77.2424379, 20.290396799999975], [-77.26961690000002, 20.24809649999999], [-77.32291480000002, 20.224283], [-77.3845629, 20.2073032], [-77.42723659999997, 20.166787699999976], [-77.47942169999999, 20.134562200000026], [-77.51393929999996, 20.095723099999983], [-77.56686340000003, 20.0833626], [-77.60326320000003, 20.04717], [-77.63218430000005, 20.00568379999996], [-77.65858220000001, 19.961717200000038], [-77.6959511, 19.925602800000018], [-77.73029369999998, 19.88801649999998], [-77.70890819999995, 19.83577679999997], [-77.65320589999997, 19.831356299999968], [-77.59495189999998, 19.851444600000033], [-77.54118789999997, 19.84741040000002], [-77.48638939999998, 19.849888499999977], [-77.42475880000003, 19.8535996], [-77.37399, 19.85513339999998], [-77.3153457, 19.876653699999956], [-77.275748, 19.908041799999985], [-77.22409940000003, 19.907340699999974], [-77.17042010000002, 19.901030700000042], [-77.11570879999995, 19.893094], [-77.06145310000002, 19.887928499999983], [-77.0055559, 19.886990199999975], [-76.95332789999998, 19.8985173], [-76.9041684, 19.912614599999976], [-76.858804, 19.938846100000028], [-76.80571060000003, 19.933463900000035], [-76.75406120000001, 19.9464941], [-76.7020856, 19.949752200000013], [-76.64957790000001, 19.9603353], [-76.58575089999997, 19.9468709], [-76.5233634, 19.95018429999997], [-76.47020129999997, 19.96127150000002], [-76.4134955, 19.9701926], [-76.36295220000002, 19.96682159999996], [-76.31294140000004, 19.9702496], [-76.26587580000003, 19.989359600000032], [-76.21157610000002, 19.990408400000035], [-76.150269, 19.989542100000033], [-76.10071789999996, 19.970354], [-76.0434581, 19.9649596], [-75.99006270000001, 19.96034019999997], [-75.93836689999998, 19.9657937], [-75.87879459999998, 19.968399899999987], [-75.86094839999997, 20.015479800000023], [-75.8623796, 19.96464369999997], [-75.7982151, 19.962157499999964], [-75.744571, 19.950419], [-75.68377820000005, 19.9374556], [-75.63553009999998, 19.916564], [-75.58523109999997, 19.892419], [-75.53065589999999, 19.884528300000024], [-75.47377009999995, 19.887187699999973], [-75.42288529999996, 19.892870699999985], [-75.3731807, 19.8848392], [-75.32289830000002, 19.882797299999975], [-75.27011230000002, 19.89314529999997], [-75.21776320000002, 19.905519900000044], [-75.17556319999998, 19.93569970000002], [-75.14413769999996, 19.975518400000023], [-75.17724670000001, 20.0159324], [-75.12441790000001, 20.035633], [-75.09619839999996, 19.99366029999998], [-75.13993720000005, 19.968481], [-75.14418670000002, 19.917881400000013], [-75.09412109999995, 19.899555099999986], [-75.04496059999998, 19.911143], [-74.99249029999999, 19.9176763], [-74.9538332, 19.958193499999986], [-74.89866689999995, 19.9809604], [-74.85831020000002, 20.01472129999997], [-74.8131327, 20.04039030000002], [-74.7541259, 20.04802170000004], [-74.69972209999997, 20.051078], [-74.64236710000003, 20.042975200000022], [-74.58693180000002, 20.0476293], [-74.53517449999995, 20.061864800000027], [-74.47962430000003, 20.064701099999958], [-74.4194879, 20.07226430000002], [-74.35817050000001, 20.081428], [-74.3046232, 20.075011200000013], [-74.2512846, 20.076876900000016], [-74.2264502, 20.1333253], [-74.15998660000002, 20.167991600000022], [-74.13181520000005, 20.211917], [-74.16674920000001, 20.274971399999984], [-74.21265980000003, 20.309426500000026], [-74.26271480000001, 20.3127131], [-74.3192264, 20.293394799999962], [-74.3753068, 20.29549039999998], [-74.45337149999999, 20.3474168], [-74.50630849999997, 20.35050210000002], [-74.53469689999996, 20.40337070000002], [-74.569906, 20.4449356], [-74.60586460000005, 20.485661], [-74.65328210000004, 20.5166013], [-74.702838, 20.53357640000004], [-74.7308301, 20.57566869999996], [-74.7475995, 20.62534130000002], [-74.79901209999997, 20.6219673], [-74.85069909999999, 20.62484240000004], [-74.88925670000002, 20.6621304], [-74.93972960000004, 20.6648012], [-74.98134229999997, 20.693391900000034], [-75.03401649999996, 20.6973192], [-75.0743754, 20.66688209999996], [-75.1191469, 20.689566100000032], [-75.17420580000002, 20.702263], [-75.22801370000002, 20.719705], [-75.27866409999999, 20.718826499999963], [-75.3489979, 20.72742660000002], [-75.40298860000003, 20.735573200000033], [-75.46942140000003, 20.738250200000017], [-75.50856319999998, 20.784616], [-75.5774824, 20.778077500000023], [-75.57999589999997, 20.727151900000027], [-75.61537750000002, 20.777553900000044], [-75.66487680000004, 20.7509104], [-75.69022339999998, 20.69972579999999], [-75.74918150000005, 20.7055547], [-75.7827479, 20.752764], [-75.76804569999999, 20.800590199999956], [-75.72041439999998, 20.826154699999975], [-75.66814930000001, 20.828889699999962], [-75.61973670000002, 20.848363], [-75.58559409999998, 20.808337499999972], [-75.59261160000001, 20.8586924], [-75.64904530000003, 20.87411109999997], [-75.70421320000003, 20.869752600000034], [-75.75475350000002, 20.877941900000028], [-75.73137170000004, 20.922707], [-75.68246639999995, 20.906334800000035], [-75.62501419999995, 20.912672200000014], [-75.59318720000003, 20.956711199999976], [-75.57324120000001, 21.006060799999958], [-75.60999, 21.062812299999976], [-75.659954, 21.067835099999986], [-75.69792849999996, 21.116870900000027], [-75.74779609999999, 21.12343630000004], [-75.799676, 21.1264587], [-75.85686809999996, 21.1227897], [-75.88972779999997, 21.084348600000034], [-75.93440469999996, 21.109071400000044], [-75.96175729999996, 21.066681700000032], [-76.0081352, 21.0930731], [-76.065507, 21.10386620000004], [-76.11890820000002, 21.087323], [-76.1316542, 21.138384900000016], [-76.17662619999999, 21.182068200000035], [-76.23205650000001, 21.2095901], [-76.2896565, 21.23543729999997], [-76.33798649999999, 21.2571623], [-76.39754689999998, 21.27939529999998], [-76.44786350000003, 21.2770425], [-76.50431730000003, 21.2835304], [-76.50861349999995, 21.232831], [-76.45682770000002, 21.219113], [-76.504755, 21.20233739999997], [-76.55875870000004, 21.2060218], [-76.53831739999998, 21.255773799999965], [-76.58259470000003, 21.28341739999997], [-76.630505, 21.3001572], [-76.6512684, 21.251785899999962], [-76.69973640000005, 21.27632250000002], [-76.65034560000004, 21.304010100000024], [-76.65815729999996, 21.356249], [-76.726949, 21.369121300000014], [-76.78082130000001, 21.37345869999998], [-76.82903680000004, 21.398779399999988], [-76.87388929999999, 21.42330830000003], [-76.92336940000001, 21.44190309999998], [-76.96509589999995, 21.48604850000004], [-77.00777070000002, 21.52324179999998], [-77.04274209999997, 21.5676948], [-77.0907022, 21.60514040000003], [-77.14489340000002, 21.6298175], [-77.18354909999998, 21.662410399999963], [-77.2299235, 21.688424], [-77.29169990000001, 21.724490299999964], [-77.33763610000001, 21.75805959999999], [-77.39059730000004, 21.770716599999982], [-77.43784039999998, 21.8065336], [-77.43274439999996, 21.756314], [-77.484642, 21.7722497], [-77.5305557, 21.74548389999997], [-77.5750698, 21.7726985], [-77.63370720000002, 21.774585800000022], [-77.68440679999996, 21.786729099999967], [-77.74345539999997, 21.796829399999982], [-77.76338230000002, 21.8527027], [-77.81170940000004, 21.8705671], [-77.850539, 21.9100542], [-77.81129079999995, 21.943240100000015], [-77.85451540000003, 21.968980400000014], [-77.86531220000003, 21.920144800000017], [-77.86706869999998, 21.8696214], [-77.91437340000004, 21.8989567], [-77.89972419999997, 22.010535299999965], [-77.85309759999996, 21.98904890000004], [-77.79618439999997, 21.962598399999987], [-77.74006720000004, 21.959399399999977], [-77.68976449999998, 21.95033020000001], [-77.64047950000001, 21.9302104], [-77.64810970000002, 21.987515800000022], [-77.6318563, 22.038528], [-77.67974829999999, 22.0536219], [-77.73264840000002, 22.07264830000004], [-77.783212, 22.0864363], [-77.83576210000003, 22.09886319999996], [-77.8360806, 22.153409], [-77.89254089999999, 22.175820700000013], [-77.86173879999996, 22.219869], [-77.91241190000002, 22.22444659999998], [-77.95576130000003, 22.259963400000025], [-77.988623, 22.29936240000003], [-78.0361143, 22.2794753], [-78.032742, 22.22147969999999], [-78.08496859999995, 22.2031808], [-78.04823869999998, 22.16848549999999], [-78.01574059999996, 22.13009], [-77.966253, 22.118727499999967], [-77.95142250000004, 22.0684904], [-77.9210831, 22.0249071], [-77.92073059999997, 21.910017100000044], [-77.95243330000001, 21.952034], [-77.99852860000003, 21.977911800000037], [-78.02940970000003, 22.0324877], [-78.08147190000001, 22.08167470000002], [-78.13649290000002, 22.112773], [-78.1713068, 22.148719300000018], [-78.22155560000003, 22.130587199999983], [-78.27388210000004, 22.15790510000004], [-78.31974, 22.180636], [-78.3642417, 22.209696099999963], [-78.39774670000003, 22.25115150000003], [-78.4594194, 22.254055], [-78.51282749999997, 22.272554499999984], [-78.559857, 22.308339700000033], [-78.61431140000003, 22.327009200000035], [-78.65859249999995, 22.35923679999998], [-78.70411290000001, 22.382502300000027], [-78.70840140000001, 22.332186200000013], [-78.75818850000005, 22.316581099999986], [-78.76864030000002, 22.37666790000001], [-78.8207133, 22.38144270000002], [-78.87122449999998, 22.39710149999996], [-78.927919, 22.392889599999986], [-78.97881879999998, 22.3938762], [-79.03420029999998, 22.39342409999998], [-79.08494419999995, 22.379764100000042], [-79.1330546, 22.39474959999996], [-79.182406, 22.37969689999999], [-79.23958960000002, 22.387158199999966], [-79.29614780000003, 22.3989377], [-79.34448340000004, 22.4158713], [-79.38327670000002, 22.4520692], [-79.42483310000001, 22.493147400000034], [-79.46666589999995, 22.527651400000035], [-79.522641, 22.54553160000001], [-79.55217639999998, 22.60843339999998], [-79.58457690000002, 22.650006899999962], [-79.6241915, 22.6807649], [-79.63766130000002, 22.734258899999958], [-79.6739931, 22.76864470000004], [-79.73521919999997, 22.766881199999965], [-79.78253389999998, 22.794135], [-79.84392960000004, 22.799539600000028], [-79.86327879999996, 22.856508900000037], [-79.80195469999997, 22.8637209], [-79.85173650000002, 22.879537400000014], [-79.8876477, 22.8432632], [-79.936805, 22.867190800000035], [-79.9871791, 22.8826545], [-80.01271329999999, 22.929529500000044], [-80.0636316, 22.9326463], [-80.1106842, 22.950386600000037], [-80.17108350000004, 22.954314799999985], [-80.21252209999996, 22.92052579999999], [-80.25918969999998, 22.8999521], [-80.30984870000003, 22.921346200000013], [-80.26760810000002, 22.965503], [-80.218924, 22.9505128], [-80.2039307, 23.01102509999997], [-80.2522769, 23.028569300000033], [-80.29674439999998, 22.998691900000033], [-80.3443436, 22.9791578], [-80.37222209999999, 22.935388799999988], [-80.43968209999998, 22.951966899999963], [-80.48079, 22.982388799999985], [-80.53439059999998, 22.988402900000036], [-80.56137780000003, 23.0368248], [-80.61028010000004, 23.0682737], [-80.60180989999998, 23.126861299999966], [-80.6393854, 23.089050700000023], [-80.69094370000005, 23.08784479999999], [-80.75193639999998, 23.0910051], [-80.798552, 23.0713406], [-80.85522580000004, 23.073071899999984], [-80.90552609999999, 23.060589200000024], [-80.96535740000002, 23.054999], [-80.9918973, 23.111063900000016], [-81.04323589999997, 23.09682829999997], [-81.08942419999995, 23.05767140000001], [-81.128639, 23.0180265], [-81.18843019999998, 23.037413], [-81.24749029999998, 23.100665600000035], [-81.28993090000003, 23.130731700000016], [-81.35666010000004, 23.12240940000003], [-81.41165180000003, 23.098059], [-81.4684908, 23.0960192], [-81.49509130000003, 23.05042949999998], [-81.55006920000002, 23.03612540000004], [-81.52470909999995, 23.083539500000015], [-81.55292880000002, 23.13770370000001], [-81.60695719999997, 23.153766100000038], [-81.6593894, 23.1457179], [-81.71244959999997, 23.155088699999958], [-81.77178139999997, 23.1463556], [-81.82432430000001, 23.15080770000004], [-81.8972212, 23.15457550000004], [-81.94822259999997, 23.161889], [-82.00007320000002, 23.183784900000013], [-82.02506709999999, 23.187043399999972]]], [[[-80.9810844, 23.17231989999997], [-80.9810844, 23.17231989999997]]], [[[-81.1390419, 23.204137], [-81.19660849999997, 23.182314899999977], [-81.25546269999997, 23.152905499999974], [-81.30898929999996, 23.132365], [-81.25965119999995, 23.1470812], [-81.20342350000003, 23.17391169999996], [-81.15437880000005, 23.190661600000027], [-81.1390419, 23.204137]]], [[[-80.81247020000004, 23.21404379999996], [-80.7668083, 23.18864140000003], [-80.7142799, 23.184538700000033], [-80.66106490000001, 23.177437600000015], [-80.5989234, 23.172072099999983], [-80.52837059999997, 23.161656], [-80.47223739999995, 23.16354989999998], [-80.54107360000005, 23.1951108], [-80.5906837, 23.2059976], [-80.63995049999997, 23.218934399999956], [-80.69488219999995, 23.201579899999956], [-80.75015710000001, 23.200791], [-80.81247020000004, 23.21404379999996]]], [[[-80.859475, 23.21733470338034], [-80.859475, 23.21733470338034]]], [[[-80.99646019999997, 23.25406889999999], [-81.032975, 23.212193100000043], [-80.99362050000002, 23.244058699999968], [-80.99646019999997, 23.25406889999999]]], [[[-80.9007042, 23.26373], [-80.95323249999998, 23.255371400000023], [-80.90825730000002, 23.229976900000036], [-80.9007042, 23.26373]]]]}}]}