{"type": "FeatureCollection", "features": [{"type": "Feature", "properties": {"code": "CUW", "name": "Curacao", "tier": "country"}, "geometry": {"type": "MultiPolygon", "coordinates": [[[[-68.64532888299993, 11.999491097000032], [-68.64314739799994, 11.978512068000043], [-68.64532888299993, 11.999491097000032]]], [[[-68.85353961499999, 12.07787816900003], [-68.85353961499999, 12.07787816900003]]], [[[-68.91877605599996, 12.123620828000071], [-68.91877605599996, 12.123620828000071]]], [[[-69.05904798699999, 12.211170930000037], [-69.05904798699999, 12.211170930000037]]], [[[-69.12363685599996, 12.27986476600006], [-69.12363685599996, 12.27986476600006]]], [[[-68.82009612199994, 12.114179152000077], [-68.80632777299996, 12.12952556600004], [-68.82198258399995, 12.153788036000037], [-68.85468125999995, 12.175039154000046], [-68.87520776499997, 12.175346492000074], [-68.90568438299994, 12.178616186000056], [-68.92670241599996, 12.187706836000075], [-68.94725264999994, 12.18746412300004], [-68.97298938299997, 12.195234922000054], [-68.98906922699996, 12.209283244000062], [-69.00636179599996, 12.223199128000033], [-69.02787644699998, 12.23974798100005], [-69.04831311999999, 12.273193689000038], [-69.05401742199996, 12.29579566700005], [-69.05365809599994, 12.319668267000054], [-69.07193881199998, 12.351041635000058], [-69.09582230899997, 12.359573787000045], [-69.12242413099995, 12.372171773000048], [-69.14793628499996, 12.390834325000071], [-69.15392679899998, 12.369628156000033], [-69.15462873399997, 12.347048869000048], [-69.15172918299999, 12.322484588000066], [-69.15215836699997, 12.30136906000007], [-69.14438793899996, 12.280391423000026], [-69.12179530999998, 12.281839723000076], [-69.12332244599997, 12.26086052900007], [-69.10234678399996, 12.25436454000004], [-69.09637298699994, 12.234480554000072], [-69.08635677199999, 12.213234200000045], [-69.07713028899997, 12.194550814000024], [-69.05738610399999, 12.18799096400005], [-69.06342894099998, 12.209614122000062], [-69.04123518099993, 12.201011617000063], [-69.02015093599994, 12.188561708000066], [-69.01197626699997, 12.16731167100005], [-68.99872611599994, 12.148387171000024], [-68.98358950399995, 12.13069088800006], [-68.96333249399999, 12.134730838000053], [-68.96108670599995, 12.114117889000056], [-68.93778956999995, 12.104804261000027], [-68.94765689199994, 12.122786461000032], [-68.92741981799998, 12.121270990000028], [-68.91861718399997, 12.09843659300003], [-68.90015680499994, 12.08758859300002], [-68.88149412899998, 12.09696370200004], [-68.87779412699996, 12.072957606000045], [-68.85686094699997, 12.062769814000035], [-68.86732590299994, 12.080295321000051], [-68.84574302299995, 12.085149396000077], [-68.85237546699994, 12.065355355000065], [-68.83410983999994, 12.05374452600006], [-68.81079855899998, 12.04133988500007], [-68.78685845599995, 12.039073019000057], [-68.76408616399993, 12.044827508000026], [-68.73700195799995, 12.043729333000044], [-68.76031323999996, 12.064374279000049], [-68.77387779999998, 12.08312905400004], [-68.80096200599996, 12.117297138000026], [-68.82009612199994, 12.114179152000077]], [[-68.93063381799993, 12.105878984000071], [-68.93063381799993, 12.105878984000071]]]]}}]}