{"type": "FeatureCollection", "features": [{"type": "Feature", "properties": {"code": "CYM", "name": "Cayman Islands", "tier": "country"}, "geometry": {"type": "MultiPolygon", "coordinates": [[[[-81.32203183999997, 19.28758139100006], [-81.32203183999997, 19.28758139100006]]], [[[-81.33002684599995, 19.291736025000034], [-81.35387711699997, 19.30144389000003], [-81.37350530599997, 19.317933222000022], [-81.36288743199998, 19.33573474700006], [-81.37063069699997, 19.356627871000057], [-81.38049015699994, 19.374149343000056], [-81.36137804899994, 19.381246961000045], [-81.37880536599994, 19.39493204000007], [-81.41575106599998, 19.38444825700003], [-81.39580349899995, 19.366143555000065], [-81.38271303699997, 19.346202833000063], [-81.38664190299994, 19.311900802000025], [-81.38902496599997, 19.289172387000065], [-81.38150031199996, 19.265237830000046], [-81.36072762599997, 19.275817251000035], [-81.33833554399996, 19.27225844700007], [-81.31167504999996, 19.272300846000064], [-81.28571789399996, 19.263096175000044], [-81.25862586999995, 19.26881368000005], [-81.24266568399997, 19.283723423000026], [-81.21359981199998, 19.296406260000026], [-81.17666771499995, 19.301633822000042], [-81.15633758599995, 19.294025267000052], [-81.11362269399996, 19.29432201900005], [-81.09050574799994, 19.309172768000053], [-81.08574875599999, 19.341692825000052], [-81.11479050399998, 19.35306817700007], [-81.13639498599997, 19.35268677700003], [-81.16828517899995, 19.34798276500004], [-81.19554904799998, 19.348025144000076], [-81.21827642499994, 19.352178241000047], [-81.24284534799995, 19.35230537500007], [-81.27116166599995, 19.372708678000038], [-81.28324662799997, 19.356736710000064], [-81.26609395999998, 19.36751835700005], [-81.27219328199999, 19.345103900000026], [-81.25699381299995, 19.32954681800004], [-81.27973790199997, 19.321430931000066], [-81.29636333599996, 19.309603158000073], [-81.30824269999994, 19.29292304300003], [-81.32814038399994, 19.288302100000067], [-81.33002684599995, 19.291736025000034]], [[-81.37943418599997, 19.36222151900006], [-81.37943418599997, 19.36222151900006]], [[-81.38976409399999, 19.362627561000068], [-81.38976409399999, 19.362627561000068]], [[-81.30038244099995, 19.296484048000025], [-81.30038244099995, 19.296484048000025]]], [[[-81.31891104999994, 19.293792933000077], [-81.31891104999994, 19.293792933000077]]], [[[-81.296366187, 19.307784724000044], [-81.296366187, 19.307784724000044]]], [[[-81.36517135299994, 19.321389663000048], [-81.36517135299994, 19.321389663000048]]], [[[-81.37389812099997, 19.323369417000038], [-81.37389812099997, 19.323369417000038]]], [[[-81.26250336299995, 19.32771006300004], [-81.26250336299995, 19.32771006300004]]], [[[-81.28630220499997, 19.332705215000033], [-81.28630220499997, 19.332705215000033]]], [[[-80.06281838999996, 19.665726461000077], [-80.06281838999996, 19.665726461000077]]], [[[-79.96301556199995, 19.700659081000026], [-79.98488953899994, 19.711441825000065], [-80.02286371299994, 19.700593695000066], [-80.04840042999996, 19.697276110000075], [-80.06852269199999, 19.68814173000004], [-80.09994539299998, 19.672645567000075], [-80.08621950299994, 19.657774631000052], [-80.06759972599997, 19.665913901000067], [-80.04408851699998, 19.67346642700005], [-80.02675103199994, 19.683785801000056], [-79.99930749999999, 19.695373157000063], [-79.97074107399999, 19.697022384000036], [-79.96301556199995, 19.700659081000026]]], [[[-79.74903686199997, 19.724887522000074], [-79.72821314099997, 19.741645756000025], [-79.75966154499997, 19.752136800000073], [-79.77870161799996, 19.737928503000035], [-79.81374170399994, 19.72846365600003], [-79.84291080899999, 19.708143651000057], [-79.87132213499996, 19.70000559300007], [-79.89047660299997, 19.68856463000003], [-79.86682020699999, 19.685964968000064], [-79.84551592299994, 19.693258739000044], [-79.81205367899997, 19.70590254600006], [-79.78869748099999, 19.713513720000037], [-79.76345482199997, 19.718672199000025], [-79.74903686199997, 19.724887522000074]]]]}}]}