{"type": "FeatureCollection", "features": [{"type": "Feature", "properties": {"code": "CYP", "name": "Cyprus", "tier": "country"}, "geometry": {"type": "MultiPolygon", "coordinates": [[[[33.775295, 34.995513], [33.775295, 34.995513]]], [[[33.744514, 35.012097], [33.744514, 35.012097]]], [[[34.5885131, 35.69488350000002], [34.55963819999999, 35.6920902], [34.539951, 35.680727], [34.51417829999996, 35.670336], [34.4962284, 35.66136830000003], [34.47432, 35.656625], [34.451942, 35.655227], [34.428241, 35.650243], [34.41183239999999, 35.63794169999997], [34.39179, 35.635895], [34.3710404, 35.63011429999999], [34.346565, 35.623048], [34.337402, 35.601952], [34.319929, 35.59161], [34.290108, 35.576002], [34.26882709999999, 35.57261010000004], [34.244988, 35.566712], [34.222511, 35.556921], [34.191210899999966, 35.55708240000003], [34.1692635, 35.54540369999997], [34.15145549999996, 35.531591400000046], [34.133849, 35.513077], [34.117038, 35.501928], [34.096838, 35.495432], [34.07544, 35.493055], [34.058638, 35.481641], [34.03902, 35.470762], [34.014399, 35.461206], [33.988255, 35.454999], [33.970858, 35.444733], [33.947908, 35.442474], [33.923654, 35.435852], [33.9035185, 35.42866660000004], [33.879411500000046, 35.42013130000002], [33.8498759, 35.41276129999996], [33.82291230000003, 35.4127297], [33.800037, 35.413479], [33.777115, 35.412729], [33.756666, 35.407849], [33.73751290000004, 35.40040839999999], [33.7180422, 35.389129], [33.698966, 35.377472200000014], [33.679302800000045, 35.3692783], [33.659007, 35.364092], [33.640438, 35.356483], [33.613447500000035, 35.35496019999996], [33.589603, 35.354044], [33.567365, 35.346669900000045], [33.546265, 35.346409], [33.518322, 35.342035], [33.497230299999956, 35.338998299999986], [33.476964899999984, 35.332587], [33.4544409, 35.33459249999996], [33.43127630000004, 35.332185799999955], [33.409461, 35.33577190000002], [33.3892307, 35.33437020000004], [33.36448079999996, 35.3349558], [33.3389599, 35.33825], [33.31699530000003, 35.34184120000002], [33.2951395, 35.344226899999974], [33.257092, 35.35056620000002], [33.236434, 35.34578879999997], [33.217576600000044, 35.3538968], [33.1963936, 35.35891479999996], [33.1732553, 35.35204], [33.1520181, 35.355102700000025], [33.1330515, 35.36158720000001], [33.11397740000002, 35.36843180000003], [33.097222, 35.353807], [33.06997040000004, 35.3556381], [33.04849509999996, 35.35816410000002], [33.02394620000004, 35.36556030000003], [33.00408419999996, 35.36839349999997], [32.98457480000001, 35.3754723], [32.96786140000003, 35.3872415], [32.94665349999997, 35.391271500000016], [32.92589949999998, 35.4003623], [32.92244480000004, 35.378394], [32.92429310000002, 35.355901899999985], [32.93463280000004, 35.3211287], [32.9394393, 35.29143], [32.9334312, 35.2576554], [32.9165596, 35.20759129999996], [32.898999600000046, 35.17632], [32.88155370000003, 35.162123900000026], [32.852855800000015, 35.14848], [32.824557, 35.140836], [32.800576, 35.149086], [32.762039, 35.166748], [32.7420549, 35.17442489999996], [32.70835589999999, 35.184629399999984], [32.67266540000004, 35.18836750000001], [32.653008, 35.195397], [32.6341386, 35.18861069999998], [32.611364500000015, 35.1803079], [32.58876989999997, 35.17810489999998], [32.5642462, 35.169290699999976], [32.544099, 35.16028759999997], [32.528485, 35.14741450000004], [32.50577220000002, 35.1090607], [32.49430819999996, 35.091794700000044], [32.480648200000026, 35.076317699999954], [32.45509729999998, 35.05777050000004], [32.43146519999998, 35.046156700000026], [32.402566, 35.03952409999996], [32.37824669999998, 35.0414932], [32.358491700000044, 35.04787330000004], [32.3412967, 35.061600799999965], [32.322817, 35.070904], [32.304838, 35.08334459999996], [32.29252269999996, 35.10126049999996], [32.27319859999997, 35.09017360000003], [32.269213, 35.070336], [32.271921, 35.046967], [32.286053800000026, 35.02797729999999], [32.300356, 35.010642], [32.310688, 34.989114], [32.31339609999997, 34.962747599999965], [32.31338229999998, 34.94246340000003], [32.32529739999996, 34.9260005], [32.320446, 34.904104], [32.333085, 34.88419530000003], [32.344299, 34.866199], [32.36297090000002, 34.85461669999997], [32.388202600000035, 34.8405129], [32.390942, 34.820182], [32.392497, 34.799373], [32.402921, 34.779636], [32.3998041, 34.75490880000004], [32.42323130000002, 34.74797330000004], [32.44451270000004, 34.73589030000002], [32.463539, 34.726204], [32.47961990000003, 34.71056320000002], [32.502074683261625, 34.70502712636575], [32.53032579999997, 34.69772390000004], [32.55504050000002, 34.6979574], [32.57470149999999, 34.686976400000034], [32.59982229999998, 34.6757133], [32.62236669999996, 34.6663624], [32.6428433, 34.6593766], [32.67929570000001, 34.65162909999998], [32.702915, 34.640154], [32.72250909999996, 34.64965939999998], [32.74473939999998, 34.6463309], [32.76069419999998, 34.675875], [32.79416820000003, 34.67869839999998], [32.807815299999966, 34.6937313], [32.82695550000001, 34.70618609999997], [32.860086199999984, 34.7058333], [32.90081279999997, 34.6639805], [32.921197599999964, 34.67379269999998], [32.943711, 34.67104679999998], [32.991038, 34.68060410000001], [32.990033, 34.65518710000003], [32.9706703, 34.66145950000004], [32.94848140000004, 34.659324799999986], [32.9536312, 34.63913079999997], [32.98646139999997, 34.642767499999955], [33.020231399999986, 34.6445328], [33.03448019999997, 34.66891860000002], [33.0520262, 34.67880869999996], [33.08978840000003, 34.6935456], [33.120738599999974, 34.70637519999998], [33.14254860000003, 34.709772399999956], [33.16436520000001, 34.71208530000001], [33.194709, 34.706026], [33.23238079999997, 34.7057527], [33.257226400000015, 34.706207], [33.274607, 34.717297299999956], [33.29470019999998, 34.72458280000004], [33.314477199999956, 34.716077099999985], [33.336003, 34.72634540000004], [33.35706979999997, 34.7320341], [33.393289900000035, 34.747056699999966], [33.415272, 34.750964], [33.445959, 34.76803539999998], [33.46909109999998, 34.77423940000003], [33.495454400000014, 34.77713120000002], [33.510487400000045, 34.7904342], [33.533473, 34.804603], [33.54933530000002, 34.8171654], [33.5817126, 34.820684600000035], [33.60274889999999, 34.81583409999998], [33.61598190000004, 34.84391090000004], [33.63951119999997, 34.86598640000003], [33.64057189999998, 34.89931439999999], [33.6407095, 34.91955859999999], [33.647012100000026, 34.9464347], [33.66372709999996, 34.962591], [33.6866973, 34.975256300000034], [33.70577859999997, 34.99201060000002], [33.697248799999954, 35.01718870000004], [33.67685239999998, 35.038636100000026], [33.677536900000035, 35.059541], [33.70856519999996, 35.07657539999996], [33.70202220000002, 35.04894880000003], [33.7383357, 35.05316769999996], [33.76062310000003, 35.042471500000026], [33.78675610000001, 35.0519701], [33.809911900000046, 35.07119209999997], [33.82963569999997, 35.07475269999996], [33.854572, 35.0721522], [33.87533860000003, 35.089004], [33.8722327, 35.12324059999997], [33.8982759, 35.11449619999996], [33.9177934, 35.08689459999997], [33.89470509999997, 35.068873499999974], [33.871586900000025, 35.070985], [33.84890859999998, 35.057096200000025], [33.82028130000003, 35.065736], [33.800939, 35.04780719999999], [33.829555, 35.02818449999999], [33.83961569999998, 35.006151799999984], [33.85795969999996, 34.989975500000035], [33.83319580000001, 34.981696299999975], [33.8660357, 34.975556900000036], [33.90202619999998, 34.96567690000004], [33.9340573, 34.9789605], [33.956557399999966, 34.97990919999999], [33.9779324, 34.985210799999976], [34.00298549999998, 34.9807896], [34.023603, 34.97829730000002], [34.04495849999998, 34.9722212], [34.066166699999975, 34.958946799999985], [34.0876092, 34.96176109999996], [34.073041800000034, 34.976277399999965], [34.06674829999996, 34.998239199999965], [34.054462, 35.01624949999996], [34.042374300000034, 35.03327210000003], [34.025347, 35.051374199999984], [34.00731589999999, 35.061527300000016], [33.98808430000002, 35.07622649999996], [33.96163970000001, 35.10700090000002], [33.9481441, 35.1231218], [33.91972780000001, 35.160037399999965], [33.905888399999974, 35.182722699999964], [33.899877, 35.203086], [33.902889800000025, 35.2407808], [33.9149563, 35.26370829999997], [33.928615, 35.279705], [33.941586, 35.30376], [33.965597, 35.319503], [33.997986, 35.327334], [34.028977, 35.32322], [34.049058, 35.324332], [34.070006, 35.33173], [34.075756, 35.351465], [34.08906, 35.372931], [34.114627, 35.395568], [34.12997630000001, 35.40980189999997], [34.18338510000003, 35.444046099999966], [34.221309, 35.456849], [34.246314, 35.469441], [34.274414, 35.478655], [34.293089, 35.487449], [34.312589, 35.498417], [34.326665, 35.51368], [34.345206, 35.522982], [34.373784, 35.540004], [34.39737580000004, 35.5524361], [34.41359379999997, 35.565704599999954], [34.42297, 35.583757], [34.43740079999997, 35.60181459999997], [34.456789, 35.610075], [34.474279, 35.62014], [34.49569970000004, 35.621924599999964], [34.513234, 35.633403], [34.537276, 35.639779], [34.562681199999965, 35.641289799999974], [34.575562, 35.65723880000003], [34.57847890000003, 35.67920419999998], [34.5885131, 35.69488350000002]]]]}}]}