{"type": "FeatureCollection", "features": [{"type": "Feature", "properties": {"code": "CZE", "name": "Czech Republic", "tier": "country"}, "geometry": {"type": "Polygon", "coordinates": [[[16.862792756967163, 50.19824307560994], [16.812237008554266, 50.19101425621755], [16.781620291154105, 50.15133289469291], [16.733768985640314, 50.12016841829474], [16.678048796338796, 50.10377514629693], [16.625172633730262, 50.12102254007864], [16.580202573572155, 50.14864597930048], [16.554392454246447, 50.1962159769261], [16.522872616044246, 50.23935651225188], [16.48193638321724, 50.27141587080603], [16.443998052720566, 50.313106972697575], [16.383231731977197, 50.328815773877295], [16.360662032723088, 50.37955013477437], [16.30870641741671, 50.38312608761096], [16.250654801284636, 50.39349909971943], [16.209846871825654, 50.42679016825487], [16.255704313084717, 50.46762385721863], [16.3004949292725, 50.49148065872082], [16.351623267997127, 50.497977316263366], [16.401786100024232, 50.52988832404167], [16.444912330982433, 50.57957079106415], [16.40496462777452, 50.61731767029766], [16.364084660082284, 50.6475000094228], [16.31381973267702, 50.664466543877694], [16.26332210664786, 50.668293759459885], [16.220947392841538, 50.63977200159943], [16.170372770595538, 50.64527932859921], [16.116349404745296, 50.66040139398001], [16.06759598455037, 50.639760294260675], [16.02483490932984, 50.59862491654287], [16.00092660287768, 50.64476251059326], [15.96716892445891, 50.691725823928195], [15.906708517054192, 50.679814297165], [15.85736411578614, 50.696825778344255], [15.831937482953713, 50.74268918722908], [15.77921968234927, 50.74227517900834], [15.728516458025911, 50.7393929856244], [15.680271806480244, 50.754738447015946], [15.62210981796253, 50.76519278609311], [15.564017301591583, 50.77611849119216], [15.511002053870916, 50.790812536935334], [15.45093377081458, 50.804078101822235], [15.40357668464951, 50.78224551179835], [15.372184146346381, 50.823571093996335], [15.332941270350984, 50.85720204399047], [15.277062690134104, 50.89102159053411], [15.278616210490172, 50.94184614070036], [15.239296146430538, 50.9860075356001], [15.179853647203172, 50.983017547540456], [15.129002212343863, 50.9901291630089], [15.08506459457608, 51.01476160196176], [15.032886704230675, 51.01551996163195], [14.96824544514304, 50.99001376458077], [15.01505903546946, 50.97223723664767], [14.989453733282428, 50.92164166912117], [15.00192777883553, 50.868779913691974], [14.948036386656993, 50.86423508445511], [14.897278680466105, 50.86735724390599], [14.847022745805393, 50.870254441330104], [14.802583221216365, 50.83652438269426], [14.749781998382712, 50.82429903284527], [14.689954904013515, 50.838002476267256], [14.633137003460043, 50.85503758236971], [14.647173203528437, 50.90400251582586], [14.593384852383993, 50.916346830039366], [14.592172336143769, 50.966741224414655], [14.564551199308111, 51.010167119410085], [14.498596990629244, 51.022089514058074], [14.43516052221586, 51.02702332003437], [14.384773207450742, 51.02698890742076], [14.326952184001302, 51.04701355913981], [14.273855184747266, 51.039799180927375], [14.258585808030848, 50.99205998367702], [14.311664231141538, 50.98473351668752], [14.348727454400487, 50.94520063704299], [14.400734634747986, 50.93327653331611], [14.362750123611306, 50.897396445200165], [14.304750220760546, 50.88392784004066], [14.251577205774593, 50.88781520328689], [14.200737959552514, 50.851218379478894], [14.14422843215241, 50.84057383314133], [14.08952465683275, 50.82608069108425], [14.040505251785339, 50.81075363053465], [13.990739612529659, 50.820006286244414], [13.938986842295359, 50.78992927801385], [13.887342094522417, 50.77007462390108], [13.858209386895973, 50.728887710175826], [13.807376794040817, 50.73333896677502], [13.750872241333965, 50.72959772361972], [13.688053289800138, 50.71947896432482], [13.635974002275036, 50.72482497988755], [13.579234887737933, 50.712366244111976], [13.525240327236958, 50.70438742256652], [13.512785405493977, 50.6537688031065], [13.47729208207563, 50.6152753013687], [13.424958374627643, 50.61287931376402], [13.385818952466865, 50.64677159464352], [13.337612347072074, 50.61267870463243], [13.300316989103356, 50.57884198250743], [13.248352979302986, 50.59207450916501], [13.221740387260567, 50.5460148917292], [13.19529107426736, 50.50324098487572], [13.142527777526487, 50.50560033462452], [13.08529409376844, 50.50022133398247], [13.031693705804603, 50.50976409597869], [13.019983958180964, 50.45895367445489], [12.985215396867813, 50.420357456087096], [12.92496533059834, 50.416193920457005], [12.849098747406078, 50.447513236076006], [12.794851905078781, 50.44942973728414], [12.734468792949079, 50.43233786533741], [12.681875180017256, 50.409594152652076], [12.627408553693435, 50.41621064081405], [12.574966400316946, 50.40336322509159], [12.512027827704822, 50.39725703876077], [12.489545071262803, 50.34979475120773], [12.434953790499566, 50.33259642812947], [12.399623995694478, 50.293661424183696], [12.352583747223957, 50.26265389441948], [12.326725016854688, 50.21851835492206], [12.295244903523667, 50.174641867150896], [12.278289906978667, 50.22279431976706], [12.253839788550463, 50.27097484234174], [12.201321470402924, 50.272835548735095], [12.184601709965515, 50.322220406198824], [12.13042222972412, 50.31904555842597], [12.12047319287094, 50.26854469603745], [12.157486042714483, 50.227179176174424], [12.201183305213082, 50.18863877759264], [12.194594855548484, 50.13766612466738], [12.227361455618757, 50.097085602808384], [12.275409909440429, 50.07647208215234], [12.319184150111973, 50.048704638120086], [12.365696255352416, 50.022762336003595], [12.414543312159354, 50.004590895261465], [12.467159848261094, 49.99281116951787], [12.474929006517579, 49.93851875925795], [12.538550191882127, 49.92483819297689], [12.51872877289202, 49.87714985670056], [12.483235671338909, 49.84193179298832], [12.465425245536197, 49.795113092619324], [12.404759726776595, 49.762780015754736], [12.4329284611917, 49.717956219517845], [12.484046677488246, 49.693987737188884], [12.529972427126404, 49.666081505615296], [12.56074149071499, 49.61960463413482], [12.570784696616263, 49.569378751633714], [12.61204266809609, 49.53052746597111], [12.644214058014887, 49.48491438563363], [12.655551652448384, 49.43479532968916], [12.708703437118913, 49.42475603940273], [12.757668111015166, 49.39479813859962], [12.778703874694475, 49.34815407902451], [12.837238799760316, 49.34072644071797], [12.886848083835512, 49.33234641675214], [12.939020783183045, 49.34224902098927], [12.98862624572484, 49.32379186631719], [13.030418423289749, 49.28758456056805], [13.067608358783447, 49.2497817845419], [13.11417908274519, 49.21825387392329], [13.161752672777517, 49.17478501848678], [13.2055340409085, 49.12217645868226], [13.276405335670676, 49.120475966348906], [13.324280568759121, 49.10033114984918], [13.363798190116986, 49.069060949671716], [13.401871240200462, 49.028958699194185], [13.424390700303055, 48.97740437704141], [13.483472524418097, 48.951352669368426], [13.529277620488369, 48.97404643064017], [13.58008142182149, 48.970736915881155], [13.62780502110894, 48.949448306246964], [13.655479112542993, 48.89357156225432], [13.716867820799948, 48.87813058951949], [13.76278710124144, 48.83941392976796], [13.81523361536715, 48.797087990052255], [13.861871790510225, 48.76953384616132], [13.91020033258733, 48.747487071422405], [13.953690258394134, 48.720731479339484], [14.003281320235015, 48.70858293345559], [14.043352185532859, 48.6774956930541], [14.010561236874114, 48.639654465817145], [14.051554965172135, 48.60948865108179], [14.105722159251602, 48.58957074898549], [14.158056494005075, 48.59233371621454], [14.208014739129883, 48.58814981347529], [14.27154880625975, 48.581374269115], [14.321557791219691, 48.5629552150608], [14.37126807427781, 48.56955102302877], [14.420011897535105, 48.591282107953184], [14.452501327715709, 48.63193108260344], [14.50351713079109, 48.61730683269365], [14.553541384414565, 48.60583116438453], [14.602401011040275, 48.625592629146546], [14.65379805095269, 48.60433685914972], [14.7012614759965, 48.582613206074384], [14.72215569642924, 48.638435857165405], [14.736566862328363, 48.69893231476262], [14.785564872798362, 48.71833837423743], [14.811500266760355, 48.761449795825584], [14.863178951801654, 48.77729487535409], [14.917717707748293, 48.769843208204804], [14.96796070695015, 48.764012541843464], [14.95820472337287, 48.813929618969475], [14.972938127070462, 48.87465452645477], [14.984906592892198, 48.92446211730681], [14.978514859066916, 48.97446184509801], [15.011457217732746, 49.014354295220556], [15.065426021705688, 49.01422069210366], [15.114155882985672, 48.999333023355526], [15.162038579078533, 48.977710169895154], [15.209564406702045, 48.957528427511036], [15.261617988820735, 48.95364751063244], [15.305693824378233, 48.97791794753207], [15.357456087797813, 48.982153945266376], [15.41277016104594, 48.95634401878746], [15.468491481008419, 48.95181762050824], [15.513391694194675, 48.91412205133389], [15.577996863366774, 48.89586164043693], [15.630307961652756, 48.88502267373653], [15.680492005845363, 48.8637566782771], [15.753664213044939, 48.85217432240319], [15.80614180388112, 48.87223558233116], [15.857444608476943, 48.85770777707537], [15.905174099646194, 48.83883741398569], [15.958382658533193, 48.82306061112295], [15.994365729381519, 48.77933610251998], [16.05283815434749, 48.76102085048365], [16.10268776535168, 48.74541956680033], [16.15325071840896, 48.74524951637208], [16.204407741210158, 48.74294016336932], [16.26305720780234, 48.73700788007003], [16.32457804713881, 48.731883192746096], [16.37736113284547, 48.73097494751525], [16.419250705948606, 48.75918091034009], [16.461894963846383, 48.804637592655396], [16.516141906337612, 48.80265009297959], [16.58236903914254, 48.79206573588438], [16.63373315751327, 48.78543953701656], [16.680837383384382, 48.75004976325223], [16.72955459546862, 48.735518152275944], [16.775787340237315, 48.71194255643602], [16.8272589653747, 48.71108747179972], [16.879197750224417, 48.72299539975552], [16.91095474437756, 48.6800426503966], [16.925813193883485, 48.63219580038748], [16.967873742408315, 48.66856532646967], [16.997788952465655, 48.7088325220919], [17.039577771790636, 48.75282558938186], [17.08357092702676, 48.78268990677707], [17.11085267778411, 48.831191883431096], [17.16198896665753, 48.85338081923617], [17.218045973558702, 48.87066600336778], [17.271646463031846, 48.8617658211091], [17.32166336933556, 48.84529740534486], [17.36131802146089, 48.81351587049919], [17.418465539279428, 48.82929441864583], [17.477484683448182, 48.84132481529221], [17.51994937481922, 48.812765020924516], [17.570361315328558, 48.823772114920175], [17.62094475125909, 48.84202400131857], [17.682700583072407, 48.86088034879796], [17.736703193994384, 48.88083700676984], [17.776882613794964, 48.913328467900854], [17.844218235134015, 48.926400996802464], [17.898977160040403, 48.95495320489083], [17.91208585170505, 49.0057999350532], [17.975721545908893, 49.02264034173164], [18.029719032298726, 49.02682887399542], [18.078685123072514, 49.04503331345161], [18.111511455915895, 49.0872795721077], [18.11396859732831, 49.1419861358704], [18.141348607859925, 49.196084174759974], [18.146963931513774, 49.24793000051692], [18.18593637527612, 49.28092121341531], [18.23864783234455, 49.295521107381184], [18.29837102510277, 49.304664233792224], [18.365664440923357, 49.32441510454352], [18.40842170186914, 49.36037065337462], [18.449948967338283, 49.393500662470025], [18.494101237353814, 49.42818096732461], [18.53624876106386, 49.46441796358496], [18.572356988728135, 49.50828262641063], [18.63153560810075, 49.49872385328491], [18.683383253588456, 49.50599813063293], [18.73490055776736, 49.490383623719275], [18.78880554821693, 49.50865321843251], [18.84020421225044, 49.51491412872402], [18.83754394405074, 49.56916587254084], [18.81879464505102, 49.61855210939567], [18.81008093961414, 49.671033261712715], [18.75116375138857, 49.67688750961903], [18.70766408793509, 49.70228216257383], [18.652579889437114, 49.707616272133144], [18.625737505810473, 49.75037028949949], [18.592819321442896, 49.79772485407394], [18.58371083221695, 49.85230120501393], [18.58006223044799, 49.90554471847134], [18.529872367057084, 49.899687900417405], [18.4670248259805, 49.91608743622041], [18.421434421552643, 49.938594764151155], [18.36673952491139, 49.937166411401336], [18.31794673243999, 49.91567370733556], [18.28183573079945, 49.95054543910956], [18.22162545185845, 49.96765420853602], [18.182999451454368, 50.00039211396382], [18.13112973615847, 49.99806888486629], [18.085619613467596, 50.03196858172656], [18.04607473656528, 50.06258416323515], [18.045709250405945, 50.01028864880831], [17.989271422561668, 50.013534578249015], [17.930069989038866, 49.98661905889538], [17.868499186093615, 49.97248856147014], [17.827691770836882, 50.01130388822663], [17.777350762968894, 50.02029882322248], [17.758966808549133, 50.067649004968224], [17.705130979112234, 50.1144060855926], [17.650345146706968, 50.11080676858266], [17.605812445127206, 50.14896645954226], [17.665770021237932, 50.1778457168998], [17.71733562574099, 50.20244973153954], [17.764977513545308, 50.23639151542898], [17.72587567069937, 50.272819027492616], [17.713039083882233, 50.32256030008047], [17.668599686719663, 50.29116228168423], [17.61209870750498, 50.26600837594578], [17.559812690406932, 50.27136366770986], [17.495593036954272, 50.27508951648981], [17.438234756248555, 50.25166266036065], [17.386205626946637, 50.28288062799358], [17.33751105451749, 50.31306381507552], [17.282055444754292, 50.319006074275414], [17.22462806169756, 50.34521490038819], [17.184041400823787, 50.38995697495785], [17.1235369752284, 50.39408206949074], [17.068392699351705, 50.4057049595653], [17.018343849481646, 50.42141517413076], [16.963381581575387, 50.426035202269155], [16.90790459951508, 50.449450015480096], [16.86958268944082, 50.41708283295728], [16.910172554703127, 50.385181576361134], [16.937486828422436, 50.342214490292946], [16.99344908777257, 50.302356539600375], [17.003292909616572, 50.252981362778534], [16.95844791419844, 50.226103092271096], [16.90482079423623, 50.22296045973315], [16.862792756967163, 50.19824307560994]]]}}]}