{"type": "FeatureCollection", "features": [{"type": "Feature", "properties": {"code": "DMA", "name": "the Commonwealth of Dominica", "tier": "country"}, "geometry": {"type": "Polygon", "coordinates": [[[-61.42336691245299, 15.63940210782107], [-61.45824840943652, 15.638425477353962], [-61.466423281009554, 15.614185788543352], [-61.465685698436175, 15.591364121956701], [-61.45612786021252, 15.571352376311154], [-61.46850733484558, 15.54802446695561], [-61.46700351190253, 15.507819359375958], [-61.459844045965895, 15.478629990881416], [-61.446980610166975, 15.452981646285991], [-61.43742154346944, 15.434459027761989], [-61.42703638472136, 15.414228239641602], [-61.42495148462325, 15.39333176884611], [-61.406344741716396, 15.375258990310215], [-61.394582762284585, 15.356160447746504], [-61.39595343610216, 15.330408074972752], [-61.39085182495171, 15.29981834244262], [-61.37539332793972, 15.283958533759403], [-61.37779047085348, 15.259647713970878], [-61.369769262841146, 15.2375580046982], [-61.3656510954217, 15.215139765887557], [-61.34373875314088, 15.208941710291754], [-61.324868938750456, 15.223947216091176], [-61.31116220057504, 15.241353448602808], [-61.290479163182795, 15.240612156325994], [-61.259531437525766, 15.250723157647656], [-61.25399957002412, 15.280756781800108], [-61.24739206209392, 15.301004074278637], [-61.24355048746497, 15.324124502843574], [-61.249051622434365, 15.346027269143178], [-61.25197121839699, 15.368164807060225], [-61.25215561448999, 15.388314738934127], [-61.25169462560643, 15.409558951484485], [-61.249420413721055, 15.433407956811834], [-61.24505638424472, 15.459090713965338], [-61.24668521205285, 15.483733689358303], [-61.25903971610995, 15.503961245315281], [-61.27486700350937, 15.521225659236848], [-61.27434454956125, 15.541449541463237], [-61.292353851249175, 15.550302417322769], [-61.305630333073395, 15.57416479556889], [-61.328771978444024, 15.588463132067943], [-61.34954721433246, 15.593377030425643], [-61.36995365893415, 15.596603562304608], [-61.39042156860046, 15.59491629924787], [-61.40326779407337, 15.615665705707784], [-61.417312591003224, 15.633039127353868], [-61.42336691245299, 15.63940210782107]]]}}]}