{"type": "FeatureCollection", "features": [{"type": "Feature", "properties": {"code": "DNK", "name": "Denmark", "tier": "country"}, "geometry": {"type": "MultiPolygon", "coordinates": [[[[11.600806977639497, 54.67559782263047], [11.600806977639497, 54.67559782263047]]], [[[11.864059650127533, 54.75470446779699], [11.864059650127533, 54.75470446779699]]], [[[15.179090951638178, 55.31332718583188], [15.179090951638178, 55.31332718583188]]], [[[8.411108034186144, 55.317933854924476], [8.411108034186144, 55.317933854924476]]], [[[8.452869488450471, 55.30768564528905], [8.452869488450471, 55.30768564528905]]], [[[9.679067771328203, 55.32886527853553], [9.679067771328203, 55.32886527853553]]], [[[8.523240527947006, 55.339028086424065], [8.46977903434891, 55.34799526985508], [8.442792082308976, 55.42067215651959], [8.399066387864528, 55.451758392413694], [8.345434090772509, 55.44595107362029], [8.393771479552894, 55.376946462075146], [8.424003697977378, 55.33629523052127], [8.475586353142313, 55.32912148377649], [8.523240527947006, 55.339028086424065]]], [[[10.969082509623158, 55.328395568927235], [10.969082509623158, 55.328395568927235]]], [[[10.481502585781406, 55.44586567187323], [10.481502585781406, 55.44586567187323]]], [[[9.673516657775684, 55.465337270180505], [9.673516657775684, 55.465337270180505]]], [[[10.458358712354755, 55.448854733016894], [10.458358712354755, 55.448854733016894]]], [[[10.456906882656403, 55.45321022211194], [10.456906882656403, 55.45321022211194]]], [[[11.691324885070458, 56.19964482708192], [11.691324885070458, 56.19964482708192]]], [[[8.181549515800544, 56.33551357679488], [8.181549515800544, 56.33551357679488]]], [[[11.504919930288471, 56.720937170621774], [11.565268661544785, 56.69093636338263], [11.613468305572006, 56.723466164289896], [11.540077901086113, 56.726838155847354], [11.504919930288471, 56.720937170621774]]], [[[10.987418526408604, 57.22785158108132], [11.037750459336776, 57.22477711818323], [10.987418526408604, 57.22785158108132]]], [[[10.96763287001615, 57.2350418572139], [10.96763287001615, 57.2350418572139]]], [[[11.190233901459068, 57.32464757425929], [11.138116796525564, 57.333821374842366], [11.049403665482703, 57.32757327282367], [10.989997108194082, 57.31904411768708], [10.93921888226458, 57.31884576524199], [10.893498643683518, 57.296332762730266], [10.947946389846209, 57.26449719530178], [10.99287321864712, 57.23613279566147], [11.061007283517378, 57.2502158192591], [11.07806559379057, 57.30168827874623], [11.130281874946592, 57.30605203253706], [11.184283328107954, 57.30034939974224], [11.190233901459068, 57.32464757425929]]], [[[10.931681489353169, 57.37845067497574], [10.931681489353169, 57.37845067497574]]], [[[10.604300778819377, 57.515462626385194], [10.604300778819377, 57.515462626385194]]], [[[8.556435636012274, 56.56743717259254], [8.597197063368629, 56.605719194391945], [8.638057666947264, 56.636265470853665], [8.585196740472965, 56.642116867968085], [8.537344213223722, 56.67320861365235], [8.480565825969428, 56.66552245642579], [8.429539659607281, 56.6674068046491], [8.481284971475711, 56.6852336736269], [8.545997456669074, 56.68672131696465], [8.49764904819127, 56.708143381028684], [8.478012156132591, 56.764574651641716], [8.518079350030087, 56.80146820641861], [8.569849338184778, 56.81148500489297], [8.623007793454727, 56.8460479184407], [8.646066265190292, 56.891867333244285], [8.678149773175047, 56.94391005601091], [8.735721570347073, 56.94009177144395], [8.78863208506073, 56.93652142743327], [8.855328094704468, 56.95680296493832], [8.813326964467857, 56.98858894425555], [8.862964663838403, 56.9795143198951], [8.911660189095015, 56.95531532160056], [8.952719145217703, 56.986704596027685], [9.003794899814757, 56.999200800065026], [9.051697015291229, 56.9833821925733], [9.139815088998976, 57.01174659221362], [9.190990019818553, 56.985564069468715], [9.237801196847316, 56.957199669828405], [9.302265741484378, 56.96622470607761], [9.356515135202034, 56.98655583169391], [9.417310159605915, 56.995332927386784], [9.467294975755273, 57.0012835007379], [9.552884055788791, 57.00386208252337], [9.613679080192668, 57.00768036709033], [9.651415632860987, 57.051417081221025], [9.701747565789153, 57.0214658620204], [9.760360713297626, 57.03138348427223], [9.84297450665559, 57.052805548336266], [9.887008749453837, 57.02870572626426], [9.937092741825714, 57.017399636897146], [9.987722203421441, 57.05449154411905], [10.04048395380132, 57.0534501937826], [10.083774374930677, 57.02816025704036], [10.151710087355896, 57.004605904192196], [10.198917969274735, 56.98080361078774], [10.26635780058736, 56.97405962765648], [10.313168977616124, 56.99786192106093], [10.365434846883403, 57.03326783250004], [10.392435573464082, 57.08920322200049], [10.419833004934839, 57.15721331659258], [10.453255391923593, 57.20573528345978], [10.500512861953693, 57.241785840345266], [10.549605092100384, 57.26003426528868], [10.561506238802604, 57.31195301777716], [10.545985159978446, 57.36734293805376], [10.527935087480069, 57.41737734231437], [10.57087839183061, 57.465180281568294], [10.532050900714596, 57.49855308044576], [10.478694092999605, 57.534851577887544], [10.43823019421203, 57.57640641512281], [10.465156538625827, 57.64389583454673], [10.509686662536666, 57.67801245509312], [10.578068667963217, 57.71441012875742], [10.638566163699544, 57.734146197038626], [10.559076421350978, 57.74162160481148], [10.496967311998723, 57.71566222856725], [10.325293270819069, 57.639718036173626], [10.236406581386802, 57.61227101659163], [10.18389277156322, 57.599179755219176], [10.127659853395192, 57.591444009862734], [10.06064152102827, 57.590625806026935], [10.001061405350239, 57.58534467217785], [9.949663328029985, 57.5826297230864], [9.902579416389296, 57.532347378269485], [9.840619071370822, 57.486304816965244], [9.723615922854544, 57.35754928608049], [9.62892742440494, 57.261224379959295], [9.561388416869798, 57.20380134712104], [9.511552365054222, 57.17561050587013], [9.407194184909063, 57.132617613408314], [9.325225036997466, 57.12480748588497], [9.208891327983192, 57.11320386785028], [9.118219466545591, 57.119823880703386], [9.05112675201178, 57.13793593834081], [8.980128973716305, 57.14016740334748], [8.9052633227426, 57.11208813534692], [8.84025330888168, 57.097657994970476], [8.762003269314524, 57.09101318806171], [8.658314528671362, 57.11967511636957], [8.60743712651934, 57.12200575759875], [8.562907002608494, 57.08317826648272], [8.51708758780492, 57.050747641719134], [8.460061259856744, 57.025308940643136], [8.390092434869892, 56.97076201825795], [8.33167763980646, 56.92960388591269], [8.253179659683015, 56.850610024676634], [8.22139368036581, 56.79298863939331], [8.215095990235884, 56.732144026878146], [8.246534852774266, 56.77201286833063], [8.298503193373996, 56.735119313553724], [8.34868636196839, 56.68394438273415], [8.40127315935255, 56.66651658937496], [8.461920696181119, 56.6382489952993], [8.501839125648111, 56.5972892154984], [8.541955907559657, 56.565503236258266], [8.556435636012274, 56.56743717259254]]], [[[10.222918615124192, 56.671894471697435], [10.222918615124192, 56.671894471697435]]], [[[10.274936543835185, 56.673828408036556], [10.274936543835185, 56.673828408036556]]], [[[8.549790947180343, 56.70950705408766], [8.549790947180343, 56.70950705408766]]], [[[8.958322601789947, 56.807270015435286], [9.010588471057234, 56.771665751551126], [9.058168263810517, 56.788104210433616], [9.007092509213454, 56.81746037229911], [8.958322601789947, 56.807270015435286]]], [[[8.930825994096683, 56.95467067615365], [8.885799989073254, 56.93235602608697], [8.830608421241672, 56.891594598631826], [8.778441728196908, 56.88455308683301], [8.718489701684435, 56.87870168970441], [8.66354607440915, 56.880784390377315], [8.636520553772835, 56.82933672494578], [8.603718018174819, 56.786790125485375], [8.54887356712205, 56.7836164863648], [8.514062713018033, 56.74146659179443], [8.572824624860282, 56.7194494703953], [8.623057381565937, 56.70764749991556], [8.645074502965063, 56.65677009776354], [8.709241518934574, 56.66510090045511], [8.76150738820186, 56.66842330390948], [8.803657282772251, 56.70640779713409], [8.84223683333198, 56.743425322189196], [8.88428755167985, 56.77972381963104], [8.84640223467776, 56.821278656866305], [8.864452307176139, 56.868288186340116], [8.916420647775873, 56.886734963728586], [8.93333019371529, 56.944157996566794], [8.930825994096683, 56.95467067615365]]], [[[9.595604213638632, 56.93999259522079], [9.595604213638632, 56.93999259522079]]], [[[9.076416688753936, 56.863626903881496], [9.076416688753936, 56.863626903881496]]], [[[9.268397061494355, 56.957856712302835], [9.268397061494355, 56.957856712302835]]], [[[9.555537019741132, 56.9688528759737], [9.555537019741132, 56.9688528759737]]], [[[9.87756221425892, 57.026176732589455], [9.82638728343934, 57.033515773055825], [9.87756221425892, 57.026176732589455]]], [[[9.792072310447914, 57.039069641516846], [9.792072310447914, 57.039069641516846]]], [[[10.792933830553027, 56.121764023727856], [10.792933830553027, 56.121764023727856]]], [[[8.299829557894906, 55.505860399114006], [8.299829557894906, 55.505860399114006]]], [[[10.785041744920445, 55.50722682706527], [10.785041744920445, 55.50722682706527]]], [[[10.168483832729622, 55.57217485562977], [10.168483832729622, 55.57217485562977]]], [[[12.772600857374368, 55.59423336577622], [12.725510235748288, 55.61556577143767], [12.772866405992565, 55.59228600924283], [12.772600857374368, 55.59423336577622]]], [[[12.729847529845427, 55.638225920190074], [12.77149440479859, 55.60897131408596], [12.766758787774151, 55.6727914986581], [12.729847529845427, 55.638225920190074]]], [[[12.040033326090645, 55.68590207805831], [11.994988869786134, 55.70838140672837], [12.040033326090645, 55.68590207805831]]], [[[10.173522535800373, 55.599845021645415], [10.173522535800373, 55.599845021645415]]], [[[12.677888516885838, 55.59348097802477], [12.650802557830236, 55.64030605103266], [12.619242997428389, 55.681169191421084], [12.561814350980859, 55.66336497235927], [12.509807290037113, 55.61724802899987], [12.55331384037615, 55.57936386362773], [12.61783740118666, 55.57226894926474], [12.669509796358561, 55.59174649718573], [12.677888516885838, 55.59348097802477]]], [[[11.761315390271, 55.736502017306364], [11.761315390271, 55.736502017306364]]], [[[12.073580721166957, 55.7311181322916], [12.073580721166957, 55.7311181322916]]], [[[11.810907191688155, 55.750744645395024], [11.810907191688155, 55.750744645395024]]], [[[11.774957425608935, 55.78703760733181], [11.833815515180161, 55.761812711801284], [11.827294793886557, 55.81226250286233], [11.773413044249923, 55.788410390762046], [11.774957425608935, 55.78703760733181]]], [[[9.992011453489727, 55.82733461384117], [9.992011453489727, 55.82733461384117]]], [[[10.030987708845071, 55.806408430940444], [10.08860909398873, 55.81692111050194], [10.030987708845071, 55.806408430940444]]], [[[8.288833394249878, 55.98455372020599], [8.288833394249878, 55.98455372020599]]], [[[10.638367688132389, 55.876253285477965], [10.638367688132389, 55.876253285477965]]], [[[10.643921556579969, 55.88101374414732], [10.643921556579969, 55.88101374414732]]], [[[11.210142843032566, 55.858808441043635], [11.157633876826164, 55.89312802679945], [11.084361561237495, 55.916293747184625], [11.132065785438082, 55.88214575935759], [11.208598461673553, 55.861210812046544], [11.210142843032566, 55.858808441043635]]], [[[10.67917870359988, 55.90987402483031], [10.67917870359988, 55.90987402483031]]], [[[10.405154801445095, 55.92921338817445], [10.454742912584212, 55.92187434772586], [10.405154801445095, 55.92921338817445]]], [[[10.754155927642227, 55.934618492288756], [10.754155927642227, 55.934618492288756]]], [[[10.66693044014852, 55.91622130305612], [10.66693044014852, 55.91622130305612]]], [[[10.253018476470283, 55.72867906672786], [10.305581874277747, 55.7130092236079], [10.253018476470283, 55.72867906672786]]], [[[11.300317554605977, 55.76940592014971], [11.300317554605977, 55.76940592014971]]], [[[10.054194944858185, 55.790341882931386], [10.054194944858185, 55.790341882931386]]], [[[10.560068060643701, 55.97860314686901], [10.521984391288859, 55.93476725662204], [10.579903305099348, 55.90957649616336], [10.595077267107913, 55.86053385424675], [10.530711898849342, 55.828202405784076], [10.530315193960233, 55.77643241775486], [10.573655203095823, 55.749456485295184], [10.643475263579699, 55.779010999534115], [10.662269157701434, 55.84382266079294], [10.617937386343064, 55.87337717503186], [10.590614337105418, 55.91691553661205], [10.560068060643701, 55.97860314686901]]], [[[9.892742942226661, 54.885801015297666], [9.964138802686739, 54.84549139073169], [9.9096524881251, 54.879139679034644], [9.892742942226661, 54.885801015297666]]], [[[10.964018387965375, 54.828862284219625], [10.964018387965375, 54.828862284219625]]], [[[11.059215095067561, 54.85668703216829], [11.059215095067561, 54.85668703216829]]], [[[11.02447709955756, 54.84655332766849], [11.02447709955756, 54.84655332766849]]], [[[11.056123456406597, 54.86287030949021], [11.056123456406597, 54.86287030949021]]], [[[9.534387690289151, 55.10283985226], [9.534387690289151, 55.10283985226]]], [[[14.770854209270702, 55.29635420331896], [14.739962053354338, 55.254862231726534], [14.700218276831572, 55.1965300519303], [14.704467054722647, 55.133860578036945], [14.72252436075971, 55.084999632289545], [14.776607762664852, 55.05862180288245], [14.830071551127546, 55.046760631269855], [14.887961149893446, 55.03702384860281], [14.94408042453807, 55.01949763980214], [14.99541982405523, 55.00657427371678], [15.045342964275363, 55.00055517170442], [15.100754109271472, 55.010380470577516], [15.124387936290582, 55.057294059791474], [15.145985890570213, 55.10332248694478], [15.116996833084231, 55.144062070785765], [15.05990388017291, 55.160614601319715], [15.007369511873888, 55.185266364708546], [14.958154501302266, 55.21429968029756], [14.902743356306157, 55.222354655049394], [14.854413507795181, 55.24041196108647], [14.804136302750793, 55.2711270845907], [14.770854209270702, 55.29635420331896]]], [[[8.49061706060759, 55.264130754338495], [8.437924182732155, 55.233471527179205], [8.488311213439623, 55.221856889592395], [8.49061706060759, 55.264130754338495]]], [[[8.502146296447439, 55.28445637011543], [8.547580025831124, 55.253199330727405], [8.502146296447439, 55.28445637011543]]], [[[11.719831590988724, 55.18653065556967], [11.719831590988724, 55.18653065556967]]], [[[11.679720575136573, 55.20317565466106], [11.679720575136573, 55.20317565466106]]], [[[11.393881325272984, 55.20251071268762], [11.467496836719212, 55.20027993961349], [11.407952355432869, 55.20559947540564], [11.393881325272984, 55.20251071268762]]], [[[11.21610587105771, 55.190220011038356], [11.185218243877472, 55.23758103938137], [11.21610587105771, 55.190220011038356]]], [[[9.75755197678611, 55.23919344422562], [9.75755197678611, 55.23919344422562]]], [[[9.784965937560852, 55.29470457975079], [9.784965937560852, 55.29470457975079]]], [[[12.22317121557992, 55.05397125558757], [12.22317121557992, 55.05397125558757]]], [[[11.979030262409502, 54.594260404388486], [11.965988819822291, 54.6852073066414], [11.98692376713334, 54.73600029356001], [12.038746341624625, 54.77066307517339], [12.083876596893525, 54.81304776358184], [12.133382599346291, 54.834583303643605], [12.156719917660249, 54.87954196098375], [12.088080746148615, 54.91729350531515], [12.037545156123173, 54.915234330169795], [11.989669333993811, 54.93711306608913], [11.93733196571619, 54.95770481754263], [11.88070464921909, 54.96045038440309], [11.833601017769228, 54.987305460257005], [11.774571330269223, 54.981127934820954], [11.724293137136952, 54.963110152299166], [11.745056486519221, 54.91266036123811], [11.789157154215445, 54.87542361069305], [11.817556611428383, 54.82523121652516], [11.871609958993803, 54.791254826626904], [11.904385163390613, 54.74749735478825], [11.876414700999618, 54.696189574083306], [11.904642560283785, 54.65054452502808], [11.940334929469834, 54.603612491507], [11.979030262409502, 54.594260404388486]]], [[[11.022865153511535, 54.901592294832554], [11.066056193298273, 54.87209403491027], [11.11242934189854, 54.8509998034107], [11.074681769741417, 54.81658289938509], [11.015327555602957, 54.831528205103396], [11.009007826327787, 54.779518541203664], [11.06750802299663, 54.76534185120801], [11.127033040629017, 54.75671627476486], [11.177932481818258, 54.74476003019021], [11.226953084574339, 54.73143735766416], [11.288015333652039, 54.71478401700661], [11.334046875264459, 54.6882240737015], [11.414751526143373, 54.65952908672233], [11.502160214158787, 54.62494137920281], [11.53213622734239, 54.66619042298536], [11.589697004794651, 54.684380995088226], [11.650759253872348, 54.69035911737555], [11.706526594638412, 54.691127733098185], [11.79073271714276, 54.67797586406609], [11.839753319898845, 54.69334817851924], [11.813534983581567, 54.73792789043332], [11.86991542944733, 54.76272667096823], [11.834137261296885, 54.811203085848305], [11.787376825704586, 54.835998986556866], [11.750182974641715, 54.875252012765046], [11.707626688304499, 54.901849691725815], [11.661209448569755, 54.923042035930024], [11.62362950216713, 54.86898868836462], [11.567860175313928, 54.87027567283046], [11.621570327021782, 54.835698690181474], [11.56996224994147, 54.845822967979416], [11.51929796146944, 54.85517505509785], [11.475283092737598, 54.87949906150227], [11.416124706791011, 54.89610116111164], [11.366232608998493, 54.91652131463634], [11.320415962014478, 54.94174621016687], [11.269794573024647, 54.971432651845646], [11.183909809670709, 54.97417821870611], [11.135690791683789, 54.95933499786671], [11.074087135252098, 54.948695926282404], [11.022865153511535, 54.901592294832554]]], [[[11.477106320730623, 54.93254427123518], [11.477106320730623, 54.93254427123518]]], [[[11.4871447995642, 54.91795844728896], [11.4871447995642, 54.91795844728896]]], [[[10.426952219909557, 54.81948655878179], [10.49817727687571, 54.84596110033995], [10.463504167609214, 54.891907240205406], [10.41345874388959, 54.894810899602106], [10.358972429327954, 54.895494113577826], [10.28723496188003, 54.93460811368634], [10.230528201897384, 54.94895560717592], [10.262810062248946, 54.906596340682846], [10.31336789645034, 54.879096978161144], [10.379298045104857, 54.83631070293329], [10.426952219909557, 54.81948655878179]]], [[[10.575380456129187, 54.90467480137615], [10.575380456129187, 54.90467480137615]]], [[[10.541518663458827, 54.91184854812094], [10.541518663458827, 54.91184854812094]]], [[[10.484043287753527, 54.9247442119122], [10.484043287753527, 54.9247442119122]]], [[[10.623248135301283, 54.919534705347516], [10.623248135301283, 54.919534705347516]]], [[[10.501721449374623, 54.93721286696861], [10.501721449374623, 54.93721286696861]]], [[[9.745510330464493, 54.9646268277434], [9.762761483350777, 54.908347076495566], [9.812123693094707, 54.88528860481588], [9.867464025125962, 54.893145565536365], [9.923999981614685, 54.889046281682205], [9.976436654249238, 54.87077030783237], [10.054920859707146, 54.86957468337489], [10.02972734435341, 54.93388219883716], [9.993858610629447, 54.971800574488206], [9.926903641011386, 55.00630288026078], [9.866353802415459, 55.016038679414436], [9.816393780442796, 55.04080518603338], [9.759516216966228, 55.064888478676615], [9.702467849995735, 55.06147240879813], [9.651568408806492, 55.045587683863246], [9.69614812072056, 55.02252921218356], [9.744997919982715, 54.99332181472259], [9.789406828402859, 54.968384504609745], [9.844490955193228, 54.95770928623953], [9.788296605692357, 54.95232897618092], [9.745510330464493, 54.9646268277434]]], [[[12.087523052880075, 54.93119293754622], [12.036730065961464, 54.959334997865994], [11.98851104797454, 54.975465203171225], [12.030895736382975, 54.94063082362907], [12.087523052880075, 54.93119293754622]]], [[[10.694003482659136, 54.735493940644815], [10.740889041741172, 54.75761299310793], [10.773000098598814, 54.81722341248727], [10.816042579067567, 54.88938788867], [10.842944129360543, 54.95045013774771], [10.87906906832539, 54.98939333436227], [10.912290347893535, 55.03431465326419], [10.95909050522861, 55.151315046601866], [10.905927917744883, 55.140383622990754], [10.875097887091673, 55.086068111923055], [10.849733568244014, 55.038413937118364], [10.813352424038282, 55.000751766708206], [10.766552266703208, 54.98247579285839], [10.71958130587421, 54.949083709796305], [10.679442484802157, 54.91671644769779], [10.729658712015706, 54.885886417044574], [10.676624227152418, 54.888790076441275], [10.652540934509187, 54.84002567892609], [10.662959947638528, 54.79091967442303], [10.682175340704935, 54.74147206293215], [10.694003482659136, 54.735493940644815]]], [[[10.670731506612054, 54.96437062250247], [10.670731506612054, 54.96437062250247]]], [[[10.423749654398486, 54.97478963563182], [10.367128296162806, 54.97560095222799], [10.422084320332733, 54.96159506572623], [10.423749654398486, 54.97478963563182]]], [[[12.10820060329795, 54.98275811514432], [12.10820060329795, 54.98275811514432]]], [[[10.494803907870716, 54.97248378846384], [10.494803907870716, 54.97248378846384]]], [[[11.368677879483338, 54.96561977200735], [11.41228520313432, 54.93970848476171], [11.46728233930802, 54.96064343207274], [11.41764763840867, 54.98475294106622], [11.368677879483338, 54.96561977200735]]], [[[11.294265512152514, 54.98790991755587], [11.294265512152514, 54.98790991755587]]], [[[11.54261383004204, 54.96847258757331], [11.54261383004204, 54.96847258757331]]], [[[11.35374885967955, 54.981406781455036], [11.35374885967955, 54.981406781455036]]], [[[11.30811347698808, 54.985698537124755], [11.30811347698808, 54.985698537124755]]], [[[10.067581668694249, 55.11753865567852], [10.067581668694249, 55.11753865567852]]], [[[9.980301083299274, 55.15955631518376], [10.003017947991118, 55.10549700935693], [9.984741974141288, 55.15853149422021], [9.980301083299274, 55.15955631518376]]], [[[11.720916789001473, 55.139743109888585], [11.720916789001473, 55.139743109888585]]], [[[11.686926893710668, 55.17356220168547], [11.686926893710668, 55.17356220168547]]], [[[11.156046595985028, 55.15075248741917], [11.156046595985028, 55.15075248741917]]], [[[9.982179921732433, 55.17877170825015], [9.982179921732433, 55.17877170825015]]], [[[12.122185834493447, 55.00961319099825], [12.122185834493447, 55.00961319099825]]], [[[10.171259389505884, 55.03743181702836], [10.171259389505884, 55.03743181702836]]], [[[10.323573405212281, 55.008907633543096], [10.272545861402596, 55.01714890212492], [10.327928894307332, 54.99968424487122], [10.323573405212281, 55.008907633543096]]], [[[10.454323479810816, 55.004509443574534], [10.454323479810816, 55.004509443574534]]], [[[11.890957625463631, 55.016605806595976], [11.890957625463631, 55.016605806595976]]], [[[11.664105163617679, 55.0894920268449], [11.664105163617679, 55.0894920268449]]], [[[12.237070647811024, 55.06306594581287], [12.287863634729646, 55.03629666892338], [12.238271833312485, 54.997687134948045], [12.172549826590092, 55.00772561378164], [12.126046787890957, 54.97949775449747], [12.108458000191105, 54.92921956136517], [12.169890058694019, 54.90511005237171], [12.232952297520331, 54.917465103243806], [12.271905027353181, 54.94929651903233], [12.323556003915689, 54.97778177520966], [12.405665612836483, 54.985761078897895], [12.459718960401888, 54.97872556381795], [12.541399574500737, 54.96594151812391], [12.535822641815416, 55.01759249468641], [12.484514861110469, 55.03715465856724], [12.430461513545058, 55.04213099850183], [12.379840124555225, 55.0464209467213], [12.322011622556671, 55.04882331772421], [12.269159460492713, 55.078852955260544], [12.237070647811024, 55.06306594581287]]], [[[10.325153337531072, 55.03341793492117], [10.325153337531072, 55.03341793492117]]], [[[10.51611164373769, 55.00630288026084], [10.554008668951989, 54.96308959629808], [10.604993511888193, 54.95634285828811], [10.658198800245406, 54.97427722515011], [10.663749913797922, 55.02585988031506], [10.616778952968929, 55.04733841967598], [10.563039903693205, 55.021952750391605], [10.51611164373769, 55.00630288026084]]], [[[10.236762529425597, 55.061856716659435], [10.236762529425597, 55.061856716659435]]], [[[10.656213209628543, 55.039524159828964], [10.707625061299556, 55.036108089950496], [10.655700799146773, 55.05387165331855], [10.656213209628543, 55.039524159828964]]], [[[11.349802107317629, 55.03769090209456], [11.349802107317629, 55.03769090209456]]], [[[9.669929784403292, 55.47853184008621], [9.721854046556079, 55.45901754090546], [9.767116972445839, 55.437325497177156], [9.816137575201921, 55.408459706704065], [9.763017688591672, 55.41409622200354], [9.714509496317362, 55.437667104165], [9.755502334859031, 55.3999195320079], [9.814856548997493, 55.39547864116588], [9.786076160271358, 55.346458038409814], [9.866524605909387, 55.324595191187576], [9.884373571024403, 55.259177453014814], [9.910335702100795, 55.2113524747162], [9.966871658589515, 55.19717578472054], [10.014013422912436, 55.16472312087505], [10.085067676384663, 55.16164865798443], [10.131697030225814, 55.14029822124396], [10.098219545416782, 55.093156456921044], [10.151510235520954, 55.06924396777173], [10.201384855746653, 55.0487475485009], [10.244341934468446, 55.08231043505692], [10.29447275993503, 55.062668033255676], [10.351264921664635, 55.043538041936216], [10.404043201287035, 55.03901174934722], [10.472193795362564, 55.03935335633505], [10.593293472554416, 55.04584388910415], [10.64479072597239, 55.05592129524565], [10.69791061258264, 55.06360745247222], [10.754019560336554, 55.080089989635844], [10.781604324605219, 55.124328094562046], [10.806370831224145, 55.1731778938242], [10.817131451341332, 55.23073867127649], [10.788778071350011, 55.27198771505903], [10.855391433980225, 55.28906806445139], [10.812861363993242, 55.317421444442715], [10.775369997077004, 55.3697727153303], [10.729594660705471, 55.40529984206642], [10.674339730421176, 55.433140811575974], [10.727288813537504, 55.46354383349439], [10.706536189025778, 55.5160659078759], [10.662810494581331, 55.56252445822312], [10.625746136399906, 55.600101226886316], [10.631553455193309, 55.54587111756557], [10.588553675598035, 55.51696262621899], [10.628521693176165, 55.48314353442212], [10.57599961879465, 55.462561713404305], [10.526295802062874, 55.45214270027497], [10.473133214579148, 55.421269968748284], [10.4604937560288, 55.469778161022596], [10.486370485358231, 55.514187069442755], [10.554862686421608, 55.497277523544305], [10.483210620720646, 55.53673313064065], [10.426845467725848, 55.56132883376566], [10.339394078836953, 55.5867785543603], [10.28926325337037, 55.591561052190166], [10.229396628750138, 55.575590925508266], [10.185414729064805, 55.55061091452196], [10.134600689622523, 55.54591381843906], [10.072599021328246, 55.53105391446771], [10.024090829053936, 55.515339993026735], [9.948254077751844, 55.484253757132635], [9.869342863559128, 55.477080010387844], [9.83142448790808, 55.51969548212179], [9.775998754129866, 55.50876405851069], [9.725611723422395, 55.47187050382319], [9.669929784403292, 55.47853184008621]]], [[[8.17830287196825, 55.803528188149464], [8.182103249708058, 55.752927653074906], [8.15870317104052, 55.68477705899936], [8.125908900207182, 55.624141818656476], [8.097726323709784, 55.5802453207181], [8.136840323818296, 55.536178019285806], [8.188935389465003, 55.522172132784064], [8.244617328484106, 55.49057348640819], [8.293637931240186, 55.468027425210266], [8.256744376552682, 55.511240709172945], [8.237614385233236, 55.558040866508016], [8.289709450879943, 55.5817825521634], [8.322759926954166, 55.52849186205924], [8.368022852843925, 55.49996767857398], [8.408247075662942, 55.468539835692], [8.457694687153833, 55.43625797534044], [8.518159124002798, 55.43600177009956], [8.575719901455063, 55.424216329018826], [8.621836844814442, 55.37878259963514], [8.656168347093093, 55.31182763001707], [8.629352198547084, 55.256145690997975], [8.643614290289703, 55.206698079507106], [8.666928967210279, 55.147514668862556], [8.597497346930322, 55.1379283227661], [8.545871990891909, 55.1436288893758], [8.529304051981317, 55.19375971484238], [8.478233807298151, 55.189148020506444], [8.459616226460478, 55.1338076884752], [8.486944785488259, 55.082054229816336], [8.548177838059882, 55.077527937227345], [8.533403335835489, 55.129623002874055], [8.586779427686622, 55.13560112516138], [8.642546768452688, 55.137992374076305], [8.631615344841572, 55.08282284553896], [8.61555981641275, 55.02492046109885], [8.639728510802943, 54.97820570551072], [8.62683284701171, 54.92722086257453], [8.6874680873546, 54.897415652884845], [8.7373427075803, 54.89143753059749], [8.789266969733083, 54.90151493673899], [8.87483952018882, 54.89758645637875], [8.928130210292993, 54.89519520746382], [8.98688661220272, 54.881530927949925], [9.068018271816443, 54.863254954100064], [9.130532350592492, 54.86462138205145], [9.184335451178438, 54.851298709525416], [9.231989625983129, 54.80859783604451], [9.307143163309524, 54.801424089299715], [9.356419971306492, 54.81261171815174], [9.405696779303458, 54.82516577495513], [9.470943713982281, 54.840879696396094], [9.520562128967093, 54.8670126309664], [9.567191482808242, 54.89399958300633], [9.610831775505728, 54.92384749356947], [9.660450190490542, 54.908475179116344], [9.603572627013975, 54.901813842853315], [9.64524867953134, 54.87149622268187], [9.691451024637681, 54.84638810907509], [9.742008858839075, 54.83374865052475], [9.699991199333862, 54.87918237990843], [9.755758540099926, 54.888234965086404], [9.74183805534515, 54.9421234674193], [9.682056832471881, 54.97662577319186], [9.612369006951042, 55.00224629728041], [9.562152779737495, 55.02035146763631], [9.502713163852071, 55.007028795110266], [9.447372831820816, 55.00156308330471], [9.513815390957108, 55.04067708341321], [9.498101469516136, 55.08952688267536], [9.520135120232283, 55.14777087410334], [9.570009740457982, 55.16553443747139], [9.63389024718542, 55.15596944181167], [9.686497723313897, 55.175099433131116], [9.7110934264389, 55.22668208829605], [9.667965544223183, 55.253669040336], [9.627058107428473, 55.283986660507445], [9.596484282016144, 55.327370747964075], [9.586791183735976, 55.38143005379087], [9.646914013597092, 55.4044031237236], [9.636196094353384, 55.457309505966464], [9.582179489400037, 55.452996717744874], [9.517957375684754, 55.45205729852829], [9.57056485181323, 55.46281791864548], [9.623001524447785, 55.47827563484554], [9.671936725456902, 55.4917691108655], [9.735304821702568, 55.48476616761463], [9.76681806633148, 55.53575101055083], [9.81028755553504, 55.564958408011755], [9.750335529167847, 55.586479648246126], [9.693799572679126, 55.62576445184855], [9.582948105122691, 55.65104336894925], [9.644266559441274, 55.666586486896335], [9.707797194495825, 55.66143758802443], [9.775584142422998, 55.64115605056854], [9.835089875789942, 55.6308417234516], [9.888446683375635, 55.64968520568449], [9.984449266540972, 55.658313537022735], [10.02947527145529, 55.696198853933005], [10.061261250695466, 55.7687958486407], [10.015838540892037, 55.79358990421024], [9.963671847973687, 55.78902779798547], [9.889388857487289, 55.79795365799054], [9.951770701300298, 55.81521032066697], [10.00334233688498, 55.83420256723328], [10.066021709364831, 55.841541607681876], [10.116998287615843, 55.831425633009516], [10.175016377648614, 55.80350752643822], [10.20546347788803, 55.85111211313176], [10.255844998805372, 55.87719545959099], [10.251927538025381, 55.93813924818096], [10.277564591484303, 55.9822726670948], [10.252671359692469, 56.04262139835114], [10.209628879223718, 56.092705390601644], [10.235315520793783, 56.13926862696128], [10.305730638611331, 56.1897493241009], [10.356012983306398, 56.2149400845596], [10.38844360799138, 56.26026361814076], [10.443387235133521, 56.26512325303241], [10.504578964279188, 56.251635286802575], [10.460792662143346, 56.21146891677993], [10.41457654256169, 56.189699735989876], [10.348277237968688, 56.16748426219959], [10.396675234440472, 56.13039235506755], [10.443188882688967, 56.15191359530194], [10.49684321894149, 56.144574554853335], [10.508992306170585, 56.07123373847865], [10.557886183753755, 56.09027557315606], [10.533687185517866, 56.13857439340556], [10.579258659654709, 56.184889689209506], [10.669806550594739, 56.20908868744539], [10.63777263079887, 56.16882314120043], [10.68051758260079, 56.14026038918429], [10.737841439077611, 56.159798104973106], [10.750734347973781, 56.219105485895504], [10.79635541022177, 56.240130845018484], [10.842373177358876, 56.2883304890457], [10.889481882941043, 56.319075117951954], [10.917449577623508, 56.384134719766486], [10.936714558801052, 56.43305339140521], [10.913904027677056, 56.48338532421144], [10.872150838097923, 56.519485469120745], [10.808777232062125, 56.54031247579922], [10.740444814912426, 56.53629583879696], [10.680145671767256, 56.530246089238], [10.614491012619064, 56.515568008340836], [10.559547385476925, 56.503666861667476], [10.497264717886193, 56.498311345664455], [10.425064428067635, 56.50346850922292], [10.365657870922972, 56.53153538012768], [10.33154125045926, 56.56991657814935], [10.272531398203705, 56.53941988979881], [10.236381665183295, 56.50262551133357], [10.233059261736976, 56.45070675897093], [10.220711822063336, 56.5117497237832], [10.257704552973118, 56.54745316380334], [10.349640911025046, 56.59714045116481], [10.366500868812343, 56.6464310336371], [10.318573959396256, 56.6744235223734], [10.258473168695645, 56.663514137922796], [10.211463639335761, 56.64288548368892], [10.161999498474643, 56.66113390859012], [10.1075517524439, 56.64427395080283], [10.053798239969092, 56.639910197022594], [10.009714409166417, 56.61630625612041], [9.950407028244031, 56.59111549566174], [9.891297999766207, 56.5890327949939], [9.834668376845334, 56.58060281610026], [9.926108853785871, 56.59746277388761], [9.981845890706241, 56.62265353434628], [10.039417687738762, 56.642092073912835], [10.095601017659382, 56.65022452413966], [10.156792746805056, 56.67377887693075], [10.208314794278603, 56.67477063915357], [10.269804052091109, 56.67774592582196], [10.323954269455026, 56.680126155156636], [10.296978336995345, 56.736458249410674], [10.275357920538688, 56.78604636054978], [10.27198592898123, 56.856858183256435], [10.276845563872866, 56.9148762732892], [10.306697606778615, 56.95970392575897], [10.252051508303303, 56.96158827398225], [10.191454836491308, 56.96347262220555], [10.139585672239795, 56.98271280932752], [10.096890308549012, 57.00879615578671], [10.042640914962819, 57.032251332355514], [9.98144918581715, 57.038400258136804], [9.929084140454249, 57.01221773545536], [9.855792912190637, 57.00537457611815], [9.801543518604442, 57.01043256345434], [9.747393301240526, 57.00358940411717], [9.678366650534874, 56.98930802810911], [9.647026964294946, 56.9455713140844], [9.593273451820142, 56.9178019718465], [9.542693578458243, 56.908479406952345], [9.585339354037885, 56.943389437194284], [9.526726206671446, 56.96927443120888], [9.466922944637673, 56.97631594299066], [9.416144718831216, 56.97582006187927], [9.353663698795929, 56.97026619343169], [9.302885472989471, 56.96134033342665], [9.248388138847588, 56.931091585631805], [9.205544010823395, 56.901189954614935], [9.173063798027277, 56.854329189588476], [9.216899688274257, 56.827551609573355], [9.189973343925715, 56.7804429039912], [9.189774991481162, 56.7289704446288], [9.241743331954957, 56.718061060178194], [9.217147628829954, 56.669712651817576], [9.172915033693858, 56.646108710915364], [9.226866898613224, 56.638571318022265], [9.281711349533088, 56.65424116114224], [9.329241554059726, 56.610306094670584], [9.298100220264358, 56.551197066192756], [9.328448144281499, 56.506766118612106], [9.266066300468486, 56.50736117594576], [9.290166122482104, 56.55724681575171], [9.243950002900448, 56.58456986498939], [9.192576719760318, 56.58005734687574], [9.155187283961425, 56.61437231978401], [9.117599495717974, 56.58020611120917], [9.096078255483599, 56.5308163525146], [9.049068726123716, 56.55070118508141], [9.07078831880265, 56.59780989066357], [9.122756659276446, 56.629546281792614], [9.18146898286516, 56.67001018048216], [9.136839682839955, 56.70472185827956], [9.11125221749217, 56.75430996941867], [9.057300352572808, 56.768789697871306], [8.970818686746188, 56.774145213874334], [8.914486592492151, 56.74855774852658], [8.859642141572287, 56.72029252517731], [8.896238167592955, 56.6807212124883], [8.846749232676116, 56.6634645498119], [8.792003957978535, 56.65805944569776], [8.730117995276919, 56.60361169966699], [8.679141417025903, 56.60668616255766], [8.718018496158972, 56.55749475630765], [8.764928849296577, 56.5310147049594], [8.744300195062708, 56.47577354915043], [8.69024915392107, 56.44939267402441], [8.63798328478044, 56.449789378913536], [8.575898969634268, 56.47874883581882], [8.62890866044199, 56.50076595716462], [8.65157042723257, 56.55149459485996], [8.623206027661002, 56.500121311719845], [8.575898969634283, 56.52784106584663], [8.519219758602274, 56.52932870918084], [8.459912377679888, 56.5499573634147], [8.395447833199038, 56.56929672675897], [8.310305046373175, 56.57390842109494], [8.255411007342172, 56.59761153821944], [8.181673486078306, 56.63901761102067], [8.220352212766816, 56.6862254928251], [8.157871192731529, 56.65587756880796], [8.112646835372653, 56.53825456918599], [8.121374342933137, 56.48509611404485], [8.121175990488581, 56.41864804511844], [8.1885166454155, 56.37501050731602], [8.243261920113087, 56.34704281263356], [8.295924494142831, 56.3080665572782], [8.246435559225992, 56.28247909193041], [8.208153537426593, 56.31629818372733], [8.156284373175074, 56.33018285484627], [8.122068576489083, 56.3687624053125], [8.123754572267812, 56.31808335572833], [8.139226062943223, 56.22327088723038], [8.120184228265801, 56.13460734451364], [8.106745850147098, 56.048770324131844], [8.121324754821996, 55.99799209832539], [8.140366589499418, 56.049167029020964], [8.14324269994549, 56.10440818482997], [8.22198862043441, 56.093498800379365], [8.269394854683409, 56.06999403569942], [8.317693674932915, 56.0301251943436], [8.334156927831101, 55.96913181764249], [8.374918355187454, 55.938833481736516], [8.38627403263832, 55.88711308181846], [8.332818048830346, 55.85607092424536], [8.284717581025403, 55.83345874556592], [8.230765716106047, 55.826218881339564], [8.271824672129238, 55.865691017806306], [8.22729454832631, 55.888699901374856], [8.204087312313199, 55.84109531468131], [8.177508084742627, 55.90645244516269], [8.159953893399381, 55.96466888764002], [8.160747303177615, 55.903377982272104], [8.178202318298585, 55.80430093621619], [8.17830287196825, 55.803528188149464]]], [[[12.359847910756782, 55.60100900693234], [12.406805532109438, 55.62019308779172], [12.47865827332322, 55.60493232859587], [12.513262714131347, 55.64124356484034], [12.565294875007986, 55.671162684843], [12.60214157648743, 55.71159031008107], [12.59816742044684, 55.76192404216561], [12.572766288364281, 55.812692839753545], [12.554627403530619, 55.86841469076468], [12.51741256970215, 55.91392923573475], [12.539433577489135, 55.971692547954135], [12.581869197358289, 56.00328499681572], [12.563328713598425, 56.05703231977301], [12.486824118156086, 56.087620771319074], [12.41928856539903, 56.08989649856753], [12.358312461770014, 56.1069644529313], [12.304832871430179, 56.1221582789728], [12.251353281090347, 56.121020415348525], [12.180471070614903, 56.10997644487782], [12.117955504435425, 56.08454184621808], [12.064676713558693, 56.06071364326314], [11.995066233016235, 56.02831799654915], [11.924652554621362, 56.005828456681584], [11.867893239717507, 55.98615010929747], [11.902832346297473, 55.94692728083797], [11.956646602409146, 55.962589638960026], [12.013941382547937, 55.959510713859096], [12.042187173691127, 55.904357794660065], [12.04372663624158, 55.843850223111616], [12.074783619868214, 55.802083934786125], [12.092542292297031, 55.748706919991434], [12.097175436374066, 55.694825170354804], [12.053932758321736, 55.66453813592526], [12.007215222211626, 55.68976303145579], [11.95268998034207, 55.682727516375856], [11.982376422020847, 55.7324480162396], [12.033576954020335, 55.73615882144954], [12.051423138613359, 55.78506423115158], [12.032032572661322, 55.83585721807019], [11.994710023151876, 55.88021528265956], [11.962621210470187, 55.9299786820055], [11.903591522970181, 55.939931361874685], [11.92499836458537, 55.89467240815924], [11.952368234225638, 55.84645339017233], [11.905993893973086, 55.823330569269324], [11.857689077021773, 55.77052130668755], [11.836518182558624, 55.703876961097855], [11.78280803085077, 55.669214179484484], [11.783408623601497, 55.72944505248591], [11.732186641860938, 55.725240903230805], [11.67495873261311, 55.722066341548384], [11.735404103025546, 55.74510336348696], [11.731714747556799, 55.80155908205526], [11.655653965625467, 55.776763181346695], [11.714168859339129, 55.81258424897933], [11.707819735974295, 55.86612280275838], [11.667751619604376, 55.896581435116666], [11.720088987881997, 55.90275896055271], [11.754236975709036, 55.94411406138847], [11.688858164844206, 55.94977679303818], [11.637207188281696, 55.941711690385574], [11.589331366152331, 55.96590699834343], [11.523180364607997, 55.95449573607961], [11.445017508049125, 55.96504900869951], [11.385301428834003, 55.970196946562886], [11.325585349618878, 55.98504016740229], [11.282256872602158, 56.010522459825985], [11.321381200363794, 55.97311411135217], [11.370286610065834, 55.95749869983327], [11.469470212900145, 55.94994839096697], [11.523351962536774, 55.932102206373926], [11.517517632958285, 55.877534065022175], [11.462606295748976, 55.8524807674204], [11.41112691711525, 55.83497777868494], [11.36033393019664, 55.84939200470238], [11.377836918932108, 55.80065819292912], [11.349694858612338, 55.75810190659192], [11.297185892405935, 55.75338296355049], [11.246736101344883, 55.736909562387694], [11.19474192892482, 55.734335593456], [11.106883789389927, 55.74085631474961], [11.055404410756202, 55.72815806801996], [10.984534466170437, 55.74274389196617], [10.92601957245677, 55.74240069610862], [10.876084575182055, 55.73364920174088], [10.950729674200957, 55.72095095501125], [11.010445753416079, 55.705678739349906], [11.066901471984394, 55.67685028731501], [10.99899159167006, 55.665696421944354], [10.940390898992003, 55.66732660226776], [10.993328860020352, 55.65231178349959], [11.125974058966587, 55.61747740395743], [11.159435655078509, 55.56582642739492], [11.105210709584313, 55.53356601678443], [11.15840606750583, 55.50799792539633], [11.20164874555816, 55.45771973226406], [11.216234569504369, 55.40761313706057], [11.156175294431689, 55.370547984444286], [11.097488802789238, 55.354074583281495], [11.147766995921511, 55.32644731674806], [11.201133951771798, 55.30654195700969], [11.248237583221655, 55.27256556711141], [11.24695059875581, 55.21628144647187], [11.300017258230739, 55.2018672204544], [11.351496636864459, 55.2167962402582], [11.406064778216209, 55.21834062161721], [11.457372558921156, 55.22657732219861], [11.51417147334704, 55.21096191067969], [11.585556211719142, 55.20152402459684], [11.651364017405921, 55.190284360261806], [11.693491308921182, 55.22082879158449], [11.743683703089069, 55.19753437275269], [11.783151226708258, 55.164072776640765], [11.738020971439354, 55.14227983968583], [11.767192619331803, 55.09285963619742], [11.834630605341983, 55.073297472316604], [11.778174886773664, 55.07552824539073], [11.721375972347786, 55.085824121117476], [11.79207431900477, 55.06214360694597], [11.838920553561461, 55.04017907206225], [11.889370344622511, 55.02301927918432], [11.947713640407402, 55.01890092889362], [11.999278818005514, 54.990158275823134], [12.052988969713367, 54.983380157636354], [12.103610358703197, 55.00225592980205], [12.163669633775877, 55.01649855789071], [12.1495128046516, 55.06600456034349], [12.109358889317294, 55.103756104674886], [12.163240638953923, 55.096720589594945], [12.138187341352177, 55.14854316408622], [12.087737550291127, 55.14888635994378], [12.037630955087632, 55.13944847386093], [12.075382499419032, 55.192558032818056], [12.113648837536768, 55.15798105016907], [12.136943256368529, 55.20757285158622], [12.191940392542227, 55.2397045637501], [12.248653508003715, 55.2537326944278], [12.30347904624863, 55.25175931824685], [12.356846002098925, 55.250043338959046], [12.40849697866143, 55.27080668834132], [12.455343213218121, 55.30032153209132], [12.449251486746459, 55.353945884834765], [12.40424992992414, 55.384983660202685], [12.344683998896688, 55.408278079034424], [12.27527263670555, 55.41973224078042], [12.225595036323996, 55.434339514467744], [12.199362002961891, 55.47906222465581], [12.221669733703179, 55.52560816283714], [12.280871019131961, 55.57417037668163], [12.357232097438647, 55.597850890853124], [12.359847910756782, 55.60100900693234]]]]}}]}