{"type": "FeatureCollection", "features": [{"type": "Feature", "properties": {"code": "DOM", "name": "Dominican Republic", "tier": "country"}, "geometry": {"type": "MultiPolygon", "coordinates": [[[[-71.64208221399997, 17.48069381700003], [-71.64208221399997, 17.48069381700003]]], [[[-71.64041900599995, 17.49152565000003], [-71.64041900599995, 17.49152565000003]]], [[[-71.52069091799996, 17.618749619000027], [-71.53791809099994, 17.595415115000037], [-71.54736328099995, 17.571525574000077], [-71.55374908399995, 17.549583435000045], [-71.52819824199997, 17.54263877900007], [-71.49819183299996, 17.553472519000024], [-71.47652435299995, 17.571250916000054], [-71.48986053499993, 17.590415955000026], [-71.50291442899999, 17.61152839700003], [-71.52069091799996, 17.618749619000027]]], [[[-71.28097534199998, 17.84375190700007], [-71.28097534199998, 17.84375190700007]]], [[[-71.65930175799997, 17.926805496000043], [-71.65930175799997, 17.926805496000043]]], [[[-68.63402557399996, 18.19819450400007], [-68.63402557399996, 18.19819450400007]]], [[[-68.76791381799995, 18.19874954200003], [-68.78458404499997, 18.185138702000074], [-68.77652740499997, 18.165973663000045], [-68.76180267299998, 18.14985847500003], [-68.73680877699996, 18.129583359000037], [-68.71375274699994, 18.12347221400006], [-68.68930816699998, 18.114027023000062], [-68.66180419899996, 18.125415802000077], [-68.61846923799999, 18.125694275000058], [-68.59791564899996, 18.11847305300006], [-68.57875060999999, 18.109861374000047], [-68.57514190699999, 18.13819503800005], [-68.60041809099994, 18.161247253000056], [-68.62430572499994, 18.158193588000074], [-68.65069580099998, 18.158750534000035], [-68.67402648899997, 18.174026489000028], [-68.69374847399996, 18.17041587800003], [-68.72791290299995, 18.184305191000078], [-68.75541686999998, 18.19319534300007], [-68.76791381799995, 18.19874954200003]]], [[[-70.50819396999998, 18.223194122000052], [-70.50819396999998, 18.223194122000052]]], [[[-70.84124755899995, 18.33041572600007], [-70.85958099399994, 18.319583893000072], [-70.84041595499997, 18.328750610000043], [-70.84124755899995, 18.33041572600007]]], [[[-69.01152801499995, 18.377916336000055], [-69.02097320599995, 18.356250763000048], [-68.99847412099996, 18.33930587800006], [-68.99680328399995, 18.361526489000028], [-69.01152801499995, 18.377916336000055]]], [[[-69.62486267099996, 18.441804886000057], [-69.62486267099996, 18.441804886000057]]], [[[-71.86244201699998, 18.97875785800005], [-71.86244201699998, 18.97875785800005]]], [[[-69.17180633499999, 19.016250610000043], [-69.17180633499999, 19.016250610000043]]], [[[-69.54152679399994, 19.08819389300004], [-69.54152679399994, 19.08819389300004]]], [[[-69.54541778599997, 19.090415955000026], [-69.54541778599997, 19.090415955000026]]], [[[-69.27680206299993, 19.168470383000056], [-69.27680206299993, 19.168470383000056]]], [[[-69.32847595199996, 19.19597435000003], [-69.32847595199996, 19.19597435000003]]], [[[-69.42292022699996, 19.331249237000065], [-69.42292022699996, 19.331249237000065]]], [[[-71.76736450199996, 19.86513900800003], [-71.76736450199996, 19.86513900800003]]], [[[-71.81822967499994, 19.877309799000045], [-71.81822967499994, 19.877309799000045]]], [[[-71.66708373999995, 19.891141891000075], [-71.66708373999995, 19.891141891000075]]], [[[-71.81208038299997, 19.896116257000074], [-71.81208038299997, 19.896116257000074]]], [[[-71.86244201699998, 18.97875785800005], [-71.87463378899997, 18.96006965600003], [-71.85503387499995, 18.966712952000023], [-71.83503723099994, 18.97335815400004], [-71.81345367399996, 18.966789246000076], [-71.79187011699997, 18.960224152000023], [-71.76353454599996, 18.910911560000045], [-71.73918914799998, 18.896959305000053], [-71.72190093999995, 18.881057739000028], [-71.72106933599997, 18.853069305000076], [-71.71710205099998, 18.82975387600004], [-71.71706390399999, 18.80837249800004], [-71.73222351099997, 18.726322174000074], [-71.76788330099998, 18.713037491000023], [-71.78001403799993, 18.695522308000022], [-71.79802703899998, 18.672943115000066], [-71.80151367199994, 18.647670746000074], [-71.81535339399994, 18.63061332700005], [-71.83616638199999, 18.629619598000033], [-71.85607147199994, 18.635288239000033], [-71.87876892099996, 18.639362335000044], [-71.89958953899998, 18.651374817000033], [-71.91642761199995, 18.639291763000074], [-71.93997955299994, 18.650133133000054], [-71.96157836899994, 18.658645630000024], [-71.97487640399999, 18.64073753400004], [-72.00388336199995, 18.626689911000028], [-71.98151397699996, 18.62128639200006], [-71.96266174299996, 18.60732650800003], [-71.95044708299997, 18.58130836500004], [-71.87578582799995, 18.505645752000078], [-71.90841674799998, 18.486064911000028], [-71.89923858599997, 18.45895576500004], [-71.87097930899995, 18.448123932000044], [-71.84467315699999, 18.434955597000055], [-71.83052062999997, 18.419044495000037], [-71.81166076699998, 18.399646759000063], [-71.78887176499995, 18.38102912900007], [-71.68799591099997, 18.342735291000054], [-71.75096893299997, 18.239992142000062], [-71.76230621299999, 18.221313477000024], [-71.76502227799995, 18.20109367400005], [-71.78028869599996, 18.185905457000047], [-71.76795196499995, 18.16772460900006], [-71.75355529799998, 18.15330123900003], [-71.73862457299998, 18.138557434000063], [-71.73936462399996, 18.116010666000022], [-71.72834777799994, 18.09659576400003], [-71.73104858399995, 18.06938171400003], [-71.73767852799995, 18.04993057300004], [-71.74980926499995, 18.03396987900004], [-71.73041534399994, 18.01958274800006], [-71.69875335699999, 17.995971680000025], [-71.68208312999997, 17.98374939000007], [-71.66541290299995, 17.962083817000064], [-71.65458679199998, 17.938472748000038], [-71.66041564899996, 17.910417557000073], [-71.65430450399998, 17.887361526000063], [-71.64569091799996, 17.862083435000045], [-71.62791442899999, 17.83569335900006], [-71.63569641099997, 17.809303284000066], [-71.65625, 17.802917480000076], [-71.66319274899996, 17.78180313100006], [-71.68514251699997, 17.771249771000043], [-71.66486358599997, 17.759025574000077], [-71.64319610599995, 17.757085800000027], [-71.61875152599998, 17.765417099000047], [-71.58819580099998, 17.766527176000068], [-71.55680847199994, 17.766250610000043], [-71.53347015399999, 17.75763893100003], [-71.51041412399996, 17.742361069000026], [-71.49764251699997, 17.72680473300005], [-71.48596954299995, 17.702638626000066], [-71.47736358599997, 17.671806335000042], [-71.45735931399997, 17.64875030500002], [-71.44569396999998, 17.63236045800005], [-71.42986297599998, 17.614860535000048], [-71.40597534199998, 17.617639542000063], [-71.39597320599995, 17.640417099000047], [-71.38819122299998, 17.660417557000073], [-71.37319183299996, 17.674583435000045], [-71.36985778799993, 17.696250916000054], [-71.35819244399994, 17.716249466000022], [-71.35124969499998, 17.746250153000062], [-71.34014129599996, 17.774305344000027], [-71.32902526899994, 17.797637939000026], [-71.31014251699997, 17.821527481000032], [-71.28902435299995, 17.826248169000053], [-71.28763580299994, 17.849304199000073], [-71.26930236799996, 17.863471985000047], [-71.25514221199995, 17.87847137500006], [-71.23735809299995, 17.894861221000042], [-71.22097015399999, 17.908193588000074], [-71.20569610599995, 17.922639847000028], [-71.18430328399995, 17.953750610000043], [-71.17208099399994, 17.97291946400003], [-71.15930175799997, 17.99152755700004], [-71.14458465599995, 18.00763893100003], [-71.13791656499995, 18.027917862000038], [-71.11653137199994, 18.042083740000066], [-71.10569763199999, 18.06458282500006], [-71.08403015099998, 18.086805344000027], [-71.07208251999998, 18.109029770000063], [-71.06569671599993, 18.130416870000033], [-71.05819702099996, 18.154863358000057], [-71.06986236599994, 18.174861908000025], [-71.08180236799996, 18.198196411000026], [-71.08736419699994, 18.223194122000052], [-71.09847259499998, 18.24013900800003], [-71.10958099399994, 18.25986290000003], [-71.10208129899996, 18.28069496200004], [-71.08403015099998, 18.299863815000037], [-71.06124877899998, 18.315416336000055], [-71.03569793699995, 18.312915802000077], [-71.01235961899994, 18.305694580000022], [-70.99346923799999, 18.294305801000064], [-70.98069763199999, 18.278749466000022], [-70.97374725299994, 18.25986290000003], [-70.95708465599995, 18.247638702000074], [-70.93624877899998, 18.25347137500006], [-70.91486358599997, 18.26291656500007], [-70.89902496299999, 18.27930641200004], [-70.88291931199996, 18.293472290000068], [-70.86763763399995, 18.310693741000023], [-70.86013793899997, 18.33208274800006], [-70.84236144999994, 18.348194122000052], [-70.82402801499995, 18.338752747000058], [-70.80930328399995, 18.352916718000074], [-70.78402709999995, 18.344861984000033], [-70.75485992399996, 18.349027634000038], [-70.72569274899996, 18.355417252000052], [-70.71125030499996, 18.369304657000043], [-70.70597076399997, 18.392639160000044], [-70.70541381799995, 18.413473129000067], [-70.68846893299997, 18.429582596000046], [-70.66569518999995, 18.431804657000043], [-70.64013671899994, 18.427360535000048], [-70.62180328399995, 18.419305801000064], [-70.60152435299995, 18.419584274000044], [-70.58152770999999, 18.406805038000073], [-70.57847595199996, 18.381805420000035], [-70.57013702399996, 18.35208320600003], [-70.57485961899994, 18.332639694000022], [-70.57236480699999, 18.311527252000076], [-70.58902740499997, 18.294027328000027], [-70.58791351299993, 18.272361755000077], [-70.57096862799995, 18.25930595400007], [-70.55041503899997, 18.250972748000038], [-70.53319549599996, 18.230140686000027], [-70.50624847399996, 18.224304199000073], [-70.52402496299999, 18.212360382000043], [-70.54875183099995, 18.213472366000076], [-70.52791595499997, 18.207361221000042], [-70.50541686999998, 18.194026947000054], [-70.48014068599997, 18.20264053300002], [-70.45791625999993, 18.210695267000062], [-70.42986297599998, 18.22569465600003], [-70.41014099099993, 18.230972290000068], [-70.38402557399996, 18.236803055000053], [-70.35541534399994, 18.23125267000006], [-70.33264160199997, 18.225973129000067], [-70.30930328399995, 18.22791862500003], [-70.28208160399998, 18.23763847400005], [-70.25291442899999, 18.229858398000033], [-70.21680450399998, 18.233472824000046], [-70.18902587899998, 18.228195190000065], [-70.16902923599997, 18.236803055000053], [-70.14902496299999, 18.235137939000026], [-70.13486480699999, 18.26291656500007], [-70.11736297599998, 18.280136108000022], [-70.10208129899996, 18.305139542000063], [-70.08235931399997, 18.315416336000055], [-70.07263946499995, 18.332916260000047], [-70.06430816699998, 18.353473663000045], [-70.05513763399995, 18.371250153000062], [-70.03624725299994, 18.38958358800005], [-70.02458190899995, 18.409585953000033], [-70.00791931199996, 18.42374992400005], [-69.98236083999996, 18.42569541900002], [-69.95375060999999, 18.431804657000043], [-69.92819213899998, 18.440418243000067], [-69.90319824199997, 18.460138321000045], [-69.88153076199995, 18.467361450000055], [-69.85763549799998, 18.468748093000045], [-69.83097076399997, 18.468748093000045], [-69.80347442599998, 18.463750839000056], [-69.76486206099997, 18.46319580100004], [-69.74319457999997, 18.46291732800006], [-69.72125244099993, 18.457916260000047], [-69.69930267299998, 18.454305649000048], [-69.68041992199994, 18.427360535000048], [-69.66930389399994, 18.410139084000036], [-69.64763641399998, 18.40402984600007], [-69.62652587899998, 18.406528473000037], [-69.63291931199996, 18.438749313000073], [-69.61180877699996, 18.446527481000032], [-69.59152984599996, 18.446252823000066], [-69.57430267299998, 18.433750153000062], [-69.54846954299995, 18.409585953000033], [-69.51264190699999, 18.403472900000054], [-69.48263549799998, 18.411249161000057], [-69.45735931399997, 18.417640686000027], [-69.43347167999997, 18.424306870000066], [-69.40125274699994, 18.427360535000048], [-69.37902831999997, 18.426250458000027], [-69.35791778599997, 18.423194885000044], [-69.33597564699994, 18.425971985000047], [-69.31680297899999, 18.435417175000055], [-69.29597473099994, 18.433473587000037], [-69.27569580099998, 18.438194275000058], [-69.25569152799994, 18.44097137500006], [-69.23458099399994, 18.442638397000053], [-69.20819091799996, 18.452638626000066], [-69.19319152799994, 18.432916641000077], [-69.17763519299996, 18.417640686000027], [-69.15541839599996, 18.409585953000033], [-69.11902618399995, 18.404581070000063], [-69.08513641399998, 18.392639160000044], [-69.05319213899998, 18.39208412200003], [-69.02291870099998, 18.396249771000043], [-68.99903106699998, 18.40180587800006], [-68.97902679399994, 18.40041732800006], [-68.96041870099998, 18.413473129000067], [-68.93208312999997, 18.404581070000063], [-68.91236114499998, 18.40069389300004], [-68.88541412399996, 18.39319419900005], [-68.86653137199994, 18.38263893100003], [-68.84764099099993, 18.37486076400006], [-68.83652496299999, 18.35180473300005], [-68.81402587899998, 18.33597183200004], [-68.80152893099995, 18.309030533000055], [-68.78347015399999, 18.286527634000038], [-68.76652526899994, 18.246805191000078], [-68.75180816699998, 18.218469620000064], [-68.73014068599997, 18.21680641200004], [-68.70597076399997, 18.20930481000005], [-68.68319702099996, 18.211526871000046], [-68.66069793699995, 18.217361450000055], [-68.64013671899994, 18.215694427000074], [-68.64069366499996, 18.250139236000052], [-68.63291931199996, 18.279582977000075], [-68.61569213899998, 18.302360535000048], [-68.60346984899996, 18.32569503800005], [-68.60791778599997, 18.350141525000026], [-68.61208343499999, 18.37013816800004], [-68.59458160399998, 18.38097381600005], [-68.57402801499995, 18.36624908400006], [-68.52513885499997, 18.34791946400003], [-68.48958587599998, 18.337083817000064], [-68.46736144999994, 18.34319305400004], [-68.45041656499995, 18.361526489000028], [-68.44791412399996, 18.38930511500007], [-68.44902801499995, 18.409585953000033], [-68.43930816699998, 18.43125152600004], [-68.42263793899997, 18.45013809200003], [-68.40125274699994, 18.463472366000076], [-68.39180755599995, 18.484859467000035], [-68.37652587899998, 18.50347137500006], [-68.36430358899997, 18.520416260000047], [-68.35375213599997, 18.539581299000076], [-68.34347534199998, 18.557916641000077], [-68.32763671899994, 18.584861755000077], [-68.32291412399996, 18.604858398000033], [-68.34375, 18.642360687000064], [-68.36736297599998, 18.657360077000078], [-68.39152526899994, 18.661806107000075], [-68.41097259499998, 18.677085876000035], [-68.43125152599998, 18.696527481000032], [-68.44680786099997, 18.713470459000064], [-68.46541595499997, 18.734306335000042], [-68.48569488499999, 18.740417480000076], [-68.50708007799994, 18.759027481000032], [-68.52041625999993, 18.77541732800006], [-68.54235839799998, 18.77902793900006], [-68.56263732899998, 18.79319381700003], [-68.57680511499996, 18.807916641000077], [-68.59680175799997, 18.82680511500007], [-68.61708068799999, 18.841249466000022], [-68.64180755599995, 18.870971680000025], [-68.66486358599997, 18.897361755000077], [-68.68069457999997, 18.909860611000056], [-68.69930267299998, 18.929306030000077], [-68.72875213599997, 18.947082520000038], [-68.74652862499994, 18.960138321000045], [-68.76708221399997, 18.965694427000074], [-68.79402923599997, 18.98069381700003], [-68.82736206099997, 18.987918854000043], [-68.85013580299994, 18.996528625000053], [-68.91819763199999, 19.027360916000077], [-68.93985748299997, 19.031248093000045], [-68.96930694599996, 19.031248093000045], [-68.98402404799998, 19.01430511500007], [-69.00375366199995, 19.019306183000026], [-69.00430297899999, 18.993749619000027], [-69.02541351299993, 18.985137939000026], [-69.05930328399995, 18.985696793000045], [-69.08347320599995, 18.996250153000062], [-69.09930419899996, 19.01069259600007], [-69.12152862499994, 19.019306183000026], [-69.13402557399996, 19.04125022900007], [-69.15513610799997, 19.037361145000034], [-69.13569641099997, 19.007917404000068], [-69.15847015399999, 19.01124954200003], [-69.18514251699997, 19.006805420000035], [-69.20569610599995, 19.009027481000032], [-69.22208404499997, 19.024585724000076], [-69.24236297599998, 19.024303436000025], [-69.26180267299998, 19.015972137000063], [-69.27902984599996, 19.027639389000058], [-69.29902648899997, 19.03791618300005], [-69.32430267299998, 19.047916412000063], [-69.34764099099993, 19.049581528000033], [-69.37902831999997, 19.058195114000057], [-69.38513946499995, 19.07958602900004], [-69.40235900899995, 19.097917557000073], [-69.43514251699997, 19.099582672000054], [-69.47402954099994, 19.094028473000037], [-69.45430755599995, 19.098472595000032], [-69.44235992399996, 19.075971603000028], [-69.46347045899995, 19.077085495000063], [-69.48374938999996, 19.07958602900004], [-69.50125122099996, 19.09014129600007], [-69.52124786399997, 19.082361221000042], [-69.54319763199999, 19.083471298000063], [-69.56375122099996, 19.09014129600007], [-69.58430480999994, 19.082639694000022], [-69.60569763199999, 19.079305649000048], [-69.62680816699998, 19.082361221000042], [-69.63153076199995, 19.103473663000045], [-69.64013671899994, 19.13597297700005], [-69.63153076199995, 19.160694122000052], [-69.62513732899998, 19.19097137500006], [-69.62403106699998, 19.214307785000074], [-69.60485839799998, 19.224584579000066], [-69.58152770999999, 19.218748093000045], [-69.55458068799999, 19.211526871000046], [-69.53263854999994, 19.210973740000043], [-69.51264190699999, 19.207639694000022], [-69.49263763399995, 19.208471298000063], [-69.47180175799997, 19.20735931400003], [-69.45069122299998, 19.202917099000047], [-69.43208312999997, 19.18986129800004], [-69.40708160399998, 19.183750153000062], [-69.38735961899994, 19.194026947000054], [-69.34930419899996, 19.19347190900004], [-69.32569122299998, 19.200971603000028], [-69.30374908399995, 19.194305420000035], [-69.28347015399999, 19.18958282500006], [-69.25708007799994, 19.183750153000062], [-69.23402404799998, 19.181249619000027], [-69.21819305399998, 19.198474884000063], [-69.21069335899995, 19.22152710000006], [-69.19680786099997, 19.23819541900008], [-69.17763519299996, 19.255418777000045], [-69.16041564899996, 19.26958274800006], [-69.15013885499997, 19.28819465600003], [-69.16291809099994, 19.305139542000063], [-69.18430328399995, 19.29624939000007], [-69.20430755599995, 19.295972824000046], [-69.22652435299995, 19.28819465600003], [-69.24764251699997, 19.28819465600003], [-69.24485778799993, 19.312915802000077], [-69.22958373999995, 19.332914352000046], [-69.21402740499997, 19.354583740000066], [-69.23874664299996, 19.363750458000027], [-69.25096893299997, 19.34180641200004], [-69.27569580099998, 19.334028244000024], [-69.29819488499999, 19.32069587700005], [-69.31819152799994, 19.309860229000037], [-69.32485961899994, 19.28763961800007], [-69.34569549599996, 19.289581299000076], [-69.36319732699997, 19.301250458000027], [-69.38625335699999, 19.312084198000036], [-69.40819549599996, 19.31736373900003], [-69.43486022899998, 19.319026947000054], [-69.45430755599995, 19.32680511500007], [-69.47736358599997, 19.324029922000022], [-69.49847412099996, 19.32541656500007], [-69.51902770999999, 19.324861526000063], [-69.54680633499999, 19.32736015300003], [-69.56402587899998, 19.314306259000034], [-69.58013915999999, 19.301805496000043], [-69.61042022699996, 19.29624939000007], [-69.63041686999998, 19.29513931300005], [-69.65458679199998, 19.294027328000027], [-69.67958068799999, 19.282361984000033], [-69.70069122299998, 19.278474808000055], [-69.72819518999995, 19.278749466000022], [-69.76319122299998, 19.29180526700003], [-69.79763793899997, 19.319862366000052], [-69.81430816699998, 19.34152793900006], [-69.82875060999999, 19.360696793000045], [-69.84291839599996, 19.375417709000033], [-69.86125183099995, 19.415695190000065], [-69.87264251699997, 19.44097137500006], [-69.87291717499994, 19.461526871000046], [-69.87124633799993, 19.49569702100007], [-69.87680816699998, 19.516805649000048], [-69.89291381799995, 19.52930641200004], [-69.90458679199998, 19.54680442800003], [-69.89458465599995, 19.56486129800004], [-69.89291381799995, 19.587360382000043], [-69.88402557399996, 19.612085342000057], [-69.89485931399997, 19.635417938000046], [-69.91124725299994, 19.649583817000064], [-69.93569183299996, 19.658195496000076], [-69.94652557399996, 19.675418854000043], [-69.96624755899995, 19.682085037000036], [-69.98847198499993, 19.68097305300006], [-70.00930786099997, 19.67763900800003], [-70.02930450399998, 19.678472519000024], [-70.04930877699996, 19.67347145100007], [-70.06791686999998, 19.665416718000074], [-70.08235931399997, 19.64458274800006], [-70.10541534399994, 19.62874984700005], [-70.13180541999998, 19.622360229000037], [-70.15763854999994, 19.62013816800004], [-70.18264007599998, 19.628196716000048], [-70.20291900599995, 19.63236045800005], [-70.22791290299995, 19.640415192000034], [-70.25180816699998, 19.640972137000063], [-70.30347442599998, 19.653474808000055], [-70.33180236799996, 19.675970078000034], [-70.35541534399994, 19.692361832000074], [-70.36791992199994, 19.708749771000043], [-70.38513946499995, 19.731805801000064], [-70.39653015099998, 19.74847221400006], [-70.42069244399994, 19.762918472000024], [-70.43875122099996, 19.778194427000074], [-70.45986175499996, 19.784860611000056], [-70.48402404799998, 19.785139084000036], [-70.51097106899994, 19.779861450000055], [-70.51985931399997, 19.761526108000055], [-70.54125213599997, 19.756805420000035], [-70.56180572499994, 19.762361526000063], [-70.58235931399997, 19.757083893000072], [-70.60680389399994, 19.76069450400007], [-70.63153076199995, 19.762918472000024], [-70.65069580099998, 19.772916794000025], [-70.66735839799998, 19.786249161000057], [-70.68624877899998, 19.799303055000053], [-70.70625305199997, 19.802360535000048], [-70.72097015399999, 19.817361832000074], [-70.73764038099995, 19.830137253000032], [-70.75736236599994, 19.83791732800006], [-70.77625274699994, 19.82930755600006], [-70.78597259499998, 19.849861145000034], [-70.80152893099995, 19.86513900800003], [-70.81153106699998, 19.88263893100003], [-70.83125305199997, 19.88819503800005], [-70.84597015399999, 19.90430641200004], [-70.86624908399995, 19.90180587800006], [-70.88597106899994, 19.905138016000024], [-70.90680694599996, 19.904861450000055], [-70.92569732699997, 19.91458320600003], [-70.93180847199994, 19.893749237000065], [-70.95180511499996, 19.897918701000037], [-70.96791839599996, 19.91680526700003], [-70.98986053499993, 19.930694580000022], [-71.01291656499995, 19.93236160300006], [-71.03514099099993, 19.928194046000044], [-71.06153106699998, 19.91819381700003], [-71.07930755599995, 19.90041732800006], [-71.08430480999994, 19.877639771000077], [-71.10541534399994, 19.86652755700004], [-71.12513732899998, 19.863193512000066], [-71.14624786399997, 19.85874748200007], [-71.16874694799998, 19.862361908000025], [-71.14847564699994, 19.85541534400005], [-71.16986083999996, 19.845972061000055], [-71.18985748299997, 19.854860306000035], [-71.21180725099998, 19.870136261000027], [-71.21375274699994, 19.840139389000058], [-71.23347473099994, 19.832361221000042], [-71.25958251999998, 19.830417633000025], [-71.28041839599996, 19.834030151000036], [-71.29736328099995, 19.84541893000005], [-71.31791686999998, 19.849306107000075], [-71.34208679199998, 19.85041618300005], [-71.36340331999997, 19.855714798000065], [-71.38368987999996, 19.862380981000058], [-71.40460205099998, 19.870117187000062], [-71.42926025399998, 19.881000519000054], [-71.45014190699999, 19.890972137000063], [-71.47070312499994, 19.90209960900006], [-71.49458312999997, 19.907361984000033], [-71.53402709999995, 19.909585953000033], [-71.55513763399995, 19.907083511000053], [-71.57930755599995, 19.90902519200006], [-71.59869384799998, 19.903194427000074], [-71.61902618399995, 19.89680481000005], [-71.63819122299998, 19.884025574000077], [-71.65430450399998, 19.899305344000027], [-71.65347289999994, 19.871889114000055], [-71.67181396499996, 19.845951080000077], [-71.69125366199995, 19.839860916000077], [-71.71791839599996, 19.81847190900004], [-71.74153137199994, 19.815139771000077], [-71.77764129599996, 19.78041648900006], [-71.77847289999994, 19.759582520000038], [-71.76319122299998, 19.77708244300004], [-71.74680328399995, 19.79513931300005], [-71.74764251699997, 19.771249771000043], [-71.73847198499993, 19.744028091000075], [-71.72680664099994, 19.723747253000056], [-71.73263549799998, 19.70236015300003], [-71.70990753199999, 19.69513893100003], [-71.72958373999995, 19.699029922000022], [-71.75939941399997, 19.702087402000075], [-71.75548553499993, 19.680601120000063], [-71.73663330099998, 19.66858482400005], [-71.73243713399995, 19.64630317700005], [-71.74198913599997, 19.588109970000062], [-71.71762847899998, 19.565998077000074], [-71.71091461199995, 19.538024902000075], [-71.69792175299995, 19.51744270300003], [-71.68847656199995, 19.49686050400004], [-71.68843078599997, 19.47159194900007], [-71.67780303999996, 19.45023345900006], [-71.68443298299997, 19.426897049000047], [-71.69380950899995, 19.40472030600006], [-71.69102477999996, 19.384899139000026], [-71.69177246099997, 19.36429786700006], [-71.71179962199994, 19.376699448000068], [-71.73035430899995, 19.362874985000076], [-71.74939727799995, 19.34397506700003], [-71.78311920199997, 19.335359573000062], [-71.76506042499994, 19.324121475000027], [-71.75678253199999, 19.30547905000003], [-71.75204467799995, 19.284107208000023], [-71.73515319799998, 19.272867203000033], [-71.71514129599996, 19.270957947000056], [-71.69745635999993, 19.24961280800005], [-71.67743682899999, 19.24148750300003], [-71.65388488799994, 19.233757019000052], [-71.63230133099995, 19.230300903000057], [-71.62285613999995, 19.21243667600004], [-71.63301849399994, 19.19492340100004], [-71.62945556599993, 19.174329758000056], [-71.64328765899995, 19.158195496000076], [-71.64429473899997, 19.135816574000046], [-71.65429687499994, 19.115505219000056], [-71.67916870099998, 19.11359405500008], [-71.70117950399998, 19.10739326500004], [-71.70813751199995, 19.082828522000057], [-71.71398925799997, 19.06299591100003], [-71.73416137699996, 19.049943924000047], [-71.75435638399995, 19.04348182700005], [-71.76472473099994, 19.026206970000032], [-71.78646850599995, 19.011547089000032], [-71.80535125699998, 19.001544952000074], [-71.82614898699995, 18.99345016500007], [-71.84841918899997, 18.996658325000055], [-71.85836029099994, 18.976470947000053], [-71.86244201699998, 18.97875785800005]]]]}}]}