{"type": "FeatureCollection", "features": [{"type": "Feature", "properties": {"code": "DZA", "name": "Algeria", "tier": "country"}, "geometry": {"type": "Polygon", "coordinates": [[[-8.668909, 28.714092], [-8.668908, 28.30392], [-8.667807, 28.000104], [-8.6679928, 27.6666834], [-8.668117, 27.314942], [-8.370951, 27.139179], [-8.101738, 26.980081], [-7.744899, 26.768563], [-7.395568, 26.560479], [-7.008001, 26.327648], [-6.74628, 26.17067], [-6.433855, 25.98058], [-6.085299, 25.767571], [-5.72258, 25.546713], [-5.4621267, 25.3875096], [-5.1461925, 25.1937573], [-4.8333344, 25.0000001], [-4.4806718, 24.7717272], [-4.1932242, 24.5856668], [-3.905007, 24.3991084], [-3.5414211, 24.163765], [-3.2656044, 23.9852332], [-2.9867985, 23.8047665], [-2.701679, 23.6202132], [-2.4047018, 23.4279845], [-2.0538614, 23.2008911], [-1.7570025, 23.0087389], [-1.4903898, 22.8361647], [-1.2106961, 22.6551234], [-0.9231302, 22.4689865], [-0.6201746, 22.2728882], [-0.2580485, 22.0384897], [-0.0213676, 21.8852937], [0.3395757, 21.6516569], [0.6025383, 21.4814454], [0.9096964, 21.2826268], [1.1665556, 21.1163645], [1.1731006, 21.0656657], [1.1917794, 21.0033], [1.192735, 20.952344], [1.177018, 20.837509], [1.162797, 20.751117], [1.22973, 20.723745], [1.277631, 20.740211], [1.335369, 20.72182], [1.360068, 20.672209], [1.415025, 20.656063], [1.474474, 20.638208], [1.521733, 20.620138], [1.5722, 20.604421], [1.613793, 20.575979], [1.653354, 20.545079], [1.66875, 20.493008], [1.672706, 20.438585], [1.695588, 20.39047], [1.736325, 20.354009], [1.777169, 20.321612], [1.825818, 20.289857], [1.881418, 20.297342], [1.89628, 20.248799], [1.946854, 20.259812], [1.999862, 20.242941], [2.050736, 20.267736], [2.100378, 20.246744], [2.152716, 20.25853], [2.19157, 20.292689], [2.240759, 20.302122], [2.287992, 20.284427], [2.318219, 20.226767], [2.358472, 20.187114], [2.391153, 20.14819], [2.380645, 20.098619], [2.375423, 20.028382], [2.412825, 20.075615], [2.464296, 20.095802], [2.518039, 20.094535], [2.551442, 20.054571], [2.597288, 20.032897], [2.661332, 20.052698], [2.6844751, 20.1011687], [2.7060724, 20.0527492], [2.7254075, 20.0037177], [2.7733442, 19.9781707], [2.8234504, 19.9646818], [2.8746134, 19.9614862], [2.9289739, 19.9566284], [2.9811778, 19.9488805], [3.035959, 19.914817], [3.096534, 19.892755], [3.144967, 19.858551], [3.199469, 19.841993], [3.254628, 19.834791], [3.243923, 19.770692], [3.229954, 19.713642], [3.243946, 19.660007], [3.233087, 19.606985], [3.265202, 19.530614], [3.257438, 19.47702], [3.226951, 19.435444], [3.198101, 19.39406], [3.184785, 19.333094], [3.200581, 19.277088], [3.161323, 19.228235], [3.122644, 19.185182], [3.120424, 19.132311], [3.170032, 19.106853], [3.209458, 19.07513], [3.254889, 19.043537], [3.294314, 19.009073], [3.344905, 18.978596], [3.810494, 19.058347], [4.204962, 19.134136], [4.266708, 19.1441458], [4.33586, 19.149627], [4.674106, 19.218549], [4.980269, 19.279738], [5.413468, 19.367568], [5.810545, 19.446978], [5.987479, 19.598974], [6.127452, 19.712698], [6.437207, 19.975381], [6.73622, 20.233937], [6.999176, 20.454856], [7.084818, 20.528992], [7.459686, 20.842495], [7.720368, 21.000391], [7.993997, 21.166824], [8.058291, 21.210938], [8.523444, 21.493332], [8.996974, 21.77859], [9.051005, 21.799959], [9.351141, 21.975905], [9.755983, 22.210917], [10.001159, 22.355693], [10.076014, 22.402157], [10.238563, 22.496408], [10.671669, 22.745741], [11.00165, 22.933373], [11.102874, 22.999257], [11.292563, 23.116021], [11.728914, 23.364154], [11.997337, 23.517178], [11.846059, 23.80576], [11.604258, 24.264727], [11.546251, 24.247308], [11.484604, 24.220955], [11.422523, 24.200501], [11.135854, 24.392829], [11.07772, 24.410991], [11.030942, 24.451094], [10.9861, 24.48633], [10.95234, 24.531018], [10.899041, 24.555136], [10.847256, 24.568887], [10.793069, 24.544252], [10.74098, 24.537378], [10.675975, 24.571234], [10.620419, 24.572895], [10.582396, 24.539153], [10.527183, 24.538407], [10.456325, 24.533652], [10.398763, 24.537261], [10.344846, 24.555478], [10.30257, 24.599078], [10.251999, 24.62967], [10.207291, 24.669605], [10.180784, 24.719678], [10.153131, 24.784131], [10.105803, 24.845892], [10.083973, 24.903872], [10.04187, 24.958242], [10.035767, 25.154296], [10.032093, 25.359573], [9.7511884, 25.724909], [9.537615, 26.002676], [9.398983, 26.195638], [9.447158, 26.242844], [9.476826, 26.307814], [9.512373, 26.385101], [9.863299, 26.519911], [9.913332, 26.646871], [9.902106, 26.74318], [9.925362, 26.861947], [9.890124, 26.902168], [9.860289, 26.94651], [9.848193, 26.997903], [9.837392, 27.058003], [9.82819, 27.109506], [9.810193, 27.156258], [9.792251, 27.231198], [9.785262, 27.30648], [9.785656, 27.365488], [9.810369, 27.420031], [9.822877, 27.474748], [9.868199, 27.518404], [9.824029, 27.561776], [9.868702, 27.593743], [9.900664, 27.636771], [9.925168, 27.698416], [9.939498, 27.775133], [9.943406, 27.844514], [9.832934, 28.28595], [9.846558, 28.390223], [9.902313, 28.759132], [9.871652, 29.027662], [9.797081, 29.351996], [9.779948, 29.424757], [9.538688, 29.901201], [9.45384, 30.000375], [9.414854, 30.042656], [9.391316, 30.146357], [9.430238, 30.184225], [9.492153, 30.212129], [9.558453, 30.230236], [9.473817, 30.559038], [9.362838, 30.99601], [9.2288374, 31.5140695], [9.2035257, 31.6040253], [9.09846, 31.999438], [9.065308, 32.087376], [8.800322, 32.236214], [8.5883259, 32.3650509], [8.35683, 32.502602], [8.322605, 32.823472], [8.247183, 32.924407], [8.168964, 33.004969], [8.116149, 33.049835], [8.084984, 33.114228], [7.962332, 33.161527], [7.905653, 33.184487], [7.849147, 33.188869], [7.789623, 33.279991], [7.7492157, 33.3273523], [7.732558, 33.3747001], [7.7365763, 33.424659], [7.6338507, 33.5721128], [7.5964976, 33.6481032], [7.5647997, 33.7272138], [7.5621522, 33.7774447], [7.5472149, 33.8368395], [7.5219807, 33.9050755], [7.5399407, 33.975161], [7.5373663, 34.0471245], [7.5809593, 34.0863525], [7.6193443, 34.1398285], [7.6552051, 34.1974262], [7.7327893, 34.1698269], [7.8160423, 34.2135425], [7.818589, 34.2662074], [7.8451045, 34.3290362], [7.8572772, 34.3777997], [7.889824, 34.4160018], [7.9392855, 34.4343387], [7.9973432, 34.4565887], [8.0429768, 34.4933989], [8.094033, 34.51478], [8.1491148, 34.5336432], [8.177642, 34.5752598], [8.2204802, 34.6056667], [8.2651455, 34.6443014], [8.2406244, 34.6879095], [8.2884657, 34.7172674], [8.281869, 34.7872134], [8.2726228, 34.8404612], [8.2604083, 34.8939879], [8.2803776, 34.9408667], [8.3168937, 34.9938743], [8.343064, 35.0719686], [8.3766185, 35.1101474], [8.416342, 35.1509927], [8.4485285, 35.2096407], [8.4142371, 35.246808], [8.3642043, 35.271034], [8.311548, 35.3150642], [8.3152816, 35.3663672], [8.3291297, 35.4218359], [8.3598785, 35.4636341], [8.3599665, 35.5257413], [8.3533491, 35.5821264], [8.3599066, 35.6394303], [8.3287072, 35.6851413], [8.2800841, 35.7225693], [8.2602893, 35.7717436], [8.2671737, 35.870647], [8.2612102, 35.9205222], [8.3000586, 36.0108156], [8.3141198, 36.0627778], [8.3418802, 36.104379], [8.3195453, 36.1509228], [8.3344155, 36.2012916], [8.3552113, 36.2508756], [8.3809498, 36.2969897], [8.3761936, 36.3490928], [8.3965784, 36.3956206], [8.3658097, 36.439437], [8.3153325, 36.4381516], [8.2630872, 36.4385751], [8.2089439, 36.4480667], [8.1597282, 36.4777293], [8.2089316, 36.5138769], [8.2556073, 36.5353268], [8.3106129, 36.5496707], [8.3558502, 36.584762], [8.4036936, 36.6165378], [8.4519615, 36.6386713], [8.4839908, 36.683125], [8.4658461, 36.7317974], [8.4841468, 36.7794849], [8.5453917, 36.7734215], [8.5995956, 36.7987198], [8.6496075, 36.8095807], [8.6311365, 36.8560451], [8.636625, 36.9094945], [8.5926126, 36.9332938], [8.5436031, 36.9196778], [8.4918492, 36.907393], [8.4401759, 36.9002214], [8.3865361, 36.91486], [8.3356286, 36.9189538], [8.285434, 36.9146799], [8.2412643, 36.9487037], [8.1797121, 36.9277419], [8.1287386, 36.907854], [8.0763431, 36.8884605], [7.9937384, 36.8588739], [7.9133862, 36.8437798], [7.848165, 36.8424206], [7.7972674, 36.8548249], [7.7758222, 36.9001636], [7.7823758, 36.9513184], [7.7303287, 36.9538451], [7.6801416, 36.9684544], [7.6299252, 36.9659844], [7.5629106, 36.9884151], [7.5180768, 37.0379567], [7.467946, 37.0450264], [7.4129612, 37.0385231], [7.3882967, 37.0835304], [7.3380541, 37.0644696], [7.2842482, 37.076676], [7.2317684, 37.0868694], [7.1774863, 37.0807819], [7.2213759, 37.0443022], [7.2519385, 37.0008694], [7.2014795, 36.9431584], [7.1587088, 36.916445], [7.1046152, 36.918336], [7.0506992, 36.9072356], [6.9703692, 36.8856148], [6.9188973, 36.8851819], [6.8808378, 36.9255839], [6.8404655, 36.9556347], [6.7902353, 36.954967], [6.7188366, 36.9451401], [6.6670549, 36.9484502], [6.6222331, 36.9716899], [6.5663962, 36.9871616], [6.5408938, 37.0321658], [6.5101105, 37.0752744], [6.4565995, 37.0842829], [6.4057267, 37.0813825], [6.3560027, 37.0732211], [6.3144784, 37.0437963], [6.2628847, 37.0243646], [6.2455169, 36.9731104], [6.2368034, 36.9201862], [6.1892704, 36.9026519], [6.0927237, 36.8752698], [6.0466081, 36.8557946], [5.9774268, 36.835206], [5.9111221, 36.8226824], [5.8030323, 36.8067438], [5.7555779, 36.8231319], [5.7004179, 36.8151806], [5.6541077, 36.7914767], [5.6056888, 36.7787415], [5.5633816, 36.7501907], [5.538751, 36.7021707], [5.4934007, 36.6788285], [5.4450058, 36.6623044], [5.383877, 36.6484058], [5.2933389, 36.6379489], [5.2424955, 36.6423054], [5.1786053, 36.6617751], [5.09286, 36.7011168], [5.0978059, 36.7518224], [5.0482502, 36.7821874], [5.0021162, 36.8092761], [4.9523072, 36.8231506], [4.8976836, 36.8517131], [4.836464, 36.8710354], [4.788758, 36.8912874], [4.732037, 36.8829676], [4.6812778, 36.8820966], [4.6282614, 36.8838479], [4.5691545, 36.8826337], [4.5050165, 36.8868642], [4.4397604, 36.9106301], [4.3857597, 36.8899927], [4.3328089, 36.8980487], [4.2729505, 36.9017078], [4.2116676, 36.8924116], [4.1630648, 36.9048413], [4.1075276, 36.8900089], [4.0558943, 36.8993723], [4.0033726, 36.9017816], [3.9458566, 36.898563], [3.8984285, 36.9202911], [3.8441733, 36.9126083], [3.7905183, 36.8996197], [3.7345446, 36.8866834], [3.6952775, 36.8518492], [3.6439952, 36.8270209], [3.5747948, 36.8055215], [3.5224353, 36.7862978], [3.4758493, 36.7671979], [3.4098653, 36.7717077], [3.3528727, 36.783758], [3.3011514, 36.792703], [3.2553012, 36.8132052], [3.2238818, 36.7687334], [3.1793456, 36.745934], [3.1255875, 36.7426012], [3.0757409, 36.755344], [3.0493067, 36.7997236], [2.9975024, 36.8153146], [2.9475165, 36.8103017], [2.897227, 36.804078], [2.8684935, 36.7627748], [2.8318248, 36.7255564], [2.7844867, 36.6867219], [2.7080026, 36.6583095], [2.6657284, 36.6305697], [2.6166967, 36.6078528], [2.5679578, 36.595938], [2.5161697, 36.5907825], [2.465634, 36.5932981], [2.4079959, 36.6052578], [2.3694178, 36.6406046], [2.3189574, 36.6399052], [2.2681617, 36.6257057], [2.2062075, 36.6106631], [2.1559826, 36.5956108], [2.1029214, 36.5860488], [2.052608, 36.5761156], [1.9926559, 36.5660554], [1.9382142, 36.5706556], [1.886038, 36.5700192], [1.8356393, 36.5666502], [1.7796025, 36.5576018], [1.7282758, 36.555723], [1.6776298, 36.5527479], [1.6241197, 36.5421808], [1.5641914, 36.5368748], [1.5108355, 36.5289707], [1.459781, 36.5421791], [1.4089137, 36.5395554], [1.3583052, 36.5531562], [1.3188746, 36.5221238], [1.2675052, 36.507791], [1.2157973, 36.5097354], [1.1604606, 36.5040266], [1.1039441, 36.4902826], [1.0453414, 36.4801976], [0.9984036, 36.4614505], [0.9434349, 36.4501628], [0.9161681, 36.4053794], [0.8697053, 36.3722264], [0.8146463, 36.3656408], [0.7624848, 36.3368543], [0.7042585, 36.3307478], [0.6481924, 36.3245604], [0.6059855, 36.2932284], [0.5571422, 36.2757748], [0.4927128, 36.2458665], [0.4437305, 36.2198282], [0.3827559, 36.2110706], [0.3315816, 36.1696005], [0.2804732, 36.1318643], [0.231969, 36.1195622], [0.1807895, 36.0783247], [0.1348046, 36.0415952], [0.1137463, 35.9952602], [0.0820457, 35.939435], [0.0476577, 35.8992717], [0.007847, 35.8462526], [-0.0430863, 35.8166362], [-0.0937482, 35.7963007], [-0.1504362, 35.7909194], [-0.2092941, 35.802849], [-0.2590228, 35.814135], [-0.3028662, 35.8383964], [-0.3273602, 35.8905212], [-0.3762407, 35.9065908], [-0.4209051, 35.8803195], [-0.4807542, 35.8795804], [-0.486175, 35.8298407], [-0.5104125, 35.7847859], [-0.5603123, 35.7720405], [-0.5935184, 35.7322641], [-0.6386867, 35.7090325], [-0.6951848, 35.7187985], [-0.759289, 35.744452], [-0.8069165, 35.7702251], [-0.843086, 35.7320131], [-0.8926975, 35.7064001], [-0.9389501, 35.7275871], [-0.9744095, 35.6909924], [-1.0254905, 35.6762185], [-1.0615437, 35.6388567], [-1.1104251, 35.6171668], [-1.1508017, 35.5854206], [-1.1986879, 35.5679039], [-1.2131168, 35.5194141], [-1.2269167, 35.4712011], [-1.2449878, 35.4200778], [-1.2704404, 35.3747094], [-1.3175981, 35.3477151], [-1.3609855, 35.3177022], [-1.4177649, 35.2996075], [-1.4699585, 35.2987312], [-1.5166844, 35.2771971], [-1.5706365, 35.2519547], [-1.611599, 35.2195406], [-1.6503508, 35.1863165], [-1.6999363, 35.1781222], [-1.7396428, 35.1402534], [-1.7874853, 35.1205695], [-1.8391233, 35.1105546], [-1.8859744, 35.0906029], [-1.9383573, 35.0838534], [-1.998628, 35.0737746], [-2.0516964, 35.0711363], [-2.1106631, 35.0815399], [-2.1582395, 35.101434], [-2.2117611, 35.0852573], [-2.1978273, 35.036668], [-2.1570955, 35.0057811], [-2.1134947, 34.9753948], [-2.0583038, 34.9374726], [-2.0018317, 34.9294442], [-1.9716999, 34.8826173], [-1.924214, 34.8566345], [-1.8885832, 34.8062287], [-1.8221944, 34.7820639], [-1.7620603, 34.7545102], [-1.7752214, 34.6989636], [-1.8100394, 34.662853], [-1.8437355, 34.6230102], [-1.8044077, 34.5866301], [-1.767743, 34.541541], [-1.7316018, 34.5041845], [-1.7420211, 34.433628], [-1.7819683, 34.3941993], [-1.7341934, 34.3453377], [-1.7108938, 34.2885002], [-1.7067181, 34.230231], [-1.6496444, 34.1121599], [-1.6589638, 34.0557864], [-1.6987466, 33.8696876], [-1.67132, 33.773102], [-1.7301517, 33.7341771], [-1.7115029, 33.687023], [-1.6582448, 33.6817136], [-1.631342, 33.631416], [-1.5964554, 33.5862128], [-1.5881567, 33.5290641], [-1.6217658, 33.4877123], [-1.6279322, 33.4317861], [-1.6635493, 33.3781218], [-1.6616986, 33.3184223], [-1.6553299, 33.2559034], [-1.6067272, 33.2129216], [-1.5803547, 33.1695227], [-1.539161, 33.11767], [-1.492159, 33.08604], [-1.461762, 33.042215], [-1.485929, 32.975354], [-1.537509, 32.958623], [-1.498276, 32.898751], [-1.3989913, 32.7626626], [-1.3564089, 32.7318035], [-1.271116, 32.695935], [-1.1287591, 32.6015541], [-1.044903, 32.547377], [-0.999437, 32.517987], [-1.046988, 32.476908], [-1.088935, 32.44001], [-1.155039, 32.41784], [-1.2058238, 32.3949235], [-1.2212102, 32.3442612], [-1.2348334, 32.2895524], [-1.2425389, 32.2237096], [-1.2774677, 32.1848383], [-1.228378, 32.174683], [-1.1724774, 32.1514607], [-1.1854808, 32.0994774], [-1.2325609, 32.0778383], [-1.3382, 32.083187], [-1.409948, 32.08731], [-1.483352, 32.095106], [-1.565581, 32.093381], [-1.626964, 32.103523], [-1.6767247, 32.1119644], [-1.7265237, 32.121055], [-1.7796572, 32.1324197], [-1.829958, 32.146374], [-1.8831432, 32.1518132], [-1.944496, 32.158522], [-1.997228, 32.175596], [-2.087724, 32.160413], [-2.150235, 32.144197], [-2.23161, 32.158977], [-2.286421, 32.162815], [-2.3510631, 32.1549119], [-2.4064883, 32.1576759], [-2.4752476, 32.1509761], [-2.536342, 32.146315], [-2.586895, 32.119502], [-2.649069, 32.117034], [-2.728558, 32.110846], [-2.79877, 32.112566], [-2.873435, 32.111359], [-2.9156034, 32.0750567], [-2.9281955, 32.0231788], [-2.8994894, 31.9777353], [-2.8754997, 31.9276237], [-2.8423219, 31.8836179], [-2.8441458, 31.8320658], [-3.00062, 31.758667], [-3.2517668, 31.7136199], [-3.318531, 31.699824], [-3.664666, 31.633535], [-3.6648402, 31.4014639], [-3.703541, 31.366017], [-3.752649, 31.353414], [-3.774934, 31.305277], [-3.77653, 31.25183], [-3.767648, 31.200303], [-3.776805, 31.147692], [-3.733928, 31.114949], [-3.713868, 31.165705], [-3.673274, 31.131552], [-3.662593, 31.082467], [-3.64464, 31.130091], [-3.605322, 31.095477], [-3.580764, 31.050226], [-3.541278, 31.018637], [-3.54572, 30.966659], [-3.575459, 30.92234], [-3.606338, 30.879009], [-3.6584473, 30.8513951], [-3.6446282, 30.7676099], [-3.6362908, 30.7156575], [-3.6637566, 30.6699081], [-3.7158086, 30.6491214], [-3.7633454, 30.6265725], [-3.8167992, 30.590355], [-3.8655853, 30.6052067], [-3.9200106, 30.5991249], [-3.995902, 30.592865], [-4.146572, 30.585303], [-4.296337, 30.536312], [-4.607478, 30.282621], [-4.936618, 30.140473], [-5.114543, 30.009503], [-5.186331, 29.970197], [-5.2393808, 29.9328701], [-5.2821493, 29.8853601], [-5.3170719, 29.8241888], [-5.3289271, 29.7690713], [-5.3745958, 29.7121149], [-5.444968, 29.633543], [-5.499998, 29.563009], [-5.54208, 29.512175], [-5.592187, 29.490333], [-5.650809, 29.504543], [-5.6858283, 29.5411868], [-5.742935, 29.515772], [-5.724356, 29.573966], [-5.772841, 29.608426], [-5.8619945, 29.6047091], [-5.9290341, 29.5942034], [-5.998108, 29.57846], [-6.048926, 29.56565], [-6.103861, 29.570347], [-6.158247, 29.581509], [-6.213434, 29.575885], [-6.27574, 29.567765], [-6.345473, 29.566635], [-6.3964002, 29.554103], [-6.4485081, 29.5656416], [-6.5130527, 29.5370448], [-6.5646713, 29.5229823], [-6.61874, 29.529754], [-6.680759, 29.517984], [-6.746554, 29.475616], [-6.812709, 29.464544], [-6.862761, 29.484756], [-6.915404, 29.497439], [-6.9718, 29.495179], [-7.022626, 29.493585], [-7.080967, 29.514287], [-7.135857, 29.520502], [-7.187451, 29.505025], [-7.239821, 29.485465], [-7.3406848, 29.3961318], [-7.3884084, 29.3774833], [-7.460021, 29.369909], [-7.537664, 29.365651], [-7.59277, 29.377462], [-7.626742, 29.339763], [-7.663893, 29.30246], [-7.748958, 29.273702], [-7.823754, 29.227159], [-7.8731521, 29.2014864], [-7.9295649, 29.1703252], [-7.9577386, 29.123556], [-8.050114, 29.081823], [-8.106417, 29.046045], [-8.152009, 29.016922], [-8.2171164, 28.9852224], [-8.2629275, 28.948212], [-8.3109989, 28.9164214], [-8.3705485, 28.874235], [-8.415135, 28.835475], [-8.463874, 28.795753], [-8.5115828, 28.7732172], [-8.5771, 28.750831], [-8.6257392, 28.7302421], [-8.668909, 28.714092]]]}}]}