{"type": "FeatureCollection", "features": [{"type": "Feature", "properties": {"code": "ECU", "name": "Ecuador", "tier": "country"}, "geometry": {"type": "MultiPolygon", "coordinates": [[[[-80.2309890945661, -3.3666152693865], [-80.28897664381572, -3.35284844114733], [-80.28313617122944, -3.405412694424058], [-80.22890321149947, -3.428774584769144], [-80.23307497763261, -3.373707271812748], [-80.2309890945661, -3.3666152693865]]], [[[-80.0040450169272, -3.328235020962325], [-80.00029042740738, -3.266492882192836], [-80.02073208145941, -3.211008392623], [-80.05410621052397, -3.257314996700131], [-80.07997116054901, -3.306959013683581], [-80.1383758864119, -3.341584672588056], [-80.19552908243503, -3.343253379041357], [-80.19916686250303, -3.411837214268985], [-80.12878082430592, -3.409167283943702], [-80.07162762828284, -3.405829871037383], [-80.03074432017877, -3.373290095199366], [-80.0040450169272, -3.328235020962325]]], [[[-80.4311170595002, -3.191901703733549], [-80.4311170595002, -3.191901703733549]]], [[[-80.09278348869589, -2.938375799777248], [-80.09278348869589, -2.938375799777248]]], [[[-80.06391235732059, -2.926810943175269], [-80.06391235732059, -2.926810943175269]]], [[[-80.11738956657263, -2.883524751177049], [-80.11738956657263, -2.883524751177049]]], [[[-80.04305870631998, -2.890872399431942], [-80.07227842379865, -2.845248630035542], [-80.10235251898126, -2.886771386452494], [-80.05296948768711, -2.909156082298693], [-80.04305870631998, -2.890872399431942]]], [[[-79.92788995881796, -2.791785911029365], [-79.89779399156612, -2.749975263501199], [-79.94225281696299, -2.720125015277063], [-79.99805436075894, -2.689687809570216], [-80.04869759916676, -2.680011982071846], [-80.12080707738875, -2.705472437652588], [-80.1724114907135, -2.723926996060129], [-80.21530125145699, -2.751950584753047], [-80.23443931202769, -2.8066307578124], [-80.25944053959245, -2.861097336445653], [-80.25408999922098, -2.969987774827246], [-80.24896373299657, -3.030306840733317], [-80.19643018391866, -3.039715675199204], [-80.15481131001007, -3.01065615354014], [-80.09577381065998, -2.974836368297701], [-80.12007017661904, -2.913160977786447], [-80.15184234748847, -2.869374120453756], [-80.10858947622074, -2.842941810234606], [-80.05011800209974, -2.850951601210056], [-80.0041952005069, -2.826922228283593], [-79.96094232923912, -2.794082085284117], [-79.92788995881796, -2.791785911029365]]], [[[-79.9023871261029, -2.675610228140556], [-79.9023871261029, -2.675610228140556]]], [[[-80.17360761949885, -2.664974934480426], [-80.17360761949885, -2.664974934480426]]], [[[-80.18317664978423, -2.6535262732462], [-80.18317664978423, -2.6535262732462]]], [[[-79.95293253826418, -2.658983610830774], [-79.95293253826418, -2.658983610830774]]], [[[-79.9948504443692, -2.626410460863781], [-79.9948504443692, -2.626410460863781]]], [[[-79.73026034914528, -2.618934655953296], [-79.724920488495, -2.567405000677638], [-79.77618315073818, -2.542040662588647], [-79.79033378146147, -2.594638289994407], [-79.74868286838898, -2.631750321514176], [-79.73026034914528, -2.618934655953296]]], [[[-79.93931589360585, -2.578084721978371], [-79.97589393906054, -2.539904718328444], [-80.03516639227917, -2.559128216669706], [-79.97989883454824, -2.593837310896788], [-79.93931589360585, -2.578084721978371]]], [[[-79.84501395452094, -2.666341938807022], [-79.83527404869471, -2.616958907512696], [-79.82103798020091, -2.552720383889323], [-79.83278567363163, -2.485972125760156], [-79.86363938846932, -2.540577540770471], [-79.87748030727488, -2.595941215993093], [-79.88892896850922, -2.649596135807485], [-79.84501395452094, -2.666341938807022]]], [[[-79.7917021207532, -2.525587216959764], [-79.81214377480524, -2.442151894298433], [-79.81464683448496, -2.502642503227946], [-79.7917021207532, -2.525587216959764]]], [[[-79.85988012657174, -2.428312310457954], [-79.85885487332689, -2.370898128745523], [-79.84960623468055, -2.29186819112067], [-79.90113588995621, -2.29614007964102], [-79.95481817655644, -2.341195153878175], [-79.99862172095368, -2.377072342622569], [-80.02490384759199, -2.437562951552081], [-80.03533326292467, -2.493047441121917], [-79.98986101207424, -2.468016844323472], [-79.9438547751588, -2.498520798288439], [-79.90193686905366, -2.457937857345996], [-79.9427868030287, -2.506797582296485], [-79.93664596328085, -2.569006958872819], [-79.88565029407016, -2.545244578978725], [-79.87523756580208, -2.491311986410551], [-79.8607345042758, -2.441469727100412], [-79.85988012657174, -2.428312310457954]]], [[[-79.941451837866, -2.306552807909156], [-79.9230293186223, -2.252353222308329], [-79.97322400873543, -2.267571825161781], [-79.941451837866, -2.306552807909156]]], [[[-79.83544492423493, -2.245304606249931], [-79.85253247831594, -2.193358441843543], [-79.85082372290788, -2.249063868147744], [-79.83544492423493, -2.245304606249931]]], [[[-80.86177482170592, -1.600405551584345], [-80.86177482170592, -1.600405551584345]]], [[[-89.63618067384317, -1.392676356598201], [-89.7006444132445, -1.348546816873807], [-89.66906150736327, -1.393974284237231], [-89.63618067384317, -1.392676356598201]]], [[[-81.04990523792623, -1.288811679009086], [-81.04990523792623, -1.288811679009086]]], [[[-90.42436886472564, -1.234381101751353], [-90.47448617729111, -1.246564315855665], [-90.48943830369188, -1.308587951295806], [-90.4526117701493, -1.363412414765321], [-90.39723352422055, -1.343199355001275], [-90.35653051346293, -1.284498414316829], [-90.40000243651696, -1.240472708803452], [-90.42436886472564, -1.234381101751353]]], [[[-90.03507710154844, -0.830241046384572], [-90.0636315096055, -0.778323940826397], [-90.05368073104017, -0.830241046384572], [-90.03507710154844, -0.830241046384572]]], [[[-89.47869878698333, -0.92369183638931], [-89.43067546434196, -0.906386134536604], [-89.37270136313538, -0.819857625272959], [-89.29742156007603, -0.762316166612663], [-89.25112880761998, -0.71342755887872], [-89.31645783211394, -0.678816155173251], [-89.37702778859847, -0.687036363553261], [-89.42461846869355, -0.710399061054488], [-89.46615215314, -0.760152953881061], [-89.49816770156764, -0.803417208512883], [-89.57128429189532, -0.845816178052075], [-89.61152004870303, -0.888215147591268], [-89.55700708786691, -0.925855049120912], [-89.47869878698333, -0.92369183638931]]], [[[-90.64813158968133, -0.640310968550864], [-90.65029480241287, -0.588393862992689], [-90.6719269297289, -0.635551900541429], [-90.64813158968133, -0.640310968550864]]], [[[-90.26783879146802, -0.506624421738536], [-90.32754346285992, -0.495808358080581], [-90.39114191716868, -0.513546702479687], [-90.44435695036577, -0.516142557757632], [-90.51314711523042, -0.551186604009331], [-90.53694245527794, -0.598344641558072], [-90.53737509782417, -0.64982910456996], [-90.51271447268408, -0.708668490869115], [-90.45399622629782, -0.743729842822859], [-90.4036020225027, -0.770865183327942], [-90.3413014958328, -0.770034509639004], [-90.28896905343021, -0.748436993726784], [-90.22860676536789, -0.710779786495266], [-90.19482603535135, -0.662323821307552], [-90.18818064583985, -0.602515315704579], [-90.24793723433737, -0.519603698128037], [-90.26783879146802, -0.506624421738536]]], [[[-90.26441433918546, -0.476695940954528], [-90.27114833389044, -0.41927977557549], [-90.29613499845345, -0.467303790444987], [-90.26441433918546, -0.476695940954528]]], [[[-90.70402900666568, -0.418382647991507], [-90.70402900666568, -0.418382647991507]]], [[[-91.42732081560035, -0.286409365662564], [-91.49135191245557, -0.267373093624656], [-91.5540850816717, -0.294629574042688], [-91.60730011486879, -0.280352370014214], [-91.65445815241742, -0.301984497330068], [-91.64104623348163, -0.391541504417887], [-91.61811617852675, -0.440430112151944], [-91.56446850278326, -0.489751362432173], [-91.50389854629873, -0.500134783543729], [-91.43727159416568, -0.484127009329995], [-91.40179490536764, -0.444756537615035], [-91.37367313985698, -0.39327207460326], [-91.39833376499706, -0.334432688303934], [-91.42732081560035, -0.286409365662564]]], [[[-90.54386473601903, -0.318424914090201], [-90.58410049282651, -0.244443038669772], [-90.6849062061188, -0.199880856398977], [-90.73768859676954, -0.166567380332481], [-90.80215233617105, -0.148396393387031], [-90.84195545043224, -0.205505209501155], [-90.86158011633319, -0.267753819065433], [-90.83112208107241, -0.331161910653805], [-90.74860849463869, -0.355251447632781], [-90.6824314907538, -0.356359012551366], [-90.63148350449939, -0.374633833707833], [-90.57665904102998, -0.368265335426031], [-90.54386473601903, -0.318424914090201]]], [[[-91.25559383490105, 0.010647062663395], [-91.29133754527072, 0.068445402835493], [-91.32251822878465, 0.122821472865951], [-91.41377876589866, 0.124342481817848], [-91.467014079215, 0.114455923630601], [-91.50922207763028, 0.057418087934252], [-91.56892167899235, 0.022054629802653], [-91.57006243570635, -0.028138665610129], [-91.51150359105816, -0.025476899944294], [-91.45712752102776, -0.001521008951897], [-91.4092157390429, -0.039546232749387], [-91.38868211819226, -0.119018950486122], [-91.3594026958682, -0.299258511286325], [-91.32479974221252, -0.342987518653388], [-91.28183123932126, -0.369224923073659], [-91.23049718719466, -0.401546363301577], [-91.2171883588656, -0.468470757185116], [-91.15634800078954, -0.533493889878855], [-91.07459376962493, -0.603460301666303], [-91.11908328146802, -0.668103182122024], [-91.16243203659712, -0.69624184773221], [-91.22175138572123, -0.680271253737203], [-91.2734656900858, -0.69662209997017], [-91.34229134515937, -0.731225053625849], [-91.38069682119476, -0.764687250567704], [-91.437734656891, -0.800430960937263], [-91.50351829406077, -0.863933084679161], [-91.51036283434428, -0.918309154709561], [-91.46131029564538, -0.956714630745068], [-91.41606027932647, -1.002344899302045], [-91.26471988861249, -1.023639024628608], [-91.20121776487065, -1.052538194714657], [-91.14798245155407, -1.052918446952731], [-91.09208537257183, -1.025160033580562], [-91.0034866011236, -1.009949944061475], [-90.95139204452107, -0.997401620208393], [-90.89321345211084, -0.963939423266538], [-90.85176595817148, -0.906521335332343], [-90.8194445179438, -0.800811213175223], [-90.80765669856652, -0.750237665524651], [-90.84378066117415, -0.704987649205634], [-90.8726798312602, -0.653273344840898], [-90.92477438786284, -0.629317453848557], [-90.96241935942237, -0.578363653959912], [-90.9331399370983, -0.514101025742093], [-90.94530800871348, -0.456682937807898], [-91.00082483545776, -0.412193425964801], [-91.13763959068115, -0.289600104441718], [-91.19057070220731, -0.208758478648235], [-91.19437322458697, -0.155142913093812], [-91.18942994549343, -0.088218519210159], [-91.2221316379592, -0.029659674561913], [-91.25559383490105, 0.010647062663395]]], [[[-79.96240545105695, 0.220942074267896], [-79.96240545105695, 0.220942074267896]]], [[[-89.94552009446068, 0.308906778071218], [-89.94552009446068, 0.308906778071218]]], [[[-90.46313363687585, 0.28464418407367], [-90.41666782740117, 0.308041492978589], [-90.43440617180028, 0.363419738907282], [-90.49843726865538, 0.37683165784324], [-90.52737240215322, 0.324516521142357], [-90.48722317385489, 0.284921075303259], [-90.46313363687585, 0.28464418407367]]], [[[-80.00212376176285, 0.36898180780463], [-80.00212376176285, 0.36898180780463]]], [[[-90.74461087751052, 0.533448259610338], [-90.71692175454609, 0.577577799334847], [-90.75066787315893, 0.621274696513012], [-90.78830777468858, 0.570222876047353], [-90.74461087751052, 0.533448259610338]]], [[[-79.00328104048799, 1.217317352733971], [-78.9990091519677, 1.273877156742287], [-79.04412029474162, 1.244999190345254], [-79.00328104048799, 1.217317352733971]]], [[[-78.84180365442205, 1.314203784373603], [-78.86059996391117, 1.362048935800487], [-78.84846780051362, 1.31300765558791], [-78.84180365442205, 1.314203784373603]]], [[[-78.93435411921348, 1.255668231924687], [-78.88389243606792, 1.278629632721049], [-78.88843131762076, 1.33282921832199], [-78.95704852697736, 1.32241649005374], [-78.94743677780684, 1.2521973225019], [-78.93435411921348, 1.255668231924687]]], [[[-91.81128380706406, 1.380823335285299], [-91.81128380706406, 1.380823335285299]]], [[[-78.74481533521123, 1.376438384490655], [-78.79358099987218, 1.412737638636997], [-78.83289676685672, 1.377417054752129], [-78.82889187136891, 1.325353413411392], [-78.86413495166107, 1.288508374924163], [-78.89528769869503, 1.248416701161489], [-78.94369887535089, 1.226298998347886], [-78.99576251669163, 1.212415360656962], [-79.04548729906742, 1.218000854897241], [-79.08188378926002, 1.177161600643558], [-79.13981059759476, 1.118209539063969], [-79.18979511079266, 1.09622810949412], [-79.24250679762184, 1.081901904152403], [-79.30778125421142, 1.086597564013914], [-79.35807206181624, 1.072511011618417], [-79.41200465438459, 1.081321781691429], [-79.49744242478982, 1.030593105513276], [-79.54769051350934, 1.001672420231159], [-79.60254156210954, 0.993470394272265], [-79.65448772651587, 0.997058780629231], [-79.7004532469939, 0.976382840191263], [-79.7653859525019, 0.945454367304478], [-79.8058834556739, 0.901539353316196], [-79.85629174021301, 0.875566271112973], [-79.92062638132808, 0.856780641345154], [-79.97108806447375, 0.823673505313195], [-80.02288471278194, 0.827411407768295], [-80.08215716600051, 0.795372243866268], [-80.10218164343928, 0.748915456208408], [-80.10405059466683, 0.697385800932864], [-80.0632006606919, 0.656802859990478], [-80.01727785909901, 0.621826772730799], [-80.00446219353807, 0.566025228934791], [-80.03783632260269, 0.505417810553581], [-80.05999674430149, 0.458961022895721], [-80.01807883819646, 0.414373186465582], [-79.97802988331898, 0.374591224620644], [-79.98577268126195, 0.315051778369366], [-79.94652470548203, 0.265658067353854], [-79.9481266636771, 0.210657502655465], [-79.99725338166013, 0.22988100099667], [-79.99805436075769, 0.301168140678499], [-80.02742359433444, 0.363644510287429], [-80.03463240621244, 0.311046882881612], [-80.03276345498472, 0.177550366623507], [-80.04397716235042, 0.122549801925118], [-80.0666715701143, 0.063544341738975], [-80.10164765737397, 0.013349651625958], [-80.13582276553603, -0.037913010617274], [-80.17480374828341, -0.071554132714368], [-80.2095128425106, -0.110802108494227], [-80.26314640288246, -0.157034622004858], [-80.30484003484025, -0.185399961779297], [-80.35302693734877, -0.213765301553906], [-80.3916020906866, -0.259483853476752], [-80.41746704071164, -0.315385519659912], [-80.46711105769515, -0.364612360030151], [-80.49297600772019, -0.41342202378712], [-80.45918470204242, -0.463066040770627], [-80.43999457783025, -0.540660890845686], [-80.40668185716322, -0.615322822458552], [-80.35114730639975, -0.632239500998764], [-80.30979542552365, -0.660775716314106], [-80.37324028352253, -0.659591617166598], [-80.42154802921362, -0.637707518304751], [-80.48344769387205, -0.676560344396478], [-80.50934601802618, -0.745444546785677], [-80.52031409180194, -0.796109144636091], [-80.53193362857712, -0.845833927011881], [-80.55585620429048, -0.894191705061189], [-80.59908771611555, -0.934689208233351], [-80.66094466188889, -0.930246444172269], [-80.7074228089894, -0.950922384610408], [-80.7598816000181, -0.945966993926845], [-80.8169540306489, -0.959978788273304], [-80.85813503598422, -0.998767536037292], [-80.89948691686027, -1.043878678811268], [-80.89808787336978, -1.104283182487734], [-80.87699542380108, -1.160618712348708], [-80.84682521112671, -1.213750325819547], [-80.81238310993206, -1.258338162249686], [-80.77628565193584, -1.300533741108666], [-80.7404017883656, -1.352650781055786], [-80.76193210650769, -1.409210585064102], [-80.76654574610961, -1.469187899888539], [-80.81985891484237, -1.51785538985564], [-80.8406843713787, -1.5704530172614], [-80.84966201209699, -1.621982672537058], [-80.82337988545868, -1.667037746774213], [-80.78274688332255, -1.736255690454072], [-80.75871751039608, -1.815018635046442], [-80.73976100508742, -1.866281297289618], [-80.72553561631497, -1.920470203169089], [-80.75543883595685, -1.971220238789783], [-80.74006003728391, -2.026754789553252], [-80.74586980567136, -2.089807864112288], [-80.778677909507, -2.137140388916805], [-80.82464342998503, -2.160379462467006], [-80.86890019505495, -2.194725446169912], [-80.91503659107377, -2.218989772965074], [-80.97400915771823, -2.199783362177868], [-80.92682700338963, -2.273157319401889], [-80.89728689427199, -2.324708334120203], [-80.82361817673996, -2.363208729409052], [-80.77201376341515, -2.388669184989851], [-80.69544016168942, -2.404539250842618], [-80.64497847854386, -2.434175477451959], [-80.59291483720312, -2.476093383557043], [-80.54859399380541, -2.518545275727149], [-80.49866629672482, -2.567938986742604], [-80.46288923036758, -2.614929760465543], [-80.4180344009049, -2.650172840757705], [-80.3477985462884, -2.68536585985629], [-80.2998232357582, -2.719157165534114], [-80.24851051232145, -2.736678583293042], [-80.2514307486145, -2.67577079775009], [-80.26311169378721, -2.624875250926664], [-80.19990109333884, -2.598643185482047], [-80.14490052864056, -2.572477868295437], [-80.10218164343786, -2.522283178182363], [-80.06640457708073, -2.461408766768557], [-80.04851604390217, -2.409078132395337], [-80.02450154104042, -2.339170686216221], [-79.98955434244641, -2.300786058252356], [-79.96950267112209, -2.238339424699234], [-79.91507670609866, -2.248078807913998], [-79.88471274666449, -2.203392226105223], [-79.86605896328388, -2.156689019066278], [-79.86569230415108, -2.101323490015091], [-79.8180266168884, -2.077490646383808], [-79.84515939271489, -2.121123083185694], [-79.84845932490992, -2.182721817494325], [-79.82535979954417, -2.243220574404461], [-79.82939305000491, -2.30225269478359], [-79.82755975434094, -2.374851203075877], [-79.80849347943592, -2.425816822533591], [-79.79456043238991, -2.476782441991304], [-79.75239463211915, -2.512715037004511], [-79.6944624891384, -2.518948242261956], [-79.71169546837956, -2.567713906923018], [-79.7234285606288, -2.634445869090598], [-79.76531569995859, -2.665758559030849], [-79.77939541065768, -2.723250711052174], [-79.7986376819465, -2.775814964328845], [-79.80996011596699, -2.83904166518704], [-79.8433260970508, -2.892573898574256], [-79.85065927970658, -2.942806199766267], [-79.84625937011305, -2.998905047083099], [-79.86275903108856, -3.05720384919664], [-79.89612501217238, -3.11146940084933], [-79.9078774640239, -3.167972453194182], [-79.96284465459314, -3.198459720094547], [-79.98020883134677, -3.263767573607311], [-79.98826530643248, -3.313896751918321], [-80.02049120677532, -3.36223560243252], [-80.05808809050853, -3.41684060023556], [-80.12791087458464, -3.430268058711704], [-80.22673696896913, -3.453470706958512], [-80.21642468085946, -3.512479911141781], [-80.21356015638452, -3.573207830009949], [-80.19311890973148, -3.621858913692051], [-80.18358577227889, -3.679057738407153], [-80.17588593049044, -3.735523244856722], [-80.18324844587687, -3.785095559609829], [-80.15954759953331, -3.836486503661547], [-80.1271642649254, -3.899610539962453], [-80.16916873517778, -3.936217787780208], [-80.2184477226246, -3.959683972278697], [-80.25857489811705, -4.008962959725579], [-80.30855787109874, -4.019522742749928], [-80.35689821116574, -3.989486026591862], [-80.41227840658229, -4.00028047146111], [-80.45240558207473, -4.039468999573558], [-80.47563710472826, -4.089451972555423], [-80.43832587137564, -4.126894616541335], [-80.44395775565516, -4.212649441172687], [-80.38951620761867, -4.21945463467722], [-80.33718661618701, -4.216169368847432], [-80.36581536127517, -4.287271907877823], [-80.40805449337233, -4.328572392595333], [-80.44489640303499, -4.386533868306628], [-80.44606971226, -4.438394136048373], [-80.39585207743312, -4.48532650504535], [-80.33530932142702, -4.471716118036227], [-80.29565146962443, -4.438863459738343], [-80.25364699937217, -4.407418772510255], [-80.18676837355144, -4.345862277333822], [-80.16123716481707, -4.301407937419754], [-80.09806619614699, -4.299005000127067], [-80.02351882123207, -4.354272557857996], [-79.95713767852266, -4.393770839605907], [-79.88569722643535, -4.405072154060463], [-79.8406421521982, -4.459748363941969], [-79.77916074881216, -4.494478316999789], [-79.72966176588562, -4.476541352223705], [-79.66952966810823, -4.445375325936595], [-79.61233084339301, -4.450875212928509], [-79.5752982709813, -4.503307468917342], [-79.53166583417936, -4.530073585610978], [-79.48253351038557, -4.542906655258548], [-79.49353328436922, -4.595338911247381], [-79.47080041813632, -4.644837894173861], [-79.45814334487244, -4.698399460291853], [-79.43045324716417, -4.750025066188584], [-79.42106677336471, -4.802823981310155], [-79.37272643329777, -4.835207315918069], [-79.32321278400593, -4.894811424544287], [-79.28989080201802, -4.939631836936542], [-79.24553971331574, -4.968025920179684], [-79.18710891391447, -4.960986064830138], [-79.11475797386862, -4.977534418138475], [-79.06519739220772, -4.987746901632249], [-79.02116957366326, -5.011469900053839], [-78.9977368050113, -4.96286335958996], [-78.98484917648489, -4.904395014293527], [-78.90705408163535, -4.890728308441624], [-78.90457605255227, -4.82769813687861], [-78.91607448295662, -4.776072530981878], [-78.89697887532094, -4.728802835582712], [-78.86434621250271, -4.679670511788913], [-78.82804695835648, -4.643737916775535], [-78.76534824664952, -4.632004824526291], [-78.7083987501448, -4.617441123771926], [-78.6670982654274, -4.579660566729274], [-78.64768703761018, -4.508360911749094], [-78.63330695974952, -4.452708508592309], [-78.63964282956408, -4.385829882771588], [-78.6509065981233, -4.330215025510086], [-78.62180852934517, -4.286802584187853], [-78.6117180700108, -4.235411640136135], [-78.5798040590928, -4.190356565898981], [-78.58778256182234, -4.136149679707501], [-78.54856587428833, -4.080037339334581], [-78.5680897397911, -4.02627161741168], [-78.54413545865486, -3.962734576263415], [-78.49626444227795, -3.928004623205652], [-78.47491021438435, -3.87684834099889], [-78.4561372667855, -3.829915972001913], [-78.41413279653318, -3.786972854369651], [-78.41835670974285, -3.729480702348212], [-78.40638895564865, -3.676681787226642], [-78.40075707136901, -3.608160528490998], [-78.38949330280968, -3.549260405399707], [-78.36062989587646, -3.495757504743153], [-78.35147808392207, -3.439438661946724], [-78.34795815624722, -3.382415833615255], [-78.2531254381426, -3.406630002744691], [-78.23112589017529, -3.45282905347608], [-78.2190261387932, -3.506361286863353], [-78.16214352091424, -3.484259074338809], [-78.1510299359357, -3.434848676258753], [-78.18752454606783, -3.384687360274654], [-78.13180643759455, -3.306141347521361], [-78.09005540213474, -3.234653963065114], [-78.02763007147706, -3.182601272610441], [-77.99206413559665, -3.139335494941349], [-77.95686485884886, -3.08873653461643], [-77.85016705120722, -3.000005024481425], [-77.50601162269288, -2.877701287500429], [-77.40460745628093, -2.848483137856249], [-77.22061332020797, -2.790276000525978], [-76.77732242866574, -2.640679074347872], [-76.70692387517016, -2.613546298521499], [-76.64079323398039, -2.593013387085421], [-76.57274954876505, -2.538541589670388], [-76.40443009061903, -2.413350412018588], [-76.25629980097222, -2.307385922642538], [-76.05170400487577, -2.157422337331752], [-75.87020773414514, -1.938160175923827], [-75.64371505463856, -1.635593059546125], [-75.59584403826165, -1.575284965384981], [-75.49855287067169, -1.346899408105401], [-75.40516937278937, -1.02492685712491], [-75.38071779187158, -0.930580879019033], [-75.324252285422, -0.959546950509377], [-75.27841989382335, -0.983746453273511], [-75.19262165675065, -0.972013361024267], [-75.22525431956893, -0.928380924222267], [-75.21205459078851, -0.873015395171137], [-75.23821938650434, -0.822724428517802], [-75.25581902487824, -0.772506793690866], [-75.26637880790258, -0.718299907499386], [-75.25793098148301, -0.667378287137637], [-75.22085440997546, -0.624200507660362], [-75.21874245337057, -0.571636254383577], [-75.2331131447574, -0.510323807525936], [-75.28207299209504, -0.491851227088716], [-75.30940640379885, -0.449499457305819], [-75.36076918842923, -0.4316276111918], [-75.40177869245883, -0.382264145480747], [-75.43580465998167, -0.328761244824136], [-75.46559732782083, -0.270030078261243], [-75.4806250723737, -0.214715588161368], [-75.51676299650143, -0.169660513924214], [-75.53288133197873, -0.1118310355007], [-75.46981596113898, -0.116964263359705], [-75.4132771228629, -0.143613049130863], [-75.36493678279601, -0.156754112450074], [-75.29964447104737, -0.148381377820897], [-75.25819380274919, -0.118344661662775], [-75.32412439471614, -0.094465472317154], [-75.38795241655197, -0.08650574253528], [-75.44517236083317, -0.051362784630214], [-75.50809928118434, -0.012315053624832], [-75.5624657374305, -0.007809546201031], [-75.60382254099056, 0.035433938592746], [-75.65333619028246, 0.052329591431715], [-75.70613510540409, 0.0485750019119], [-75.7779416299694, 0.066174640285908], [-75.82487399896655, 0.105363168398299], [-75.86711313106389, 0.133053266106572], [-75.91334151452594, 0.192892036577859], [-75.93493040426449, 0.244517642474534], [-75.98514803909137, 0.264229237453208], [-76.00462497222514, 0.315385519659969], [-76.04404816218255, 0.346595545043101], [-76.09684707730423, 0.323598684234526], [-76.11350806829813, 0.37616293751114], [-76.16425134565765, 0.382817947434944], [-76.21816725116139, 0.390777677216875], [-76.2560135135206, 0.441689911104845], [-76.31668768015987, 0.42306714708684], [-76.3687954061503, 0.403325046068176], [-76.39392897305515, 0.260943971623533], [-76.44883984478167, 0.250149526754171], [-76.51039457999434, 0.254828097288566], [-76.56172685858479, 0.245661618968882], [-76.62037765346582, 0.269391798042875], [-76.67857379102207, 0.27948225737731], [-76.73043405876376, 0.290511364091628], [-76.77220386717107, 0.259536000553453], [-76.8355625653171, 0.247098922769283], [-76.89422802656333, 0.254608101808969], [-76.9430376903203, 0.278543609997371], [-76.99419397252706, 0.29496993914637], [-77.04581957842379, 0.2865221127268], [-77.0922826237308, 0.307641678775497], [-77.10636233442989, 0.356920666222436], [-77.16854772335097, 0.390007986365219], [-77.21688806341791, 0.363491197882013], [-77.27015630222957, 0.368888420316694], [-77.32882176347579, 0.392823928505095], [-77.3823246641324, 0.397517165404849], [-77.44145944906865, 0.396343856179953], [-77.52161054884169, 0.418411456082254], [-77.52288710927843, 0.471435646575173], [-77.52054049082858, 0.531743740736204], [-77.49730896817505, 0.580318742648217], [-77.48158662456103, 0.653063914593645], [-77.54714175757596, 0.651946924211529], [-77.60075729591824, 0.680631988142409], [-77.65166952980604, 0.710518520719688], [-77.69160897582259, 0.747397976277568], [-77.67283602822374, 0.798319596639317], [-77.69958747855202, 0.845251965636294], [-77.75942624902325, 0.845721289326434], [-77.82325427085914, 0.810287350733574], [-77.88051176103556, 0.810756674423487], [-77.96405137785024, 0.83351887338705], [-78.00417855334268, 0.863555589545285], [-78.07856635820298, 0.900397499207884], [-78.12221346137017, 0.940055351010358], [-78.19542795700545, 0.948503177429757], [-78.2068982279884, 0.99917136299905], [-78.25390568877577, 1.024552388152642], [-78.25841119619946, 1.075314438459827], [-78.28364203777227, 1.133886034968043], [-78.30211461820949, 1.188402674795043], [-78.36654337436858, 1.180142577851541], [-78.41925781122598, 1.162571098898979], [-78.46716637349806, 1.190505244926044], [-78.52363539987527, 1.200116994096675], [-78.5799542426717, 1.236611604228756], [-78.62816317210536, 1.27025272632585], [-78.65755046160746, 1.314106331916662], [-78.6890831470273, 1.354438836523514], [-78.73601551602428, 1.373505111428528], [-78.74481533521123, 1.376438384490655]]], [[[-78.84658816956471, 1.389218146789403], [-78.82437434925936, 1.440480809032465], [-78.8732447539312, 1.39349003530964], [-78.84658816956471, 1.389218146789403]]], [[[-78.87666226474732, 1.395882292881083], [-78.84539204077907, 1.439455555787674], [-78.88896530368572, 1.399299803697261], [-78.87666226474732, 1.395882292881083]]], [[[-91.99869584159308, 1.67476234592408], [-91.99869584159308, 1.67476234592408]]]]}}]}