{"type": "FeatureCollection", "features": [{"type": "Feature", "properties": {"code": "EGY", "name": "Egypt", "tier": "country"}, "geometry": {"type": "MultiPolygon", "coordinates": [[[[36.65128880000002, 22.281204700000036], [36.65128880000002, 22.281204700000036]]], [[[35.74891, 22.912914300000043], [35.74891, 22.912914300000043]]], [[[35.737061, 22.91749230000002], [35.737061, 22.91749230000002]]], [[[36.18731280000003, 23.62563910000002], [36.18731280000003, 23.62563910000002]]], [[[35.161752700000044, 24.673046400000032], [35.161752700000044, 24.673046400000032]]], [[[33.9826025, 26.765540700000013], [33.99542730000003, 26.710671899999983], [33.99572079999998, 26.763386899999976], [33.9826025, 26.765540700000013]]], [[[33.97116940000003, 27.21213260000004], [33.97116940000003, 27.21213260000004]]], [[[33.875479800000036, 27.22170460000004], [33.875479800000036, 27.22170460000004]]], [[[33.907261400000024, 27.2675544], [33.925085299999964, 27.2081368], [33.91637129999999, 27.265286], [33.907261400000024, 27.2675544]]], [[[33.929764, 27.538072300000028], [33.96006110000001, 27.49419270000002], [34.005444, 27.4722993], [33.97922570000003, 27.5190331], [33.93176989999998, 27.53606639999997], [33.929764, 27.538072300000028]]], [[[33.77297089999998, 27.599906799999975], [33.779912600000046, 27.5442851], [33.77297089999998, 27.599906799999975]]], [[[33.6789066, 27.636130200000043], [33.6789066, 27.636130200000043]]], [[[33.81003970000001, 27.621154], [33.81003970000001, 27.621154]]], [[[33.639312199999985, 27.65269279999998], [33.639312199999985, 27.65269279999998]]], [[[33.807932, 27.68141839999998], [33.807932, 27.68141839999998]]], [[[33.73867729999998, 27.6764679], [33.73867729999998, 27.6764679]]], [[[33.689001800000035, 27.70193790000002], [33.689001800000035, 27.70193790000002]]], [[[33.60804640000004, 27.7724389], [33.60804640000004, 27.7724389]]], [[[34.6917443, 27.958326900000042], [34.65192849999997, 27.924668099999984], [34.7023394, 27.914195499999984], [34.6917443, 27.958326900000042]]], [[[34.51729929999996, 28.0142619], [34.50535309999999, 27.958199900000015], [34.54217229999997, 27.9206503], [34.5943941, 27.91261829999996], [34.58702510000003, 27.964071800000024], [34.51806880000004, 27.96841290000003], [34.51729929999996, 28.0142619]]], [[[32.350812400000024, 30.4843529], [32.350812400000024, 30.4843529]]], [[[32.349694, 30.485056599999965], [32.349694, 30.485056599999965]]], [[[32.32987839999997, 30.5908212], [32.3334276, 30.523736], [32.32987839999997, 30.5908212]]], [[[32.35034479999997, 30.681513], [32.32675630000002, 30.619981800000033], [32.35034479999997, 30.681513]]], [[[32.35073889999998, 30.68373539999996], [32.35073889999998, 30.68373539999996]]], [[[32.33913320000002, 30.726503600000022], [32.318239700000035, 30.8012509], [32.324370100000024, 30.751351099999958], [32.33913320000002, 30.726503600000022]]], [[[28.9797725, 30.845017399999968], [28.9797725, 30.845017399999968]]], [[[32.309700300000024, 31.113837699999962], [32.3318464, 31.18878079999996], [32.309700300000024, 31.113837699999962]]], [[[33.145448, 31.2294125], [33.08776980000004, 31.223761], [33.02725910000002, 31.1925984], [32.9525864, 31.15731249999996], [33.06017469999996, 31.203808], [33.111501500000024, 31.22553589999997], [33.16162660000004, 31.227444200000036], [33.258272, 31.21305770000003], [33.19042329999998, 31.227944599999958], [33.145448, 31.2294125]]], [[[32.35444849999996, 31.233228800000013], [32.35444849999996, 31.233228800000013]]], [[[32.32808230000004, 31.2697185], [32.30679870000002, 31.22170889999996], [32.32808230000004, 31.2697185]]], [[[34.22382949999999, 31.315366899999987], [34.1780825, 31.294389100000046], [34.12559549999997, 31.262233600000023], [34.04186370000002, 31.2197975], [33.98916370000003, 31.1983252], [33.918525, 31.175159], [33.84501659999997, 31.154484], [33.76673939999997, 31.134817299999966], [33.67951939999998, 31.118675700000047], [33.583029300000014, 31.11334929999996], [33.50490690000004, 31.1212418], [33.4549105, 31.15235449999998], [33.393198299999966, 31.182245300000027], [33.332816400000034, 31.197077100000016], [33.27259680000004, 31.210354199999983], [33.33110180000001, 31.1953164], [33.40371460000003, 31.168147099999977], [33.451779700000046, 31.1519886], [33.459550100000016, 31.0791132], [33.40165460000002, 31.098205199999974], [33.32663860000003, 31.103202800000034], [33.23256819999998, 31.07262540000002], [33.1833344, 31.051900500000045], [33.12150329999997, 31.09247240000002], [33.11549509999996, 31.14258609999998], [33.063825, 31.16506250000002], [33.01816309999997, 31.142733], [32.97335949999998, 31.1018799], [33.02328679999998, 31.087907399999963], [33.05943360000001, 31.12276310000002], [33.02286369999997, 31.081681499999974], [32.975374, 31.053631800000026], [32.9426321, 31.0977643], [32.88940579999998, 31.0862439], [32.82916330000003, 31.070854], [32.76547760000004, 31.0407145], [32.71415079999998, 31.02762349999997], [32.7541479, 31.0683614], [32.801698100000046, 31.0845341], [32.84804669999997, 31.107171200000018], [32.91070309999998, 31.1353866], [32.81827750000004, 31.0936101], [32.7584535, 31.073175200000037], [32.67502610000002, 31.0581035], [32.6065332, 31.057368300000014], [32.55512060000004, 31.077439], [32.50911540000001, 31.111615699999966], [32.4649984, 31.16641960000004], [32.3869038, 31.21239340000004], [32.3371707, 31.187418799999982], [32.312404, 31.1056983], [32.3198859, 30.81251070000002], [32.338479800000044, 30.74157219999998], [32.353423300000046, 30.68148630000003], [32.334768099999984, 30.6038185], [32.358735, 30.455236199999973], [32.37415460000002, 30.40270909999998], [32.41590929999998, 30.35753870000002], [32.445448499999976, 30.309711], [32.4800943, 30.273586100000017], [32.53168969999998, 30.2653878], [32.562514, 30.223049699999983], [32.57083170000004, 30.165219], [32.57279649999998, 30.072268700000016], [32.588425, 29.972801600000025], [32.55925530000002, 29.926645699999966], [32.611449299999975, 29.89125690000003], [32.63029259999997, 29.842762099999987], [32.64522290000003, 29.787972700000047], [32.682301199999955, 29.75234939999998], [32.68745990000002, 29.69351930000002], [32.68835119999996, 29.62710419999997], [32.71361270000004, 29.579837600000026], [32.72345830000003, 29.52983109999996], [32.732730700000026, 29.477629], [32.7843323, 29.432127300000026], [32.82387760000003, 29.39007140000001], [32.829626099999956, 29.337409699999988], [32.86316270000003, 29.295729100000024], [32.88392259999998, 29.24125819999997], [32.92609539999998, 29.20510229999998], [32.9764502, 29.1672065], [33.01665970000001, 29.13584], [33.056286799999974, 29.10298589999998], [33.0873625, 29.059533399999964], [33.13251789999996, 29.0325666], [33.18122709999998, 29.000234], [33.17006910000003, 28.945057299999966], [33.174382200000025, 28.8946097], [33.17952029999998, 28.835628399999962], [33.2123607, 28.796940399999983], [33.218002900000016, 28.73208310000004], [33.19834510000004, 28.67069880000004], [33.2213627, 28.621039899999957], [33.23434320000003, 28.568766199999974], [33.2791, 28.52988879999996], [33.310340600000046, 28.488944299999975], [33.354676, 28.463374400000042], [33.386734, 28.412996499999977], [33.422876, 28.374577], [33.469217, 28.34937660000001], [33.51461740000004, 28.318136], [33.5647707, 28.295906100000035], [33.59171810000004, 28.253593600000016], [33.625969800000036, 28.21205760000003], [33.648084199999964, 28.16394139999996], [33.68346930000004, 28.126118399999967], [33.713613900000034, 28.08171519999998], [33.75993660000003, 28.048406400000015], [33.7907411, 28.0033351], [33.839772, 27.96268949999996], [33.87960239999999, 27.93060390000004], [33.94383180000003, 27.901954], [33.99563250000004, 27.866742100000042], [34.0433802, 27.82381909999996], [34.085582300000034, 27.796479300000044], [34.13760009999998, 27.7944274], [34.1870114, 27.784223500000028], [34.228326199999984, 27.744017899999985], [34.20547830000003, 27.788715399999987], [34.2578495, 27.7884504], [34.2768624, 27.8400888], [34.324304300000044, 27.867903400000028], [34.348381500000016, 27.9129506], [34.384415, 27.951297700000023], [34.4246791, 27.98373679999997], [34.440907800000026, 28.0341947], [34.4274733, 28.082932900000014], [34.44205960000002, 28.131346299999983], [34.439630899999976, 28.1846531], [34.410608799999956, 28.2333706], [34.406908799999975, 28.29284489999997], [34.42145790000002, 28.343281700000023], [34.44679590000004, 28.3948694], [34.4701795, 28.44376420000001], [34.5068497, 28.4785472], [34.5145979, 28.5324236], [34.544815199999974, 28.581089299999963], [34.575466699999986, 28.623819800000017], [34.6005834, 28.686062], [34.6269787, 28.7306861], [34.6252557, 28.789927499999983], [34.6221599, 28.84275089999997], [34.64945979999999, 28.896162699999977], [34.63929270000004, 28.94932510000004], [34.68237939999999, 28.97711350000003], [34.67506059999999, 29.03044340000001], [34.67608989999998, 29.088720300000027], [34.690427600000035, 29.140732], [34.7222346, 29.18714749999996], [34.73678, 29.23776490000003], [34.74572220000003, 29.2940681], [34.77834670000004, 29.340225399999987], [34.810981, 29.389435399999968], [34.842175, 29.432615900000037], [34.87002709999996, 29.48241919999999], [34.87855340000004, 29.54332259999999], [34.8664144, 29.597609], [34.880253, 29.64869410000002], [34.84766939999997, 29.762590099999976], [34.82601010000004, 29.8085996], [34.80134430000004, 29.87243109999998], [34.781222499999956, 29.924765], [34.747904799999965, 30.01982430000003], [34.727796899999966, 30.07807310000004], [34.699487699999956, 30.13720569999998], [34.638034, 30.2997759], [34.613907899999965, 30.36807380000004], [34.568194700000035, 30.39390080000002], [34.541747, 30.44664], [34.55372469999996, 30.497914200000032], [34.51557490000002, 30.53363020000004], [34.517461200000035, 30.585916800000028], [34.50074349999997, 30.66324749999996], [34.403429, 30.858308], [34.34750130000002, 31.0045199], [34.24006859999998, 31.29577920000004], [34.22382949999999, 31.315366899999987]]], [[[25.142112200000025, 31.6713592], [25.093813799999978, 31.62836680000003], [25.072161, 31.5782588], [25.0429892, 31.532578699999974], [24.9811371, 31.499984900000015], [24.9393089, 31.468557700000034], [24.918611, 31.413889], [24.874722, 31.383889], [24.870556, 31.3], [24.881944, 31.246111], [24.870278, 31.175], [24.896111, 31.077778], [24.911667, 31.015], [24.956667, 30.916667], [24.993889, 30.843889], [25.019167, 30.7875], [24.988889, 30.716389], [24.979444, 30.654444], [24.955278, 30.595278], [24.934722, 30.528611], [24.895556, 30.461944], [24.848889, 30.392778], [24.801944, 30.35], [24.762778, 30.281389], [24.726944, 30.233889], [24.706667, 30.168611], [24.726111, 30.119722], [24.769167, 30.034167], [24.808333, 29.950556], [24.834722, 29.876667], [24.825, 29.816944], [24.820556, 29.766111], [24.855278, 29.709167], [24.886944, 29.663889], [24.886944, 29.605], [24.876389, 29.524444], [24.997778, 29.248889], [24.997778, 29.068611], [24.999722, 28.929167], [24.999167, 28.749722], [25.001944, 28.277778], [25.002222, 27.898889], [25.001667, 27.774167], [25.001667, 27.704722], [25.001111, 27.413611], [25.000556, 26.941667], [24.999167, 26.483889], [24.999444, 26.123333], [24.998333, 25.623889], [24.997222, 25.221667], [24.997222, 24.786667], [24.998889, 24.356667], [24.998611, 24.010278], [24.999722, 23.815833], [24.999722, 23.358611], [25.001111, 22.918889], [25.001667, 22.351111], [25.0, 22.0], [25.526991100000032, 22.0], [25.829487600000014, 22.0], [26.289282299999986, 22.0], [26.643203200000023, 22.0], [27.242146199999986, 22.0], [27.753365300000013, 22.0], [28.3160088, 22.0], [28.669929700000043, 22.0], [29.0238506, 22.0], [29.5743942, 22.0], [30.0, 22.0], [30.415334499999982, 22.0], [31.0, 22.0], [31.315029, 22.0], [31.338432, 22.080849], [31.365019, 22.131552], [31.418745, 22.189556], [31.469795, 22.224918], [31.506184, 22.185232], [31.456257, 22.119238], [31.415928, 22.046497], [32.0, 22.0], [32.54257869999997, 22.0], [33.0, 22.0], [33.600895100000045, 22.000002], [34.19204070000002, 22.00000769999997], [34.83333009999996, 22.000006], [35.181388300000044, 22.000005], [35.55611579999998, 22.000004], [36.235555, 22.000002199999958], [36.880447, 22.000000399999987], [36.894566799999964, 22.052409399999974], [36.8420185, 22.08595259999997], [36.80384829999997, 22.12064], [36.773091699999966, 22.16709389999998], [36.72142019999998, 22.163356800000034], [36.68118589999996, 22.1993513], [36.64607359999999, 22.2379677], [36.5964491, 22.270623700000037], [36.557468299999954, 22.3024628], [36.50088850000002, 22.32758789999998], [36.4532161, 22.34858620000002], [36.4208194, 22.403004399999983], [36.37928360000003, 22.4415577], [36.3374862, 22.47084610000003], [36.29718790000001, 22.514695500000027], [36.28563279999997, 22.567497], [36.258266700000014, 22.61359580000002], [36.207901800000045, 22.637808199999988], [36.15421959999996, 22.660787], [36.09699379999996, 22.666962], [36.042052, 22.682804700000037], [35.979248800000036, 22.689996700000027], [35.93230049999996, 22.71131420000001], [35.879773200000045, 22.731819], [35.84197589999996, 22.767995], [35.80567179999996, 22.810310899999987], [35.76473479999998, 22.844211900000012], [35.72989359999997, 22.886230699999977], [35.69146250000002, 22.92881960000004], [35.66107190000001, 22.972551900000028], [35.65745120000002, 23.03589850000003], [35.64863380000001, 23.089556499999976], [35.625493800000044, 23.141405], [35.594784, 23.181161], [35.57145409999996, 23.233415199999975], [35.55598020000004, 23.286978800000014], [35.55191519999997, 23.34226], [35.53794429999997, 23.40031420000004], [35.513373500000014, 23.4480416], [35.48740270000004, 23.496353], [35.501924, 23.54913259999998], [35.4892378, 23.599358900000023], [35.490865, 23.65005119999999], [35.50751380000004, 23.7013956], [35.488168499999986, 23.749273100000035], [35.47198360000004, 23.798423399999958], [35.4839982, 23.850056], [35.482459100000014, 23.90571], [35.498375600000045, 23.953199800000014], [35.55166189999997, 23.96345670000002], [35.5100231, 23.92609469999998], [35.56106810000002, 23.956246400000026], [35.6089459, 23.9265298], [35.663057, 23.9189221], [35.715918, 23.922636600000025], [35.778165300000026, 23.911224700000023], [35.75949260000002, 23.9626396], [35.689411100000015, 24.0009231], [35.636990500000046, 24.000292300000027], [35.6014147, 24.036423], [35.57871729999998, 24.091510199999956], [35.53099139999996, 24.115679800000024], [35.48155279999999, 24.137086500000017], [35.44354880000003, 24.173912799999965], [35.42329040000001, 24.222831199999973], [35.38374269999996, 24.281314], [35.34815850000002, 24.3229395], [35.30678719999998, 24.361975900000022], [35.260162400000034, 24.389702699999983], [35.22090280000001, 24.4235382], [35.190918400000044, 24.4718616], [35.14298029999996, 24.5057174], [35.157559700000036, 24.5566355], [35.132852, 24.60563370000004], [35.0985076, 24.642493600000016], [35.08459270000002, 24.6911412], [35.0750011, 24.744863], [35.03816839999996, 24.7893235], [34.993279800000046, 24.8305076], [34.9868395, 24.894775500000033], [34.94723170000003, 24.94032549999996], [34.944625, 24.991279], [34.91073950000001, 25.04727210000002], [34.88209260000004, 25.091044599999957], [34.86303320000002, 25.140446], [34.822194, 25.193514199999957], [34.7945865, 25.2448128], [34.757325399999964, 25.2984286], [34.740604199999964, 25.347075], [34.705025, 25.395509299999986], [34.6908919, 25.4467894], [34.664832699999984, 25.501320199999956], [34.638880799999974, 25.54543770000002], [34.6213354, 25.59479710000001], [34.585092, 25.633586699999956], [34.564377500000035, 25.70041249999997], [34.538625, 25.744211100000026], [34.4922326, 25.784993600000018], [34.46099479999998, 25.82793290000003], [34.42093559999997, 25.866115], [34.4067835, 25.91684719999996], [34.37686389999997, 25.9629997], [34.339162800000025, 25.9977312], [34.3182227, 26.04379680000004], [34.2918156, 26.088461299999977], [34.2672842, 26.13203780000004], [34.24014230000004, 26.177807300000012], [34.213531500000045, 26.231729100000024], [34.188171, 26.2780461], [34.168313400000045, 26.34168910000001], [34.1323661, 26.378663400000036], [34.10347660000002, 26.425713900000037], [34.081434500000036, 26.479716499999984], [34.062767, 26.526317], [34.035055900000025, 26.5681778], [34.01039530000001, 26.616942099999964], [33.94729609999996, 26.6524942], [33.93771190000002, 26.70220830000003], [33.953351400000045, 26.75028620000004], [33.9464227, 26.80253669999997], [33.9596456, 26.85530490000001], [33.9962598, 26.90062090000003], [33.948535, 26.9212898], [33.920379900000015, 26.966028699999956], [33.8983117, 27.01726139999996], [33.8891788, 27.0733842], [33.8459679, 27.098953], [33.831010700000014, 27.153488], [33.852115399999974, 27.200822400000014], [33.838736799999964, 27.2517329], [33.784937, 27.2734875], [33.7342936, 27.30616939999997], [33.69325729999997, 27.339223700000016], [33.687367, 27.39421470000003], [33.6573194, 27.436346899999965], [33.6267734, 27.48319090000002], [33.59022319999998, 27.52064460000001], [33.5656543, 27.567273500000034], [33.5329922, 27.619026], [33.49884989999999, 27.65679080000003], [33.5501086, 27.666209400000042], [33.54078060000003, 27.71683410000001], [33.51143819999998, 27.766825], [33.46943340000002, 27.808782499999985], [33.525903600000035, 27.825263700000026], [33.57184109999996, 27.788084099999978], [33.584532799999984, 27.84733629999996], [33.556892399999974, 27.893260300000012], [33.524769199999966, 27.933178900000023], [33.489521900000014, 27.978561400000036], [33.44190790000002, 28.010591499999983], [33.3754845, 28.03180049999996], [33.335898399999955, 28.065675599999974], [33.304233699999955, 28.108212099999964], [33.2499025, 28.141348499999964], [33.22121460000001, 28.188177899999967], [33.1843746, 28.2247208], [33.15724690000004, 28.27141070000001], [33.11315079999997, 28.31691179999998], [33.09110280000003, 28.365439099999957], [33.04988020000004, 28.402793399999982], [33.026319299999976, 28.4497506], [32.99253249999999, 28.491503900000016], [32.9521536, 28.524926], [32.886518900000034, 28.562609600000034], [32.86285250000003, 28.609351299999975], [32.846623, 28.6572523], [32.8288023, 28.710255], [32.80760810000001, 28.77266089999997], [32.7577697, 28.800474800000032], [32.72366310000002, 28.843517], [32.684774, 28.8780012], [32.66375629999996, 28.934258200000045], [32.62223009999999, 28.97931170000001], [32.63053639999998, 29.0295801], [32.65138780000004, 29.075505], [32.650149, 29.130153799999974], [32.6403041, 29.1826299], [32.62753179999998, 29.234316800000016], [32.605919700000044, 29.2872142], [32.5935723, 29.33694950000001], [32.565834600000024, 29.383918899999962], [32.51647420000004, 29.416557], [32.47642919999996, 29.45179930000002], [32.43208690000004, 29.490983500000013], [32.38254910000003, 29.525104699999964], [32.350346400000014, 29.5817942], [32.3662849, 29.631790799999962], [32.3627136, 29.682133400000033], [32.3964284, 29.73224290000001], [32.42921029999997, 29.776983], [32.47077380000001, 29.8087456], [32.5097443, 29.8603227], [32.465029900000026, 29.889455700000035], [32.4806912, 29.9404098], [32.53181419999998, 29.949847900000016], [32.58386, 29.963153300000016], [32.57028029999998, 30.06105330000002], [32.56763309999997, 30.161370900000044], [32.53229990000002, 30.2049064], [32.5088555, 30.25281739999997], [32.45862360000003, 30.2612883], [32.40449920000004, 30.27326679999998], [32.3538296, 30.283860200000028], [32.30516270000002, 30.33464979999996], [32.305382399999985, 30.3877562], [32.35372939999997, 30.415728799999968], [32.338346899999976, 30.5029815], [32.29884980000002, 30.558309600000015], [32.32312749999998, 30.619382700000024], [32.3422708, 30.702883500000034], [32.313814800000024, 30.7897092], [32.315467, 30.84150079999997], [32.3010298, 31.232547899999986], [32.3428041, 31.299973900000012], [32.25836450000002, 31.278821600000022], [32.2087439, 31.28856750000002], [32.16216160000001, 31.312177100000028], [32.072742400000045, 31.35990360000001], [32.02203530000001, 31.395268099999974], [31.979996, 31.44353740000001], [31.95142040000001, 31.502965299999964], [31.9907933, 31.467957899999966], [31.956211600000046, 31.50592860000001], [31.88890050000002, 31.519961], [31.83764, 31.521638099999976], [31.76418939999997, 31.485008200000024], [31.7162881, 31.47036019999996], [31.621975, 31.44957030000002], [31.5673916, 31.4425764], [31.4885271, 31.46278020000002], [31.402732900000025, 31.5031998], [31.330084, 31.538779], [31.2391504, 31.569694499999983], [31.1816916, 31.5833167], [31.131841399999985, 31.5984309], [31.05129330000003, 31.599766600000017], [30.99586819999998, 31.586972500000044], [30.9371022, 31.571570799999975], [30.881340299999962, 31.557008199999963], [30.717676100000027, 31.50734], [30.653562, 31.4884903], [30.53230079999996, 31.458655100000037], [30.470100899999977, 31.457687], [30.4197692, 31.470032], [30.368041, 31.470729], [30.3297194, 31.380697199999986], [30.299851100000044, 31.33842229999997], [30.237707, 31.2923124], [30.18239219999999, 31.27238659999996], [30.124253899999978, 31.27113880000001], [30.0779722, 31.296142], [30.027507799999967, 31.290180900000024], [29.976853500000036, 31.2558194], [29.9163929, 31.21242120000003], [29.865350899999957, 31.2018601], [29.84576269999997, 31.15454280000003], [29.7939357, 31.134381], [29.731227699999987, 31.09622620000001], [29.681396500000037, 31.0621419], [29.548949, 30.97474690000002], [29.477124, 30.93671929999997], [29.401214800000044, 30.902122899999966], [29.34881490000001, 30.880463899999967], [29.257260899999984, 30.85278770000002], [29.138577899999987, 30.821896599999988], [29.075790200000043, 30.819790199999964], [29.025334600000033, 30.829267], [28.97216220000003, 30.8372525], [28.91996650000002, 30.868900500000045], [28.857809899999978, 30.9068305], [28.829524399999976, 30.94826910000002], [28.767942499999968, 30.96639140000004], [28.7175035, 30.992264800000036], [28.654342499999988, 31.004339], [28.60057390000004, 31.019801299999976], [28.5589525, 31.048850600000023], [28.495773800000038, 31.0573123], [28.446259, 31.0812749], [28.38833940000003, 31.08383960000001], [28.31611190000001, 31.067369800000023], [28.202376600000026, 31.073237599999963], [28.138972200000037, 31.092197900000045], [28.0830384, 31.087023099999982], [28.019099, 31.087030100000028], [27.967157300000014, 31.0916735], [27.9048604, 31.107811399999967], [27.889511500000033, 31.160375299999977], [27.867230199999973, 31.2113902], [27.81612939999996, 31.215889700000048], [27.761824599999965, 31.197194200000027], [27.7072894, 31.184905500000042], [27.65354840000003, 31.178076499999975], [27.60166449999997, 31.193638800000016], [27.489655700000018, 31.207389099999965], [27.426611, 31.225743099999974], [27.38576319999997, 31.2621303], [27.367889800000025, 31.314888600000025], [27.3532926, 31.364011800000014], [27.269012, 31.366572599999976], [27.217446, 31.3641716], [27.10962, 31.37666460000002], [27.06359190000003, 31.406669700000016], [27.011208, 31.411713], [26.961801199999982, 31.443606400000036], [26.897618299999973, 31.44112880000003], [26.83643220000003, 31.441964900000023], [26.786002300000014, 31.460534], [26.700737399999966, 31.48222], [26.618495, 31.489072200000017], [26.5620477, 31.496220600000036], [26.495732699999966, 31.495076], [26.44762240000003, 31.511334199999986], [26.388462, 31.516336800000012], [26.3364704, 31.525462699999963], [26.286519700000024, 31.541265], [26.2215391, 31.556955899999984], [26.153539, 31.572080499999956], [26.1032447, 31.58665069999998], [26.046329300000018, 31.60089449999999], [25.9948506, 31.610912799999973], [25.943719, 31.618714400000037], [25.888285, 31.62841380000001], [25.837931600000033, 31.6179379], [25.784044100000017, 31.602909], [25.7026806, 31.577812300000012], [25.652448, 31.5623802], [25.597121800000025, 31.54738709999998], [25.526615400000033, 31.5253827], [25.464044099999963, 31.515648099999964], [25.3985306, 31.503275200000026], [25.31089459999996, 31.504205099999965], [25.24079580000003, 31.513877], [25.1852421, 31.52874920000002], [25.170815, 31.579631299999967], [25.1526918, 31.626407], [25.142112200000025, 31.6713592]]]]}}]}