{"type": "FeatureCollection", "features": [{"type": "Feature", "properties": {"code": "ERI", "name": "Eritrea", "tier": "country"}, "geometry": {"type": "MultiPolygon", "coordinates": [[[[42.9396664, 12.844934599999972], [42.9396664, 12.844934599999972]]], [[[42.884706299999955, 12.87244240000002], [42.884706299999955, 12.87244240000002]]], [[[42.7951443, 12.877627599999967], [42.7951443, 12.877627599999967]]], [[[42.86641750000001, 12.877574500000014], [42.86641750000001, 12.877574500000014]]], [[[42.9435159, 12.904076499999976], [42.9435159, 12.904076499999976]]], [[[42.850079600000015, 12.961532099999987], [42.850079600000015, 12.961532099999987]]], [[[42.81932349999997, 12.965139500000037], [42.81932349999997, 12.965139500000037]]], [[[42.88824860000004, 12.9819343], [42.88824860000004, 12.9819343]]], [[[42.849743199999985, 12.985353500000022], [42.849743199999985, 12.985353500000022]]], [[[42.87091249999996, 13.043735600000042], [42.87091249999996, 13.043735600000042]]], [[[42.191009, 13.673621100000025], [42.191009, 13.673621100000025]]], [[[41.9456841, 13.884060900000042], [41.9456841, 13.884060900000042]]], [[[41.99405210000004, 13.89512289999996], [41.99405210000004, 13.89512289999996]]], [[[40.89848430000002, 14.756329], [40.89848430000002, 14.756329]]], [[[40.8142385, 14.762929799999972], [40.8142385, 14.762929799999972]]], [[[40.80961970000003, 14.796449900000011], [40.80961970000003, 14.796449900000011]]], [[[40.75699189999997, 14.868848100000035], [40.75699189999997, 14.868848100000035]]], [[[40.678168399999976, 14.9155451], [40.678168399999976, 14.9155451]]], [[[40.4249605, 15.04258750000004], [40.4249605, 15.04258750000004]]], [[[40.30204, 15.0555617], [40.2784343, 15.0091963], [40.32847040000002, 14.9997638], [40.33117570000004, 15.0514001], [40.30204, 15.0555617]]], [[[40.50157149999997, 15.0809909], [40.50157149999997, 15.0809909]]], [[[40.342420299999965, 15.090233400000011], [40.342420299999965, 15.090233400000011]]], [[[40.2701839, 15.092968600000015], [40.2701839, 15.092968600000015]]], [[[40.338123299999964, 15.144872400000034], [40.338123299999964, 15.144872400000034]]], [[[40.343545399999975, 15.163516499999977], [40.343545399999975, 15.163516499999977]]], [[[40.17718809999997, 15.1787448], [40.17718809999997, 15.1787448]]], [[[40.2962891, 15.199858900000033], [40.2441667, 15.178384899999978], [40.230085799999976, 15.128741600000032], [40.28136469999998, 15.1225314], [40.2792782, 15.1725208], [40.2962891, 15.199858900000033]]], [[[40.09506689999997, 15.2007999], [40.09506689999997, 15.2007999]]], [[[40.08595669999998, 15.2090881], [40.08595669999998, 15.2090881]]], [[[40.09013659999997, 15.24797], [40.09013659999997, 15.24797]]], [[[40.1320532, 15.245959], [40.1320532, 15.245959]]], [[[40.25785130000003, 15.2494111], [40.25785130000003, 15.2494111]]], [[[40.17443059999998, 15.27936039999999], [40.17443059999998, 15.27936039999999]]], [[[40.3446009, 15.494791499999986], [40.3446009, 15.494791499999986]]], [[[39.75215320000002, 15.4995331], [39.75539610000002, 15.441294300000022], [39.75215320000002, 15.4995331]]], [[[40.74177550000004, 15.500776899999972], [40.74177550000004, 15.500776899999972]]], [[[39.82019510000003, 15.505087699999956], [39.82019510000003, 15.505087699999956]]], [[[39.90231860000004, 15.509791899999984], [39.90231860000004, 15.509791899999984]]], [[[40.86276259999998, 15.51562990000003], [40.86276259999998, 15.51562990000003]]], [[[40.80810769999998, 15.523038099999967], [40.80810769999998, 15.523038099999967]]], [[[39.99180619999997, 15.553720799999985], [39.99180619999997, 15.553720799999985]]], [[[40.79482650000003, 15.5844442], [40.79482650000003, 15.5844442]]], [[[40.70402640000003, 15.584393200000038], [40.70402640000003, 15.584393200000038]]], [[[40.630447, 15.604912399999963], [40.630447, 15.604912399999963]]], [[[40.78523019999997, 15.642342500000044], [40.78523019999997, 15.642342500000044]]], [[[40.731993299999964, 15.664791300000019], [40.731993299999964, 15.664791300000019]]], [[[40.7862824, 15.70221520000003], [40.7862824, 15.70221520000003]]], [[[39.9126288, 15.696936100000041], [39.9126288, 15.696936100000041]]], [[[39.91441950000002, 15.722159800000018], [39.91441950000002, 15.722159800000018]]], [[[40.65484930000002, 15.724370699999984], [40.65484930000002, 15.724370699999984]]], [[[39.94317759999996, 15.729122799999978], [39.94317759999996, 15.729122799999978]]], [[[40.198582600000016, 15.739976900000013], [40.16904709999997, 15.691448500000032], [40.21453909999998, 15.717219], [40.198582600000016, 15.739976900000013]]], [[[40.7524034, 15.7511674], [40.7524034, 15.7511674]]], [[[40.50061340000001, 15.760902900000023], [40.50061340000001, 15.760902900000023]]], [[[40.451919099999984, 15.7956213], [40.451919099999984, 15.7956213]]], [[[40.13804450000004, 15.806893800000015], [40.13804450000004, 15.806893800000015]]], [[[40.69516080000003, 15.8234795], [40.69516080000003, 15.8234795]]], [[[40.36513459999997, 15.826965599999959], [40.36513459999997, 15.826965599999959]]], [[[40.281035700000025, 15.82451660000001], [40.281035700000025, 15.82451660000001]]], [[[39.9172886, 15.827904800000042], [39.9172886, 15.827904800000042]]], [[[40.56511329999996, 15.847380599999966], [40.56511329999996, 15.847380599999966]]], [[[40.5074908, 15.863501400000029], [40.5074908, 15.863501400000029]]], [[[40.10594209999997, 15.872880499999969], [40.10594209999997, 15.872880499999969]]], [[[39.96132520000003, 15.884658499999976], [40.01194859999998, 15.8657403], [40.04471410000003, 15.8193425], [39.9906514, 15.810321500000029], [40.028788200000015, 15.77459260000002], [39.97820869999997, 15.768127500000045], [39.92364710000004, 15.762955699999964], [39.955629500000036, 15.718505700000012], [40.009699699999985, 15.734235], [40.0460943, 15.699284600000023], [40.0815439, 15.663818199999973], [40.037139900000035, 15.637497700000019], [39.991534200000025, 15.663084500000018], [39.95633480000004, 15.698665400000039], [39.9630145, 15.648526899999975], [39.990448399999984, 15.603191500000039], [40.044085299999956, 15.591478399999984], [40.09479759999998, 15.580926900000028], [40.146947899999965, 15.5910953], [40.20330429999998, 15.5924682], [40.2601353, 15.584550800000022], [40.31181829999996, 15.561965699999961], [40.361067, 15.575062099999984], [40.41280229999997, 15.562371499999964], [40.41542489999998, 15.615548099999957], [40.36371029999998, 15.613170100000021], [40.332657399999974, 15.652367799999983], [40.297508900000025, 15.6951032], [40.24006669999997, 15.6945344], [40.28324360000001, 15.667623699999982], [40.252013, 15.62581459999996], [40.185412099999986, 15.6241234], [40.1497597, 15.666304499999988], [40.13620179999999, 15.714807], [40.1426093, 15.76681149999996], [40.08906839999997, 15.7803621], [40.09469, 15.836236700000022], [40.04107559999998, 15.863937100000019], [39.990068900000026, 15.883627500000024], [39.96132520000003, 15.884658499999976]]], [[[40.61072960000004, 15.878727200000025], [40.61072960000004, 15.878727200000025]]], [[[40.08949349999997, 15.898209899999987], [40.08949349999997, 15.898209899999987]]], [[[40.373476, 15.89968320000003], [40.373476, 15.89968320000003]]], [[[39.9406834, 15.908956700000026], [39.9406834, 15.908956700000026]]], [[[40.195218, 15.914395900000027], [40.195218, 15.914395900000027]]], [[[39.651864, 15.922645699999965], [39.651864, 15.922645699999965]]], [[[40.260784, 15.926903], [40.260784, 15.926903]]], [[[39.604450700000044, 15.960657], [39.604450700000044, 15.960657]]], [[[40.055838400000034, 15.9625238], [40.055838400000034, 15.9625238]]], [[[40.14490319999999, 15.9612957], [40.14490319999999, 15.9612957]]], [[[39.948500799999955, 15.986209299999981], [39.948500799999955, 15.986209299999981]]], [[[40.2949495, 16.00281989999998], [40.2949495, 16.00281989999998]]], [[[40.17036839999996, 16.058791300000024], [40.17036839999996, 16.058791300000024]]], [[[40.05091990000004, 16.1166007], [40.05664240000004, 16.0647926], [40.00093320000001, 16.059521], [39.99132419999997, 16.001988500000024], [40.046241, 16.01164579999998], [40.09212850000003, 15.97638220000001], [40.07391970000004, 16.032505], [40.11919709999997, 16.0550716], [40.06493370000003, 16.095922399999967], [40.05091990000004, 16.1166007]]], [[[39.96888670000004, 16.153698799999965], [39.96888670000004, 16.153698799999965]]], [[[39.440287699999956, 16.1515824], [39.46737009999998, 16.105536099999956], [39.467226299999986, 16.043959899999976], [39.466185400000015, 16.111979700000017], [39.440287699999956, 16.1515824]]], [[[39.979298499999985, 16.18417920000003], [39.979298499999985, 16.18417920000003]]], [[[40.17794, 16.190642300000018], [40.1569946, 16.1415552], [40.12678009999998, 16.1007576], [40.1583257, 16.1412902], [40.17794, 16.190642300000018]]], [[[40.086543200000015, 16.198342100000012], [40.086543200000015, 16.198342100000012]]], [[[40.02562729999996, 16.22466359999996], [40.02562729999996, 16.22466359999996]]], [[[40.2229229, 16.287244500000025], [40.23434949999997, 16.2378482], [40.2229229, 16.287244500000025]]], [[[39.756497400000015, 16.307718699999956], [39.756497400000015, 16.307718699999956]]], [[[39.815025200000015, 16.3332632], [39.815025200000015, 16.3332632]]], [[[39.88873749999996, 16.35009659999997], [39.9081213, 16.300938500000022], [39.89407120000003, 16.34955869999996], [39.88873749999996, 16.35009659999997]]], [[[39.572569, 16.35750510000002], [39.572569, 16.35750510000002]]], [[[40.09144920000004, 16.481938900000042], [40.09144920000004, 16.481938900000042]]], [[[40.1548682, 16.5511492], [40.13399730000002, 16.498714], [40.18774, 16.511037700000013], [40.1548682, 16.5511492]]], [[[39.32393790000001, 16.62134179999996], [39.32393790000001, 16.62134179999996]]], [[[38.58161189384445, 18.01964283140866], [38.452054599999954, 17.8992648], [38.38834290000003, 17.754599499999973], [38.36885579999997, 17.70316069999997], [38.3451843, 17.652348799999967], [38.294167, 17.618056], [38.274444, 17.558611], [38.2225, 17.528889], [38.174167, 17.561111], [38.137778, 17.523333], [38.105, 17.482222], [38.096944, 17.538333], [38.041389, 17.545556], [37.968333, 17.501389], [37.933889, 17.458611], [37.881111, 17.441944], [37.840833, 17.478611], [37.7875, 17.465278], [37.759722, 17.423056], [37.735833, 17.376667], [37.623056, 17.3575], [37.573333, 17.344722], [37.522778, 17.326944], [37.521623500000025, 17.27449220000003], [37.4963456, 17.22761980000002], [37.47780740000003, 17.16980949999997], [37.461931, 17.1220703], [37.418779, 17.092687399999978], [37.379494, 17.05671570000004], [37.320556, 17.061111], [37.266667, 17.031389], [37.203333, 17.0325], [37.151944, 17.015556], [37.104444, 17.051111], [37.053333, 17.055278], [36.995833, 17.073889], [37.015, 17.020833], [36.990278, 16.954444], [37.013333, 16.893889], [37.010833, 16.834444], [37.009167, 16.7825], [36.988889, 16.725556], [36.946944, 16.683889], [36.912222, 16.641111], [36.910278, 16.574167], [36.896389, 16.517778], [36.928056, 16.459444], [36.955833, 16.406667], [36.950278, 16.3475], [36.973611, 16.288611], [36.931389, 16.234444], [36.763611, 15.808056], [36.697778, 15.753056], [36.626111, 15.489444], [36.610556, 15.437222], [36.548333, 15.251944], [36.502663, 15.224225], [36.433365299999956, 15.16738170000004], [36.462778, 14.965556], [36.523611, 14.364444], [36.541667, 14.278056], [36.59451830000004, 14.289193400000025], [36.65066779999999, 14.3087084], [36.71551189999999, 14.31218120000001], [36.765748199999976, 14.319203299999975], [36.818987600000014, 14.316518], [36.879185299999975, 14.31500760000001], [36.93344919999996, 14.300764], [36.9823498, 14.28207239999996], [37.04084450000002, 14.2669393], [37.091298, 14.2702627], [37.108436800000035, 14.321540700000016], [37.118887700000016, 14.375666300000015], [37.15543980000002, 14.4185645], [37.204202400000014, 14.430441], [37.260605399999974, 14.440600700000031], [37.31196279999999, 14.447324700000022], [37.351048, 14.412610400000029], [37.383631499999964, 14.365637399999956], [37.40398849999997, 14.317638199999974], [37.43684, 14.27212640000001], [37.47106070000003, 14.231044500000026], [37.496295, 14.183971], [37.912861899999974, 14.894468399999964], [37.94496090000003, 14.85567], [37.971356, 14.812220200000029], [38.0020478, 14.769109], [38.0356146, 14.727747299999963], [38.091848099999964, 14.716655], [38.13801720000004, 14.681304299999956], [38.188894, 14.6815162], [38.24362669999996, 14.687780400000042], [38.26940310000001, 14.64182919999996], [38.2971883, 14.599292899999986], [38.321812899999976, 14.551371], [38.35832629999997, 14.515746500000018], [38.40123229999998, 14.481320399999978], [38.431374, 14.434719799999987], [38.47939979999996, 14.420796700000041], [38.549393, 14.42763230000003], [38.598942500000035, 14.441955200000015], [38.650587, 14.44583839999997], [38.70081019999997, 14.4655904], [38.75371109999998, 14.466657], [38.80982080000001, 14.47648070000002], [38.8732165, 14.4974116], [38.91807249999996, 14.522712699999976], [38.96737680000001, 14.5436539], [39.00393179999998, 14.579484], [39.0198514, 14.62702869999998], [39.0697293, 14.637121700000014], [39.120713200000026, 14.644584], [39.157394, 14.60833], [39.205283, 14.56533], [39.2458227, 14.535624900000036], [39.266729, 14.488586], [39.227767, 14.450227], [39.263113, 14.411877], [39.293753, 14.45811], [39.346443, 14.46625], [39.360504, 14.51539], [39.417444, 14.5265], [39.466674, 14.50756], [39.512852, 14.48651], [39.506385, 14.536139], [39.532751, 14.584623], [39.579061, 14.605967], [39.630074, 14.599731], [39.67988, 14.591371], [39.717887, 14.55736], [39.770087, 14.546152], [39.798602, 14.504044], [39.847196, 14.482396], [39.903534, 14.4349], [39.957229, 14.41814], [40.008617, 14.448291], [40.038791, 14.491615], [40.068261, 14.534272], [40.132839, 14.546634], [40.213191799999976, 14.387112199999988], [40.259453, 14.4110632], [40.3649902, 14.36625169999998], [40.4517454, 14.306843599999977], [40.57254680000003, 14.2692923], [40.68733139999998, 14.223655], [40.81026189999996, 14.172043699999973], [40.8732664, 14.134721300000011], [40.94334959999996, 14.080276399999972], [40.99515650000004, 14.016716199999971], [41.073358599999956, 13.887053899999971], [41.1156972, 13.827649199999984], [41.17184, 13.72818079999997], [41.250744300000036, 13.61039350000001], [41.309016700000036, 13.579303899999987], [41.40282379999997, 13.500882499999959], [41.502901600000044, 13.4455797], [41.57012369999999, 13.417697300000034], [41.64228180000004, 13.384980899999968], [41.668527, 13.323581799999987], [41.721531400000025, 13.2735536], [41.81045979999997, 13.1664822], [41.8906363, 13.074465], [41.92873509999998, 13.011017600000022], [41.96636369999997, 12.9233163], [42.03018149999997, 12.868096399999965], [42.05730190000003, 12.801040600000016], [42.1322995, 12.7774244], [42.21926039999996, 12.762334], [42.27861660000002, 12.6354841], [42.404179400000025, 12.4686245], [42.46397, 12.52394], [42.52972, 12.50116], [42.59113, 12.45178], [42.63197, 12.41479], [42.66973, 12.37694], [42.72092989999997, 12.384600400000037], [42.767340599999976, 12.4033779], [42.8184694, 12.429993699999967], [42.79697280000003, 12.477428699999985], [42.81904280000001, 12.523874100000013], [42.8615964, 12.5568289], [42.88443379999997, 12.60940030000001], [42.940257, 12.622590900000011], [43.12741639999999, 12.710134899999984], [43.09052980000003, 12.774079299999977], [43.0796092, 12.824358], [43.02974980000002, 12.8561869], [42.994681100000015, 12.908466899999974], [42.95667929999997, 12.943730400000023], [42.90906119999999, 12.966616400000023], [42.936532200000016, 12.923210799999977], [42.99217189999997, 12.91025070000004], [42.9810514, 12.84624480000002], [42.94362849999999, 12.810397399999976], [42.89210359999997, 12.803862199999974], [42.85415560000003, 12.839694899999957], [42.80071619999996, 12.840716899999963], [42.760805299999966, 12.872057200000034], [42.74721490000001, 12.953322900000034], [42.74461459999998, 13.0041289], [42.712167, 13.0527499], [42.65889910000004, 13.0748674], [42.63324240000003, 13.120729], [42.584528, 13.158645100000014], [42.546856499999954, 13.194595399999956], [42.493097, 13.183388400000032], [42.4423072, 13.1904825], [42.39115359999998, 13.20695969999998], [42.37891250000003, 13.258071], [42.369422, 13.309466699999964], [42.35843689999998, 13.376808400000032], [42.3398407, 13.4417507], [42.302883, 13.500571], [42.2956992, 13.55430050000003], [42.254126299999974, 13.599671299999963], [42.213433500000036, 13.647229699999977], [42.2221763, 13.597385700000034], [42.23669539999996, 13.5481193], [42.19378070000003, 13.58381], [42.16389719999997, 13.629292900000026], [42.112235700000014, 13.635390399999961], [42.08926649999997, 13.684029599999961], [42.063971400000035, 13.728261], [42.0328763, 13.772160800000025], [42.002410099999956, 13.81734880000002], [41.961626, 13.852147299999965], [41.913946600000024, 13.87344120000004], [41.8608674, 13.8635145], [41.820003899999975, 13.904919199999958], [41.76452410000002, 13.915336800000025], [41.71841720000002, 13.939025], [41.67346670000004, 13.9724764], [41.65225319999996, 14.030635699999975], [41.61166150000003, 14.07870709999998], [41.568027600000015, 14.115735799999976], [41.5346914, 14.1547099], [41.51296449999999, 14.2064331], [41.47434259999997, 14.258846800000017], [41.432764699999986, 14.2958377], [41.40351480000003, 14.35098030000003], [41.36750160000004, 14.39228460000003], [41.335314, 14.434319700000012], [41.314933, 14.481901], [41.28193210000001, 14.5239399], [41.23282339999998, 14.556086900000023], [41.19622360000003, 14.597893700000034], [41.147663800000025, 14.635171699999963], [41.07777909999996, 14.656685], [41.02083689999997, 14.6700195], [40.968949, 14.674869199999977], [40.926617400000026, 14.7049713], [40.87520460000004, 14.726770499999967], [40.824075, 14.720354], [40.7732272, 14.715855], [40.734883299999986, 14.752978799999964], [40.74455589999996, 14.8041636], [40.7229436, 14.8499173], [40.686284, 14.8862504], [40.630809699999965, 14.888068], [40.637441499999966, 14.941985400000016], [40.58619489999997, 14.944407599999968], [40.56214429999997, 14.9891367], [40.5225728, 14.958235400000023], [40.466921, 14.9763743], [40.416256200000014, 14.986730300000032], [40.36456730000001, 14.966190299999985], [40.32817, 14.929566], [40.27804329999997, 14.925389199999964], [40.22957359999996, 14.9468629], [40.180954, 14.971851699999986], [40.16493149999997, 15.022944699999977], [40.12708010000003, 15.058559100000016], [40.088289, 15.094431099999964], [40.084441500000025, 15.146233500000031], [40.049495599999965, 15.186332], [40.02823990000003, 15.234350100000041], [40.05501229999999, 15.2818875], [40.08906370000002, 15.322945], [40.0495937, 15.36615810000003], [39.9910487, 15.394636600000014], [39.95349, 15.427649600000018], [39.903454699999976, 15.465473800000021], [39.8714821, 15.506437099999962], [39.84736479999999, 15.456420500000037], [39.8365081, 15.39875], [39.8141223, 15.4470123], [39.780754799999976, 15.40333270000002], [39.7842791, 15.35153350000004], [39.77838229999996, 15.300797700000027], [39.79637679999998, 15.250621599999961], [39.84377079999998, 15.223009499999987], [39.85327790000003, 15.169527300000022], [39.825084700000026, 15.12594569999998], [39.81428279999996, 15.0711055], [39.764652899999966, 15.063290900000018], [39.717010400000014, 15.088825200000025], [39.69501719999999, 15.1351434], [39.700096, 15.187174], [39.715138, 15.23578969999996], [39.69275370000002, 15.28903390000004], [39.662074500000024, 15.330544599999977], [39.6483242, 15.391648699999974], [39.62280279999998, 15.471851200000023], [39.60031040000004, 15.519073699999955], [39.536491, 15.536103700000018], [39.48913510000004, 15.51482849999998], [39.45734670000002, 15.5601156], [39.469647700000046, 15.60890110000003], [39.464595900000035, 15.6627827], [39.4485419, 15.718296], [39.429789300000046, 15.770389499999975], [39.40594079999999, 15.8231028], [39.362575, 15.8566416], [39.3182967, 15.896960299999979], [39.29361220000004, 15.952317099999973], [39.2736273, 16.00238179999997], [39.24134609999998, 16.074061300000036], [39.22911240000001, 16.14151030000001], [39.21790619999998, 16.2066194], [39.210425900000025, 16.26230109999997], [39.20329820000003, 16.320601900000014], [39.1950494, 16.371417599999976], [39.19459839999998, 16.4214505], [39.177479600000034, 16.476466699999975], [39.148603500000014, 16.527318199999968], [39.150714599999986, 16.578510900000037], [39.142472300000044, 16.632105], [39.149192, 16.682339200000012], [39.123966900000035, 16.735686099999974], [39.11169859999996, 16.7887654], [39.091529200000025, 16.837982899999975], [39.06412820000002, 16.895187199999977], [39.0538411, 16.951095699999968], [39.042074, 16.999790200000014], [39.01423540000003, 17.095115499999974], [38.997357899999976, 17.15849160000002], [38.976851799999984, 17.211045299999988], [38.96598370000003, 17.274160699999957], [38.942103600000024, 17.324133499999988], [38.93631870000002, 17.378231500000012], [38.9145617, 17.43258050000002], [38.88943810000004, 17.483060700000024], [38.86095, 17.52657950000002], [38.83700009999997, 17.585296899999985], [38.81076670000002, 17.6293248], [38.77497120000001, 17.680551400000038], [38.7380766, 17.734345499999964], [38.70494370000003, 17.776288200000028], [38.673407900000036, 17.818742699999984], [38.64654990000002, 17.868413], [38.6331337, 17.91733210000001], [38.59429860000002, 17.9553795], [38.568022, 18.002343699999972], [38.58161189384445, 18.01964283140866]]]]}}]}