{"type": "FeatureCollection", "features": [{"type": "Feature", "properties": {"code": "ESP", "name": "Spain", "tier": "country"}, "geometry": {"type": "MultiPolygon", "coordinates": [[[[-17.99587062, 27.824568479999968], [-17.99587062, 27.824568479999968]]], [[[-17.9251583, 27.849379039999963], [-17.97174927, 27.829478159999976], [-18.00208158, 27.789589709999973], [-18.05573024, 27.75903238], [-18.10596739999998, 27.756786949999984], [-18.15205652999998, 27.73225442], [-18.10764592, 27.700610989999973], [-18.05052577000001, 27.6926031], [-18.009969540000018, 27.64982319999997], [-17.96663456, 27.679430060000023], [-17.94902394, 27.72877679000002], [-17.909955949999976, 27.76451892], [-17.883588720000027, 27.81334431], [-17.92164147, 27.847222709999986], [-17.9251583, 27.849379039999963]]], [[[-15.419583880000017, 28.18095647], [-15.44644033000001, 28.130724790000027], [-15.496324689999977, 28.14332354], [-15.55988737, 28.14686859], [-15.61198674000002, 28.146922649999976], [-15.66641288, 28.15803121000002], [-15.704816230000027, 28.12519517000002], [-15.71994862, 28.07264389], [-15.765643190000024, 28.046199919999975], [-15.814192830000012, 28.01740784], [-15.834231189999988, 27.970907319999988], [-15.834436670000017, 27.91895977000001], [-15.80663466, 27.872623849999986], [-15.77875477, 27.82994], [-15.738587970000012, 27.79850326999998], [-15.69599852999998, 27.76961598000004], [-15.647127240000023, 27.751246890000026], [-15.598963930000021, 27.734542880000014], [-15.55087496, 27.765005100000018], [-15.49547440000002, 27.78972834000002], [-15.446202189999983, 27.79888193], [-15.416178879999975, 27.844318120000036], [-15.393986849999983, 27.890289], [-15.361649829999987, 27.92850744999997], [-15.381386539999982, 27.976066469999985], [-15.387310369999975, 28.02937180000002], [-15.417162199999984, 28.070922879999962], [-15.42104382000001, 28.12096574999999], [-15.404256299999986, 28.1680935], [-15.419583880000017, 28.18095647]]], [[[-17.260640559999985, 28.21793716], [-17.30888226, 28.20256459], [-17.338459909999976, 28.160177370000017], [-17.346692, 28.105111519999966], [-17.318901619999984, 28.06310097], [-17.272989540000026, 28.03576837000001], [-17.21932975000001, 28.02535506000001], [-17.167907199999973, 28.035936900000014], [-17.1281022, 28.07393995000002], [-17.10600708000003, 28.12332213], [-17.14950661000001, 28.16277370999998], [-17.19285422, 28.19330791], [-17.24508466000001, 28.200909149999973], [-17.260640559999985, 28.21793716]]], [[[-17.27051194, 28.21850985], [-17.27051194, 28.21850985]]], [[[-16.15653677, 28.58769879000001], [-16.20506499, 28.57131303], [-16.257130229999973, 28.5693993], [-16.30709868000001, 28.57446596], [-16.354069539999976, 28.553022699999985], [-16.402079, 28.53360334], [-16.428698500000014, 28.489198640000023], [-16.46747509000002, 28.455221400000024], [-16.507334619999973, 28.42333165], [-16.562267499999983, 28.411127049999973], [-16.61732003000002, 28.39410250999999], [-16.66727155, 28.401263290000013], [-16.719436940000012, 28.387696059999982], [-16.76824005000002, 28.37274148], [-16.817554369999982, 28.38364828999999], [-16.87012104000002, 28.3755885], [-16.92040713000001, 28.356099269999977], [-16.88070271999998, 28.313069709999976], [-16.85024606, 28.272842440000016], [-16.83977808, 28.22052599], [-16.80694139, 28.17451634], [-16.783939239999977, 28.12845928], [-16.74304557, 28.08939906], [-16.71726954, 28.04588376], [-16.691267080000014, 27.99892513], [-16.63832609, 28.00646517000003], [-16.59172718000002, 28.02750291000001], [-16.54137736, 28.02892726], [-16.506692500000025, 28.067771429999976], [-16.47218171, 28.10834286], [-16.432801440000027, 28.1415002], [-16.42211546000003, 28.193656309999984], [-16.401511780000025, 28.241082199999987], [-16.37933966000001, 28.28857151999997], [-16.36731217, 28.34127029000001], [-16.34379467999997, 28.392020320000015], [-16.296696470000015, 28.419827589999976], [-16.25393421, 28.45051963], [-16.219666099999987, 28.48944121], [-16.175597330000027, 28.513643820000013], [-16.12711187, 28.53204914], [-16.13630582, 28.581727889999957], [-16.15653677, 28.58769879000001]]], [[[-16.15853913000002, 28.594245960000016], [-16.15853913000002, 28.594245960000016]]], [[[-16.156539389999978, 28.602977150000022], [-16.156539389999978, 28.602977150000022]]], [[[-13.890152060000029, 28.75659840999996], [-13.938030879999973, 28.74090077999997], [-13.98739219, 28.72706804999999], [-14.01365315999998, 28.68250879000001], [-14.02860551, 28.63326268000003], [-14.039753940000018, 28.58204777000001], [-14.06945407, 28.54084153000004], [-14.08970742, 28.49443024], [-14.127320989999987, 28.45673253], [-14.15773157, 28.411973129999986], [-14.17145066, 28.362111539999976], [-14.204822970000022, 28.31927733], [-14.211839440000011, 28.2643462], [-14.22257837, 28.21509518], [-14.282477229999985, 28.16781406], [-14.330475320000012, 28.13582039000002], [-14.42466957999998, 28.103319169999967], [-14.47699817999998, 28.10366556], [-14.437988149999981, 28.068207890000018], [-14.377772670000017, 28.05171945999998], [-14.32109595, 28.05067228999998], [-14.283037050000017, 28.09128604000001], [-14.23345764000001, 28.14709381], [-14.191013689999977, 28.174924489999956], [-14.13919677, 28.18391910000001], [-14.08110856999998, 28.19780767000002], [-14.027648710000012, 28.20525385], [-13.97608336999998, 28.229059080000017], [-13.92682249000002, 28.241880979999983], [-13.896903510000024, 28.28810767999997], [-13.88018176, 28.33723492], [-13.86370879, 28.384677259999982], [-13.862422980000026, 28.439439300000014], [-13.862526980000018, 28.493762109999984], [-13.83316240000002, 28.535012529999985], [-13.82799214, 28.585667759999964], [-13.83030368999997, 28.639382700000013], [-13.83102266, 28.693662959999983], [-13.8661702, 28.7334509], [-13.890152060000029, 28.75659840999996]]], [[[-13.81284752, 28.76517408999997], [-13.81284752, 28.76517408999997]]], [[[-17.961653120000015, 28.82956035], [-17.961653120000015, 28.82956035]]], [[[-17.91044702000002, 28.85742913999997], [-17.95480586, 28.83091664999999], [-17.994933430000017, 28.795982520000017], [-17.994505349999987, 28.74384706999997], [-17.97046415, 28.69918053000002], [-17.94920919, 28.651633400000016], [-17.923139599999978, 28.606634740000022], [-17.89370588000001, 28.56030157], [-17.874473, 28.51202267999996], [-17.85815530999998, 28.4638446], [-17.817146480000012, 28.49451637], [-17.789712370000018, 28.53703612], [-17.760931079999974, 28.581287249999967], [-17.75450835000002, 28.63742991000002], [-17.759582529999975, 28.687198309999967], [-17.731672679999985, 28.728775939999963], [-17.753208119999975, 28.77803323000003], [-17.7703356, 28.82556967], [-17.821957380000025, 28.83976233], [-17.88062659, 28.83766728999997], [-17.91044702000002, 28.85742913999997]]], [[[-13.54720467, 28.95370112], [-13.54720467, 28.95370112]]], [[[-13.44018605, 29.222665589999984], [-13.44018605, 29.222665589999984]]], [[[-13.467419730000021, 29.228797260000018], [-13.50664993, 29.19623698999997], [-13.524286890000026, 29.14921037999998], [-13.565917340000025, 29.11916731], [-13.621691640000021, 29.12667575], [-13.674959739999979, 29.1053554], [-13.723920449999975, 29.084981440000014], [-13.771771949999986, 29.06281640000003], [-13.81545165, 29.03339048999997], [-13.832458579999981, 28.981809360000018], [-13.829074529999977, 28.930226560000012], [-13.86624473, 28.89576055999995], [-13.824813829999984, 28.860793419999972], [-13.774521839999975, 28.84794698000001], [-13.74523488, 28.88862274], [-13.702388850000027, 28.91758587000001], [-13.64074368999997, 28.920303789999966], [-13.597938889999988, 28.948380139999983], [-13.545664460000026, 28.959799660000012], [-13.50195799, 28.98809263999997], [-13.463677179999989, 29.024532279999974], [-13.452094209999972, 29.08073072], [-13.45763774000001, 29.133055539999987], [-13.425908, 29.1731578], [-13.447249269999975, 29.22158992], [-13.467419730000021, 29.228797260000018]]], [[[-13.335533499999976, 29.277309769999984], [-13.335533499999976, 29.277309769999984]]], [[[-13.50788918000002, 29.29054488999997], [-13.5261601, 29.242298779999977], [-13.47824068999998, 29.259912710000012], [-13.50788918000002, 29.29054488999997]]], [[[-13.533745360000013, 29.30350117999998], [-13.533745360000013, 29.30350117999998]]], [[[-13.5048334, 29.41540513999997], [-13.5048334, 29.41540513999997]]], [[[-4.30102812, 35.17322854], [-4.30102812, 35.17322854]]], [[[-2.439803380000014, 35.182884500000014], [-2.439803380000014, 35.182884500000014]]], [[[-2.43090072, 35.18409490000001], [-2.43090072, 35.18409490000001]]], [[[-2.42353336, 35.18485659000001], [-2.42353336, 35.18485659000001]]], [[[-3.900019280000023, 35.21768231999999], [-3.900019280000023, 35.21768231999999]]], [[[-2.94984418000001, 35.31665525], [-2.9504067, 35.265586760000026], [-2.94984418000001, 35.31665525]]], [[[-5.41651777, 35.912508310000014], [-5.41651777, 35.912508310000014]]], [[[-5.364086289999977, 35.91646703], [-5.328391, 35.87853576000001], [-5.27833923, 35.89759953999999], [-5.33503314000003, 35.89395156000001], [-5.364086289999977, 35.91646703]]], [[[-3.03103498, 35.941521829999964], [-3.03103498, 35.941521829999964]]], [[[-6.21920767, 36.38601641], [-6.21920767, 36.38601641]]], [[[-6.22077823, 36.38113506999997], [-6.22077823, 36.38113506999997]]], [[[-6.31542703, 36.528643039999984], [-6.31542703, 36.528643039999984]]], [[[-6.469162090000022, 36.73804310000003], [-6.469162090000022, 36.73804310000003]]], [[[-1.545750769999987, 37.40959053999996], [-1.545750769999987, 37.40959053999996]]], [[[-1.26628947, 37.55728735], [-1.26628947, 37.55728735]]], [[[-0.967590340000015, 37.55994630999999], [-0.967590340000015, 37.55994630999999]]], [[[-1.207749959999988, 37.57144545], [-1.207749959999988, 37.57144545]]], [[[-0.748609550000012, 37.66502172], [-0.748609550000012, 37.66502172]]], [[[-0.738977280000023, 37.66938814999996], [-0.738977280000023, 37.66938814999996]]], [[[-0.77050152, 37.70243909], [-0.77050152, 37.70243909]]], [[[-0.79635729, 37.70104207999998], [-0.79635729, 37.70104207999998]]], [[[-0.706122830000011, 37.730445389999986], [-0.706122830000011, 37.730445389999986]]], [[[-0.757429799999987, 37.78230278], [-0.757429799999987, 37.78230278]]], [[[-0.759139100000028, 37.78435391], [-0.759139100000028, 37.78435391]]], [[[-0.757602589999977, 37.78860512], [-0.757602589999977, 37.78860512]]], [[[-0.75918624, 37.78880649], [-0.75918624, 37.78880649]]], [[[-0.761734, 37.79054913], [-0.761734, 37.79054913]]], [[[-0.480200040000017, 38.16696416000001], [-0.480200040000017, 38.16696416000001]]], [[[-0.129632840000022, 38.50334244], [-0.129632840000022, 38.50334244]]], [[[0.230721509999988, 38.75692065], [0.230721509999988, 38.75692065]]], [[[1.435888790000031, 38.76176055000001], [1.39447786, 38.73357994000001], [1.387596830000012, 38.66607401], [1.44205939, 38.68383402999998], [1.509207290000016, 38.66625516], [1.5683242, 38.650431519999984], [1.506082190000021, 38.68278684], [1.47067057, 38.72070694999998], [1.435888790000031, 38.76176055000001]]], [[[1.418791190000025, 38.79384457], [1.418791190000025, 38.79384457]]], [[[1.423417309999981, 38.79657437999996], [1.423417309999981, 38.79657437999996]]], [[[1.42304928, 38.79916459000002], [1.42304928, 38.79916459000002]]], [[[1.477849510000027, 38.80025226999999], [1.477849510000027, 38.80025226999999]]], [[[1.410488379999974, 38.81823293], [1.410488379999974, 38.81823293]]], [[[1.211383370000016, 38.87000418999998], [1.211383370000016, 38.87000418999998]]], [[[1.20023223, 38.87067077], [1.20023223, 38.87067077]]], [[[1.198605560000021, 38.95969571000002], [1.198605560000021, 38.95969571000002]]], [[[1.217469860000027, 38.97047338], [1.217469860000027, 38.97047338]]], [[[1.16518581, 38.97303297000002], [1.16518581, 38.97303297000002]]], [[[1.16098646, 38.98008502], [1.16098646, 38.98008502]]], [[[1.58467534, 38.98483859], [1.58467534, 38.98483859]]], [[[1.214773699999986, 38.9895881], [1.214773699999986, 38.9895881]]], [[[1.64143185000002, 39.04152338], [1.64143185000002, 39.04152338]]], [[[1.3152744, 39.04956764], [1.3152744, 39.04956764]]], [[[1.53252656, 39.11838686], [1.484003029999981, 39.10331317999999], [1.43778156000001, 39.081257979999975], [1.38654592, 39.07814571], [1.341747830000014, 39.053019259999985], [1.293926350000012, 39.03154342000001], [1.29847871, 38.97896281000003], [1.246116329999981, 38.96773575000001], [1.22068301, 38.922758360000024], [1.22416898, 38.87081214000001], [1.274605130000016, 38.87759654], [1.32042082, 38.85578323000002], [1.37070524, 38.84396099], [1.41040342, 38.89137220000001], [1.458080879999985, 38.90676195000001], [1.505213359999978, 38.93311822000002], [1.532109089999989, 38.97653014], [1.581341340000024, 38.98933945999999], [1.621538239999974, 39.02770188], [1.59148744, 39.07507139], [1.54607868, 39.10281549], [1.53252656, 39.11838686]]], [[[2.958650910000019, 39.12625656999998], [2.958650910000019, 39.12625656999998]]], [[[2.951196449999987, 39.16547958], [2.951196449999987, 39.16547958]]], [[[2.976637659999972, 39.16973177000001], [2.976637659999972, 39.16973177000001]]], [[[2.966220830000017, 39.190463860000015], [2.966220830000017, 39.190463860000015]]], [[[2.973594070000015, 39.19807117], [2.973594070000015, 39.19807117]]], [[[2.974890069999985, 39.20098205], [2.974890069999985, 39.20098205]]], [[[3.012036990000011, 39.30530411999998], [3.012036990000011, 39.30530411999998]]], [[[3.002317779999979, 39.31009846999998], [3.002317779999979, 39.31009846999998]]], [[[2.454390590000014, 39.50050094], [2.454390590000014, 39.50050094]]], [[[2.54330014999998, 39.505209079999965], [2.54330014999998, 39.505209079999965]]], [[[2.588837590000031, 39.53080717000003], [2.588837590000031, 39.53080717000003]]], [[[2.59259901, 39.53424453999996], [2.59259901, 39.53424453999996]]], [[[2.348796610000018, 39.57634821], [2.348796610000018, 39.57634821]]], [[[2.33858045, 39.59769911], [2.33858045, 39.59769911]]], [[[4.290020530000032, 39.80231868], [4.290020530000032, 39.80231868]]], [[[2.710501939999979, 39.81581474], [2.710501939999979, 39.81581474]]], [[[4.222849539999979, 39.82373149999997], [4.222849539999979, 39.82373149999997]]], [[[3.16998951, 39.83604333], [3.16998951, 39.83604333]]], [[[0.671846039999976, 39.87606643999996], [0.671846039999976, 39.87606643999996]]], [[[4.30610703, 39.8782969], [4.30610703, 39.8782969]]], [[[4.287254319999982, 39.88566995], [4.287254319999982, 39.88566995]]], [[[0.68866454000003, 39.90040822], [0.68866454000003, 39.90040822]]], [[[3.14796869, 39.921613249999986], [3.14796869, 39.921613249999986]]], [[[3.13136075, 39.94425698], [3.13136075, 39.94425698]]], [[[3.213645110000012, 39.95751374000002], [3.15973804, 39.95564561000002], [3.113581519999989, 39.93099538], [3.060298660000024, 39.9198363], [3.007725409999984, 39.92636609999998], [2.956499100000031, 39.915303349999974], [2.90841311, 39.89507558], [2.85365585, 39.87438717000002], [2.804471320000022, 39.86235882], [2.75500548000003, 39.82896393999998], [2.70420039, 39.80857277000003], [2.665621010000026, 39.77561731000003], [2.622859740000023, 39.7479337], [2.57857016, 39.7142822], [2.52787252, 39.70155438999997], [2.481760030000024, 39.67230025], [2.435097430000026, 39.64379093999999], [2.39064439, 39.61741876000002], [2.34461945, 39.58718223000002], [2.372162609999983, 39.544300559999975], [2.423618050000012, 39.53682698], [2.47276316, 39.51951672], [2.47608288, 39.46626150000002], [2.52594568, 39.47439575000001], [2.541042570000031, 39.524834], [2.590316420000024, 39.53655213000004], [2.63932808, 39.55026768], [2.689952329999977, 39.55170997999997], [2.739688240000018, 39.520295], [2.730301700000014, 39.4625257], [2.739524189999981, 39.41131299], [2.785003789999986, 39.36842510999998], [2.836099950000021, 39.36589509000003], [2.886911140000012, 39.36504530000001], [2.938614779999984, 39.36429086], [2.990796449999975, 39.33676998], [3.025739729999986, 39.287730799999984], [3.072913220000011, 39.26863469], [3.10996797, 39.30220697999997], [3.160483880000025, 39.32587337], [3.215322170000013, 39.354925550000026], [3.250327269999976, 39.39066362000002], [3.277027449999987, 39.43544007], [3.288467529999979, 39.484745109999984], [3.32429856, 39.52590016999998], [3.368317110000026, 39.55091699000002], [3.38608074, 39.60184844], [3.42669595, 39.63230502], [3.45675789, 39.67986289999999], [3.457614169999977, 39.73346879000002], [3.409978440000023, 39.756964749999966], [3.360396879999981, 39.77852824999999], [3.307952860000027, 39.75464103000003], [3.26044017000002, 39.73538619], [3.20204668, 39.74834217000003], [3.153159949999977, 39.76771686], [3.11794934, 39.81020458], [3.164597029999976, 39.83893432999997], [3.192732500000023, 39.88184092999998], [3.14261296, 39.86714653], [3.090755810000022, 39.86591045999999], [3.115981540000018, 39.91079296], [3.164567060000018, 39.928762619999986], [3.213645110000012, 39.95751374000002]]], [[[4.27805877999997, 39.96667564000003], [4.27805877999997, 39.96667564000003]]], [[[4.21227663, 40.01828486000002], [4.21227663, 40.01828486000002]]], [[[4.209490810000027, 40.01779144], [4.209490810000027, 40.01779144]]], [[[4.03206825000003, 40.06867130999998], [4.03206825000003, 40.06867130999998]]], [[[4.094162800000023, 40.08796691], [4.05353114, 40.05672993], [3.997443290000029, 40.05762282999998], [3.942062080000019, 40.05632069000002], [3.890562669999984, 40.056755199999984], [3.839187819999987, 40.053102620000026], [3.798947400000023, 40.021673540000016], [3.830726179999984, 39.97988874999998], [3.820035289999974, 39.92815023999997], [3.870150909999985, 39.92201885999999], [3.921548060000021, 39.93193795999998], [3.97232511, 39.93424424000001], [4.02144413, 39.921649980000026], [4.07861188, 39.896022309999985], [4.12847296999998, 39.867284810000015], [4.17437748, 39.84473779000002], [4.22079476, 39.82580731000003], [4.270846160000019, 39.80896296000002], [4.30357726, 39.84719740000001], [4.276298690000018, 39.89085420999997], [4.32778473, 39.87696088], [4.285666469999984, 39.91210318999998], [4.26779677000002, 39.960058269999976], [4.234612680000017, 39.99822837], [4.19530615999998, 40.03220945], [4.155486120000019, 40.06791183], [4.126597069999977, 40.02614976], [4.092239250000024, 40.0630113], [4.094162800000023, 40.08796691]]], [[[4.076688579999984, 40.09186946999998], [4.076688579999984, 40.09186946999998]]], [[[0.64626774, 40.57671482], [0.64626774, 40.57671482]]], [[[0.642506249999988, 40.57596012000001], [0.642506249999988, 40.57596012000001]]], [[[0.635467440000011, 40.57989270000003], [0.635467440000011, 40.57989270000003]]], [[[0.64841274, 40.58444613000001], [0.64841274, 40.58444613000001]]], [[[0.651508479999974, 40.58532978], [0.651508479999974, 40.58532978]]], [[[3.22708984, 42.04480202999997], [3.22708984, 42.04480202999997]]], [[[3.22511981, 42.04922089999998], [3.22511981, 42.04922089999998]]], [[[-8.863753470000015, 42.1475471], [-8.863753470000015, 42.1475471]]], [[[-8.85501194, 42.14798605999997], [-8.85501194, 42.14798605999997]]], [[[-8.79975109, 42.20168178], [-8.79975109, 42.20168178]]], [[[-8.907402219999971, 42.20538759999998], [-8.907402219999971, 42.20538759999998]]], [[[-8.913557229999979, 42.25082568], [-8.913557229999979, 42.25082568]]], [[[3.295328370000015, 42.29433561], [3.295328370000015, 42.29433561]]], [[[-8.627988890000015, 42.30783144999998], [-8.627988890000015, 42.30783144999998]]], [[[3.31928568, 42.32488611], [3.31928568, 42.32488611]]], [[[3.30532598, 42.32816898], [3.30532598, 42.32816898]]], [[[-8.935072160000024, 42.34857715000002], [-8.935072160000024, 42.34857715000002]]], [[[-8.92134656, 42.39969939999999], [-8.944218789999974, 42.35508702], [-8.92134656, 42.39969939999999]]], [[[-8.70625513, 42.41004116], [-8.70625513, 42.41004116]]], [[[-8.8507638, 42.45770735999997], [-8.8507638, 42.45770735999997]]], [[[-8.942733309999984, 42.46415749], [-8.942733309999984, 42.46415749]]], [[[-8.856931169999982, 42.46372861], [-8.856931169999982, 42.46372861]]], [[[-8.85067594, 42.46418420000003], [-8.85067594, 42.46418420000003]]], [[[-8.849582319999975, 42.46718382], [-8.849582319999975, 42.46718382]]], [[[-8.94398908, 42.47712663], [-8.94398908, 42.47712663]]], [[[-8.8357537, 42.48278926], [-8.8357537, 42.48278926]]], [[[-9.012354330000019, 42.48294548], [-9.012354330000019, 42.48294548]]], [[[-8.996293150000026, 42.48844383], [-8.996293150000026, 42.48844383]]], [[[1.997126990000018, 42.48636887000003], [1.997126990000018, 42.48636887000003]]], [[[-8.83356912, 42.49027339999998], [-8.83356912, 42.49027339999998]]], [[[-8.81548542, 42.49763191999998], [-8.81548542, 42.49763191999998]]], [[[-9.005822449999982, 42.50003223], [-9.005822449999982, 42.50003223]]], [[[-8.84177415, 42.50063831], [-8.84177415, 42.50063831]]], [[[-9.04914001, 42.51045595999999], [-9.04914001, 42.51045595999999]]], [[[-9.04823496999998, 42.51141306000001], [-9.04823496999998, 42.51141306000001]]], [[[-8.907103620000028, 42.53426631999998], [-8.907103620000028, 42.53426631999998]]], [[[-8.897149579999976, 42.54331449999999], [-8.897149579999976, 42.54331449999999]]], [[[-8.906689659999977, 42.544945829999975], [-8.906689659999977, 42.544945829999975]]], [[[-8.915369260000027, 42.54751209], [-8.915369260000027, 42.54751209]]], [[[-8.939803140000024, 42.55109555], [-8.939803140000024, 42.55109555]]], [[[-8.837660880000012, 42.55194329], [-8.837660880000012, 42.55194329]]], [[[-8.87567274, 42.57445173], [-8.871754020000028, 42.52413501999999], [-8.87567274, 42.57445173]]], [[[-8.79623581999998, 42.60982044], [-8.79623581999998, 42.60982044]]], [[[-8.77851527, 42.6201887], [-8.77851527, 42.6201887]]], [[[-9.04272853000003, 42.662121710000015], [-9.04272853000003, 42.662121710000015]]], [[[-8.965392180000023, 42.77668665], [-8.965392180000023, 42.77668665]]], [[[-9.137259289999971, 42.80897845], [-9.137259289999971, 42.80897845]]], [[[-9.146298609999981, 42.81382069], [-9.146298609999981, 42.81382069]]], [[[-9.16990865, 42.86565662], [-9.16990865, 42.86565662]]], [[[-9.18508599, 42.881278649999985], [-9.18508599, 42.881278649999985]]], [[[-9.21264524, 43.16361671000002], [-9.21264524, 43.16361671000002]]], [[[-9.18692923, 43.16989445999997], [-9.18692923, 43.16989445999997]]], [[[-9.152167349999985, 43.19630568999998], [-9.152167349999985, 43.19630568999998]]], [[[-8.833874410000012, 43.35600077999998], [-8.833874410000012, 43.35600077999998]]], [[[-8.83354335000002, 43.36179698], [-8.83354335000002, 43.36179698]]], [[[-8.837626980000014, 43.36233155], [-8.837626980000014, 43.36233155]]], [[[-2.49367417, 43.3682552], [-2.49367417, 43.3682552]]], [[[-8.45313638000001, 43.3775234], [-8.45313638000001, 43.3775234]]], [[[-8.45005373, 43.37975033], [-8.45005373, 43.37975033]]], [[[-8.447758779999985, 43.38209257], [-8.447758779999985, 43.38209257]]], [[[-4.50026204, 43.39615660000003], [-4.50026204, 43.39615660000003]]], [[[-4.574322740000029, 43.39884399], [-4.574322740000029, 43.39884399]]], [[[-4.73025833, 43.418642679999984], [-4.73025833, 43.418642679999984]]], [[[-8.262178530000028, 43.41877087], [-8.262178530000028, 43.41877087]]], [[[-2.684214760000015, 43.42608251], [-2.684214760000015, 43.42608251]]], [[[-4.78822913, 43.43539072], [-4.78822913, 43.43539072]]], [[[-4.810627210000011, 43.43857713], [-4.810627210000011, 43.43857713]]], [[[-2.774347369999981, 43.45052719], [-2.774347369999981, 43.45052719]]], [[[-4.025137150000027, 43.45329077], [-4.025137150000027, 43.45329077]]], [[[-3.755477429999973, 43.47355045000001], [-3.755477429999973, 43.47355045000001]]], [[[-3.72911206, 43.47631378], [-3.72911206, 43.47631378]]], [[[-3.527653609999969, 43.49655671999998], [-3.527653609999969, 43.49655671999998]]], [[[-6.416530149999977, 43.56060255], [-6.416530149999977, 43.56060255]]], [[[-6.985220730000016, 43.56116131], [-6.985220730000016, 43.56116131]]], [[[-6.75333808, 43.566349919999986], [-6.75333808, 43.566349919999986]]], [[[-6.658755040000028, 43.56885362], [-6.658755040000028, 43.56885362]]], [[[-6.030875749999987, 43.59202530999998], [-6.030875749999987, 43.59202530999998]]], [[[-5.863133500000019, 43.66379868], [-5.863133500000019, 43.66379868]]], [[[-7.441500150000014, 43.70125789999997], [-7.441500150000014, 43.70125789999997]]], [[[-7.439358890000021, 43.715259480000014], [-7.439358890000021, 43.715259480000014]]], [[[-7.48872315, 43.73188194999997], [-7.48872315, 43.73188194999997]]], [[[-7.62953776, 43.7611747], [-7.62953776, 43.7611747]]], [[[-7.680294789999984, 43.787137269999974], [-7.721947160000013, 43.75654049999997], [-7.77023251, 43.73821894999998], [-7.817559749999987, 43.71234621000002], [-7.868241789999978, 43.69789689000001], [-7.861462729999978, 43.74747501000002], [-7.912428250000021, 43.75929025], [-7.952641970000019, 43.72811291], [-8.00039496, 43.70510713999998], [-8.05055733, 43.71206088], [-8.07596083, 43.668738], [-8.119238150000022, 43.64056890000004], [-8.16553400999997, 43.61266072999999], [-8.211941349999975, 43.59239874], [-8.25655169, 43.56026325], [-8.30863353, 43.56521286999998], [-8.32853532, 43.51849708000002], [-8.34406637999997, 43.46921942999998], [-8.288408460000012, 43.462299629999976], [-8.247325170000021, 43.49333076], [-8.194488350000029, 43.481130549999975], [-8.15221128, 43.51527859999997], [-8.18451176, 43.47666928000001], [-8.231599110000015, 43.45508135], [-8.284639089999972, 43.45975569], [-8.25103501000001, 43.419014640000015], [-8.19818702, 43.42664013], [-8.2181204, 43.37798884999997], [-8.20881737, 43.32783805], [-8.252846510000031, 43.354419190000016], [-8.29651741, 43.38520362000003], [-8.35061938, 43.396145219999966], [-8.34991178999998, 43.34600828999998], [-8.402042739999988, 43.35963757], [-8.45381148, 43.37020829], [-8.49993465, 43.34294837], [-8.542799640000013, 43.31379398999997], [-8.604010510000014, 43.31782338999997], [-8.65709986, 43.3032647], [-8.706662450000028, 43.29065831000001], [-8.757344760000018, 43.29739111], [-8.80539653999998, 43.32098784000002], [-8.85575506, 43.321679560000014], [-8.91180499, 43.32091944], [-8.95310639999998, 43.29220501], [-8.948625210000015, 43.24157854], [-8.99599030999997, 43.21626810999999], [-9.04350536, 43.19522404999996], [-9.093277419999986, 43.18873935], [-9.146182380000027, 43.19429718], [-9.18743287, 43.16102753], [-9.167340580000014, 43.105217319999966], [-9.21846676, 43.11436667], [-9.252527730000027, 43.07722637], [-9.299371930000026, 43.05620331], [-9.275390839999979, 43.0087381], [-9.278824659999975, 42.956655829999974], [-9.275190169999982, 42.90611505], [-9.23197982, 42.93154629], [-9.183118649999987, 42.91609512], [-9.13335828000002, 42.91092388], [-9.14604407, 42.861416519999985], [-9.107568, 42.82165292], [-9.126670629999985, 42.77094897], [-9.078371800000015, 42.73882214], [-9.06388022, 42.78690582000004], [-9.013913209999975, 42.79917339999998], [-8.966328589999986, 42.77917619], [-8.91740333, 42.79724298], [-8.87572147, 42.82891410000002], [-8.91006222000003, 42.79205130000001], [-8.949135309999981, 42.76009888999999], [-8.995664170000019, 42.73443918000001], [-9.03111572000001, 42.69754544], [-9.04053008999997, 42.6373575], [-9.07369897000002, 42.59932991999998], [-9.031694680000026, 42.55533359000002], [-8.97772146000001, 42.56894734], [-8.930626429999986, 42.58699451999998], [-8.90250403, 42.63322693], [-8.85739378999998, 42.60637528999999], [-8.851123700000016, 42.65934883000001], [-8.80389496000001, 42.637346419999986], [-8.74918350000002, 42.65154707], [-8.76885625, 42.60183594], [-8.825842739999981, 42.57794119000003], [-8.82577249000003, 42.52657091000001], [-8.826137880000015, 42.47408019], [-8.869431480000024, 42.44805391], [-8.85855246, 42.49806855], [-8.908765650000019, 42.47538078], [-8.871186530000015, 42.43526210000001], [-8.84567821, 42.39093060000001], [-8.79184797, 42.39622850999997], [-8.741388179999982, 42.41364648], [-8.695183160000015, 42.43768092], [-8.715215810000013, 42.38971671], [-8.749980119999984, 42.35081224000001], [-8.799913610000026, 42.33205836], [-8.82323079, 42.286673], [-8.86855845, 42.25605256999999], [-8.81794793, 42.255444160000025], [-8.765902150000015, 42.25835135000001], [-8.72132658, 42.28501367], [-8.67080581999999, 42.29105088999999], [-8.63752634, 42.33348591], [-8.610865120000016, 42.28751332], [-8.66119465, 42.28488365], [-8.705367339999972, 42.25535722000003], [-8.750386020000013, 42.22651852], [-8.797041149999979, 42.19787635], [-8.83183454, 42.15323946], [-8.868431590000027, 42.11487321], [-8.896751180000024, 42.06681369000001], [-8.88677781, 42.01734003], [-8.88578712, 41.96473905999998], [-8.88217089, 41.91208416999998], [-8.839154799999973, 41.88633614], [-8.785061560000011, 41.91849318999998], [-8.745581059999969, 41.95094536], [-8.699313800000029, 41.983362450000016], [-8.658143110000019, 42.01890307], [-8.594461730000013, 42.05514521], [-8.543526780000013, 42.05560825999998], [-8.485164239999975, 42.082124850000014], [-8.43441618, 42.077417], [-8.381041959999989, 42.07727533], [-8.325414419999975, 42.09017745], [-8.27436963, 42.12329566], [-8.22313847, 42.13336192], [-8.185964429999977, 42.09704334], [-8.137728919999985, 42.07608193999999], [-8.08804314, 42.057279680000015], [-8.10992568, 42.00724715000002], [-8.16347636, 41.98270543000002], [-8.198345100000022, 41.93974049], [-8.197563170000011, 41.87990608000001], [-8.165109820000028, 41.818272250000014], [-8.114128040000011, 41.81133132], [-8.0643332, 41.81745966999998], [-8.013264149999982, 41.82881700999998], [-7.98086185, 41.87236564999998], [-7.92272460999997, 41.87968681000002], [-7.905780899999987, 41.92736652000002], [-7.884278959999983, 41.88139564], [-7.830698099999977, 41.88006641], [-7.77836007, 41.887285539999986], [-7.713726479999971, 41.90442296], [-7.66339625, 41.88658467000001], [-7.60757491, 41.87942520999997], [-7.613587439999978, 41.82927578000002], [-7.55904162, 41.83452890999999], [-7.50540646, 41.85047079000002], [-7.452800339999973, 41.86514113999996], [-7.42408416, 41.81665043000001], [-7.36889593, 41.84966869999998], [-7.315809319999977, 41.84283759], [-7.251645079999975, 41.86723231], [-7.197290020000018, 41.880058470000016], [-7.179589810000011, 41.93169618000001], [-7.16408563999997, 41.97964979], [-7.11400127, 41.98296261], [-7.068991580000022, 41.94935372000002], [-7.01727628, 41.9494582], [-6.957857179999987, 41.96929122999999], [-6.912427130000019, 41.944251609999974], [-6.844417120000013, 41.94230252000002], [-6.81148444, 41.99252253000003], [-6.750622329999968, 41.94339262], [-6.69927321, 41.9333279], [-6.635594070000027, 41.94215462000002], [-6.58908243, 41.96292657], [-6.545849889999978, 41.93593324000002], [-6.571185139999971, 41.88362058000002], [-6.517938700000015, 41.87536957999997], [-6.531570759999981, 41.82342365000002], [-6.549823319999986, 41.77685334999996], [-6.556667260000011, 41.72679813], [-6.53463869, 41.67650062], [-6.488366060000017, 41.65752840999998], [-6.44449318, 41.68483343], [-6.37499708, 41.67380384], [-6.323611289999973, 41.66699994000002], [-6.253542720000024, 41.63311087999998], [-6.208501, 41.59942751], [-6.217522240000017, 41.54316904], [-6.250488670000014, 41.500634770000026], [-6.28738332, 41.46534548], [-6.310334209999983, 41.41899149000001], [-6.343185509999977, 41.37978386000001], [-6.393851269999983, 41.3778034], [-6.42717093, 41.334280349999986], [-6.469235660000018, 41.30111083], [-6.51181029999997, 41.26421847], [-6.566740820000019, 41.24305727], [-6.619887150000011, 41.24767318], [-6.670516119999973, 41.2238513], [-6.701317200000025, 41.18039396999998], [-6.74592062, 41.146755040000016], [-6.757238829999983, 41.09798113], [-6.790424330000011, 41.056745520000014], [-6.83604503, 41.02824371999998], [-6.91510695999997, 41.038927059999985], [-6.90383641, 40.98935676], [-6.860172210000021, 40.94889969], [-6.838779200000023, 40.889502859999965], [-6.800304429999973, 40.84827258], [-6.828018159999978, 40.777246519999984], [-6.817484, 40.72555280999998], [-6.80547994999998, 40.66868309999999], [-6.820888620000023, 40.61008728], [-6.84482015, 40.565875859999984], [-6.80397695, 40.53117144], [-6.82272376, 40.48374935], [-6.84135487, 40.42272983], [-6.803755689999987, 40.38182818999997], [-6.794182350000023, 40.32879304], [-6.846755910000018, 40.308052239999974], [-6.87113811, 40.26250673], [-6.92557382, 40.25878816999998], [-6.972214010000023, 40.23667075999998], [-7.019068979999972, 40.20439617], [-7.014228170000024, 40.15404332], [-6.97522106, 40.11652266000003], [-6.92236019, 40.0874737], [-6.88794536, 40.047712740000016], [-6.87406685, 39.9950969], [-6.885769, 39.94044245999998], [-6.906878799999979, 39.88990912], [-6.936504199999988, 39.84335204], [-6.98108901, 39.82034871], [-6.98337605, 39.76858367999997], [-6.99490604, 39.71714015], [-7.01534115, 39.67079168999997], [-7.06806921, 39.65759772999997], [-7.126172009999977, 39.66399256], [-7.20154739, 39.66238453000002], [-7.286510250000013, 39.66158894999998], [-7.332841320000012, 39.64117139000002], [-7.390238600000029, 39.650494170000016], [-7.452833070000025, 39.66321773], [-7.53119851, 39.66781731], [-7.50982617, 39.61820423000001], [-7.469893319999978, 39.57797535], [-7.429744629999968, 39.53450716999998], [-7.389919330000031, 39.50363747999997], [-7.34380235, 39.47862646999999], [-7.29544962, 39.45732646], [-7.306643830000014, 39.40735292999998], [-7.306403259999974, 39.35594747], [-7.26898702, 39.30942590999998], [-7.247877559999989, 39.25352495], [-7.231107850000016, 39.20334253], [-7.177154469999983, 39.18069706999998], [-7.136102480000014, 39.14508517], [-7.10579723, 39.099316330000015], [-7.055789099999988, 39.115525], [-7.00528855, 39.10246699000001], [-6.969314280000031, 39.06764532000001], [-6.96405447, 39.01228897], [-7.020436479999986, 38.94015012999997], [-7.038806570000023, 38.89138380999998], [-7.074792680000025, 38.84656694], [-7.115763900000026, 38.81691072], [-7.15768658, 38.78500014999997], [-7.20337952999997, 38.750543699999966], [-7.255302509999978, 38.725894149999974], [-7.268029680000015, 38.66933893], [-7.24413197, 38.62362958999997], [-7.275090030000016, 38.5760287], [-7.30207034, 38.52716181], [-7.322620159999977, 38.478229949999985], [-7.299677029999983, 38.42534472], [-7.24586238000001, 38.36763395], [-7.201765239999975, 38.32856097], [-7.171745360000018, 38.28541206], [-7.14287239, 38.240475570000015], [-7.109919980000012, 38.19355724], [-7.056595359999972, 38.18587581], [-7.005054290000014, 38.2047071], [-6.947431610000014, 38.21737074999998], [-6.965392080000026, 38.16799907], [-6.97237058, 38.11478141000001], [-6.99011612, 38.05543268], [-7.038386730000024, 38.01741975], [-7.090127080000016, 38.038174660000024], [-7.13284686, 37.99994830000002], [-7.183573759999975, 37.99708097999997], [-7.2434919, 37.99204037999997], [-7.252483789999974, 37.941817319999984], [-7.28218383000001, 37.89745187000002], [-7.300512190000013, 37.84291323], [-7.341420289999983, 37.80670790000001], [-7.382139749999972, 37.77526039], [-7.428485059999981, 37.74057944], [-7.443943680000017, 37.68733664], [-7.466228809999981, 37.63757137000001], [-7.503855309999978, 37.60446341], [-7.522502090000024, 37.55706067999998], [-7.490894560000013, 37.50868051000001], [-7.466225930000025, 37.46243220999998], [-7.448933340000027, 37.4150888], [-7.436491789999986, 37.36404706999998], [-7.442143459999971, 37.31084720000001], [-7.430951559999983, 37.26044171999998], [-7.41372406, 37.21165626], [-7.382989409999984, 37.17192561], [-7.332146790000023, 37.18487799], [-7.27032002, 37.20183578999998], [-7.14566256, 37.20792781], [-7.072221389999979, 37.205776479999976], [-7.01712045, 37.19967013999998], [-6.958334359999985, 37.17310437], [-6.85540391000001, 37.13029202999998], [-6.8998756, 37.15496944999999], [-6.8347687, 37.13557086], [-6.71539188, 37.08353862], [-6.590591869999977, 37.019320809999975], [-6.5218839, 36.977163390000015], [-6.46213896, 36.92377426999999], [-6.39719513999997, 36.8072764], [-6.34657203, 36.7988377], [-6.389412559999979, 36.76596105999998], [-6.43519779, 36.74245418000001], [-6.41097981999998, 36.67359152], [-6.386201269999981, 36.62785068], [-6.3356074, 36.62453981000002], [-6.27958141, 36.60322665], [-6.23281693, 36.58491481], [-6.233572080000016, 36.53283700999997], [-6.173173539999979, 36.52131189], [-6.20689994, 36.48019132000001], [-6.257596640000027, 36.47311436], [-6.27606944, 36.52385568], [-6.25931401, 36.47309453], [-6.219035210000027, 36.40317829], [-6.182209389999988, 36.36857142], [-6.15246849, 36.30885876], [-6.102764669999976, 36.28410772999999], [-6.05367018, 36.20332919000003], [-6.00631109, 36.182648190000016], [-5.944717329999988, 36.18658669999997], [-5.88197964, 36.16344839], [-5.83911032, 36.12362940000002], [-5.797243830000016, 36.07827269999997], [-5.73119416, 36.06602520000001], [-5.670571319999989, 36.05778378999996], [-5.61230002, 36.01452573000001], [-5.55316127000003, 36.02355989999998], [-5.503680760000029, 36.04370248], [-5.451121579999974, 36.05561396999999], [-5.435868729999978, 36.10597648999998], [-5.444084779999986, 36.157103360000015], [-5.398674110000028, 36.18051049000001], [-5.352153920000011, 36.156214349999985], [-5.31664605, 36.22987247000003], [-5.28097484, 36.27686256000002], [-5.232225469999969, 36.350530050000025], [-5.19789351999997, 36.39319290000002], [-5.15065442, 36.41940615], [-5.08097927, 36.45056458], [-5.024202859999981, 36.46054508000002], [-4.97171152, 36.47814388999996], [-4.923305939999976, 36.50076492], [-4.87342627999998, 36.507917489999976], [-4.81108113, 36.49799616], [-4.74556825, 36.48505489], [-4.69484339, 36.49008569999999], [-4.647540069999987, 36.50718070999996], [-4.61466990999998, 36.54558820999997], [-4.569721449999974, 36.577385730000024], [-4.521611869999975, 36.591845800000016], [-4.481786569999978, 36.639382880000014], [-4.444908669999977, 36.68131849999999], [-4.40936581999997, 36.71697133999997], [-4.35200936, 36.71723074999997], [-4.296607109999972, 36.71256454999999], [-4.196410310000017, 36.71539803], [-4.10846755, 36.72533514], [-4.062318989999975, 36.74809333000001], [-4.00825224, 36.74070264], [-3.957185849999972, 36.726087609999986], [-3.896512699999972, 36.74356149], [-3.845229950000022, 36.75351023], [-3.79205343, 36.74627622], [-3.735612129999987, 36.72810358], [-3.684713449999976, 36.73085124], [-3.62865481, 36.74261953], [-3.57974051, 36.72340594999998], [-3.522174670000012, 36.71750747], [-3.474670129999969, 36.69672105], [-3.41991318, 36.69388967999998], [-3.372281599999973, 36.71234863], [-3.32256719, 36.74155754999999], [-3.258895830000019, 36.75340627], [-3.20205662000001, 36.75047063999998], [-3.143770720000015, 36.74399301], [-3.071179050000018, 36.745427180000014], [-3.01976294, 36.74068352], [-2.96714036, 36.74088418], [-2.900034910000014, 36.73972564], [-2.857927159999972, 36.6988799], [-2.797167190000028, 36.700530809999975], [-2.742803399999974, 36.683747700000026], [-2.690839060000028, 36.68841949], [-2.619648609999982, 36.72695818000001], [-2.5993259, 36.775688129999985], [-2.564390349999981, 36.814300939999974], [-2.502580750000028, 36.82462283], [-2.443274320000019, 36.82151062], [-2.371212460000019, 36.840333610000016], [-2.32031437, 36.83418453000002], [-2.27173052, 36.80477951], [-2.206473709999987, 36.73640117999998], [-2.15175035, 36.73117433], [-2.106196259999984, 36.762653489999984], [-2.061688869999982, 36.78704680999998], [-2.03406369999997, 36.82895922999998], [-2.001109810000013, 36.870198049999985], [-1.965123560000024, 36.90639789999997], [-1.91791457, 36.93569701], [-1.90076136000001, 36.98775686999998], [-1.875448909999983, 37.03632932], [-1.848976529999984, 37.09613377], [-1.823104869999982, 37.15216998000002], [-1.804958570000015, 37.21675994], [-1.76317970999998, 37.25460238999999], [-1.72361257, 37.2906148], [-1.68895682, 37.33933164], [-1.642541740000017, 37.37301304], [-1.597191439999973, 37.39643138999997], [-1.54718032, 37.41045534999998], [-1.50132684, 37.4309731], [-1.468792409999966, 37.47124015999999], [-1.427956360000021, 37.50373565000002], [-1.381373789999981, 37.52972987], [-1.332278029999971, 37.55630066999997], [-1.280035870000023, 37.55912879999999], [-1.226726900000021, 37.57575177], [-1.17393177, 37.56296892000001], [-1.12295692, 37.53836735], [-1.084960249999969, 37.57782547999999], [-1.031172719999981, 37.57912097000002], [-0.98270422, 37.59725453999998], [-0.943426949999974, 37.55929336999997], [-0.879312969999972, 37.56985634], [-0.82000524, 37.57502098], [-0.7705021, 37.597075889999985], [-0.720929510000024, 37.60560866], [-0.719580749999983, 37.65714642999998], [-0.74092232999997, 37.70988683], [-0.745739500000026, 37.76907599], [-0.744943640000018, 37.709693529999974], [-0.732962260000019, 37.661036139999965], [-0.786419130000027, 37.65078760999997], [-0.82887808000003, 37.68341539999999], [-0.859825370000026, 37.722758739999975], [-0.8044929, 37.77656644], [-0.775135379999981, 37.81848655], [-0.75829801, 37.86619811000001], [-0.732423089999976, 37.9126154], [-0.70355921, 37.95671502000001], [-0.66042483, 37.98326757], [-0.65177566999997, 38.034178460000014], [-0.643759559999979, 38.10398780000002], [-0.612860870000027, 38.17522499000002], [-0.562673569999973, 38.18643926999999], [-0.509723880000023, 38.20253750000001], [-0.51874058, 38.26777400999998], [-0.51385453, 38.31881338999999], [-0.466088889999978, 38.35076774999998], [-0.413869430000024, 38.35328456999997], [-0.400361620000022, 38.41221859], [-0.363953859999981, 38.447859200000025], [-0.318862800000017, 38.47123395000002], [-0.272583820000014, 38.49158977999998], [-0.22289888, 38.50829637000002], [-0.17203173, 38.51624978999999], [-0.125165949999974, 38.53518984], [-0.073296879999977, 38.54139896999999], [-0.054726669999983, 38.58796209], [-0.018074949999984, 38.624809], [0.03520461, 38.63386117000002], [0.080373820000013, 38.65626497], [0.13066016, 38.68700917], [0.17644005, 38.713439409999985], [0.2260567, 38.73265519000003], [0.19382902, 38.77284636], [0.168057250000015, 38.81770929], [0.12077291, 38.83635237], [0.05484393, 38.86306946999997], [-0.010449460000017, 38.87032895], [-0.074186380000015, 38.91419701], [-0.14836412, 38.98514179000003], [-0.19626898, 39.05323207], [-0.231384849999987, 39.12507898000001], [-0.238679080000012, 39.17603683], [-0.25352697, 39.24024265], [-0.282334859999974, 39.29100812999998], [-0.32521778000002, 39.38681886000002], [-0.334153130000022, 39.436535], [-0.32321276, 39.50009224], [-0.296108949999975, 39.54952636999999], [-0.26937274, 39.59392606], [-0.23821766, 39.63573615000002], [-0.20374351, 39.67215095000002], [-0.180211290000013, 39.73622455], [-0.141366740000023, 39.786529599999966], [-0.101903189999978, 39.83373298999997], [-0.062089640000024, 39.8680947], [-0.01292888, 39.90669663999996], [0.008435149999983, 39.965845839999986], [0.03528652, 40.010443489999986], [0.07255735, 40.04659699000001], [0.120658400000019, 40.06224256], [0.1581029, 40.11854873999998], [0.190507260000022, 40.17043323], [0.254793609999986, 40.20313943], [0.287540729999989, 40.24848196], [0.32979317, 40.27950821], [0.36288251, 40.319945630000014], [0.40005148, 40.35547912], [0.43000215, 40.41136229], [0.466397540000027, 40.46014431], [0.505595800000015, 40.50460496], [0.52996062, 40.55088332000003], [0.576145399999975, 40.598660840000015], [0.626515970000022, 40.62184505999998], [0.683572780000015, 40.63419319000002], [0.73358824, 40.64075222], [0.70868187, 40.59088971], [0.65429681, 40.58555664999999], [0.601762210000033, 40.575375659999985], [0.658980189999988, 40.55664315], [0.70535417, 40.58347683], [0.747593799999973, 40.63266085], [0.844803469999976, 40.67809846999999], [0.880600860000029, 40.71846014000001], [0.83086571, 40.73298321999998], [0.778285140000013, 40.78552027000001], [0.729013520000024, 40.7701683], [0.735252740000024, 40.82392764], [0.781881220000012, 40.86040973], [0.825050709999985, 40.90141866], [0.858827320000031, 40.94170008], [0.898650019999987, 40.97557918], [0.94363064, 41.00874432000001], [0.98815597000001, 41.04132060000001], [1.039306280000017, 41.05795081], [1.095289290000024, 41.06805551999999], [1.14893325, 41.06757317999998], [1.197444580000029, 41.0909451], [1.243968810000031, 41.10973203], [1.297926099999976, 41.12777189999998], [1.3526041, 41.12711035], [1.40965437, 41.141954380000016], [1.4641955, 41.165249960000025], [1.51333021, 41.17798974999998], [1.588718179999979, 41.18848333], [1.64032919, 41.19285806], [1.690334779999986, 41.20570356], [1.742644969999976, 41.21816165], [1.792889019999981, 41.22852906], [1.85359613, 41.234380290000026], [1.900999, 41.25197645999998], [1.997152539999985, 41.26413691999998], [2.0745183, 41.27640819000001], [2.12733319, 41.297900870000014], [2.16017204, 41.34192144], [2.19351488, 41.37953625999998], [2.247783309999974, 41.44254535999997], [2.30822923, 41.476225579999976], [2.368490130000023, 41.49142659000001], [2.43953843, 41.528364230000015], [2.493638739999974, 41.55249381], [2.547841290000015, 41.57594323000002], [2.62301313, 41.600490870000016], [2.698741360000022, 41.62280023999999], [2.74565722, 41.64266394], [2.789119269999977, 41.66998316], [2.833343370000018, 41.694024509999984], [2.88530849, 41.703563059999965], [2.934765899999985, 41.71518786], [2.971225730000015, 41.753160149999985], [3.02603675, 41.77398004], [3.065995259999987, 41.806263380000026], [3.102716109999978, 41.84385997], [3.15080267, 41.85812884], [3.193676099999983, 41.89051506999996], [3.220555899999981, 41.93481125], [3.201653349999982, 41.99154752000002], [3.19899961, 42.0492452], [3.187922770000016, 42.09802804000001], [3.138102910000013, 42.1157549], [3.113519289999986, 42.16178183], [3.119447930000017, 42.22675061], [3.162617180000026, 42.26422484], [3.207762230000028, 42.2405198], [3.25922907999998, 42.23889134999998], [3.27620183, 42.28708882999999], [3.31841659, 42.31514987000001], [3.270935040000018, 42.33776756], [3.219118580000012, 42.34980028], [3.162947160000016, 42.36046007999998], [3.162150570000033, 42.41134389000001], [3.11718774, 42.43618409000001], [3.06708221999998, 42.44255655000002], [3.016765589999984, 42.46936058], [2.960477759999977, 42.47339211999997], [2.910798820000021, 42.4577365], [2.85289082, 42.454939549999985], [2.808680560000019, 42.43122633999998], [2.759792329999982, 42.41863331], [2.703051890000026, 42.41138041999997], [2.65402263, 42.38859455], [2.675452809999982, 42.34232383], [2.62551461, 42.34539669], [2.57100736, 42.35805945000001], [2.51118383, 42.33748215], [2.46621776, 42.36069830999998], [2.410787770000013, 42.39223383], [2.361163550000011, 42.40276442], [2.31260166, 42.428483189999966], [2.256928769999981, 42.43873618], [2.207139930000019, 42.41963371999998], [2.156922520000018, 42.423476880000024], [2.114833609999983, 42.3945867], [2.072819069999976, 42.36552443], [2.02358938000003, 42.35578695999999], [1.972480810000031, 42.37336231], [1.958572739999988, 42.42343109], [1.89855705000002, 42.45024709999998], [1.84750686000001, 42.46785583], [1.791919379999976, 42.48552418], [1.7307, 42.49251196], [1.67947539000003, 42.49468077000002], [1.63587411000001, 42.46804781], [1.585689830000017, 42.46040770000002], [1.528232790000019, 42.43203075], [1.475342409999988, 42.43530098999996], [1.44119196000001, 42.47535679], [1.460110319999986, 42.52309655], [1.44343422, 42.571916], [1.42816744, 42.62082290999999], [1.401305569999975, 42.664799539999976], [1.36160312, 42.69785094999999], [1.30924878, 42.71759929000002], [1.25271843, 42.7144654], [1.20152398, 42.717751809999974], [1.149382509999979, 42.7210132], [1.119382830000011, 42.763431979999986], [1.05941282, 42.78347336], [1.005627770000011, 42.790824430000015], [0.947706910000034, 42.80158], [0.897808199999987, 42.80681136000001], [0.843769879999985, 42.82923087], [0.789198009999985, 42.83616545999999], [0.73594813, 42.848785249999985], [0.67795511, 42.855267300000015], [0.67007124, 42.801938], [0.642581270000024, 42.75374624999998], [0.682421490000026, 42.70837756], [0.628903079999978, 42.69563847000001], [0.577363860000014, 42.69467968999998], [0.527313949999987, 42.70254753999998], [0.47419915, 42.700150099999966], [0.422090359999982, 42.69045838000002], [0.374892660000026, 42.71434573], [0.32517392, 42.70502530000001], [0.27084698, 42.69136671999998], [0.226895149999976, 42.71731540000002], [0.175796019999987, 42.737043739999976], [0.106580590000029, 42.710113440000015], [0.05424091, 42.69830481], [0.00473507, 42.68890948], [-0.048971020000011, 42.69435033000002], [-0.09534341, 42.72083996999997], [-0.130165839999988, 42.75779104999998], [-0.159987339999977, 42.79802906], [-0.211951009999966, 42.79622731000003], [-0.262786230000011, 42.82491828000003], [-0.313264159999981, 42.84937313000001], [-0.360564990000025, 42.82177603999999], [-0.408788249999985, 42.80766010999997], [-0.459683419999977, 42.80389345], [-0.50526782, 42.82742572], [-0.54371637000001, 42.79318398], [-0.600470040000029, 42.80242895], [-0.636155950000026, 42.85335475], [-0.678751819999982, 42.88453630999999], [-0.72784546999997, 42.89640806999998], [-0.743563569999987, 42.95060279], [-0.801540350000025, 42.95790843000003], [-0.864770160000018, 42.95094772999999], [-0.91476092, 42.96358499], [-0.973706, 42.96260026999997], [-1.020862129999989, 42.99347443], [-1.071998899999983, 42.99787769000001], [-1.114677550000017, 43.02392855000002], [-1.174367920000014, 43.03730574999999], [-1.229225239999981, 43.05569220999998], [-1.28758895000003, 43.064047009999975], [-1.27041612, 43.11699760000001], [-1.33257139, 43.10762041], [-1.34525999, 43.05724309999998], [-1.441208420000012, 43.04635441000001], [-1.47340705, 43.08663508999999], [-1.427336139999975, 43.11683396], [-1.402231379999973, 43.17789818], [-1.37835836, 43.22820414000001], [-1.413653180000026, 43.27366849], [-1.468841069999975, 43.27351145999997], [-1.51556652999998, 43.2940086], [-1.569116250000022, 43.25567400999998], [-1.621846750000019, 43.26329029], [-1.65442819, 43.31236417], [-1.713373059999971, 43.300021170000015], [-1.75273201, 43.33346624999997], [-1.790174389999989, 43.36980435], [-1.839956819999974, 43.38113415], [-1.88336088, 43.34950238], [-1.931655849999983, 43.33385588], [-1.98136184, 43.32675584], [-2.038132250000026, 43.31749727], [-2.102826550000022, 43.30320413], [-2.156146970000025, 43.29187881999998], [-2.202521649999972, 43.31162654], [-2.26011826, 43.30370401000001], [-2.31136624, 43.29990126000003], [-2.364041679999985, 43.30642058], [-2.41172461, 43.32418147], [-2.471945430000021, 43.350463009999984], [-2.520293419999986, 43.374970400000024], [-2.57199436000001, 43.39006018], [-2.627907950000012, 43.39516310000002], [-2.678842420000027, 43.41175055999999], [-2.729297130000012, 43.42576599], [-2.776740960000027, 43.44494017999999], [-2.827410420000024, 43.43163898999999], [-2.88054019, 43.43728128999997], [-2.931996319999987, 43.43467682], [-2.974304799999983, 43.40463786], [-3.022028869999973, 43.378463119999985], [-3.01625147, 43.32785862999999], [-3.070833489999983, 43.35450038], [-3.121074980000024, 43.34910128000001], [-3.171172789999982, 43.35875338], [-3.217919040000025, 43.38287851], [-3.264853080000028, 43.401887719999976], [-3.320467440000026, 43.40271874000002], [-3.370101310000019, 43.41300608], [-3.425240849999974, 43.413247800000015], [-3.483171189999978, 43.43081466000002], [-3.429783939999979, 43.44100996], [-3.476867149999969, 43.469647929999965], [-3.52164254000001, 43.493684690000016], [-3.57046328000001, 43.50856249], [-3.621485610000021, 43.49792536999998], [-3.67020912, 43.48563123], [-3.723280250000022, 43.47357713], [-3.777179030000018, 43.45821491999997], [-3.728576459999989, 43.44324735], [-3.782516070000017, 43.44070943000002], [-3.810057130000011, 43.39756196999998], [-3.824425569999983, 43.44550353999998], [-3.772034649999978, 43.46777661000004], [-3.818602019999982, 43.49295544], [-3.866728150000023, 43.47740095], [-3.928864780000017, 43.47106002999998], [-3.9783233, 43.44520961], [-4.034177110000014, 43.44051306], [-4.090549569999976, 43.43284904], [-4.13752796, 43.41182564000001], [-4.19506715, 43.40207292999998], [-4.24885389, 43.395681960000026], [-4.30217251, 43.39160319], [-4.35596012, 43.402801449999984], [-4.414676959999972, 43.39831802], [-4.464478559999987, 43.39264921], [-4.524681839999968, 43.39742755999998], [-4.57671728, 43.39308424], [-4.626944760000022, 43.39760321000002], [-4.680871009999972, 43.409231270000014], [-4.73562458, 43.41795808], [-4.785625259999987, 43.43172161], [-4.835772040000027, 43.43525901999997], [-4.88430956, 43.44847116], [-4.93652533999997, 43.45698094999998], [-4.98902349, 43.46159910999999], [-5.054975399999986, 43.46426834], [-5.11512345, 43.47653351000002], [-5.17379674000003, 43.47458665999998], [-5.22472875, 43.479765739999976], [-5.268246790000022, 43.50699434999998], [-5.323987710000015, 43.53435455], [-5.37606933, 43.534733590000016], [-5.432041439999981, 43.54997948], [-5.493779169999973, 43.54402065999997], [-5.545566529999985, 43.54983846000003], [-5.59707774, 43.54785060000001], [-5.646997240000012, 43.54437267], [-5.698448, 43.55787195999997], [-5.74351584, 43.582180199999975], [-5.78456743, 43.61290722000002], [-5.83002197, 43.64011585999999], [-5.87835277, 43.62568225], [-5.92790775, 43.59915881], [-5.976496670000016, 43.57877924999998], [-6.030450389999984, 43.58602214000002], [-6.075715239999973, 43.56472498999996], [-6.127176549999975, 43.55925792000002], [-6.177713120000028, 43.568397260000026], [-6.226603190000029, 43.58907625], [-6.275331410000016, 43.57329250999999], [-6.324217830000014, 43.56264247], [-6.37429568, 43.55545670999997], [-6.42975339, 43.55276027], [-6.48230295, 43.55296154000001], [-6.53396657, 43.54838508999998], [-6.59848486999997, 43.55403190000001], [-6.649889270000026, 43.56783193], [-6.7009211, 43.56265059000002], [-6.75843584, 43.56132039], [-6.81096822, 43.55445549], [-6.864782439999977, 43.56683486999998], [-6.92408127, 43.57084316999997], [-6.974059859999984, 43.556751900000016], [-7.025807, 43.55784586], [-7.075724739999988, 43.55367006999998], [-7.12752621999997, 43.55669676], [-7.181579150000018, 43.56140882999998], [-7.235407180000014, 43.56914646999997], [-7.280828459999984, 43.59048971999998], [-7.321791769999984, 43.62470478], [-7.357798979999978, 43.66464000999998], [-7.40551868000002, 43.68187492], [-7.456114539999983, 43.69886934], [-7.50059170999997, 43.72608462], [-7.55688004000003, 43.73005258], [-7.590177010000024, 43.68705338], [-7.627566350000023, 43.72260657999998], [-7.67308081, 43.74644439999999], [-7.680294789999984, 43.787137269999974]]]]}}]}