{"type": "FeatureCollection", "features": [{"type": "Feature", "properties": {"code": "EST", "name": "Estonia", "tier": "country"}, "geometry": {"type": "MultiPolygon", "coordinates": [[[[23.232937700000022, 57.82504689999996], [23.258686399999988, 57.78029889999997], [23.232937700000022, 57.82504689999996]]], [[[27.613751100000016, 57.973523599999965], [27.613751100000016, 57.973523599999965]]], [[[27.576007, 58.10836639999998], [27.576007, 58.10836639999998]]], [[[26.073639899999982, 58.1196925], [26.073639899999982, 58.1196925]]], [[[26.0649106, 58.1226152], [26.0649106, 58.1226152]]], [[[24.004208, 58.156512], [23.953815300000013, 58.12280690000003], [24.00464979999999, 58.112708199999986], [24.004208, 58.156512]]], [[[22.50345149999998, 58.1766019], [22.50096520000001, 58.12189259999996], [22.5247722, 58.168186], [22.50345149999998, 58.1766019]]], [[[22.574226, 58.2115628], [22.574226, 58.2115628]]], [[[24.1462167, 58.234554], [24.100104699999978, 58.202939500000035], [24.1460841, 58.2326736], [24.1462167, 58.234554]]], [[[21.797684, 58.333341], [21.797684, 58.333341]]], [[[23.77592109999997, 58.349329099999984], [23.77592109999997, 58.349329099999984]]], [[[27.4424651, 58.36183649999997], [27.4424651, 58.36183649999997]]], [[[27.44230489999998, 58.3629277], [27.44230489999998, 58.3629277]]], [[[27.5124407, 58.3893977], [27.4584297, 58.3815154], [27.509776899999977, 58.361348], [27.5124407, 58.3893977]]], [[[21.9099986, 58.3934259], [21.8596794, 58.3884508], [21.807693, 58.385667300000016], [21.85755630000003, 58.372661099999966], [21.91534920000002, 58.380898799999976], [21.9099986, 58.3934259]]], [[[23.4242718, 58.64016139999998], [23.4242718, 58.64016139999998]]], [[[23.0217145, 58.645453], [23.0217145, 58.645453]]], [[[23.191640200000023, 58.6842811], [23.140901500000027, 58.672622799999985], [23.124788699999986, 58.620539], [23.066507899999973, 58.620253], [23.101482, 58.5834459], [23.164375700000022, 58.5714319], [23.109822799999986, 58.55881869999999], [23.060838300000018, 58.57107239999998], [23.009991899999978, 58.59402539999997], [22.9576492, 58.608694700000015], [22.9062755, 58.6144974], [22.8543149, 58.617835900000024], [22.80470190000002, 58.6254306], [22.763357399999972, 58.589129399999976], [22.70986670000002, 58.59271940000002], [22.6384522, 58.57875259999997], [22.593447099999985, 58.61783870000004], [22.541768899999973, 58.63235589999997], [22.503576600000024, 58.599233], [22.45102570000001, 58.5771436], [22.3990761, 58.57441330000001], [22.346498899999983, 58.57118], [22.295040800000017, 58.57074629999999], [22.3123118, 58.5222578], [22.259281, 58.4872551], [22.235379800000015, 58.536209], [22.1761498, 58.5116514], [22.118457599999974, 58.48244], [22.115953600000015, 58.43141209999999], [22.0628726, 58.438016], [22.0224801, 58.4967697], [21.967742299999976, 58.506018799999964], [21.917137, 58.516946499999975], [21.874394199999983, 58.480066100000016], [21.9193498, 58.44582629999998], [21.954959599999984, 58.409456100000014], [21.9970775, 58.3800393], [21.95988849999998, 58.34515509999997], [21.91841309999997, 58.31231809999998], [21.880238, 58.347280400000024], [21.8975766, 58.29762409999998], [21.8466515, 58.31166289999999], [21.8667123, 58.2618669], [21.9157514, 58.249838699999984], [21.97169749999998, 58.235519], [22.022106, 58.2399024], [22.05674510000002, 58.1937763], [22.105300499999974, 58.17516289999999], [22.15539749999999, 58.157657299999975], [22.208544799999977, 58.158951799999976], [22.1815438, 58.11164279999997], [22.154068100000014, 58.06357329999997], [22.11022420000001, 58.088872599999966], [22.068301899999973, 58.0587529], [22.038949700000025, 58.01704559999998], [22.0059703, 57.977045], [22.009215, 57.926957], [22.060794299999984, 57.9148187], [22.1085132, 57.941786900000025], [22.15930329999997, 57.9661661], [22.1845237, 58.01127229999997], [22.22365620000002, 58.04862959999996], [22.252367, 58.09005279999996], [22.2520415, 58.1492922], [22.3010991, 58.20442029999997], [22.354900100000016, 58.2194194], [22.4084791, 58.21973329999996], [22.45464, 58.2400235], [22.503663299999985, 58.219833], [22.54305489999998, 58.25197020000002], [22.5915228, 58.2326724], [22.647228, 58.25262149999998], [22.68439660000002, 58.217721499999975], [22.7405234, 58.21860749999998], [22.701610199999987, 58.261438899999966], [22.7518927, 58.27418089999997], [22.802530600000015, 58.2700721], [22.846529199999978, 58.29713789999997], [22.897150399999983, 58.301734], [22.937286800000013, 58.33457980000002], [22.9589806, 58.3810017], [23.0068894, 58.35906039999998], [23.04582730000001, 58.39177029999996], [23.083065099999974, 58.4255849], [23.133359800000026, 58.42868169999998], [23.1581513, 58.4775523], [23.201277200000025, 58.45159059999998], [23.249242300000027, 58.42474820000003], [23.2945713, 58.45077959999996], [23.2593445, 58.492328400000034], [23.2102834, 58.507238299999976], [23.15590029999999, 58.50898709999997], [23.15118239999997, 58.558888799999984], [23.201875699999984, 58.55100130000002], [23.2521, 58.53784139999998], [23.304743900000016, 58.54427470000001], [23.35602539999999, 58.53328], [23.404641399999967, 58.54514959999996], [23.3580128, 58.59860409999998], [23.337150399999974, 58.64975440000001], [23.28343620000002, 58.661644299999985], [23.208935900000025, 58.678800500000015], [23.191640200000023, 58.6842811]]], [[[22.9882694, 58.8173424], [22.9882694, 58.8173424]]], [[[23.06501790000002, 58.82947020000002], [23.06501790000002, 58.82947020000002]]], [[[23.4414205, 58.83364079999996], [23.4414205, 58.83364079999996]]], [[[23.12009159999998, 58.840128600000014], [23.12009159999998, 58.840128600000014]]], [[[23.0008091, 58.93404759999996], [23.044985, 58.90916510000002], [23.0008091, 58.93404759999996]]], [[[23.191579, 59.04857510000003], [23.135717499999974, 59.037199], [23.1540738, 58.9888613], [23.204691699999973, 58.964346], [23.261222099999976, 58.97259790000002], [23.31131959999998, 58.9555414], [23.356066399999985, 58.9802216], [23.3428298, 59.029699500000014], [23.29214659999998, 59.0238148], [23.227652899999985, 59.0401788], [23.191579, 59.04857510000003]]], [[[27.779437199999986, 59.066015499999985], [27.779437199999986, 59.066015499999985]]], [[[22.59311049999998, 59.08805729999998], [22.5793971, 59.0394221], [22.5175389, 59.02417029999997], [22.47367480000002, 58.993935599999965], [22.4292214, 58.96199609999997], [22.3821548, 58.93428689999998], [22.3098932, 58.94926030000001], [22.2560262, 58.941575], [22.2059397, 58.93383350000003], [22.1557002, 58.93751359999996], [22.101640100000015, 58.941028199999984], [22.0484519, 58.940908], [22.094020500000028, 58.9155203], [22.1399126, 58.894124], [22.192138299999975, 58.8826387], [22.251485799999976, 58.883656699999975], [22.30266619999998, 58.888097100000046], [22.35581680000001, 58.895330199999975], [22.41439129999998, 58.87738980000002], [22.4550979, 58.84075339999997], [22.442753900000028, 58.789726099999974], [22.482872100000023, 58.7501129], [22.51579280000001, 58.6958838], [22.579893699999968, 58.689306799999976], [22.639046100000026, 58.69255449999997], [22.68148279999998, 58.725885], [22.71539990000002, 58.76429859999999], [22.753513599999977, 58.80184349999997], [22.805485399999988, 58.819594], [22.756472, 58.8021144], [22.798008799999977, 58.77118089999998], [22.8503948, 58.7821225], [22.88821420000003, 58.8194084], [22.835407, 58.81720320000002], [22.888207800000025, 58.82919109999997], [22.9434681, 58.82978729999997], [22.9928262, 58.84002630000001], [23.0493564, 58.8283629], [23.02877750000002, 58.8747899], [22.99965349999998, 58.9165129], [22.9414502, 58.9424027], [22.90375759999998, 58.97653969999996], [22.853664699999968, 58.99770320000002], [22.802804799999986, 58.99946630000002], [22.751241, 59.0091061], [22.699210700000016, 59.01297079999995], [22.690126, 59.0666781], [22.620298600000023, 59.0812158], [22.59311049999998, 59.08805729999998]]], [[[27.80186879999998, 59.10486419999998], [27.80186879999998, 59.10486419999998]]], [[[27.866097299999986, 59.16418450000001], [27.866097299999986, 59.16418450000001]]], [[[27.87765450000002, 59.17886], [27.87765450000002, 59.17886]]], [[[27.91147350000002, 59.248913800000025], [27.91147350000002, 59.248913800000025]]], [[[28.01218849999998, 59.286663], [28.01218849999998, 59.286663]]], [[[28.03686419999999, 59.294084], [28.03686419999999, 59.294084]]], [[[28.028092, 59.29722869999998], [28.028092, 59.29722869999998]]], [[[23.361683899999974, 59.304276], [23.4070162, 59.2748373], [23.361683899999974, 59.304276]]], [[[23.90646730000002, 59.3508944], [23.937478499999983, 59.30088719999996], [23.915368100000013, 59.346476899999985], [23.90646730000002, 59.3508944]]], [[[23.95619250000001, 59.36260349999997], [23.984975900000016, 59.3158874], [23.9647537, 59.36177880000001], [23.95619250000001, 59.36260349999997]]], [[[28.0785239, 59.4561692], [28.0785239, 59.4561692]]], [[[25.204973300000013, 59.57775210000002], [25.204973300000013, 59.57775210000002]]], [[[24.7792361, 59.59154159999998], [24.7792361, 59.59154159999998]]], [[[24.51247950000003, 59.6054458], [24.4748355, 59.57078], [24.51639409999998, 59.54238189999998], [24.51529219999998, 59.6055031], [24.51247950000003, 59.6054458]]], [[[24.974707700000025, 59.64663549999998], [25.0276361, 59.6130126], [24.987789, 59.64420209999997], [24.974707700000025, 59.64663549999998]]], [[[25.69667780000002, 59.6731051], [25.68406949999999, 59.6154107], [25.669941100000027, 59.56374369999998], [25.61869220000003, 59.57850369999998], [25.57364630000003, 59.60364629999998], [25.51581320000001, 59.622295500000014], [25.524493, 59.5686178], [25.522573899999983, 59.5183949], [25.46663990000001, 59.519256899999974], [25.4241796, 59.48959859999999], [25.3674312, 59.497026], [25.309045099999974, 59.5031021], [25.254705199999982, 59.514513699999966], [25.1949537, 59.50685], [25.1467763, 59.538322199999975], [25.172936, 59.49263359999998], [25.121933499999976, 59.48305359999996], [25.07096590000001, 59.5025135], [25.012374, 59.5070589], [24.964290699999978, 59.49305250000001], [24.9102475, 59.50701230000002], [24.8795873, 59.551168799999964], [24.825452899999977, 59.5560423], [24.812957399999974, 59.5071465], [24.80289769999997, 59.44870849999999], [24.752728800000014, 59.44865259999999], [24.700567499999977, 59.45540749999997], [24.6506403, 59.46804049999999], [24.6032211, 59.45115289999998], [24.541973699999975, 59.43755320000002], [24.492911300000017, 59.448273], [24.43940680000002, 59.470415799999984], [24.38498649999998, 59.472878], [24.33921349999999, 59.42415229999999], [24.2801492, 59.4047583], [24.22071420000001, 59.3936214], [24.24540910000003, 59.3487603], [24.1826543, 59.3465871], [24.1350963, 59.36815640000001], [24.0812861, 59.382287399999974], [24.036873700000033, 59.35405379999999], [24.082926100000016, 59.3325315], [24.1123588, 59.28990529999999], [24.0561373, 59.28420640000002], [23.99498250000001, 59.282777], [23.946168399999976, 59.27059359999998], [23.886589599999983, 59.2699472], [23.824094900000016, 59.287912], [23.76724620000001, 59.2700576], [23.706781, 59.229558699999956], [23.6483964, 59.24371559999996], [23.601611399999975, 59.2220378], [23.53766350000001, 59.215810699999984], [23.48721350000003, 59.20318259999997], [23.5123771, 59.15940349999999], [23.535501800000013, 59.098716], [23.4874144, 59.083068500000024], [23.434969, 59.07844930000003], [23.449731899999982, 59.02872719999996], [23.470367600000014, 58.9776876], [23.521062100000016, 58.9770602], [23.57392, 58.9747389], [23.62451230000001, 58.9780133], [23.5742454, 58.95409279999996], [23.5231323, 58.96004319999997], [23.4733766, 58.933032499999975], [23.423714400000012, 58.9140346], [23.46521829999999, 58.87848739999996], [23.50218240000003, 58.84426239999998], [23.4817125, 58.79861239999998], [23.4410319, 58.765838600000016], [23.4972177, 58.77352089999999], [23.548365700000033, 58.77174889999996], [23.61333570000003, 58.786307299999976], [23.6698527, 58.77732709999996], [23.7219913, 58.78861969999998], [23.6926081, 58.7464187], [23.642827099999987, 58.73596550000001], [23.5889933, 58.72639580000001], [23.535623099999967, 58.74049589999998], [23.5773116, 58.70981879999999], [23.52287140000001, 58.7021195], [23.502195500000013, 58.6559567], [23.52991379999997, 58.61141469999997], [23.5004925, 58.57057860000001], [23.552028, 58.552645299999966], [23.602323400000024, 58.54068119999997], [23.6478544, 58.518994], [23.690403500000023, 58.4900762], [23.6834971, 58.439759500000044], [23.715383300000028, 58.3981064], [23.745411, 58.35179939999996], [23.79785810000002, 58.34432709999998], [23.853249899999977, 58.3494914], [23.893537299999977, 58.318186], [23.9477319, 58.327274299999985], [23.995044699999973, 58.304271799999974], [24.04407840000001, 58.29136159999997], [24.079242500000017, 58.2511968], [24.129357299999985, 58.24508259999997], [24.172713, 58.270915], [24.232979100000016, 58.273291299999954], [24.2791123, 58.29818169999998], [24.292, 58.35152849999997], [24.350762599999985, 58.386014299999985], [24.415994900000022, 58.38776189999999], [24.465163099999977, 58.378354499999986], [24.535617, 58.361800100000025], [24.5826766, 58.3244305], [24.554664, 58.280479], [24.508520599999983, 58.26108679999998], [24.47326310000003, 58.22478820000003], [24.45396, 58.177668699999984], [24.479268699999974, 58.1333275], [24.4808592, 58.08315429999997], [24.4583088, 58.03712010000004], [24.4270039, 57.99810289999997], [24.397146799999973, 57.95573629999997], [24.37484560000001, 57.9096368], [24.409333, 57.871688], [24.459628600000023, 57.88009829999997], [24.513038199999983, 57.93068749999997], [24.573093, 57.954323100000025], [24.62840549999997, 57.941868499999956], [24.6920946, 57.9464162], [24.7435375, 57.96487709999999], [24.80829560000002, 57.99051750000004], [24.865723799999984, 57.98071860000002], [24.948868599999983, 58.009364], [25.00925720000002, 58.01485269999996], [25.07695250000001, 58.06639], [25.13444369999997, 58.07975640000003], [25.1912275, 58.0760156], [25.22035660000003, 58.02843709999996], [25.267418499999984, 57.99459639999998], [25.30373960000002, 58.0342715], [25.26607650000001, 58.067234], [25.3187367, 58.06950079999998], [25.36386169999998, 58.0313987], [25.4485977, 58.01705750000002], [25.485853099999975, 57.9748151], [25.5513818, 57.972368699999954], [25.638646300000023, 57.9307287], [25.703258, 57.90332], [25.75207080000002, 57.91774339999997], [25.8202713, 57.86486219999998], [25.876115100000025, 57.865146899999985], [25.9315048, 57.853425], [25.998587400000016, 57.859030799999964], [26.056458499999973, 57.84843189999996], [26.0329375, 57.7897784], [26.07802020000002, 57.76469919999997], [26.13616329999999, 57.7509593], [26.1862722, 57.723288099999984], [26.212311300000025, 57.67937079999997], [26.24625689999997, 57.6392924], [26.278032200000016, 57.59530449999998], [26.3280054, 57.5795215], [26.401571, 57.57223440000003], [26.469492, 57.575559], [26.499866799999975, 57.524508699999984], [26.5574271, 57.51394589999999], [26.613070299999972, 57.511386], [26.647076, 57.55400840000003], [26.697333499999978, 57.567357499999964], [26.752696100000023, 57.58015960000002], [26.809652900000025, 57.584439], [26.861667, 57.5920418], [26.900513700000015, 57.629213199999974], [26.950463399999986, 57.62051430000002], [27.031447300000018, 57.60451740000002], [27.0758706, 57.5768578], [27.161393599999986, 57.5605197], [27.22550910000002, 57.55466780000002], [27.2753323, 57.54390569999996], [27.3257477, 57.52349170000002], [27.317455300000017, 57.5799842], [27.372617399999978, 57.597769600000014], [27.381309600000026, 57.647598], [27.405805, 57.69404809999998], [27.45166159999998, 57.716682899999945], [27.501168600000025, 57.70641810000003], [27.545464300000024, 57.733336600000015], [27.505775300000018, 57.77231949999998], [27.5426482, 57.8084482], [27.5864814, 57.8342776], [27.6399037, 57.84099659999995], [27.6920317, 57.836751499999984], [27.757438399999987, 57.83485990000003], [27.815626099999978, 57.861788099999984], [27.770658800000025, 57.894603600000046], [27.705431900000015, 57.90012859999998], [27.6718298, 57.93758320000001], [27.690319600000027, 57.986615], [27.637845600000023, 58.00080569999998], [27.589218, 58.025101599999985], [27.6019227, 58.075466599999984], [27.551788400000095, 58.10149860000015], [27.521229700000127, 58.14169559999998], [27.4864439, 58.186893300000044], [27.47578690000002, 58.2374668], [27.4350537, 58.27193949999999], [27.4191455, 58.3269471], [27.384177699999977, 58.38486139999994], [27.3354932, 58.3987368], [27.27974250000001, 58.389784800000015], [27.240164500000017, 58.4234547], [27.24601690000002, 58.4735188], [27.235644099999973, 58.52448669999998], [27.212062499999973, 58.5720374], [27.188449299999977, 58.6260743], [27.1599248, 58.6909828], [27.10897429999999, 58.72972919999999], [27.058226100000017, 58.7599879], [27.0089837, 58.77495970000001], [26.953416, 58.804138], [26.955293900000022, 58.863743699999965], [26.9913125, 58.8998543], [27.036055699999984, 58.93500719999998], [27.08673489999998, 58.9498341], [27.1380531, 58.97102309999998], [27.190596600000028, 58.9808472], [27.2448587, 58.9909596], [27.294579200000026, 58.99740339999997], [27.3840837, 59.00492830000003], [27.435724299999976, 59.00516969999996], [27.5567291, 59.0094871], [27.6572967, 59.004815499999985], [27.722889199999976, 58.99259629999999], [27.7654332, 59.03333060000001], [27.79848690000001, 59.10369870000002], [27.846699199999986, 59.1568418], [27.888509699999968, 59.1946703], [27.902987799999984, 59.24558520000002], [27.95142309999997, 59.2694155], [28.0029469, 59.281578699999976], [28.108395200000025, 59.2924796], [28.16783730000002, 59.3337932], [28.205896100000025, 59.3670493], [28.16508519999997, 59.41159240000003], [28.1115332, 59.4438591], [28.055087900000018, 59.4595767], [27.994478600000026, 59.433402], [27.934995, 59.40704219999997], [27.8705104, 59.400223300000015], [27.807984299999983, 59.39483389999997], [27.756960499999984, 59.401965899999986], [27.70825490000002, 59.4171182], [27.59415509999997, 59.414488699999985], [27.541056400000027, 59.422234899999964], [27.470655800000028, 59.433186], [27.3853352, 59.446120199999974], [27.296416700000016, 59.4436568], [27.2225423, 59.443632800000024], [27.14039939999999, 59.4368262], [27.047591400000016, 59.43342160000001], [26.9970211, 59.43416209999997], [26.900378600000018, 59.44634330000002], [26.83983550000002, 59.47392259999999], [26.790552699999974, 59.48768129999997], [26.74288620000003, 59.5089903], [26.68940479999998, 59.5365379], [26.624881099999982, 59.546375499999975], [26.568669699999976, 59.552377799999974], [26.507886, 59.5177369], [26.455632300000012, 59.5328045], [26.391342600000026, 59.54901129999998], [26.3251336, 59.55627420000002], [26.278788300000027, 59.5788714], [26.216591, 59.587063], [26.143691299999983, 59.58358009999998], [26.0931213, 59.59234059999997], [26.04684939999999, 59.618037], [25.991932800000022, 59.61568660000001], [25.95015080000001, 59.57798250000002], [25.912853499999976, 59.6150055], [25.86566540000003, 59.59232349999996], [25.8143887, 59.56371489999998], [25.777720599999977, 59.601725], [25.7469004, 59.649894899999985], [25.69790840000002, 59.66836720000003], [25.69667780000002, 59.6731051]], [[26.04716140000002, 58.4087858], [26.1086308, 58.3961597], [26.1511461, 58.363506699999974], [26.138833, 58.312256799999986], [26.13528, 58.2555144], [26.106378600000024, 58.206409], [26.0869217, 58.15586189999997], [26.077856399999977, 58.1066347], [26.053391900000012, 58.1512424], [26.019872600000028, 58.1902002], [25.981973, 58.22541409999998], [25.94591819999998, 58.27266190000002], [25.9139414, 58.3134357], [25.9606933, 58.34470239999997], [25.974186200000023, 58.396522199999986], [26.028137500000014, 58.40323749999998], [26.04716140000002, 58.4087858]]]]}}]}