{"type": "FeatureCollection", "features": [{"type": "Feature", "properties": {"code": "ETH", "name": "Ethiopia", "tier": "country"}, "geometry": {"type": "Polygon", "coordinates": [[[37.9463085954226, 14.835202556762416], [37.87649724992947, 14.800418591642456], [37.805594630102455, 14.769481161352033], [37.774407492798474, 14.698766107453231], [37.774388260078894, 14.630953772626794], [37.72450584215411, 14.62432284812919], [37.701461582665836, 14.579421052082], [37.679691003280226, 14.528008906259485], [37.59619290638525, 14.478160355220199], [37.54961775882208, 14.446715943258143], [37.48977805396847, 14.4736870957402], [37.430570431623465, 14.480790845774967], [37.377933815982196, 14.429113043090794], [37.3150794629098, 14.42924502639759], [37.2588902077078, 14.435337409043214], [37.200746716339424, 14.425373516939123], [37.142299275049226, 14.40684639378744], [37.114286432213234, 14.361838789129976], [37.10358558193544, 14.307178134755821], [37.072352344502356, 14.267218822420325], [37.01833181115749, 14.251190708597557], [36.97524893743461, 14.280783781660027], [36.91562423406955, 14.300089754467344], [36.864075383438376, 14.318413204484106], [36.80900531254443, 14.313678686190983], [36.74729290406451, 14.318301548793613], [36.69173770001571, 14.296942369845624], [36.63721299167544, 14.308074013456434], [36.58502917994145, 14.283734224495927], [36.543869537672535, 14.251277757951256], [36.54132616652794, 14.198675698442347], [36.463611024456036, 13.97159072942381], [36.49987882620937, 13.847421242845876], [36.45197791692734, 13.76934482908217], [36.40322500636534, 13.644012310714798], [36.38455249000116, 13.567893872543165], [36.28253981344839, 13.376742178876329], [36.26752706220064, 13.32463069023347], [36.23810355539971, 13.215707782648389], [36.19954558036516, 13.070410695906094], [36.180149655760886, 13.008741754762559], [36.157948494326945, 12.963652268102608], [36.17982251746017, 12.896377304362424], [36.17649093289131, 12.808856124644114], [36.16992736583421, 12.741194438796626], [36.15805397093594, 12.68736485068772], [36.10643025070471, 12.697652493351617], [36.05991651155093, 12.722966574508227], [36.00903098023584, 12.718480473050208], [35.77316634456815, 12.661273152948132], [35.72182353662984, 12.671031914247243], [35.69161381259657, 12.62468010515677], [35.43053501548792, 12.237162733481924], [35.42437491536, 12.186123627632005], [35.33263828902328, 12.067530705824366], [35.324029860856626, 12.013871839024196], [35.276115863198314, 11.940826762040968], [35.20285670562905, 11.891500234964338], [35.158004161851125, 11.86160537308469], [35.09820073409793, 11.815268283728477], [35.04736759770543, 11.736046531656662], [35.077268682785515, 11.646361067965648], [35.080258551867786, 11.594044632329153], [35.0787630791528, 11.522296416349157], [35.039493889946534, 11.41654066665047], [35.00550333351419, 11.362358082159256], [34.97709654908915, 11.31004183469987], [34.93790101300329, 11.251899131093584], [34.985318974869514, 11.214377536891197], [34.98457082813879, 11.099281503435442], [34.97146850325887, 11.049232022113744], [34.96071662330865, 10.992138353924442], [34.983105029150224, 10.899413878517944], [34.927974574854936, 10.856923801626042], [34.890379415914545, 10.822752621199893], [34.867620949956454, 10.776396255844451], [34.801172728094535, 10.722358129738987], [34.750586473453524, 10.771016159437487], [34.68838580028439, 10.82519083353952], [34.61052833352418, 10.898096296126111], [34.555054988958354, 10.884014139044021], [34.50571779033181, 10.8453488296274], [34.45232104829114, 10.792859721612786], [34.40746827159446, 10.713638024240058], [34.34586792044288, 10.630517871248413], [34.298326847578366, 10.586584548799614], [34.280245643533895, 10.532802472632818], [34.32710134182783, 10.476592277621732], [34.29384073999945, 10.407214251953354], [34.32406373709911, 10.29444830865346], [34.352147954027366, 10.221864702758696], [34.34695843606197, 10.169581233811893], [34.334354294264784, 10.11439145386392], [34.260316886657364, 10.071604525979058], [34.22670635765492, 10.01422123867543], [34.219084684167925, 9.961778498228496], [34.21758933872344, 9.903483196013813], [34.169746253608096, 9.782408548839275], [34.146839125244924, 9.719116988512761], [34.132670023337724, 9.641163235894243], [34.1014684227542, 9.551593872047697], [34.10921788427682, 9.409478018626363], [34.11775929890333, 9.345120248350947], [34.12278850641716, 9.257956148520742], [34.13541134097737, 9.172789416547195], [34.144326551337706, 9.000654131332904], [34.14134498254608, 8.912027252501922], [34.14225720169805, 8.810901001723577], [34.14230197723302, 8.737077396801642], [34.14522163484832, 8.67085235260018], [34.14282991557639, 8.612019259459688], [34.097142845346866, 8.551090624684097], [34.033828994124825, 8.511477492854056], [33.98603728021178, 8.489833254282678], [33.936203293845786, 8.495959223827116], [33.889595905968825, 8.463392776939548], [33.840987201404026, 8.431947291331712], [33.8001395127098, 8.395192767477566], [33.7501011837568, 8.375998846394895], [33.695047674665055, 8.380536559230096], [33.678618173585846, 8.430926937952748], [33.620756903169834, 8.469674932519515], [33.569429498113635, 8.454766172707133], [33.520211923183965, 8.468703702324754], [33.46135202941231, 8.450452910698052], [33.41235029217512, 8.44017504047909], [33.361481221869724, 8.441226093138955], [33.314597225995236, 8.460567364282928], [33.24927809840295, 8.445094728036398], [33.20868484107256, 8.406299780917156], [33.19410018091642, 8.352324711585648], [33.195751988504064, 8.29901186352807], [33.18091285500967, 8.249204685313762], [33.16654118948282, 8.19574432145994], [33.18466278737004, 8.146022694096931], [33.13718797074497, 8.113421834279112], [33.119343020982114, 8.063955727953873], [33.078203013820314, 8.025797253591092], [33.03118597036937, 7.991609241327747], [33.00282128583128, 7.941258994477429], [33.014398465000696, 7.889751132627876], [33.03755293602297, 7.820881048389935], [33.08527287652921, 7.7935538747082], [33.138267894326304, 7.785255101819678], [33.2002145816389, 7.780368731755256], [33.248260505119696, 7.764742604221953], [33.29572760928452, 7.746801519715195], [33.34322441862188, 7.712482134516331], [33.39124066007827, 7.728860274922635], [33.44854859159827, 7.741013606297959], [33.50093262816657, 7.736100666513183], [33.54115767515104, 7.704821224787855], [33.59989917211528, 7.706736083371382], [33.66507503739414, 7.691775636420354], [33.71301464623236, 7.657654336500258], [33.753205225024075, 7.617657513067036], [33.83458715197057, 7.569256915670535], [33.871993997950334, 7.519108490961883], [33.92725434299419, 7.513158507010977], [33.95735482889306, 7.464365750294152], [33.99290573423251, 7.425192393263542], [34.02949946109585, 7.370782811248442], [34.032089101325845, 7.316778561652406], [34.011000428748055, 7.270912016384727], [34.04466790888646, 7.222456049661135], [34.09276445500104, 7.197673127252162], [34.1456362201626, 7.157453036297881], [34.19311324286719, 7.138768913139911], [34.193972391039885, 7.056142342839579], [34.232785617016745, 7.01669664480073], [34.28763237913494, 6.998065595059088], [34.36035046418143, 6.964841709403156], [34.41069119123517, 6.953525098316662], [34.48502172048128, 6.905524926866122], [34.52086490997294, 6.864526888264379], [34.53464039166574, 6.812983807011832], [34.53666197127099, 6.753948908670141], [34.61365056411983, 6.733978084548605], [34.681868921067405, 6.703577312397871], [34.716176045263026, 6.665484358812798], [34.74753629213417, 6.625883610641917], [34.78924134425033, 6.584888261708041], [34.845241756282206, 6.600126967118627], [34.90603274844969, 6.572566707390544], [34.955205872228134, 6.519790166870863], [35.00733368509159, 6.465548454013917], [35.003698010409586, 6.403640114335994], [34.98865213829811, 6.346963500419469], [34.95187553413049, 6.26913200684317], [34.96482556076114, 6.213461889217814], [34.96970553539285, 6.155691775811826], [34.966125465887814, 6.091461651671505], [34.99335055727189, 6.019811489703129], [34.988315476437435, 5.955631368369827], [34.99177545321641, 5.902591257566003], [35.046990681436135, 5.81884603887678], [35.09634588139186, 5.731500821812841], [35.12561849609291, 5.684048199026192], [35.121395934814814, 5.629310584494583], [35.226756429242236, 5.550360336635979], [35.284051708846725, 5.512010207513937], [35.30500677445974, 5.459045076203914], [35.28788164094496, 5.403729970860646], [35.30086165374856, 5.333849804957945], [35.36010197650395, 5.348654791116737], [35.41109393092785, 5.365446456283554], [35.45543085030921, 5.392583144205668], [35.5057678065307, 5.419054827017955], [35.57942818450891, 5.415769760378246], [35.65645856384788, 5.382329622381745], [35.74116936655585, 5.371057335584048], [35.78599920853379, 5.344149429673911], [35.83587695518078, 5.328824355167054], [35.84257444466184, 5.275239233372472], [35.82836932673393, 5.22413913358561], [35.8591194485297, 5.176365673313072], [35.833374264540176, 5.12102890564275], [35.81064410986207, 5.071443809479095], [35.80985904006975, 4.995228641268286], [35.80537896364329, 4.923518474053063], [35.79413017379889, 4.80472772774432], [35.78697271493906, 4.751452937421895], [35.82678142939025, 4.682297449509646], [35.873929058562204, 4.625549387601641], [35.96612947095928, 4.512957367860093], [36.03990980116314, 4.455507165903193], [36.114945174449325, 4.451482102069193], [36.21021373258103, 4.446266581095002], [36.26587506940258, 4.44508267169947], [36.35350852720949, 4.44416402640081], [36.454721512823085, 4.444520702937703], [36.543610388993066, 4.441105539177905], [36.61764658123099, 4.451260847731302], [36.71336777691391, 4.440700662458827], [36.83958579392103, 4.445404131843223], [36.8963172684723, 4.426350682727234], [36.950528675211395, 4.40567071337856], [36.99783988457847, 4.380366988942266], [37.05925772809953, 4.344495174173429], [37.105029239667104, 4.300254239318993], [37.16224367841595, 4.271650133245096], [37.2488812393672, 4.21899306595433], [37.33027829552251, 4.165727551238774], [37.40191009452371, 4.119661428260463], [37.51051282230886, 4.048124649512927], [37.554523919589165, 4.013750375548877], [37.59798501226164, 3.986522669859544], [37.63793100553614, 3.954600378574765], [37.71070782620315, 3.906369446499704], [37.78348964551793, 3.857073615147228], [37.83446091654177, 3.824816333990325], [37.9010125751253, 3.77920018992035], [37.966964225093015, 3.739973495795403], [38.013798728563195, 3.710149344551475], [38.045676154857254, 3.671064359919506], [38.09762244024463, 3.632922596336859], [38.14465362223251, 3.61085943947107], [38.25424147217219, 3.613534012909685], [38.32317677302869, 3.61069078731507], [38.43801684577435, 3.602783977869531], [38.51182815380468, 3.624437596532616], [38.569074597646065, 3.608278909379944], [38.656016814594174, 3.595529863002275], [38.70660809597203, 3.584020777595974], [38.829726164146024, 3.533739954960088], [38.89674784180663, 3.513051643374825], [38.947709144219864, 3.514401433170615], [39.0025105626967, 3.522460628263918], [39.066537209223654, 3.529444903944], [39.1357639396811, 3.51212129266542], [39.20129555216421, 3.480643933029437], [39.280787558825466, 3.474404331934644], [39.33340888332805, 3.46778481939741], [39.40643072672872, 3.466124826138235], [39.46835228014195, 3.458115414833262], [39.512493307714536, 3.411929396309819], [39.56558468249625, 3.427647912453857], [39.582735210665966, 3.479653311163613], [39.707218581841325, 3.60622193939518], [39.771890337738306, 3.669886205991924], [39.83747227487525, 3.814793294680944], [39.862743016228976, 3.865588762410896], [40.01892711348607, 3.948891068531675], [40.10745942580553, 3.991057139907559], [40.16991106127659, 4.025153986133211], [40.23172264879453, 4.047741842650722], [40.37345631054169, 4.10399653554543], [40.44045805048288, 4.135583576202388], [40.649833441445146, 4.222615344827761], [40.7068849094416, 4.244463260113019], [40.75943626507482, 4.270060854193619], [40.827177858526234, 4.238673476750079], [40.88185908298593, 4.186877954184693], [40.937780364525196, 4.149731121592945], [40.98226132563799, 4.093965983787006], [41.0263923299485, 4.062828650109825], [41.10222403289705, 3.99923412837495], [41.173015676081235, 3.96316717591279], [41.28890850655458, 3.964746761031576], [41.379520691330036, 3.958827072628516], [41.43390201536923, 3.961176734787748], [41.49806356875579, 3.962616449018054], [41.55670497696572, 3.957196792150219], [41.653677341762545, 3.967905601522193], [41.72537907515317, 3.971115141251187], [41.799710876917324, 3.976534473779134], [41.85982234329563, 3.988193283994587], [41.91483369047149, 3.997862279112269], [41.959714847542074, 4.03305901436158], [41.995455814061536, 4.076495030808497], [42.04298704055288, 4.113911552225799], [42.11614883753339, 4.134199545135705], [42.204811025797554, 4.162896738126409], [42.30582342816636, 4.163386430245977], [42.39706559007712, 4.164786055973403], [42.5199285602035, 4.190313433809866], [42.57514989523613, 4.202422196257367], [42.63973143292739, 4.208751448690205], [42.69292272968738, 4.225969749764647], [42.756714299285505, 4.252037221844575], [42.80320545705178, 4.277254816556483], [42.86135694822261, 4.323530478920673], [42.903588031019815, 4.356527378449745], [42.948889202645155, 4.396603622207663], [42.992020414720145, 4.468866967868704], [43.0137210759557, 4.520972183162026], [43.06802252038639, 4.579906684789194], [43.110673627304244, 4.617773130311353], [43.152484684075134, 4.645880451536658], [43.201825925540994, 4.675757592092135], [43.250977148961006, 4.703184947935653], [43.30807857718508, 4.737261673503439], [43.35414971012571, 4.757589684289212], [43.398400818717036, 4.785477005848259], [43.45649221496012, 4.802235294115642], [43.51149351349478, 4.811904239600801], [43.569994930202434, 4.8335520725251], [43.62319620781284, 4.850770335233602], [43.6834976382013, 4.864868852060804], [43.7566593812515, 4.88515675323812], [43.807200587234135, 4.900165213914216], [43.8648619414296, 4.912043938561026], [44.029905796771445, 4.941050724218136], [44.12379794093556, 4.944670068197381], [44.202189691472164, 4.939870236278066], [44.307892059616684, 4.93748009029884], [44.38426377745194, 4.937789791529569], [44.54797738849894, 4.922640609411586], [44.62739916342083, 4.923660235047098], [44.67920028803784, 4.914500895247185], [44.73225148160352, 4.919800220819109], [44.8279935804909, 4.913960413722775], [44.904135264421114, 4.914110130435272], [44.96309658455045, 4.920329345089788], [45.08107951453415, 5.01247043554351], [45.66920471848177, 5.623661602537506], [45.899400698008236, 5.858188818079012], [45.946301930842885, 5.911023686869018], [46.12276653385142, 6.091306090986369], [46.17823801366581, 6.154729911672411], [46.80455452383705, 6.804475948781055], [47.9592554996693, 8.013694932667303], [47.000335609917094, 7.986203791688536], [46.7368105773686, 8.071457472142196], [45.62180862558851, 8.443989798989966], [44.157318128573266, 8.938993309502134], [44.06219617759606, 8.986979496657327], [44.01933541090947, 9.025506233370788], [43.95945424217767, 9.066012896077892], [43.91329338553459, 9.103759735349259], [43.867282536905435, 9.14325640784856], [43.80496139705143, 9.198351762872722], [43.76200058959431, 9.232278928211018], [43.71057959733287, 9.270505761866506], [43.66777879560054, 9.306182777390696], [43.62541803781243, 9.347099307879468], [43.58230720757881, 9.379276640998182], [43.535236249182844, 9.406534459195406], [43.48342518322278, 9.436312073924487], [43.41640382677784, 9.47784871156014], [43.388913474916535, 9.526364467759514], [43.356282929294004, 9.56530113652966], [43.3187224364214, 9.630545434709957], [43.28980205383593, 9.679191200043148], [43.27507210890165, 9.742325552428735], [43.25055183378332, 9.792001199223819], [43.232481775613806, 9.849696075915544], [43.16821045191545, 9.888682954180172], [43.09918898080261, 9.92237034576739], [43.0665985498331, 9.978535466832467], [43.04159822797506, 10.022511646555834], [43.00541764911204, 10.070387539940935], [42.95436666741165, 10.112454067996875], [42.9094958748598, 10.159710087894616], [42.856965021062116, 10.226494393800802], [42.82030454947882, 10.291788736556386], [42.786664167210674, 10.359622826804111], [42.750633894029434, 10.450514864257181], [42.73731389119667, 10.499460538526598], [42.70561363049203, 10.575533884541702], [42.72252464992294, 10.661436022624292], [42.76863633441218, 10.735099062818557], [42.797467469441656, 10.79285365626895], [42.897960946203106, 10.925101030465598], [42.944352564479175, 10.986335182074548], [42.85307038611806, 11.003444291269508], [42.76053852621987, 11.068219117076904], [42.70203714826199, 11.08212828663426], [42.611154782089585, 11.073659694394813], [42.536332751225494, 11.05525187326213], [42.475251033452935, 11.03276432721169], [42.40528905083376, 11.005467267509925], [42.3344572149324, 11.000768176711148], [42.23870476584032, 11.00118880494373], [42.187193382019004, 10.991879995337989], [42.07930054994937, 10.982171605830938], [41.904975857573525, 10.953275370844151], [41.81744381355782, 10.983883225398621], [41.76427248907627, 10.991732879520752], [41.764733150046126, 11.085824465144587], [41.777804897914585, 11.286466463814456], [41.777115902203455, 11.429733687435174], [41.77593666392713, 11.539723892059316], [41.79790801182274, 11.646524219588862], [41.82694922310241, 11.707888549613962], [41.86729068885745, 11.763503308167136], [41.91996236404973, 11.803319383846688], [41.96518394254068, 11.856954281019142], [41.997795099246275, 11.896430528662494], [42.04163687976844, 11.980132756657538], [42.07897832314756, 12.040947067390388], [42.11256961715753, 12.095351979787267], [42.1813420532175, 12.177404158055605], [42.23021379373676, 12.235788601320214], [42.267125184901595, 12.289973496241764], [42.295836385046705, 12.346358264956155], [42.337947948381704, 12.403522854734344], [42.34194854298369, 12.46487737494975], [42.31060819108504, 12.521912555890411], [42.24330719659445, 12.616284722950494], [42.19690643386254, 12.672650092665961], [42.13661545003577, 12.746574022605607], [42.09733472415093, 12.784151015860235], [42.05115399128586, 12.843826108955115], [42.01113357422162, 12.921409572957792], [41.97347308832655, 12.983854365186872], [41.93140234988175, 13.029930640966132], [41.87960147201403, 13.090285738989989], [41.78733972319729, 13.175998941692885], [41.738248866885385, 13.231854425741629], [41.6125964601576, 13.348165229858488], [41.579005870176665, 13.386382154656031], [41.482504059287436, 13.481374617154467], [41.440613245339335, 13.520141562826101], [41.379372000224116, 13.570567651904618], [41.314610743229665, 13.63092290575645], [41.251279712093485, 13.713346238481925], [41.192428558972146, 13.768461914450587], [41.078206353114396, 13.879163209165815], [41.01649510664546, 13.933089027231073], [40.83764144018579, 14.084747336525963], [40.6514274770458, 14.229976297878618], [40.54648514048144, 14.301990939250212], [40.445402821130116, 14.364036413788776], [40.38556136183093, 14.390324635019256], [40.33184012779984, 14.42458211992937], [40.269388607451425, 14.453830113909046], [40.22347751940541, 14.47919829940649], [40.14080533834924, 14.498617301052207], [40.08993382423937, 14.490818369902518], [40.01110115256145, 14.440203337036792], [39.958865987081786, 14.418465134744483], [39.89611788857754, 14.436423246752405], [39.85749608509203, 14.472596237063515], [39.807597020294565, 14.493941388196962], [39.76936902300028, 14.533753850335348], [39.71607398479261, 14.552223089723842], [39.68116624111677, 14.589314337458791], [39.6296840471937, 14.609324137470464], [39.5920997834427, 14.662702191499456], [39.5383168690715, 14.670073044935597], [39.48924169448966, 14.64583012454588], [39.49255181950553, 14.583037073748361], [39.49398812689177, 14.509438598186923], [39.43634782117011, 14.519838240282622], [39.38450362123995, 14.536362908661417], [39.3408807487584, 14.511878303729802], [39.315213045161634, 14.466332715310315], [39.30169984756148, 14.411966398102381], [39.25061409505814, 14.392839152941596], [39.225048988085675, 14.443900028642615], [39.209351746800245, 14.493623110106336], [39.23318027048941, 14.540881382381436], [39.216736552786394, 14.59203322980777], [39.15831540416677, 14.620838670117525], [39.1052461255502, 14.630591965486646], [39.04928081053745, 14.636049676447538], [39.01082529406581, 14.590839305893901], [38.97559378698986, 14.542164526378043], [38.921828140377684, 14.511880682996969], [38.86508932632025, 14.494618888911335], [38.81601919130011, 14.474909768215204], [38.759779813726446, 14.46520170554003], [38.70379701201926, 14.465863112570647], [38.65507081048503, 14.445570003863525], [38.59522671211689, 14.439153825474206], [38.54448893751975, 14.423103592533474], [38.48454751694367, 14.418775708397963], [38.433021891795846, 14.428577810796105], [38.39973863956014, 14.470714271683768], [38.35698812641948, 14.499832219503254], [38.31608807333145, 14.55124163087874], [38.29280613333231, 14.602956327816706], [38.261928109955406, 14.667703863920345], [38.210871333372594, 14.687395735648746], [38.15705613326081, 14.677011023686662], [38.1064041074489, 14.69806426490109], [38.05433000266454, 14.711384756390611], [38.0223100009856, 14.755534139665329], [37.98876159252987, 14.808496248043086], [37.9463085954226, 14.835202556762416]], [[37.439554312437004, 12.281957426721124], [37.49162638804247, 12.29515549293366], [37.52568160664799, 12.250725970357799], [37.56192891791971, 12.211559815483756], [37.5763392518003, 12.159515008360689], [37.6081487036974, 12.119344028218782], [37.60106661255402, 12.052366864450368], [37.580063407309105, 11.99539007416636], [37.54863836572245, 11.922317416995668], [37.49895908425084, 11.893850486239312], [37.51464235777041, 11.837524117667515], [37.469773503773034, 11.814727270769993], [37.44947590610142, 11.766343613905589], [37.433583900580565, 11.712495528762677], [37.421881651866904, 11.655557328896498], [37.40686687278738, 11.602728537934023], [37.346408672481154, 11.614332306463695], [37.309803747405425, 11.653144098511751], [37.3486731563581, 11.684923574234045], [37.31405557268362, 11.728444487815807], [37.31002507788447, 11.780462336278784], [37.27084546900608, 11.812997062815992], [37.207167394508765, 11.813317876159434], [37.13613061900559, 11.800683180489386], [37.081414167691044, 11.806366014295035], [37.04590355050302, 11.851189290654844], [37.00475653777652, 11.882749405802125], [37.02141403359504, 11.93785257472062], [37.01613384146085, 11.987794347311393], [37.023186842290755, 12.0751922803966], [37.03180832350345, 12.125503513020076], [37.04890838540283, 12.182233111594819], [37.11294142881389, 12.245556135852741], [37.1606075035686, 12.265433743540836], [37.1739256602934, 12.213715396186734], [37.224146332906194, 12.206112342203795], [37.2769890581995, 12.201776007594779], [37.303983629379516, 12.262928663625305], [37.35770188639985, 12.270246298236179], [37.41471809031605, 12.280807416511726], [37.439554312437004, 12.281957426721124]]]}}]}