{"type": "FeatureCollection", "features": [{"type": "Feature", "properties": {"code": "FIN", "name": "Finland", "tier": "country"}, "geometry": {"type": "MultiPolygon", "coordinates": [[[[22.3955, 59.8245], [22.3955, 59.8245]]], [[[22.32475, 59.82225], [22.32475, 59.82225]]], [[[23.581, 59.832], [23.581, 59.832]]], [[[21.6333062, 59.8300154], [21.581921, 59.8278221], [21.6333062, 59.8300154]]], [[[23.252420500000035, 59.8505527], [23.252420500000035, 59.8505527]]], [[[22.40275, 59.86025], [22.40275, 59.86025]]], [[[22.20275, 59.87775], [22.20275, 59.87775]]], [[[22.49925, 59.87875], [22.44275, 59.871], [22.49675, 59.8645], [22.49925, 59.87875]]], [[[23.388, 59.88875], [23.434, 59.866], [23.388, 59.88875]]], [[[23.08425, 59.893], [23.08425, 59.893]]], [[[23.30475, 59.89375], [23.30475, 59.89375]]], [[[20.94074, 59.89368], [20.94074, 59.89368]]], [[[22.529098499999964, 59.90076150000003], [22.478401499999965, 59.8901629], [22.532371100000024, 59.89507450000004], [22.529098499999964, 59.90076150000003]]], [[[23.495, 59.89475], [23.495, 59.89475]]], [[[22.97525, 59.9015], [22.97525, 59.9015]]], [[[22.37325, 59.90475], [22.37325, 59.90475]]], [[[23.0655, 59.903], [23.0655, 59.903]]], [[[23.352660899999975, 59.910950900000046], [23.352660899999975, 59.910950900000046]]], [[[21.687016199999984, 59.916408599999976], [21.687016199999984, 59.916408599999976]]], [[[21.76675, 59.91625], [21.76675, 59.91625]]], [[[21.74575, 59.92225], [21.74575, 59.92225]]], [[[22.37525, 59.925], [22.37525, 59.925]]], [[[23.82625, 59.928], [23.82625, 59.928]]], [[[23.524879600000013, 59.92852549999996], [23.47575, 59.9145], [23.42375, 59.91], [23.47170860000004, 59.8920781], [23.52, 59.908], [23.524879600000013, 59.92852549999996]]], [[[21.78275, 59.93225], [21.78275, 59.93225]]], [[[23.388345, 59.92310740000001], [23.388345, 59.92310740000001]]], [[[20.9502793, 59.9337365], [20.9502793, 59.9337365]]], [[[23.71775, 59.93675], [23.665, 59.9335], [23.716, 59.9235], [23.71775, 59.93675]]], [[[23.620101300000016, 59.93754479999997], [23.5618545, 59.93259389999996], [23.611798, 59.918152500000026], [23.661850699999984, 59.9279303], [23.620101300000016, 59.93754479999997]]], [[[22.3604788, 59.936082699999965], [22.3604788, 59.936082699999965]]], [[[22.46675, 59.93975], [22.46675, 59.93975]]], [[[23.82975, 59.94425], [23.82975, 59.94425]]], [[[20.895000100000036, 59.94536], [20.92661190000001, 59.9025743], [20.895000100000036, 59.94536]]], [[[22.6065, 59.946], [22.6065, 59.946]]], [[[23.81375, 59.94475], [23.7555, 59.943], [23.81375, 59.94475]]], [[[23.76225, 59.9535], [23.76225, 59.9535]]], [[[22.502, 59.953], [22.502, 59.953]]], [[[22.585498, 59.956246], [22.585498, 59.956246]]], [[[20.93806, 59.962529900000014], [20.97590720000003, 59.92794760000002], [20.93806, 59.962529900000014]]], [[[22.353029, 59.964091099999955], [22.353029, 59.964091099999955]]], [[[22.56269749999996, 59.96721350000002], [22.56269749999996, 59.96721350000002]]], [[[23.76196939999998, 59.9721146], [23.76196939999998, 59.9721146]]], [[[21.7795, 59.967], [21.73375, 59.9465], [21.7795, 59.967]]], [[[22.4265, 59.97825], [22.39552630000002, 59.936712600000035], [22.4325, 59.9745], [22.4265, 59.97825]]], [[[23.8945, 59.98275], [23.85025, 59.95925], [23.9015, 59.949], [23.8945, 59.98275]]], [[[22.448329799999964, 59.98704709999998], [22.448329799999964, 59.98704709999998]]], [[[22.523086700000015, 59.98744050000002], [22.523086700000015, 59.98744050000002]]], [[[23.929997899999975, 59.98955230000004], [23.97668979999997, 59.97005690000001], [23.929997899999975, 59.98955230000004]]], [[[22.61175, 59.99075], [22.63, 59.94025], [22.61175, 59.99075]]], [[[23.85937529999996, 59.9949985], [23.81886319999996, 59.951533099999985], [23.871906600000035, 59.97404610000003], [23.85937529999996, 59.9949985]]], [[[22.36603, 59.99879130000003], [22.36603, 59.99879130000003]]], [[[22.4296049, 59.99562939999998], [22.4296049, 59.99562939999998]]], [[[23.978851699999968, 59.99662950000004], [23.978851699999968, 59.99662950000004]]], [[[22.7295, 60.011], [22.7295, 60.011]]], [[[23.906410500000028, 60.0119054], [23.957050700000035, 60.00375339999999], [23.906410500000028, 60.0119054]]], [[[22.62575, 60.015], [22.62575, 60.015]]], [[[24.2305, 60.018], [24.2305, 60.018]]], [[[23.988979699999966, 60.01816820000003], [23.988979699999966, 60.01816820000003]]], [[[20.3586568, 60.0197158], [20.309505299999984, 59.995883200000016], [20.360936100000036, 59.998668399999985], [20.412, 59.98248], [20.364458100000036, 60.01455019999999], [20.3586568, 60.0197158]]], [[[24.032, 60.0225], [24.032, 60.0225]]], [[[20.02951740000004, 60.02330570000002], [20.02951740000004, 60.02330570000002]]], [[[22.6755, 60.033], [22.6755, 60.033]]], [[[19.959216099999963, 60.0368439], [20.0015846, 60.0076825], [19.959216099999963, 60.0368439]]], [[[22.80575, 60.0515], [22.80575, 60.0515]]], [[[22.954396600000013, 60.051903899999964], [22.919305600000026, 60.01569339999999], [22.966816099999985, 60.03467939999997], [22.954396600000013, 60.051903899999964]]], [[[19.9718952, 60.0531871], [19.9718952, 60.0531871]]], [[[20.3805, 60.05675], [20.3805, 60.05675]]], [[[24.59053179999998, 60.06022930000003], [24.59053179999998, 60.06022930000003]]], [[[20.5825, 60.06], [20.53125, 60.05275], [20.493, 60.017], [20.549, 60.00725], [20.59775, 60.0185], [20.5825, 60.06]]], [[[20.537, 60.06475], [20.485, 60.0605], [20.4515, 60.0215], [20.50075, 60.03425], [20.544, 60.06325], [20.537, 60.06475]]], [[[20.45289569999996, 60.070573], [20.404471399999977, 60.040605899999974], [20.456439199999963, 60.042721], [20.45289569999996, 60.070573]]], [[[24.601486900000022, 60.069446], [24.601486900000022, 60.069446]]], [[[19.93970929999996, 60.07131839999997], [19.93970929999996, 60.07131839999997]]], [[[22.9115, 60.072], [22.85675, 60.05825], [22.856, 60.007], [22.89875, 60.03775], [22.9115, 60.072]]], [[[22.81775, 60.07325], [22.81775, 60.07325]]], [[[20.54475, 60.0765], [20.49225, 60.0745], [20.54275, 60.069], [20.54475, 60.0765]]], [[[20.811732, 60.077621], [20.811732, 60.077621]]], [[[22.87375, 60.07975], [22.87375, 60.07975]]], [[[20.3475, 60.08525], [20.3475, 60.08525]]], [[[20.305, 60.09275], [20.305, 60.09275]]], [[[20.48025, 60.09725], [20.48025, 60.09725]]], [[[20.50345710000002, 60.0992286], [20.550207100000026, 60.07772860000002], [20.60145710000004, 60.0779786], [20.5392071, 60.08572859999998], [20.50345710000002, 60.0992286]]], [[[20.590581, 60.1046495], [20.590581, 60.1046495]]], [[[21.66775, 60.10775], [21.606, 60.10325], [21.6605, 60.096], [21.66775, 60.10775]]], [[[24.666284800000025, 60.10952230000004], [24.666284800000025, 60.10952230000004]]], [[[21.6585, 60.11125], [21.60625, 60.1075], [21.6585, 60.11125]]], [[[20.091245399999966, 60.10984870000004], [20.043423, 60.084584], [19.9854978, 60.08859420000003], [20.029900300000012, 60.0554049], [20.076556, 60.03431930000002], [20.13024480000004, 60.01013179999998], [20.18314689999997, 60.009524], [20.234737099999975, 60.00871359999997], [20.222519800000036, 60.063893200000045], [20.173091, 60.08321380000001], [20.12189559999996, 60.094662400000026], [20.091245399999966, 60.10984870000004]]], [[[20.53970709999998, 60.11372859999999], [20.489457100000017, 60.111978599999965], [20.537707099999967, 60.093728600000034], [20.53970709999998, 60.11372859999999]]], [[[21.489539599999983, 60.117691499999964], [21.489539599999983, 60.117691499999964]]], [[[21.747, 60.12075], [21.747, 60.12075]]], [[[22.93225, 60.1245], [22.86575, 60.102], [22.9105, 60.0795], [22.96175, 60.0895], [22.93225, 60.1245]]], [[[24.7376304, 60.1267391], [24.685745799999967, 60.11090519999997], [24.73714990000003, 60.11670450000001], [24.7376304, 60.1267391]]], [[[22.3875611, 60.12716220000002], [22.3875611, 60.12716220000002]]], [[[21.697681899999974, 60.12794810000003], [21.697681899999974, 60.12794810000003]]], [[[21.8315, 60.13375], [21.881, 60.12175], [21.8315, 60.13375]]], [[[24.727538, 60.13456639999998], [24.727538, 60.13456639999998]]], [[[21.973948200000013, 60.140469299999985], [21.92475, 60.13], [21.971883399999967, 60.11033490000003], [21.973948200000013, 60.140469299999985]]], [[[24.99711320000003, 60.140857], [24.99711320000003, 60.140857]]], [[[21.49775, 60.14075], [21.49775, 60.14075]]], [[[22.222, 60.142], [22.222, 60.142]]], [[[22.33225, 60.14575], [22.33225, 60.14575]]], [[[21.079, 60.148], [21.079, 60.148]]], [[[21.48175, 60.14475], [21.48175, 60.14475]]], [[[22.03425, 60.147], [21.97712639999999, 60.1390976], [22.02925, 60.139], [22.03425, 60.147]]], [[[21.95775, 60.147], [21.95775, 60.147]]], [[[20.654506099999956, 60.1539863], [20.68376940000004, 60.10997759999996], [20.657149199999978, 60.15390430000004], [20.654506099999956, 60.1539863]]], [[[22.1935, 60.15575], [22.1935, 60.15575]]], [[[25.0495166, 60.15783769999998], [25.0495166, 60.15783769999998]]], [[[21.880788, 60.159364], [21.830842599999976, 60.14058340000001], [21.886853199999976, 60.1335726], [21.880788, 60.159364]]], [[[22.1249205, 60.15901429999999], [22.1249205, 60.15901429999999]]], [[[25.11758880000002, 60.16237079999997], [25.11758880000002, 60.16237079999997]]], [[[22.28125, 60.1635], [22.28125, 60.1635]]], [[[20.2995, 60.164], [20.2995, 60.164]]], [[[20.250874900000024, 60.15303340000002], [20.213624399999972, 60.11448040000002], [20.250874900000024, 60.07982109999996], [20.298930399999957, 60.11153869999998], [20.2735342, 60.156536], [20.250874900000024, 60.15303340000002]]], [[[21.3067641, 60.16929530000003], [21.3067641, 60.16929530000003]]], [[[19.6075, 60.16925], [19.6075, 60.16925]]], [[[24.861176, 60.17116540000004], [24.861176, 60.17116540000004]]], [[[20.59875, 60.171], [20.59875, 60.171]]], [[[25.444824899999983, 60.17390790000003], [25.444824899999983, 60.17390790000003]]], [[[25.332377, 60.17591420000003], [25.332377, 60.17591420000003]]], [[[21.486251499999973, 60.176002699999984], [21.486251499999973, 60.176002699999984]]], [[[20.734, 60.1765], [20.734, 60.1765]]], [[[20.35075, 60.1785], [20.35075, 60.1785]]], [[[20.4665, 60.17875], [20.4665, 60.17875]]], [[[22.24625, 60.17975], [22.193, 60.1715], [22.25, 60.16575], [22.24625, 60.17975]]], [[[21.9400538, 60.18119389999998], [21.9400538, 60.18119389999998]]], [[[20.436507100000032, 60.18105470000001], [20.386397300000034, 60.165548], [20.43911460000004, 60.17287940000002], [20.436507100000032, 60.18105470000001]]], [[[19.689857500000016, 60.18499030000004], [19.689857500000016, 60.18499030000004]]], [[[22.08702360000002, 60.1823878], [22.08702360000002, 60.1823878]]], [[[21.49575, 60.185], [21.49575, 60.185]]], [[[25.467817900000043, 60.18580170000003], [25.467817900000043, 60.18580170000003]]], [[[20.298, 60.17925], [20.298, 60.17925]]], [[[21.613, 60.18625], [21.56175, 60.181], [21.513, 60.15575], [21.58875, 60.139], [21.537584500000015, 60.137738299999974], [21.583, 60.111], [21.6461919, 60.11195660000001], [21.68275, 60.154], [21.6385, 60.17875], [21.613, 60.18625]]], [[[25.060422499999966, 60.18652789999998], [25.01056440000001, 60.17161840000004], [25.061059800000027, 60.15966019999996], [25.060422499999966, 60.18652789999998]]], [[[20.4155, 60.1805], [20.4155, 60.1805]]], [[[25.001581099999957, 60.1905996], [25.001581099999957, 60.1905996]]], [[[22.14925, 60.196], [22.09479789999996, 60.17451120000003], [22.1482671, 60.18716410000004], [22.14925, 60.196]]], [[[20.364662399999975, 60.20005090000004], [20.364662399999975, 60.20005090000004]]], [[[21.263546100000017, 60.2021125], [21.263546100000017, 60.2021125]]], [[[21.234274799999984, 60.20156469999997], [21.234274799999984, 60.20156469999997]]], [[[21.60775, 60.203], [21.65625, 60.18475], [21.60775, 60.203]]], [[[22.38825, 60.2095], [22.33475, 60.2], [22.29070270000003, 60.1696995], [22.338, 60.148], [22.37425, 60.183], [22.38825, 60.2095]]], [[[21.95405039999999, 60.212816], [21.95405039999999, 60.212816]]], [[[25.54275, 60.21175], [25.54275, 60.21175]]], [[[21.96475, 60.21625], [21.96475, 60.21625]]], [[[25.212235399999958, 60.22090829999997], [25.212235399999958, 60.22090829999997]]], [[[25.894782699999972, 60.22075660000003], [25.894782699999972, 60.22075660000003]]], [[[21.867, 60.22175], [21.8065, 60.21575], [21.7533451, 60.21074750000001], [21.7105, 60.17625], [21.72653409999997, 60.12777459999998], [21.789227500000017, 60.1291661], [21.8397707, 60.15734780000003], [21.89675, 60.172], [21.9476979, 60.19018939999998], [21.89825, 60.20475], [21.837756599999967, 60.208573399999985], [21.893, 60.21125], [21.867, 60.22175]]], [[[22.097863300000018, 60.22256559999996], [22.0413919, 60.210902799999985], [21.977907599999966, 60.197653700000025], [21.981529200000036, 60.1466172], [22.0385, 60.156], [22.0780654, 60.18905620000001], [22.097863300000018, 60.22256559999996]]], [[[21.98325, 60.2245], [21.98325, 60.2245]]], [[[20.262829499999988, 60.22496770000003], [20.262829499999988, 60.22496770000003]]], [[[20.31783309999998, 60.2259882], [20.27281009999996, 60.1991207], [20.322248600000012, 60.210039], [20.31783309999998, 60.2259882]]], [[[21.296637500000024, 60.23131190000004], [21.244936199999973, 60.21505850000001], [21.300998800000013, 60.22473790000002], [21.296637500000024, 60.23131190000004]]], [[[22.3565, 60.23], [22.3055, 60.2145], [22.35575, 60.21475], [22.3565, 60.23]]], [[[25.669279, 60.23262939999998], [25.669279, 60.23262939999998]]], [[[25.92483340000001, 60.23307540000002], [25.92483340000001, 60.23307540000002]]], [[[21.38443630000003, 60.23338030000002], [21.333716600000017, 60.2339007], [21.283, 60.21325], [21.3345, 60.20125], [21.38775, 60.18325], [21.440141, 60.186979400000034], [21.38675, 60.20575], [21.33623080000003, 60.22201489999996], [21.38443630000003, 60.23338030000002]]], [[[25.86924629999997, 60.234613700000025], [25.81892990000002, 60.21476919999997], [25.87265110000004, 60.215512199999985], [25.86924629999997, 60.234613700000025]]], [[[25.229801100000024, 60.23455920000004], [25.229801100000024, 60.23455920000004]]], [[[20.678367, 60.23265920000004], [20.706691099999972, 60.19112769999999], [20.678367, 60.23265920000004]]], [[[25.276859699999985, 60.2387119], [25.276859699999985, 60.2387119]]], [[[22.3935, 60.2415], [22.3935, 60.2415]]], [[[21.447, 60.24125], [21.4, 60.21375], [21.456, 60.2145], [21.447, 60.24125]]], [[[25.33906050000004, 60.24456819999997], [25.33906050000004, 60.24456819999997]]], [[[20.30575, 60.24675], [20.30575, 60.24675]]], [[[25.912460800000012, 60.24604009999998], [25.912460800000012, 60.24604009999998]]], [[[22.166407600000024, 60.24827], [22.1145, 60.23975], [22.16940829999997, 60.23416280000002], [22.166407600000024, 60.24827]]], [[[25.3223248, 60.24887709999997], [25.3223248, 60.24887709999997]]], [[[21.24, 60.24875], [21.24, 60.24875]]], [[[22.2095, 60.25075], [22.2095, 60.25075]]], [[[22.52975, 60.2505], [22.52975, 60.2505]]], [[[25.408133700000022, 60.25135190000001], [25.408133700000022, 60.25135190000001]]], [[[25.96375, 60.2495], [25.96375, 60.2495]]], [[[21.95675, 60.244], [21.95675, 60.244]]], [[[22.066, 60.25175], [22.066, 60.25175]]], [[[25.47797560000001, 60.253274], [25.47797560000001, 60.253274]]], [[[20.737959599999964, 60.25407770000004], [20.737959599999964, 60.25407770000004]]], [[[21.5385, 60.25525], [21.5385, 60.25525]]], [[[21.52425, 60.25475], [21.52425, 60.25475]]], [[[25.533723400000028, 60.25626049999999], [25.533723400000028, 60.25626049999999]]], [[[25.226436099999958, 60.256421], [25.226436099999958, 60.256421]]], [[[22.57425, 60.25725], [22.57425, 60.25725]]], [[[21.77930990000002, 60.26121], [21.77930990000002, 60.26121]]], [[[21.44825, 60.2605], [21.44825, 60.2605]]], [[[21.7125, 60.2635], [21.7125, 60.2635]]], [[[25.84920260000004, 60.262251299999974], [25.84920260000004, 60.262251299999974]]], [[[20.30425, 60.26375], [20.30425, 60.26375]]], [[[20.863863300000016, 60.256031100000015], [20.863863300000016, 60.256031100000015]]], [[[21.41225, 60.266], [21.3565, 60.26325], [21.41425, 60.253], [21.365, 60.24375], [21.31225, 60.251], [21.37025, 60.241], [21.4265, 60.247], [21.41225, 60.266]]], [[[19.48975, 60.27075], [19.52924250000004, 60.24003670000002], [19.48975, 60.27075]]], [[[21.59594, 60.27508], [21.559950100000034, 60.2334], [21.608889900000037, 60.222689900000034], [21.60546, 60.27363], [21.59594, 60.27508]]], [[[22.2894465, 60.2748925], [22.23803150000002, 60.25078330000004], [22.200788599999974, 60.21088510000003], [22.259643, 60.19574740000004], [22.3055, 60.2225], [22.2894465, 60.2748925]]], [[[21.058, 60.27725], [21.058, 60.27725]]], [[[26.004, 60.27625], [26.004, 60.27625]]], [[[19.85725, 60.2885], [19.85725, 60.2885]]], [[[21.42775, 60.29175], [21.37825, 60.2795], [21.433622800000016, 60.270127800000026], [21.42775, 60.29175]]], [[[20.33775, 60.29225], [20.327514399999966, 60.242420099999954], [20.377, 60.225], [20.43075, 60.24425], [20.381, 60.27525], [20.33775, 60.29225]]], [[[21.0405, 60.2915], [21.0405, 60.2915]]], [[[20.77117610000002, 60.2904254], [20.732257399999963, 60.25796460000003], [20.77529590000001, 60.22941160000001], [20.824991899999965, 60.2451762], [20.798212699999983, 60.29114849999996], [20.77117610000002, 60.2904254]]], [[[21.30325, 60.292], [21.30325, 60.292]]], [[[21.491, 60.299], [21.491, 60.299]]], [[[21.643, 60.29975], [21.643, 60.29975]]], [[[22.004162800000024, 60.30005670000002], [22.004162800000024, 60.30005670000002]]], [[[21.8125, 60.30025], [21.8125, 60.30025]]], [[[26.04825, 60.29875], [26.1, 60.2855], [26.05025, 60.29575], [26.04825, 60.29875]]], [[[20.50975, 60.29375], [20.50975, 60.29375]]], [[[21.71975, 60.302], [21.71975, 60.302]]], [[[20.74222440194676, 60.304260534627005], [20.74222440194676, 60.304260534627005]]], [[[21.557443600000035, 60.30416270000003], [21.557443600000035, 60.30416270000003]]], [[[22.459955199999957, 60.303922100000015], [22.3975, 60.301], [22.35125, 60.27825], [22.404, 60.24975], [22.44575, 60.28025], [22.459955199999957, 60.303922100000015]]], [[[21.049, 60.3095], [21.049, 60.3095]]], [[[20.37775, 60.31], [20.37775, 60.31]]], [[[26.11375, 60.31025], [26.11375, 60.31025]]], [[[19.60425, 60.3135], [19.578, 60.27075], [19.536923800000014, 60.240921], [19.518242500000014, 60.19203669999997], [19.543242500000044, 60.14753669999997], [19.59621170000002, 60.1542419], [19.586242500000015, 60.2147867], [19.62675, 60.178], [19.6785, 60.19675], [19.642, 60.24], [19.62025, 60.28525], [19.60425, 60.3135]]], [[[21.9225, 60.315], [21.87025, 60.3085], [21.91336739999997, 60.27814440000003], [21.964709399999958, 60.27766919999997], [21.92825, 60.31325], [21.9225, 60.315]]], [[[22.9527475, 60.314280299999965], [22.903297, 60.28911339999998], [22.863523899999958, 60.25347359999997], [22.812219, 60.23970569999999], [22.76032219999996, 60.236015], [22.698269, 60.23587889999999], [22.63369359999997, 60.23054860000003], [22.58246480000002, 60.21668610000003], [22.5269102, 60.20916889999996], [22.47296009999996, 60.20673850000004], [22.42113670000002, 60.183126], [22.468514, 60.16176060000002], [22.529948200000014, 60.162303199999975], [22.587190400000043, 60.1535301], [22.5370961, 60.152868], [22.475778, 60.14419450000001], [22.42684579999997, 60.127000100000025], [22.493439, 60.10769180000001], [22.44043630000002, 60.101085], [22.3905677, 60.0925195], [22.3786761, 60.04117020000003], [22.42088110000001, 60.01054350000003], [22.4721416, 60.01235689999997], [22.521605699999956, 60.022897099999966], [22.5714025, 60.0319779], [22.61364010000003, 60.060861], [22.5737717, 60.02483740000002], [22.62823130000001, 60.019948399999976], [22.669483300000035, 60.04931479999997], [22.700765099999973, 60.005787], [22.755490699999967, 60.0046628], [22.779411699999983, 60.04950689999997], [22.811769500000043, 60.090359], [22.856822, 60.1178368], [22.84859950000003, 60.16959839999998], [22.861999, 60.218214], [22.910599299999976, 60.24813849999997], [22.9538682, 60.27851560000001], [22.9527475, 60.314280299999965]]], [[[25.60467909999998, 60.31403320000003], [25.568943799999975, 60.27172239999998], [25.608, 60.24025], [25.6593246, 60.22710979999999], [25.6445, 60.27525], [25.60494820000004, 60.30659679999999], [25.60467909999998, 60.31403320000003]]], [[[21.22575, 60.315], [21.22575, 60.315]]], [[[20.44825, 60.3185], [20.44825, 60.3185]]], [[[21.86875, 60.32625], [21.86875, 60.32625]]], [[[23.024947100000013, 60.328311], [23.024947100000013, 60.328311]]], [[[19.72325, 60.32625], [19.72325, 60.32625]]], [[[21.155, 60.3325], [21.155, 60.3325]]], [[[21.289, 60.33325], [21.289, 60.33325]]], [[[22.245008299999967, 60.333914600000035], [22.187542800000024, 60.32604930000002], [22.13151319999996, 60.327903], [22.08894139999998, 60.30015130000003], [22.13606, 60.2741798], [22.1879054, 60.26859419999997], [22.23725, 60.25175], [22.282692, 60.27781829999996], [22.334536100000033, 60.294239], [22.288382399999982, 60.31922779999996], [22.245008299999967, 60.333914600000035]]], [[[21.875305, 60.33354579999998], [21.9380046, 60.32727540000004], [21.88554520000002, 60.332007100000034], [21.875305, 60.33354579999998]]], [[[20.992, 60.336], [20.992, 60.336]]], [[[22.01125, 60.337], [21.95875, 60.33225], [22.004442499999985, 60.30768680000002], [22.01125, 60.337]]], [[[21.6835, 60.341], [21.6835, 60.341]]], [[[21.1795, 60.3425], [21.1795, 60.3425]]], [[[21.9105, 60.34325], [21.97, 60.337], [21.91975, 60.3425], [21.9105, 60.34325]]], [[[21.311, 60.344], [21.311, 60.344]]], [[[21.77922, 60.34412], [21.77922, 60.34412]]], [[[20.39675, 60.3495], [20.39675, 60.3495]]], [[[26.1756765, 60.35192050000002], [26.21742819999998, 60.3163805], [26.177299, 60.34998820000001], [26.1756765, 60.35192050000002]]], [[[19.69475, 60.35275], [19.69475, 60.35275]]], [[[20.91925, 60.352], [20.940621900000043, 60.30136330000004], [20.91925, 60.352]]], [[[25.937120300000025, 60.3556011], [25.957193399999987, 60.30782809999999], [26.00780190000004, 60.27735220000003], [25.98924669999999, 60.32851219999997], [25.937120300000025, 60.3556011]]], [[[26.267563300000027, 60.35819260000001], [26.267563300000027, 60.35819260000001]]], [[[21.1685, 60.357], [21.1685, 60.357]]], [[[25.668066499999984, 60.35633050000004], [25.668066499999984, 60.35633050000004]]], [[[20.34875, 60.35925], [20.34875, 60.35925]]], [[[20.9235, 60.361], [20.9235, 60.361]]], [[[26.122220900000016, 60.35400530000003], [26.122220900000016, 60.35400530000003]]], [[[26.439758800000014, 60.35898549999998], [26.439758800000014, 60.35898549999998]]], [[[21.664, 60.3635], [21.71825, 60.34075], [21.67175, 60.36275], [21.664, 60.3635]]], [[[20.327, 60.3665], [20.327, 60.3665]]], [[[21.058035, 60.3689408], [21.09898590000002, 60.339499], [21.058035, 60.3689408]]], [[[20.75648150000001, 60.3707], [20.7345088, 60.32267230000003], [20.7848914, 60.33108539999998], [20.75648150000001, 60.3707]]], [[[19.62475, 60.369], [19.574, 60.34925], [19.622, 60.36875], [19.62475, 60.369]]], [[[26.5217962, 60.370011], [26.5217962, 60.370011]]], [[[21.19125, 60.367], [21.19125, 60.367]]], [[[26.775581100000032, 60.36431739999998], [26.775581100000032, 60.36431739999998]]], [[[26.600122399999968, 60.3721345], [26.600122399999968, 60.3721345]]], [[[25.679001799999988, 60.37373080000001], [25.679001799999988, 60.37373080000001]]], [[[22.42525, 60.3745], [22.368, 60.3665], [22.31825, 60.3495], [22.37375, 60.31875], [22.4249108, 60.302718199999966], [22.483072700000015, 60.32012659999999], [22.43875, 60.35025], [22.42525, 60.3745]]], [[[19.76675, 60.37375], [19.76675, 60.37375]]], [[[21.816616600000014, 60.377048199999955], [21.816616600000014, 60.377048199999955]]], [[[22.287857299999967, 60.3767954], [22.23352740000003, 60.37200219999998], [22.14625, 60.359], [22.193, 60.341], [22.2547514, 60.352280200000024], [22.30717639999998, 60.359866], [22.287857299999967, 60.3767954]]], [[[26.655657300000044, 60.3793566], [26.655657300000044, 60.3793566]]], [[[20.868, 60.37775], [20.868, 60.37775]]], [[[22.530185700000036, 60.380799800000034], [22.463531600000017, 60.373366100000034], [22.515548900000013, 60.36701130000004], [22.530185700000036, 60.380799800000034]]], [[[19.69225, 60.38225], [19.69225, 60.38225]]], [[[21.79061919999997, 60.378726700000016], [21.731553599999973, 60.37998419999997], [21.781288599999957, 60.3699714], [21.79061919999997, 60.378726700000016]]], [[[22.221978699999987, 60.382983], [22.163695, 60.38201519999997], [22.115945, 60.36626520000003], [22.180588, 60.365774], [22.227936299999982, 60.38212210000002], [22.221978699999987, 60.382983]]], [[[21.65686, 60.38317], [21.65686, 60.38317]]], [[[20.9185, 60.37875], [20.9185, 60.37875]]], [[[21.173941099999958, 60.38487169999997], [21.173941099999958, 60.38487169999997]]], [[[22.273848600000044, 60.38812949999996], [22.273848600000044, 60.38812949999996]]], [[[21.4825, 60.3875], [21.4825, 60.3875]]], [[[21.06675, 60.3915], [21.06675, 60.3915]]], [[[20.132, 60.391], [20.132, 60.391]]], [[[20.03375, 60.39175], [20.03375, 60.39175]]], [[[21.315912899999976, 60.393917400000035], [21.343623500000017, 60.35180050000004], [21.315912899999976, 60.393917400000035]]], [[[26.09557609999996, 60.39592240000002], [26.09557609999996, 60.39592240000002]]], [[[19.719, 60.39575], [19.719, 60.39575]]], [[[19.9915, 60.4045], [19.9915, 60.4045]]], [[[20.1175, 60.4045], [20.1175, 60.4045]]], [[[21.371638799999957, 60.4064968], [21.4027018, 60.365918899999976], [21.371638799999957, 60.4064968]]], [[[26.425152899999972, 60.40838310000002], [26.3815217, 60.3808605], [26.436415699999984, 60.371850799999976], [26.48638169999998, 60.360117], [26.53671660000004, 60.342739500000036], [26.495576799999974, 60.37163819999997], [26.446367399999957, 60.3872217], [26.425152899999972, 60.40838310000002]]], [[[22.475131400000024, 60.4084579], [22.423, 60.40025], [22.354079899999988, 60.390811], [22.412620200000042, 60.378731100000024], [22.46773049999998, 60.38845450000003], [22.475131400000024, 60.4084579]]], [[[21.0265, 60.40625], [21.0265, 60.40625]]], [[[27.02525, 60.41], [27.062, 60.373], [27.02525, 60.41]]], [[[21.1871343, 60.4105243], [21.1871343, 60.4105243]]], [[[20.7715, 60.4095], [20.7715, 60.4095]]], [[[21.67875, 60.4145], [21.67875, 60.4145]]], [[[21.33075, 60.41125], [21.33075, 60.41125]]], [[[27.419941100000024, 60.416932], [27.419941100000024, 60.416932]]], [[[22.056, 60.418], [22.056, 60.418]]], [[[20.6175, 60.42], [20.6175, 60.42]]], [[[20.311, 60.42075], [20.311, 60.42075]]], [[[21.256, 60.42175], [21.256, 60.42175]]], [[[26.983, 60.427], [26.983, 60.427]]], [[[21.425, 60.42775], [21.425, 60.42775]]], [[[19.876936700000023, 60.42714690000001], [19.83125, 60.4045], [19.789, 60.3775], [19.8065, 60.328], [19.87125, 60.32625], [19.89575, 60.28225], [19.85725, 60.245], [19.839, 60.29375], [19.811, 60.25], [19.81175, 60.19875], [19.7905, 60.251], [19.7995, 60.31325], [19.753, 60.33775], [19.747616700000012, 60.283692199999955], [19.700366700000025, 60.26194209999997], [19.66761670000002, 60.302192199999965], [19.659116699999988, 60.2469421], [19.687, 60.2015], [19.71175, 60.15725], [19.74175, 60.10975], [19.79825, 60.101], [19.8525, 60.09625], [19.905967400000044, 60.09126339999999], [19.953212100000037, 60.067985499999985], [19.9883876, 60.1104869], [20.039354599999957, 60.098305], [20.01975, 60.1475], [20.006, 60.19575], [19.99875, 60.25175], [19.97175, 60.29575], [20.005, 60.255], [20.044, 60.297], [20.021, 60.24825], [20.04175, 60.20275], [20.08185680000004, 60.234673], [20.08525, 60.1845], [20.1425, 60.1855], [20.19325, 60.1865], [20.240243799999966, 60.208447100000015], [20.25075, 60.25975], [20.21675, 60.29725], [20.19275, 60.34525], [20.1275, 60.34225], [20.0835, 60.37425], [20.03325, 60.37225], [19.97789949999996, 60.3730148], [19.92914950000003, 60.395264799999964], [19.889399500000025, 60.42651480000003], [19.876936700000023, 60.42714690000001]]], [[[19.773, 60.42825], [19.773, 60.42825]]], [[[21.05525, 60.42825], [21.05525, 60.42825]]], [[[20.992, 60.43225], [20.992, 60.43225]]], [[[22.21737539999996, 60.432712399999986], [22.1642068, 60.41762440000002], [22.20475, 60.385], [22.25775, 60.3885], [22.225584299999976, 60.428675900000044], [22.21737539999996, 60.432712399999986]]], [[[20.269, 60.434], [20.269, 60.434]]], [[[26.7428349, 60.436414399999954], [26.7428349, 60.436414399999954]]], [[[20.95625, 60.4375], [20.95625, 60.4375]]], [[[19.735, 60.44], [19.735, 60.44]]], [[[21.4135, 60.44075], [21.36325, 60.4215], [21.4155, 60.42875], [21.4135, 60.44075]]], [[[21.204, 60.43225], [21.204, 60.43225]]], [[[27.552828599999977, 60.441003200000026], [27.552828599999977, 60.441003200000026]]], [[[20.02025, 60.441], [20.02025, 60.441]]], [[[20.0585, 60.44225], [20.0585, 60.44225]]], [[[21.0585, 60.44025], [21.0085, 60.4395], [21.0585, 60.44025]]], [[[22.202362299999976, 60.444132400000036], [22.147, 60.4345], [22.0921244, 60.426480799999965], [22.14375, 60.4215], [22.196959599999975, 60.4339793], [22.202362299999976, 60.444132400000036]]], [[[27.05875, 60.444], [27.05875, 60.444]]], [[[21.68175, 60.44975], [21.70775, 60.4055], [21.68175, 60.44975]]], [[[26.6031949, 60.44643089999997], [26.555876699999956, 60.42011070000004], [26.505441699999963, 60.42237509999999], [26.540507700000013, 60.3826823], [26.58220539999997, 60.41160990000002], [26.635621300000047, 60.41729009999998], [26.6031949, 60.44643089999997]]], [[[21.636410099999956, 60.457194], [21.6031432, 60.419046299999984], [21.644598, 60.4479428], [21.636410099999956, 60.457194]]], [[[27.172, 60.45625], [27.172, 60.45625]]], [[[27.028472, 60.46371730000001], [26.9895, 60.43225], [27.03575, 60.41075], [27.028472, 60.46371730000001]]], [[[20.23275, 60.4645], [20.23275, 60.4645]]], [[[20.7835, 60.46775], [20.7835, 60.46775]]], [[[26.87849969999997, 60.4686036], [26.8422786, 60.43363810000002], [26.896352900000018, 60.42266970000003], [26.87849969999997, 60.4686036]]], [[[26.951115200000032, 60.473493], [26.951115200000032, 60.473493]]], [[[27.368609, 60.47467510000001], [27.410911200000022, 60.44739790000004], [27.368609, 60.47467510000001]]], [[[26.7563239, 60.474177], [26.7563239, 60.474177]]], [[[21.64471390000001, 60.4804244], [21.64471390000001, 60.4804244]]], [[[21.9249782, 60.48481740000004], [21.97296439999997, 60.43942540000004], [22.02175, 60.422], [22.0736449, 60.44104659999998], [22.002874199999987, 60.46330760000004], [21.952810900000017, 60.4787368], [21.9249782, 60.48481740000004]]], [[[26.975, 60.48175], [26.975, 60.48175]]], [[[20.94325, 60.49], [20.9265, 60.442], [20.95725, 60.4825], [20.94325, 60.49]]], [[[21.8407434, 60.48997019999997], [21.813921799999978, 60.44610569999997], [21.860162500000033, 60.422985500000046], [21.80925, 60.417], [21.8515476, 60.37600089999999], [21.90215580000002, 60.3637015], [21.847506899999978, 60.3665472], [21.896196200000038, 60.351085300000015], [21.957949500000016, 60.34553370000004], [22.0142207, 60.3480763], [21.959663099999958, 60.38382470000003], [21.91225, 60.401], [21.96675, 60.4005], [21.9335, 60.4425], [21.896, 60.4785], [21.8407434, 60.48997019999997]]], [[[21.6275, 60.49225], [21.6275, 60.49225]]], [[[27.3645, 60.49925], [27.3645, 60.49925]]], [[[21.049904687499996, 60.50613929687498], [21.05375, 60.45575], [21.106564, 60.46885439999998], [21.06275, 60.4955], [21.049904687499996, 60.50613929687498]]], [[[21.09946990000001, 60.513209900000014], [21.09946990000001, 60.513209900000014]]], [[[21.67775, 60.517], [21.67775, 60.517]]], [[[21.3699303, 60.518942400000036], [21.3699303, 60.518942400000036]]], [[[21.55534830000004, 60.52598579999999], [21.515821799999966, 60.49502130000001], [21.565428199999968, 60.50364340000002], [21.55534830000004, 60.52598579999999]]], [[[20.89675, 60.535], [20.89675, 60.535]]], [[[21.078674300000042, 60.53614440000003], [21.078674300000042, 60.53614440000003]]], [[[21.01775, 60.5355], [21.01775, 60.5355]]], [[[21.06321989999996, 60.55903], [21.06321989999996, 60.55903]]], [[[21.231109900000043, 60.55936], [21.231109900000043, 60.55936]]], [[[21.5352549, 60.56185480000004], [21.5352549, 60.56185480000004]]], [[[21.74038010000002, 60.57773], [21.74038010000002, 60.57773]]], [[[21.30196, 60.5786699], [21.30196, 60.5786699]]], [[[21.16833, 60.58222990000004], [21.16833, 60.58222990000004]]], [[[21.234429900000027, 60.5875], [21.26373, 60.544970100000015], [21.28672, 60.5004001], [21.339568399999962, 60.49175209999997], [21.32188, 60.54049], [21.27227, 60.570799899999955], [21.234429900000027, 60.5875]]], [[[21.76145, 60.58938], [21.76145, 60.58938]]], [[[21.377188400000033, 60.5975819], [21.339353300000017, 60.56411149999998], [21.37715639999996, 60.52972539999996], [21.42217, 60.503620099999964], [21.468534199999976, 60.4775379], [21.50409630000004, 60.51766930000004], [21.4725868, 60.5585856], [21.42230030000004, 60.562064], [21.377188400000033, 60.5975819]]], [[[21.201840099999956, 60.6172401], [21.201840099999956, 60.6172401]]], [[[21.424584400000022, 60.61631649999996], [21.424584400000022, 60.61631649999996]]], [[[21.2238, 60.62973], [21.2238, 60.62973]]], [[[21.27312990000002, 60.67315010000002], [21.22547, 60.64509], [21.25694, 60.60563], [21.304340099999983, 60.5819901], [21.3516001, 60.59927], [21.31717, 60.6433701], [21.274660099999974, 60.66982010000001], [21.27312990000002, 60.67315010000002]]], [[[21.3371, 60.70601], [21.3371, 60.70601]]], [[[21.30851, 60.72015], [21.30851, 60.72015]]], [[[21.3410599, 60.73415], [21.3410599, 60.73415]]], [[[21.029424, 60.73517730000002], [21.029424, 60.73517730000002]]], [[[21.2601066, 60.76678479999999], [21.2601066, 60.76678479999999]]], [[[21.336994199999957, 60.76861310000001], [21.336994199999957, 60.76861310000001]]], [[[21.280388899999956, 60.775423500000045], [21.280388899999956, 60.775423500000045]]], [[[21.358681499999985, 60.799419], [21.358681499999985, 60.799419]]], [[[21.00612509999996, 60.848862699999955], [21.00612509999996, 60.848862699999955]]], [[[21.426229299999964, 61.18348059999998], [21.426229299999964, 61.18348059999998]]], [[[21.410306300000013, 61.21416719999996], [21.468356, 61.1951891], [21.410306300000013, 61.21416719999996]]], [[[21.36937910000004, 61.21595349999997], [21.411688100000035, 61.184344799999984], [21.36937910000004, 61.21595349999997]]], [[[21.45345329999998, 61.22340050000001], [21.45345329999998, 61.22340050000001]]], [[[21.43591250000002, 61.250241799999976], [21.4824443, 61.227875099999956], [21.43591250000002, 61.250241799999976]]], [[[21.470100100000042, 61.30231010000002], [21.470100100000042, 61.30231010000002]]], [[[21.4693599, 61.35924989999999], [21.517580099999964, 61.342569900000015], [21.4693599, 61.35924989999999]]], [[[21.42537, 61.3773], [21.42537, 61.3773]]], [[[21.51370990000002, 61.3986199], [21.51370990000002, 61.3986199]]], [[[21.44927, 61.4078001], [21.49588, 61.38487], [21.44927, 61.4078001]]], [[[21.35363609999997, 61.48398189999999], [21.35363609999997, 61.48398189999999]]], [[[21.569754099999958, 61.6279287], [21.569754099999958, 61.6279287]]], [[[21.399234099999962, 61.63965330000003], [21.45262449999997, 61.6046456], [21.413542099999958, 61.63982710000002], [21.399234099999962, 61.63965330000003]]], [[[21.48303659999998, 61.64429209999997], [21.48303659999998, 61.64429209999997]]], [[[21.4406087, 61.679513700000015], [21.4406087, 61.679513700000015]]], [[[21.445412500000014, 61.84939049656994], [21.445412500000014, 61.84939049656994]]], [[[21.208312800000026, 62.36038760000004], [21.208312800000026, 62.36038760000004]]], [[[21.228892499999983, 62.394884800000014], [21.214129700000015, 62.34348390000004], [21.25415260000004, 62.383475799999985], [21.228892499999983, 62.394884800000014]]], [[[21.19988109999996, 62.4262348], [21.16834759999998, 62.37232090000002], [21.217384899999967, 62.39453620000003], [21.19988109999996, 62.4262348]]], [[[21.103704099999963, 62.5541463], [21.15508990000002, 62.5304371], [21.10880180000004, 62.55055849999997], [21.103704099999963, 62.5541463]]], [[[21.074915900000022, 62.579834699999964], [21.0892162, 62.53040420000004], [21.074915900000022, 62.579834699999964]]], [[[21.0817213, 62.67386], [21.0817213, 62.67386]]], [[[21.16872620000004, 62.871610799999964], [21.12141529999999, 62.847537500000044], [21.176029299999986, 62.83081070000002], [21.225435899999976, 62.846841900000044], [21.1781249, 62.869033499999965], [21.16872620000004, 62.871610799999964]]], [[[21.088310799999963, 62.899777900000025], [21.088310799999963, 62.899777900000025]]], [[[21.240619400000025, 62.90677260000003], [21.240619400000025, 62.90677260000003]]], [[[21.185511700000035, 62.933877200000026], [21.20638170000003, 62.88628480000004], [21.18697370000003, 62.9345102], [21.185511700000035, 62.933877200000026]]], [[[21.394908700000013, 62.97093849999997], [21.350910400000043, 62.943261], [21.392034399999957, 62.91032220000001], [21.41325970000004, 62.957237], [21.394908700000013, 62.97093849999997]]], [[[21.22997380000001, 62.99918649999998], [21.22997380000001, 62.99918649999998]]], [[[21.444368200000028, 63.00191480000003], [21.444368200000028, 63.00191480000003]]], [[[21.147559, 63.012837599999976], [21.149442500000024, 62.96190160000001], [21.1993416, 62.95581420000002], [21.17293969999997, 63.00427149999998], [21.147559, 63.012837599999976]]], [[[21.376890499999988, 63.01803289999996], [21.32560050000004, 63.01330280000001], [21.371972899999978, 62.992295600000034], [21.441722599999977, 62.986371699999985], [21.390370500000042, 63.015442799999974], [21.376890499999988, 63.01803289999996]]], [[[21.189745300000027, 63.0291373], [21.237131900000037, 63.00713219999998], [21.189745300000027, 63.0291373]]], [[[21.13473510000002, 63.02975780000001], [21.13473510000002, 63.02975780000001]]], [[[20.8281, 63.06336], [20.8281, 63.06336]]], [[[21.380156600000042, 63.06587449999996], [21.380156600000042, 63.06587449999996]]], [[[21.410636599999986, 63.087904700000024], [21.3922066, 63.03962420000004], [21.33729660000002, 63.04129420000002], [21.38605, 63.02047], [21.436868100000037, 63.01053819999997], [21.454076600000036, 63.068854499999965], [21.410636599999986, 63.087904700000024]]], [[[21.5720271, 63.10229550000003], [21.5720271, 63.10229550000003]]], [[[20.81164, 63.12268], [20.81164, 63.12268]]], [[[21.50722659999996, 63.14132520000004], [21.50722659999996, 63.14132520000004]]], [[[21.474846600000017, 63.16650539999997], [21.51852660000003, 63.1407752], [21.474846600000017, 63.16650539999997]]], [[[21.407543400000026, 63.18000170000004], [21.407543400000026, 63.18000170000004]]], [[[21.71863, 63.25247], [21.71863, 63.25247]]], [[[22.03946, 63.27198], [22.03946, 63.27198]]], [[[21.59134889999997, 63.279724300000034], [21.59134889999997, 63.279724300000034]]], [[[22.23122930000004, 63.27875180000004], [22.23122930000004, 63.27875180000004]]], [[[22.01567, 63.28187], [22.01567, 63.28187]]], [[[21.42047, 63.29894], [21.42047, 63.29894]]], [[[21.89326, 63.30162], [21.89326, 63.30162]]], [[[21.95612, 63.30262], [21.95612, 63.30262]]], [[[21.80782, 63.30597], [21.80782, 63.30597]]], [[[21.214968799999987, 63.32151690000003], [21.18048, 63.2841], [21.123139700000024, 63.29146289999998], [21.13706, 63.23478], [21.16571, 63.18512], [21.218096599999967, 63.188105599999986], [21.272643600000016, 63.170156299999974], [21.3244116, 63.1577605], [21.358936600000042, 63.19753569999997], [21.4090566, 63.19612570000001], [21.46280240000001, 63.2065713], [21.4427, 63.253], [21.39687, 63.27752], [21.345794200000032, 63.27116440000002], [21.29442, 63.2582], [21.24769, 63.23719], [21.194893400000012, 63.255765900000036], [21.24349, 63.2771], [21.22187280000004, 63.32229869999996], [21.214968799999987, 63.32151690000003]]], [[[21.15059, 63.32659], [21.108319500000015, 63.29604439999998], [21.1595, 63.29103], [21.15059, 63.32659]]], [[[22.25681, 63.33265], [22.25681, 63.33265]]], [[[21.70182, 63.3368051785714], [21.65457, 63.31852], [21.6331431, 63.272021399999964], [21.6843908, 63.262845], [21.689473, 63.3144586], [21.74331, 63.27409], [21.77172, 63.31691], [21.72047, 63.31513], [21.70182, 63.3368051785714]]], [[[22.05615, 63.34016], [22.05615, 63.34016]]], [[[21.2139568, 63.35663309999997], [21.163958199999975, 63.34557339999997], [21.21982179999998, 63.34493640000002], [21.2139568, 63.35663309999997]]], [[[21.09779, 63.3636], [21.09779, 63.3636]]], [[[21.3349982, 63.3724187], [21.287346299999985, 63.35716210000004], [21.240439399999964, 63.33589179999996], [21.28779159999997, 63.307873699999966], [21.339542200000015, 63.319459399999964], [21.39042329999997, 63.3099845], [21.419427800000044, 63.35083720000003], [21.369628200000044, 63.3688462], [21.3349982, 63.3724187]]], [[[22.015186424999964, 63.392248909795306], [21.96853, 63.36738], [22.023623400000023, 63.37681690000003], [21.99696, 63.3324], [21.96937, 63.29063], [22.02582, 63.27988], [22.0839, 63.27574], [22.13516, 63.2573], [22.204161900000017, 63.27263759999997], [22.236580400000037, 63.31302319999998], [22.18623, 63.31202], [22.13858, 63.32967], [22.08622, 63.32944], [22.03102, 63.33011], [22.07658, 63.36124], [22.03005, 63.38255], [22.015186424999964, 63.392248909795306]]], [[[21.24886680000003, 63.3978454], [21.196253500000015, 63.38389930000001], [21.2416357, 63.361049499999986], [21.24886680000003, 63.3978454]]], [[[21.6838, 63.39972], [21.6838, 63.39972]]], [[[22.25266849999997, 63.41983530000001], [22.25266849999997, 63.41983530000001]]], [[[21.80457, 63.42416], [21.80457, 63.42416]]], [[[21.05722980000003, 63.43702230000001], [21.05722980000003, 63.43702230000001]]], [[[22.09736, 63.44294], [22.09736, 63.44294]]], [[[21.74687, 63.45555], [21.6994, 63.43111], [21.75678, 63.43056], [21.74687, 63.45555]]], [[[21.79213, 63.45953], [21.79213, 63.45953]]], [[[22.43419249999997, 63.552120699999975], [22.43419249999997, 63.552120699999975]]], [[[22.4362657, 63.585424200000034], [22.458345700000013, 63.53429360000004], [22.4362657, 63.585424200000034]]], [[[22.371303399999984, 63.62636130000003], [22.371303399999984, 63.62636130000003]]], [[[22.6605549, 63.7555519], [22.6605549, 63.7555519]]], [[[22.55789, 63.78352], [22.55789, 63.78352]]], [[[22.669810800000043, 63.78324229999996], [22.669810800000043, 63.78324229999996]]], [[[22.648402700000023, 63.80553], [22.648402700000023, 63.80553]]], [[[22.66221930000004, 63.81160070000004], [22.66221930000004, 63.81160070000004]]], [[[22.60183, 63.81898], [22.579919800000035, 63.762015600000026], [22.632529800000043, 63.772425800000015], [22.60183, 63.81898]]], [[[22.647892700000014, 63.832949300000024], [22.647892700000014, 63.832949300000024]]], [[[22.818243599999963, 63.87346250000003], [22.818243599999963, 63.87346250000003]]], [[[22.754789200000012, 63.877221900000045], [22.754789200000012, 63.877221900000045]]], [[[22.782106, 63.89246509999997], [22.782106, 63.89246509999997]]], [[[22.766102600000035, 63.9086725], [22.766102600000035, 63.9086725]]], [[[22.808293799999966, 63.922315], [22.808293799999966, 63.922315]]], [[[22.76509660000002, 63.9291025], [22.76509660000002, 63.9291025]]], [[[23.288022500000025, 63.947581], [23.288022500000025, 63.947581]]], [[[23.203488100000023, 63.954234400000026], [23.203488100000023, 63.954234400000026]]], [[[23.6505, 64.20425], [23.6, 64.195], [23.6525, 64.1835], [23.6505, 64.20425]]], [[[24.761496199999975, 64.94522220000005], [24.761496199999975, 64.94522220000005]]], [[[25.286843400000034, 65.0037558], [25.286843400000034, 65.0037558]]], [[[25.413185400000025, 65.0421287], [25.413185400000025, 65.0421287]]], [[[24.83325, 65.09725], [24.77825, 65.08525], [24.72125, 65.084], [24.66875, 65.08175], [24.59125, 65.06175], [24.57775, 65.012], [24.621, 64.98175], [24.6885, 64.9605], [24.739, 64.9775], [24.791566799999973, 64.94131819999997], [24.843957300000028, 64.96152039999996], [24.881445699999958, 65.00069380000004], [24.84032260000003, 65.03503980000002], [24.7889006, 65.04569720000003], [24.85103030000003, 65.04895170000002], [24.90156940000002, 65.04561689999997], [24.953940299999964, 65.0351298], [25.0114906, 65.03022039999996], [25.06523, 65.03984680000003], [24.9887034, 65.05632789999997], [24.93245060000003, 65.06058280000003], [24.88, 65.0645], [24.83675, 65.095], [24.83325, 65.09725]]], [[[25.34937720000002, 65.10108750000005], [25.299005, 65.09845569999999], [25.344289300000042, 65.07061969999997], [25.34937720000002, 65.10108750000005]]], [[[25.20635160000003, 65.10965919999998], [25.25377030000003, 65.08134430000003], [25.20635160000003, 65.10965919999998]]], [[[25.178456099999966, 65.1151341], [25.178456099999966, 65.1151341]]], [[[25.129257, 65.14339349999997], [25.129257, 65.14339349999997]]], [[[25.286059199999986, 65.32834909999995], [25.286059199999986, 65.32834909999995]]], [[[25.281115799999974, 65.33660460000002], [25.23017020000001, 65.33213949999995], [25.283081199999966, 65.33158909999999], [25.281115799999974, 65.33660460000002]]], [[[24.847120700000023, 65.39431990000001], [24.847120700000023, 65.39431990000001]]], [[[24.99675, 65.424], [24.99675, 65.424]]], [[[24.97825, 65.60825], [24.97825, 65.60825]]], [[[25.05318260000001, 65.61444129999995], [25.05318260000001, 65.61444129999995]]], [[[24.961, 65.62625], [24.961, 65.62625]]], [[[24.88608409999996, 65.63639489999998], [24.88608409999996, 65.63639489999998]]], [[[24.82757, 65.64304], [24.82757, 65.64304]]], [[[24.60224, 65.70864449999998], [24.55227049999996, 65.67576430000004], [24.602875499999985, 65.6650079], [24.60224, 65.70864449999998]]], [[[24.53068960000003, 65.72771769999999], [24.493292500000017, 65.69217310000003], [24.54012129999997, 65.71946430000001], [24.53068960000003, 65.72771769999999]]], [[[24.23169, 65.7887], [24.23169, 65.7887]]], [[[24.183915499999973, 65.79149549999995], [24.183915499999973, 65.79149549999995]]], [[[24.15326, 65.80184], [24.15326, 65.80184]]], [[[24.254727, 65.80342260000005], [24.254727, 65.80342260000005]]], [[[24.1562797, 65.83462269999997], [24.184274700000028, 65.79283979999998], [24.235910299999972, 65.80240780000001], [24.186898499999963, 65.827445], [24.1562797, 65.83462269999997]]], [[[27.96465849999997, 70.08069390000001], [27.91001129999998, 70.086698], [27.83615549999997, 70.07946910000003], [27.765058699999976, 70.068084], [27.6940158, 70.07640079999999], [27.608135, 70.07312080000003], [27.553431200000013, 70.058144], [27.4307096, 70.01944610000004], [27.38430140000002, 70.00064260000005], [27.327257699999983, 69.98832330000002], [27.277703500000037, 69.979223], [27.229585700000015, 69.9476092], [27.167321400000034, 69.93507820000004], [27.10064380000002, 69.917582], [27.039760099999967, 69.91055930000003], [26.98704460000002, 69.93463409999998], [26.930246599999975, 69.93942929999999], [26.878296799999966, 69.9334149], [26.7847555, 69.95855110000002], [26.73237340000002, 69.94644150000002], [26.678687800000013, 69.96477229999998], [26.614893099999968, 69.95878669999998], [26.549625600000013, 69.947399], [26.486688100000023, 69.94433159999997], [26.43356219999996, 69.90896249999997], [26.400657600000045, 69.86639110000003], [26.35271170000003, 69.84580780000005], [26.29699439999996, 69.82746860000002], [26.242623600000016, 69.8162123], [26.199407600000022, 69.77856359999996], [26.1520583, 69.756011], [26.1049596, 69.729565], [26.04865940000002, 69.72019020000003], [25.97123619999998, 69.707112], [25.902629400000045, 69.67227250000005], [25.95336180000004, 69.64753049999996], [25.966467600000044, 69.59882990000003], [25.918657, 69.5679086], [25.861590599999982, 69.55349050000004], [25.857180400000033, 69.5020953], [25.825152199999977, 69.4476821], [25.8465163, 69.393376], [25.7848475, 69.35591429999997], [25.742015, 69.3191897], [25.73223179999996, 69.26531890000003], [25.705478199999963, 69.21961289999997], [25.717513, 69.164816], [25.72042670000002, 69.11006120000002], [25.752202599999983, 69.0583881], [25.774641400000018, 69.01348050000001], [25.72315780000004, 68.9897419], [25.69123430000003, 68.94486609999998], [25.654328499999988, 68.90577050000003], [25.6025496, 68.88558510000001], [25.5423794, 68.88629560000001], [25.4930404, 68.90380639999998], [25.434485900000023, 68.89399150000004], [25.375245, 68.880893], [25.312226699999982, 68.86270240000003], [25.23861420000003, 68.83914660000003], [25.196901299999972, 68.80973009999997], [25.139590200000015, 68.7835026], [25.12179489999996, 68.72434940000002], [25.1145968, 68.66608250000003], [25.0834452, 68.6266897], [25.031923399999965, 68.62288130000002], [24.97946919999997, 68.61767769999997], [24.929329900000017, 68.60792439999999], [24.903165800000036, 68.55459179999995], [24.783424599999968, 68.63623459999998], [24.6083879, 68.6819016], [24.467630199999988, 68.69956660000003], [24.30226, 68.7173502], [24.2509648, 68.72713210000005], [24.152962299999956, 68.753591], [24.0755916, 68.7799668], [23.983330800000022, 68.82714340000004], [23.8714608, 68.83651919999997], [23.77539150000004, 68.81885129999998], [23.73106349999997, 68.75075139999997], [23.673520199999984, 68.70552139999997], [23.44063559999997, 68.69216349999998], [23.167582200000023, 68.6285189], [23.0459522, 68.68934359999999], [22.800824, 68.68754810000001], [22.605766599999964, 68.72612089999996], [22.5353893, 68.74451259999998], [22.3745217, 68.71666660000001], [22.340780599999963, 68.82722570000001], [22.19186780000003, 68.91877369999999], [21.983951700000013, 69.07307750000002], [21.8463993, 69.1441592], [21.723341100000013, 69.21448970000002], [21.62708590000003, 69.27658829999996], [21.278820200000013, 69.31188410000001], [21.096169100000015, 69.260912], [21.003312400000027, 69.22233810000004], [21.046732600000038, 69.13952110000002], [21.108674199999964, 69.10392909999997], [21.057543, 69.03628969999997], [20.7173208, 69.11979119999995], [20.548642200000042, 69.05996989999996], [20.6276833, 69.04580819999998], [20.6887068, 69.04305090000003], [20.77504280000003, 69.03260730000002], [20.8203603, 69.0058889], [20.879510599999982, 68.986764], [20.844191300000023, 68.93656440000002], [20.903948599999964, 68.900537], [20.956883899999976, 68.89692070000001], [21.0287904, 68.88587720000002], [21.076718499999956, 68.871479], [21.127474899999985, 68.85401080000004], [21.185129899999975, 68.82877849999997], [21.23491859999996, 68.81385669999999], [21.29903030000003, 68.7627477], [21.362391800000022, 68.766997], [21.41255479999998, 68.74835630000004], [21.4206316, 68.69660090000005], [21.4804853, 68.68126909999998], [21.5405063, 68.675369], [21.593081, 68.66789460000004], [21.642295099999984, 68.65088489999997], [21.699466500000018, 68.63141330000003], [21.779003399999972, 68.58538709999996], [21.839515600000023, 68.5909094], [21.88986930000004, 68.58440509999998], [21.945892099999984, 68.55631250000005], [21.99191250000002, 68.53397940000005], [22.04395739999999, 68.479576], [22.09866659999996, 68.481032], [22.1528153, 68.47018050000001], [22.204494800000028, 68.4799938], [22.27639059999996, 68.47919460000004], [22.326787700000015, 68.48067250000003], [22.39736769999997, 68.4639253], [22.466174899999967, 68.4413001], [22.53580920000001, 68.43443069999996], [22.61731509999999, 68.4275544], [22.666960600000028, 68.41229340000001], [22.7192641, 68.39582780000002], [22.784826700000025, 68.3914019], [22.846527099999978, 68.38168359999999], [22.89356259999998, 68.34870269999998], [22.973758500000017, 68.33184830000005], [23.035604600000035, 68.3074364], [23.077325599999963, 68.26757669999998], [23.129986800000033, 68.24843850000002], [23.15949619999996, 68.198743], [23.15450689999997, 68.13670060000001], [23.214938500000013, 68.14613469999996], [23.278364500000013, 68.15733890000001], [23.3225058, 68.12894749999995], [23.357758599999965, 68.08673250000001], [23.389595199999977, 68.0473184], [23.4455835, 68.03689880000003], [23.534001499999988, 68.00601890000004], [23.578526600000025, 67.9717872], [23.6389789, 67.96551359999998], [23.62187050000003, 67.9086371], [23.573937700000034, 67.8925513], [23.51719150000001, 67.88433530000002], [23.47906930000004, 67.84277770000001], [23.4946531, 67.79030190000002], [23.476642599999984, 67.73844380000004], [23.490725700000024, 67.6885384], [23.5390577, 67.63331920000002], [23.54113009999997, 67.57863469999995], [23.4877016, 67.56665069999995], [23.43703920000003, 67.51688820000001], [23.394423100000026, 67.48427680000002], [23.459894599999984, 67.45389319999997], [23.511086, 67.446028], [23.584530300000015, 67.45349829999998], [23.6580014, 67.44612520000001], [23.710044299999975, 67.44571779999997], [23.762714800000015, 67.43031809999997], [23.721051499999977, 67.3925146], [23.745225499999965, 67.34809130000004], [23.731163900000016, 67.28763560000003], [23.649035699999974, 67.277178], [23.579138500000028, 67.2682368], [23.5480296, 67.22499369999998], [23.596079, 67.20820560000004], [23.5523771, 67.17038450000003], [23.6301036, 67.11522969999996], [23.665973599999965, 67.07539880000002], [23.71643320000004, 67.03596079999998], [23.7671651, 67.00112480000004], [23.816237799999982, 66.978455], [23.8587243, 66.94407539999997], [23.89966280000003, 66.90186810000004], [23.942531399999964, 66.87374389999998], [23.995662899999957, 66.822049], [23.96106879999996, 66.78241979999997], [23.91244689999997, 66.79495479999999], [23.87841189999996, 66.75439380000003], [23.897651, 66.7060547], [23.86853209999998, 66.65682540000002], [23.87649220000002, 66.60063760000001], [23.83931459999996, 66.55410209999998], [23.785669099999982, 66.53500080000005], [23.744533, 66.504194], [23.697494200000033, 66.47538869999995], [23.65096569999997, 66.45574760000004], [23.666245800000016, 66.40080439999997], [23.6565093, 66.31920450000004], [23.669551200000036, 66.26176510000003], [23.7028106, 66.221547], [23.78982869999998, 66.18525690000003], [23.858195899999988, 66.17152249999998], [23.92081029999998, 66.159785], [23.94533639999997, 66.10649460000003], [23.97563459999997, 66.05751610000003], [24.035329900000022, 66.01057190000003], [24.053676200000016, 65.9515294], [24.099338099999965, 65.9295107], [24.13280030000001, 65.88799960000001], [24.16007, 65.83908], [24.220684599999984, 65.8277002], [24.286547199999973, 65.7998635], [24.3452, 65.79096], [24.39442140000004, 65.7803933], [24.4548519, 65.75689089999999], [24.5057099, 65.74249989999996], [24.5583682, 65.72454209999995], [24.60668680000003, 65.70941739999998], [24.650824800000013, 65.679987], [24.67995, 65.63777990000001], [24.730590100000036, 65.64674010000002], [24.785869899999966, 65.65242009999996], [24.83552, 65.66092490000004], [24.888368, 65.66467140000005], [24.9280748, 65.6339013], [24.978081900000024, 65.6340518], [25.032269299999985, 65.62126610000003], [25.079450399999956, 65.60103419999999], [25.1138412, 65.56379829999999], [25.16857919999996, 65.5654989], [25.218473299999964, 65.54230969999996], [25.2680049, 65.51754390000004], [25.304930100000043, 65.48206779999998], [25.348719799999984, 65.45768329999999], [25.3292476, 65.41108229999996], [25.27403360000001, 65.40776749999996], [25.311807400000017, 65.36765450000003], [25.2852284, 65.3192371], [25.264312, 65.26958580000002], [25.314506499999965, 65.2674075], [25.352572199999965, 65.22953130000003], [25.2966221, 65.23367079999997], [25.2598479, 65.19759519999997], [25.2229501, 65.16349790000004], [25.26513969999998, 65.1263313], [25.3202681, 65.113025], [25.373985300000044, 65.10286], [25.409858, 65.05986609999998], [25.457069699999977, 65.02395550000004], [25.400643400000043, 65.0004884], [25.451347700000024, 64.98146160000002], [25.40295259999997, 64.96147850000004], [25.342056200000016, 64.98468159999999], [25.26941619999997, 64.99794049999996], [25.20473439999998, 65.0059876], [25.2109348, 64.95535090000001], [25.271831200000037, 64.93120070000005], [25.32567750000002, 64.91016659999997], [25.37757680000002, 64.90827250000001], [25.34335860000004, 64.8639947], [25.29092020000002, 64.82852949999997], [25.261845199999975, 64.8742728], [25.21084959999996, 64.87865410000003], [25.1648656, 64.90429479999997], [25.11537330000003, 64.91827539999997], [25.063853499999986, 64.91115529999998], [25.002633099999958, 64.91291310000003], [24.95916269999997, 64.88800519999997], [24.897982200000044, 64.88251229999997], [24.84693529999996, 64.88364870000002], [24.79323670000003, 64.87521980000001], [24.74105329999997, 64.87313630000001], [24.686215500000017, 64.85522739999998], [24.661026199999956, 64.80598929999998], [24.613294, 64.83013950000004], [24.55391289999996, 64.81830110000001], [24.564330699999957, 64.76223480000003], [24.5356345, 64.7198062], [24.483339099999988, 64.6972702], [24.436284299999986, 64.67218820000002], [24.385221600000015, 64.6351142], [24.381331, 64.580085], [24.352302300000037, 64.53335560000004], [24.285688499999978, 64.5266568], [24.231241400000023, 64.49908139999995], [24.1893056, 64.47158629999998], [24.140541699999982, 64.4530791], [24.085311299999965, 64.44314790000003], [24.029933199999984, 64.414539], [23.99491269999997, 64.37838049999998], [23.955652800000014, 64.34459789999997], [23.914852399999962, 64.3124892], [23.9308751, 64.26495380000003], [23.883215899999986, 64.285015], [23.830205, 64.27240260000004], [23.794664300000044, 64.23428469999999], [23.74462410000003, 64.2224361], [23.693543199999976, 64.22243550000003], [23.6982109, 64.16782340000002], [23.647504400000017, 64.1429695], [23.59757219999997, 64.12665250000005], [23.6300435, 64.07258870000001], [23.581563500000033, 64.05503480000003], [23.526788799999974, 64.04968069999997], [23.476917199999967, 64.05673649999996], [23.4167022, 64.08327229999996], [23.379680200000017, 64.032542], [23.396117100000033, 63.97940270000004], [23.376968900000037, 63.93247120000002], [23.318671099999975, 63.93543349999999], [23.267826800000044, 63.9144445], [23.21088010000004, 63.92071570000002], [23.15355, 63.91506], [23.0988, 63.90564], [23.1182406, 63.85596070000001], [23.07451, 63.88359], [23.023604200000012, 63.87088129999998], [22.98027320000001, 63.835785799999975], [22.94594, 63.87527], [22.89805259999996, 63.900954900000045], [22.841787799999977, 63.905179900000036], [22.878511799999988, 63.86186910000002], [22.824888499999982, 63.85270510000002], [22.77519309999999, 63.83495980000002], [22.72566750000001, 63.84795410000003], [22.6852389, 63.8159853], [22.727212799999972, 63.787227600000016], [22.683394499999974, 63.760387100000024], [22.723832100000028, 63.7246065], [22.684936500000017, 63.68461750000002], [22.634304499999978, 63.6896775], [22.587047500000033, 63.66907290000003], [22.534685500000027, 63.656778500000016], [22.49974680000003, 63.620738400000015], [22.45003190000002, 63.6047288], [22.505513799999974, 63.60159379999996], [22.47058540000003, 63.56376520000004], [22.46131339999998, 63.51388080000004], [22.42492969999997, 63.4779025], [22.387939200000027, 63.512414300000025], [22.34603079999996, 63.545905], [22.29786680000002, 63.5303933], [22.326688599999986, 63.480983], [22.38699829999998, 63.4526679], [22.33719070000003, 63.46256129999996], [22.2901, 63.48494], [22.2345523, 63.48256839999997], [22.2331287, 63.4314564], [22.279997100000024, 63.4108407], [22.324464299999978, 63.381605800000045], [22.37014949999999, 63.35678820000001], [22.369654, 63.30172819999997], [22.315752700000022, 63.30166719999998], [22.255393899999962, 63.2969023], [22.21732880000001, 63.25810619999996], [22.16028, 63.24674], [22.11044, 63.2346], [22.059124, 63.253141100000015], [22.040488300000014, 63.2029323], [21.99015, 63.20057], [21.95479619999997, 63.16057349999997], [21.95876, 63.21089], [22.011, 63.2136], [21.99507, 63.26104], [21.9445, 63.2601], [21.89385, 63.2745], [21.8393854, 63.26229159999996], [21.78858, 63.26822], [21.74108, 63.24263], [21.689910700000024, 63.228417], [21.63597, 63.22345], [21.58371, 63.24708], [21.537779, 63.26780440000001], [21.51888669999998, 63.2203812], [21.560014899999977, 63.19146730000004], [21.5098066, 63.17558550000004], [21.548066, 63.1433923], [21.5940877, 63.12131910000002], [21.63392949999997, 63.080291800000026], [21.68472480000002, 63.055317100000046], [21.6347597, 63.0523731], [21.58421579999997, 63.0629519], [21.534902399999964, 63.080487400000045], [21.4866447, 63.058997800000036], [21.4471729, 63.022734799999974], [21.49474, 63.00479], [21.455933400000013, 62.965111500000035], [21.424582, 62.919524], [21.39222540000004, 62.87977940000002], [21.336561500000037, 62.878790900000034], [21.27414609999999, 62.89219180000003], [21.245192400000033, 62.85058089999997], [21.206905400000018, 62.81599959999997], [21.15611610000002, 62.81446190000001], [21.128928800000022, 62.770690499999986], [21.17951139999997, 62.7496016], [21.148729, 62.704981], [21.09951439999996, 62.69542590000003], [21.08915579999998, 62.64599149999996], [21.1409631, 62.64133809999996], [21.194377599999967, 62.62552209999998], [21.172527, 62.5759214], [21.152612, 62.528542500000015], [21.1114861, 62.48981240000002], [21.158105, 62.4711502], [21.207979499999983, 62.49534820000002], [21.182255199999975, 62.44453770000004], [21.23349150000001, 62.447094700000044], [21.23398530000001, 62.395289800000036], [21.284989799999963, 62.3998891], [21.307173300000013, 62.34954689999996], [21.3544319, 62.374928300000015], [21.346003, 62.3241655], [21.344298299999984, 62.27368680000002], [21.383654299999986, 62.24242360000002], [21.429788400000014, 62.220894899999976], [21.382908600000015, 62.20015410000001], [21.35913730000004, 62.1548843], [21.304870399999984, 62.14427719999997], [21.321444, 62.09663969999998], [21.31171229999996, 62.04540220000003], [21.28874890000004, 61.99526240000004], [21.339118200000016, 62.00030110000003], [21.337850700000036, 61.949442900000015], [21.38927450000004, 61.947864299999964], [21.435949399999963, 61.9287165], [21.4724161, 61.86796270000003], [21.514041199999987, 61.824204700000045], [21.462368399999985, 61.809152], [21.495975699999956, 61.7658436], [21.5546243, 61.750646100000026], [21.605049, 61.72012069999997], [21.55481370000004, 61.73359889999996], [21.53917909999997, 61.681374300000044], [21.586891500000025, 61.65116329999997], [21.63638320000004, 61.61933959999996], [21.658621099999973, 61.5741616], [21.60554910000002, 61.57104839999998], [21.539623200000033, 61.585608], [21.487681, 61.5959301], [21.524352400000044, 61.55917709999998], [21.577286599999965, 61.52927250000004], [21.633577100000032, 61.514070100000026], [21.5810109, 61.50191660000004], [21.530308600000012, 61.5050538], [21.4708801, 61.51248829999997], [21.51456, 61.48202], [21.56511, 61.46724], [21.5296901, 61.42849010000002], [21.4791, 61.43866], [21.52585, 61.40676], [21.52633, 61.3555799], [21.5758282, 61.33815710000003], [21.51716990000004, 61.31775009999998], [21.47662, 61.27619010000004], [21.524047899999985, 61.2541483], [21.58271, 61.23535], [21.527571799999965, 61.2302415], [21.485089800000043, 61.195796], [21.440746300000022, 61.171611399999975], [21.4809726, 61.1417933], [21.42500469999998, 61.13315809999997], [21.479027199999976, 61.127705], [21.47415950000001, 61.07778959999998], [21.413386, 61.083641], [21.355382200000026, 61.07025269999997], [21.306770800000017, 61.0869839], [21.34531340000004, 61.054047500000024], [21.384628400000025, 61.021572300000024], [21.4087335, 60.975477], [21.434277800000032, 60.92841749999997], [21.37935719999998, 60.92646250000004], [21.34775, 60.96646990000003], [21.30361, 61.00214009999998], [21.2526601, 60.9892], [21.304039900000014, 60.96377010000002], [21.303289700000025, 60.91292749999997], [21.25006, 60.9266401], [21.22138, 60.88447], [21.24095, 60.83467], [21.28686, 60.80976], [21.338250100000042, 60.81452], [21.39300269999996, 60.82328369999998], [21.3971006, 60.77188220000004], [21.44631010000003, 60.749449900000016], [21.38113, 60.76398010000001], [21.35969, 60.7176], [21.37688, 60.66957], [21.424534299999962, 60.64993929999997], [21.447911, 60.59501690000004], [21.51445380000002, 60.574904799999956], [21.572881, 60.566983], [21.60806, 60.52440009999997], [21.5611701, 60.545080099999964], [21.58125, 60.49375], [21.63076010000001, 60.50357], [21.66789010000004, 60.54279], [21.69219, 60.5866799], [21.762649900000017, 60.59577010000001], [21.80602, 60.623919899999976], [21.8143299, 60.5716699], [21.80745060000003, 60.52104029999998], [21.7565299, 60.55691], [21.7199101, 60.52256], [21.698514300000014, 60.476983599999976], [21.748798399999956, 60.50017669999998], [21.8065474, 60.491255900000034], [21.86484140000001, 60.493109600000025], [21.915380700000018, 60.48647809999996], [21.87425, 60.517], [21.924912299999963, 60.549229700000026], [21.96187540000004, 60.50992879999996], [22.005841800000034, 60.48394790000004], [22.05671419999998, 60.45597160000004], [22.107866299999976, 60.4478848], [22.159308299999978, 60.44306430000003], [22.21108629999998, 60.43568249999997], [22.271663399999984, 60.40696920000001], [22.329069399999977, 60.3886334], [22.382586800000013, 60.39680150000002], [22.443163199999958, 60.409626599999974], [22.494278899999962, 60.417404400000024], [22.54132820000004, 60.3813093], [22.60733370000004, 60.38525140000004], [22.564621, 60.35551350000003], [22.531852500000014, 60.316683799999964], [22.474933800000017, 60.2862829], [22.519460700000025, 60.2631586], [22.57733690000002, 60.277425399999956], [22.630937500000012, 60.28514], [22.563053500000017, 60.26975970000003], [22.612624700000037, 60.24846140000004], [22.554833200000033, 60.23637989999997], [22.618229499999973, 60.23276789999998], [22.6678007, 60.24273210000001], [22.721992, 60.24313829999996], [22.7718495, 60.25353350000004], [22.8223683, 60.2717526], [22.867303499999956, 60.2968285], [22.923781, 60.316037699999974], [22.979245599999985, 60.3310093], [23.030138799999964, 60.3414916], [23.067322, 60.3765151], [23.03938190000002, 60.32389040000001], [23.001020200000042, 60.289763500000035], [22.94844579999996, 60.266035900000034], [22.907108900000015, 60.22848450000004], [22.890294500000028, 60.18053239999996], [22.925357600000016, 60.13804109999998], [22.975279900000043, 60.13174910000003], [23.0278001, 60.12195329999998], [22.990576400000027, 60.08495229999997], [23.04623, 60.06490359999998], [23.093465600000016, 60.0431889], [23.140253799999986, 60.06892359999998], [23.19175, 60.0705], [23.26025, 60.06475], [23.2135, 60.039], [23.162, 60.06175], [23.11464209999997, 60.039114300000016], [23.054194500000023, 60.04281670000002], [23.004024700000034, 60.04167130000002], [23.027657700000024, 59.996299099999966], [22.981200399999988, 59.973482500000024], [22.93043339999997, 59.99142720000001], [22.8782167, 59.97968089999996], [22.82451420000001, 60.00089520000002], [22.857123600000016, 59.96089110000004], [22.888598400000024, 59.91593], [22.94210770000001, 59.90825879999996], [22.9935, 59.91225], [23.04552740000002, 59.9184871], [23.087956, 59.9511609], [23.0312267, 59.979857], [23.081705299999964, 59.99605190000003], [23.14828409999997, 60.008553100000015], [23.204235699999973, 60.0345982], [23.161258899999968, 60.00902670000003], [23.111348500000037, 59.989990599999985], [23.122876399999956, 59.94096809999998], [23.1813329, 59.94716780000002], [23.232555399999963, 59.947195700000016], [23.278481500000012, 59.968688700000044], [23.30275, 60.015], [23.279728499999983, 59.96607880000002], [23.2361895, 59.93865330000003], [23.1877, 59.915136499999974], [23.14513210000003, 59.88664509999999], [23.0777952, 59.8826841], [23.02529510000003, 59.86558360000004], [22.9754211, 59.846833599999954], [22.922581800000028, 59.83695240000004], [22.972926, 59.82253509999997], [23.025732100000038, 59.82272670000001], [23.076442800000017, 59.826555099999965], [23.1272438, 59.828508], [23.17784220000002, 59.8294024], [23.2318312, 59.8495574], [23.25875939999996, 59.8986787], [23.308504100000036, 59.914471099999986], [23.356606, 59.9351523], [23.396261099999958, 59.97053739999998], [23.446929199999964, 59.99511380000004], [23.4705294, 60.04006890000004], [23.51508479999996, 60.069481], [23.563856099999967, 60.09266389999996], [23.537356, 60.04994079999999], [23.491173899999982, 60.0291816], [23.460046, 59.9894787], [23.51362360000003, 59.983349], [23.570245900000018, 59.99193009999996], [23.51533309999999, 59.97921939999997], [23.461778399999975, 59.96459880000004], [23.40095759999997, 59.945825599999985], [23.4476704, 59.923235], [23.50328549999997, 59.9287869], [23.555502599999976, 59.93705720000004], [23.61380719999998, 59.93821550000004], [23.66493530000003, 59.9358234], [23.72196340000002, 59.94373190000004], [23.680590699999957, 59.97245940000002], [23.732192600000044, 59.95997], [23.78880310000003, 59.97323460000003], [23.838668200000033, 59.9902582], [23.900934299999985, 60.01245149999998], [23.83596019999997, 60.01777730000001], [23.8868937, 60.020682200000024], [23.94683040000004, 60.013573199999975], [24.00168680000002, 60.0319413], [24.0843445, 60.02503280000002], [24.13095789999998, 60.044517], [24.17734130000003, 60.02517350000002], [24.2238998, 60.0453594], [24.277023699999987, 60.04396660000004], [24.307691500000015, 60.08780669999997], [24.361860300000036, 60.084398], [24.3569049, 60.03414530000001], [24.406825, 60.01810729999996], [24.451888700000044, 60.0455547], [24.423450099999986, 60.002257899999975], [24.489764300000036, 59.99470780000002], [24.5368981, 60.023719599999986], [24.57375520000001, 60.05938269999997], [24.61922270000004, 60.08134840000003], [24.570421599999968, 60.101272700000024], [24.617987399999972, 60.1264782], [24.57236349999997, 60.15912139999997], [24.62781650000002, 60.151694199999966], [24.6723538, 60.1235304], [24.721233600000012, 60.14552670000001], [24.772331300000037, 60.15684919999999], [24.822439299999974, 60.17619909999998], [24.87123109999999, 60.19416869999998], [24.9160726, 60.169197], [24.969675099999975, 60.17270130000003], [24.991235900000017, 60.218502300000026], [25.03099909999996, 60.1879312], [25.08131170000004, 60.20028839999998], [25.13296979999998, 60.19493719999997], [25.1841469, 60.1997038], [25.21625430000004, 60.239905099999966], [25.27970380000003, 60.253939399999965], [25.33475, 60.26225], [25.388514, 60.26879829999998], [25.43803849999998, 60.25459209999997], [25.4909804, 60.25979619999997], [25.5362285, 60.284766], [25.5285, 60.3365], [25.578975299999982, 60.338680600000025], [25.640658500000022, 60.35692129999998], [25.6886147, 60.378818], [25.7215, 60.34075], [25.66875, 60.332], [25.6625, 60.281], [25.7185, 60.273], [25.7635, 60.25075], [25.8185, 60.265], [25.775, 60.29475], [25.82575, 60.286], [25.8766868, 60.26685910000002], [25.928057, 60.25350980000003], [25.8865024, 60.28409169999997], [25.88432130000001, 60.33409959999997], [25.8843738, 60.38762060000004], [25.9345243, 60.3684246], [25.982779700000037, 60.35125109999996], [26.02340320000002, 60.321740799999965], [26.07791059999999, 60.306974499999974], [26.067176500000024, 60.363334500000015], [26.021388, 60.38440819999999], [25.99936279999998, 60.430232599999975], [25.95804449999998, 60.4650836], [26.016293399999988, 60.44764360000003], [26.06531190000002, 60.43003389999996], [26.11019950000003, 60.405997], [26.1674807, 60.39814509999999], [26.2049324, 60.36313339999999], [26.1715545, 60.4047577], [26.223019500000042, 60.4057958], [26.23666, 60.457986], [26.283927399999975, 60.43203870000002], [26.30674159999998, 60.3848002], [26.3559232, 60.40132830000002], [26.41079, 60.3977727], [26.457689399999985, 60.42460170000001], [26.450829, 60.47809229999996], [26.49935390000003, 60.460549], [26.545655100000033, 60.4412863], [26.59919609999998, 60.459072800000044], [26.64889880000004, 60.445397], [26.70236180000002, 60.431767499999964], [26.745324700000026, 60.4593985], [26.788908, 60.4902765], [26.8299434, 60.4598398], [26.878104200000017, 60.473724599999976], [26.92954420000003, 60.4679948], [26.97288580000002, 60.496351300000015], [27.02259349999997, 60.517383], [27.07200070000001, 60.53907429999998], [27.121742899999965, 60.53118940000004], [27.17481989999998, 60.51992379999997], [27.16229870000003, 60.56883239999997], [27.220426399999965, 60.559779], [27.276234399999986, 60.53566069999998], [27.227603400000042, 60.54840630000002], [27.2707975, 60.51706089999997], [27.322308, 60.50708659999999], [27.37415640000004, 60.50959260000003], [27.4091611, 60.47244619999998], [27.4605303, 60.46646430000002], [27.490858800000026, 60.5108803], [27.539266599999976, 60.49376880000003], [27.5918424, 60.4716757], [27.60750679999996, 60.5194271], [27.653912900000023, 60.492459200000035], [27.70581, 60.495], [27.74618, 60.52472], [27.72986, 60.57279], [27.77934, 60.55422], [27.847096099999966, 60.56129430000003], [27.873414, 60.604559], [27.995365499999956, 60.671215], [28.08898850000002, 60.7205952], [28.13546130000001, 60.74086949999999], [28.1742827, 60.77861929999997], [28.2558445, 60.809952199999955], [28.311906900000018, 60.84126929999997], [28.3921815, 60.8844352], [28.46452229999997, 60.9228744], [28.52466970000004, 60.95713710000001], [28.614820400000042, 60.9553518], [28.683892700000037, 60.978702199999965], [28.7100694, 61.026866], [28.804287700000017, 61.093382599999984], [28.87266, 61.13553560000004], [28.944311200000037, 61.148166], [29.011101599999968, 61.18433389999997], [29.1640969, 61.23746310000004], [29.2330501, 61.268169], [29.3219771, 61.34330259999998], [29.503072399999972, 61.46133890000002], [29.557808400000027, 61.4922743], [29.607329900000025, 61.50046530000004], [29.688347500000013, 61.55182069999998], [29.7402992, 61.5737044], [29.7935296, 61.62672819999997], [29.845760199999972, 61.67056609999999], [30.038728100000043, 61.7650011], [30.07138780000004, 61.81868419999998], [30.155660499999968, 61.8579888], [30.19409329999997, 61.891283500000036], [30.27417660000001, 61.933638500000015], [30.32771080000002, 61.973116], [30.376499400000036, 61.999088], [30.4231749, 62.02237140000004], [30.540525, 62.102844900000036], [30.602068, 62.141348899999976], [30.629116499999988, 62.18911], [30.6845626, 62.210403099999986], [30.744671800000013, 62.22670139999999], [30.80865530000004, 62.26100429999996], [30.904350499999964, 62.310261], [30.9551691, 62.3122652], [31.0773055, 62.40737140000003], [31.138311, 62.44208380000004], [31.173401899999988, 62.481886499999966], [31.221834600000044, 62.49829549999998], [31.3454013, 62.6403262], [31.381736, 62.67479840000003], [31.439060600000047, 62.785375], [31.586707100000012, 62.90870939999997], [31.502132499999966, 62.99624859999999], [31.4487587, 63.00605779999999], [31.410421600000014, 63.041967699999965], [31.36352480000003, 63.07097960000003], [31.29399329999997, 63.093917], [31.255432699999965, 63.14185369999998], [31.238265, 63.19513710000002], [31.185562699999956, 63.23533280000004], [31.1387885, 63.26498370000004], [31.085687, 63.28131649999997], [31.020730500000013, 63.303219199999965], [30.9440687, 63.336628], [30.884484900000032, 63.36309319999997], [30.78770470000004, 63.405270900000026], [30.66926750000004, 63.426920799999984], [30.483994, 63.4666957], [30.38452589999997, 63.545493], [30.2582539, 63.58394], [30.123965300000023, 63.667892], [30.07280489999996, 63.6944888], [29.971890300000013, 63.7571676], [30.150308800000012, 63.80104320000004], [30.260416, 63.82200320000002], [30.3209081, 63.90953280000004], [30.447040200000032, 63.98277249999997], [30.492694, 64.01759160000002], [30.553580100000012, 64.10168180000004], [30.515893, 64.1549652], [30.466399900000027, 64.20443189999997], [30.482439699999965, 64.2623385], [30.388284600000013, 64.26905689999997], [30.302149199999974, 64.31985330000002], [30.210151900000035, 64.35046610000003], [30.137150700000035, 64.35795919999998], [30.044893299999984, 64.40201220000003], [30.05833479999996, 64.45087489999996], [30.02970010000002, 64.5006267], [29.986960899999957, 64.53389980000003], [29.9894227, 64.58758469999998], [30.054335, 64.61527009999999], [30.118974, 64.62590970000004], [30.053701, 64.71305189999998], [30.0856041, 64.76432490000003], [30.04293629999998, 64.79288989999998], [29.89761270000001, 64.79354249999997], [29.73963080000003, 64.78978270000002], [29.687522599999973, 64.81879739999995], [29.64493239999998, 64.8664807], [29.615243899999975, 64.91743670000002], [29.599332199999985, 64.99506179999999], [29.626969700000018, 65.06059880000004], [29.711192099999963, 65.083899], [29.830954900000037, 65.0919272], [29.8968731, 65.1051489], [29.850377700000017, 65.12858209999999], [29.893525, 65.1929551], [29.81679070000004, 65.2229161], [29.764075699999957, 65.2289189], [29.700812, 65.23069270000003], [29.63479139999997, 65.2313019], [29.60497079999996, 65.2736519], [29.7467636, 65.347391], [29.727758500000036, 65.39971439999997], [29.73312079999998, 65.472637], [29.79796589999998, 65.5259627], [29.86375080000002, 65.56047020000004], [29.815881599999962, 65.58354549999999], [29.754491900000048, 65.60929270000001], [30.017091600000043, 65.69652720000005], [30.138463, 65.6686875], [30.087350499999985, 65.85057480000002], [30.02428, 65.9588762], [29.989258900000024, 66.01991320000005], [29.92393529999996, 66.12624859999998], [29.7094932, 66.26820030000002], [29.663318, 66.31770739999997], [29.631093399999976, 66.36657810000004], [29.524285600000034, 66.4906977], [29.472675100000032, 66.54344779999997], [29.42112929999997, 66.57964760000003], [29.37640030000003, 66.60375610000001], [29.149648700000043, 66.78029], [29.06075290000004, 66.85269280000001], [29.0331239, 66.92547220000004], [29.07325439999996, 66.99615389999997], [29.34856, 67.17028389999997], [29.48660610000001, 67.2601149], [29.522709500000012, 67.30991720000003], [29.57995189999997, 67.3156973], [29.636115099999984, 67.332861], [29.676115700000025, 67.372403], [29.767105299999983, 67.42740650000003], [29.838064300000035, 67.47822], [29.930510199999958, 67.52282140000003], [30.01734089999998, 67.67356889999998], [29.6593888, 67.80297220000004], [29.327133699999983, 68.07451619999998], [28.6478382, 68.1959134], [28.434120199999988, 68.5397946], [28.7072131, 68.732555], [28.801449899999966, 68.86936650000004], [28.66118, 68.8864737], [28.468076, 68.88551369999998], [28.415777700000042, 68.9154505], [28.495373499999985, 68.93004030000004], [28.929451, 69.05194069999997], [28.854577100000043, 69.07663879999998], [28.80543, 69.1111558], [28.8303122, 69.171902], [28.831539, 69.22436169999996], [29.21933949999996, 69.39763619999997], [29.336495600000013, 69.4783227], [29.17053690000003, 69.63904140000002], [29.133909500000023, 69.6953404], [28.91700330000001, 69.7297606], [28.688589499999985, 69.7706388], [28.404225399999973, 69.818425], [28.330476199999985, 69.84919259999997], [28.160713, 69.92099369999997], [27.984285300000046, 70.01397069999997], [27.96465849999997, 70.08069390000001]]]]}}]}