{"type": "FeatureCollection", "features": [{"type": "Feature", "properties": {"code": "FJI", "name": "Fiji", "tier": "country"}, "geometry": {"type": "MultiPolygon", "coordinates": [[[[-178.73302939999996, -20.635030199999985], [-178.73302939999996, -20.635030199999985]]], [[[-178.7131764, -20.630228399999964], [-178.7131764, -20.630228399999964]]], [[[-178.22971259999997, -19.8119083], [-178.22971259999997, -19.8119083]]], [[[-178.42377090000002, -19.194743100000014], [-178.42377090000002, -19.194743100000014]]], [[[178.1056854000001, -19.1564336], [178.1056854000001, -19.1564336]]], [[[-178.42247989999998, -19.149739199999974], [-178.42247989999998, -19.149739199999974]]], [[[179.7628627, -19.119449499999966], [179.7628627, -19.119449499999966]]], [[[-178.3992958, -19.116835500000043], [-178.3992958, -19.116835500000043]]], [[[-178.5766475, -19.1031442], [-178.5766475, -19.1031442]]], [[[178.180661, -19.067377399999966], [178.180661, -19.067377399999966]]], [[[-178.4908117, -18.95955439999996], [-178.4908117, -18.95955439999996]]], [[[178.32936240000006, -18.93219820000002], [178.21353580000002, -18.969561], [178.11828169999998, -19.054889600000028], [178.0069735, -19.106219399999983], [178.12240140000014, -19.1437132], [178.20086409999996, -19.052052899999975], [178.312885, -19.0051939], [178.4366951000001, -19.031054600000022], [178.3664429, -18.93295889999999], [178.32936240000006, -18.93219820000002]]], [[[-178.4406665, -18.9368685], [-178.4406665, -18.9368685]]], [[[-179.85771459999998, -18.920619499999983], [-179.85771459999998, -18.920619499999983]]], [[[-178.945248, -18.91826720000004], [-178.945248, -18.91826720000004]]], [[[178.48870330000008, -18.8667743], [178.48870330000008, -18.8667743]]], [[[-178.8800802, -18.848067600000032], [-178.8800802, -18.848067600000032]]], [[[-178.66068509999994, -18.841079899999983], [-178.66068509999994, -18.841079899999983]]], [[[178.53617990000006, -18.832885900000043], [178.53617990000006, -18.832885900000043]]], [[[-178.6173473, -18.67798059999998], [-178.6173473, -18.67798059999998]]], [[[-178.50765160000003, -18.63225310000002], [-178.50765160000003, -18.63225310000002]]], [[[179.93003160000004, -18.557191399999976], [179.93003160000004, -18.557191399999976]]], [[[177.63339229999994, -18.491126699999963], [177.63339229999994, -18.491126699999963]]], [[[-178.46217330000002, -18.430331], [-178.46217330000002, -18.430331]]], [[[177.99930370000007, -18.373161500000027], [177.99930370000007, -18.373161500000027]]], [[[-179.2715843, -18.36091130000003], [-179.2715843, -18.36091130000003]]], [[[178.1212599, -18.357557900000035], [178.1212599, -18.357557900000035]]], [[[-178.79033989999994, -18.1776448], [-178.79033989999994, -18.1776448]]], [[[178.52487890000012, -18.120418], [178.52487890000012, -18.120418]]], [[[178.52883310000007, -18.10294340000002], [178.52883310000007, -18.10294340000002]]], [[[178.57212009999998, -18.1218648], [178.57212009999998, -18.1218648]]], [[[-179.05204449999997, -17.959122], [-179.05204449999997, -17.959122]]], [[[179.28361919999995, -17.937766], [179.30456990000008, -18.05809350000002], [179.29753250000007, -17.93803120000003], [179.28361919999995, -17.937766]]], [[[179.39798500000015, -17.77515029999998], [179.39798500000015, -17.77515029999998]]], [[[179.14853160000015, -17.7687185], [179.14853160000015, -17.7687185]]], [[[177.20633760000007, -17.765509699999985], [177.20633760000007, -17.765509699999985]]], [[[178.78296750000013, -17.75809580000002], [178.78296750000013, -17.75809580000002]]], [[[177.1703324000001, -17.73302909999998], [177.1703324000001, -17.73302909999998]]], [[[-179.31600989999998, -17.720134200000018], [-179.31600989999998, -17.720134200000018]]], [[[178.7206027, -17.711631700000044], [178.7206027, -17.711631700000044]]], [[[177.0984991999999, -17.670781], [177.0984991999999, -17.670781]]], [[[-178.824563, -17.653424700000034], [-178.824563, -17.653424700000034]]], [[[179.0189212, -17.638654800000012], [179.0189212, -17.638654800000012]]], [[[178.797698, -17.6180067], [178.76098210000006, -17.733189099999983], [178.81576680000003, -17.625695599999972], [178.797698, -17.6180067]]], [[[177.09733389999994, -17.6161594], [177.09733389999994, -17.6161594]]], [[[178.9984037, -17.592259599999963], [178.9984037, -17.592259599999963]]], [[[178.68368789999997, -17.5730453], [178.68368789999997, -17.5730453]]], [[[177.4731973, -17.53989439999996], [177.4731973, -17.53989439999996]]], [[[178.9774646, -17.431283], [178.9774646, -17.431283]]], [[[-179.15396359999997, -17.42265539999998], [-179.15396359999997, -17.42265539999998]]], [[[-179.5227655, -17.435555], [-179.5227655, -17.435555]]], [[[177.1328515000001, -17.360515499999988], [177.1328515000001, -17.360515499999988]]], [[[-178.8693651, -17.351148399999975], [-178.8693651, -17.351148399999975]]], [[[-178.94448069999999, -17.3378798], [-178.94448069999999, -17.3378798]]], [[[-178.985972, -17.3265891], [-178.985972, -17.3265891]]], [[[177.13655839999998, -17.324199900000018], [177.13655839999998, -17.324199900000018]]], [[[178.17462560000004, -17.31103329999996], [178.0641778, -17.3625004], [177.96004250000001, -17.424767899999974], [177.8396779, -17.42387149999997], [177.72101760000007, -17.444456], [177.6021641, -17.47714789999996], [177.5029116000001, -17.5476302], [177.41897030000015, -17.63456720000002], [177.4325208000001, -17.759198200000018], [177.33547339999998, -17.84749119999997], [177.25841330000006, -17.945706300000023], [177.30276009999992, -18.0602209], [177.39712740000013, -18.13648880000002], [177.5174033000001, -18.173864200000015], [177.63929540000007, -18.192677199999988], [177.75755130000007, -18.220839199999986], [177.8802643000001, -18.2641232], [178.0021455, -18.260530899999964], [178.123758, -18.269858299999978], [178.22628680000005, -18.199333299999957], [178.32392260000015, -18.1240043], [178.44326160000006, -18.1594551], [178.55017990000007, -18.10077979999997], [178.6694955, -18.059968199999968], [178.59342280000007, -17.954244700000036], [178.61130750000015, -17.83144360000001], [178.55946179999998, -17.72259350000002], [178.51244640000013, -17.608844200000032], [178.40442979999997, -17.547995799999963], [178.33106210000003, -17.45219840000002], [178.2472928000001, -17.36595889999998], [178.17462560000004, -17.31103329999996]]], [[[178.15327160000012, -17.308910900000033], [178.15327160000012, -17.308910900000033]]], [[[178.23063120000015, -17.307709500000016], [178.23063120000015, -17.307709500000016]]], [[[178.2255253000001, -17.2819099], [178.2255253000001, -17.2819099]]], [[[-178.77884449999996, -17.27589030000002], [-178.77884449999996, -17.27589030000002]]], [[[177.14690740000006, -17.263495300000034], [177.14690740000006, -17.263495300000034]]], [[[-179.15677269999998, -17.247052599999982], [-179.15677269999998, -17.247052599999982]]], [[[-179.476811, -17.26283529999996], [-179.476811, -17.26283529999996]]], [[[-179.52597450000002, -17.24437920000003], [-179.52597450000002, -17.24437920000003]]], [[[179.4242333, -17.2415643], [179.3786886, -17.362526500000023], [179.43651410000004, -17.25541620000001], [179.4242333, -17.2415643]]], [[[-178.89271429999997, -17.17820859999996], [-178.89271429999997, -17.17820859999996]]], [[[-179.0296656, -17.159883], [-178.99729529999996, -17.27683610000003], [-179.0296656, -17.159883]]], [[[176.9275463, -17.122274], [176.9275463, -17.122274]]], [[[177.2943783000001, -17.06456320000004], [177.19952680000014, -17.142211799999988], [177.2943783000001, -17.06456320000004]]], [[[-179.29379359999996, -17.002335100000035], [-179.29379359999996, -17.002335100000035]]], [[[177.336971, -16.985088800000018], [177.336971, -16.985088800000018]]], [[[177.3751704000001, -16.942256499999978], [177.3751704000001, -16.942256499999978]]], [[[177.34197349999997, -16.9384504], [177.34197349999997, -16.9384504]]], [[[179.00769320000003, -16.926297900000012], [179.00769320000003, -16.926297900000012]]], [[[177.36361, -16.915742099999967], [177.36361, -16.915742099999967]]], [[[177.4385538000001, -16.862009499999978], [177.4385538000001, -16.862009499999978]]], [[[180.0, -16.966722900000065], [180.0, -16.7934736], [179.9416997, -16.900319699999958], [180.0, -16.966722900000065]]], [[[178.28202359999997, -16.796395899999986], [178.28202359999997, -16.796395899999986]]], [[[-179.767095, -16.737261], [-179.767095, -16.737261]]], [[[-179.665403, -16.74323309999998], [-179.665403, -16.74323309999998]]], [[[177.5671452000001, -16.6937247], [177.49790319999997, -16.793088599999987], [177.58951060000007, -16.708604300000044], [177.5671452000001, -16.6937247]]], [[[-179.87826750000002, -16.6876134], [-179.969807, -16.770728], [-180.0, -16.902544099999975], [-179.87748449999998, -16.8749825], [-179.8602987, -16.7540055], [-179.87826750000002, -16.6876134]]], [[[179.9409127000001, -16.6118449], [179.9409127000001, -16.6118449]]], [[[178.62535570000003, -16.5756985], [178.62535570000003, -16.5756985]]], [[[178.73261790000012, -16.5487366], [178.73261790000012, -16.5487366]]], [[[-179.69661409999998, -16.497148399999976], [-179.69661409999998, -16.497148399999976]]], [[[180.0, -16.527651900000034], [180.0, -16.527651900000034]]], [[[-179.92013230000003, -16.44999489999998], [-179.92013230000003, -16.44999489999998]]], [[[179.07119860000003, -16.41505379999996], [179.07119860000003, -16.41505379999996]]], [[[179.37757419999994, -16.3363295], [179.37757419999994, -16.3363295]]], [[[179.0952758, -16.22091909999998], [179.0952758, -16.22091909999998]]], [[[179.57928560000008, -16.18598410000002], [179.57928560000008, -16.18598410000002]]], [[[179.61094039999998, -16.18250859999996], [179.61094039999998, -16.18250859999996]]], [[[180.0, -16.168408100000143], [179.8784605, -16.18909219999997], [179.76611869999996, -16.23150969999997], [179.64506530000014, -16.22456], [179.53187530000005, -16.2691368], [179.42045750000003, -16.320557], [179.31853590000011, -16.40670080000001], [179.19333130000015, -16.4104664], [179.07608910000002, -16.4484804], [178.96171919999998, -16.48537640000002], [178.87232030000004, -16.56989060000004], [178.80703950000006, -16.67064590000004], [178.67963570000003, -16.675452199999988], [178.5654109, -16.626639], [178.52597659999995, -16.74064489999997], [178.6273355000001, -16.809665400000032], [178.66577330000004, -16.924220199999965], [178.7585984, -17.009199099999975], [178.82761890000015, -16.90893119999998], [178.94947780000004, -16.897248599999962], [179.0710733000001, -16.900809900000016], [179.11964929999996, -16.789527200000013], [179.200336, -16.698768499999975], [179.32038160000005, -16.728736900000044], [179.4181144, -16.799801400000028], [179.53920030000003, -16.792859599999957], [179.65815030000007, -16.7541374], [179.77499090000006, -16.7238995], [179.88473850000005, -16.775411300000012], [179.8213685000001, -16.671925599999962], [179.890509, -16.572917400000012], [179.76590120000006, -16.569528199999986], [179.68221630000002, -16.6601332], [179.58980469999997, -16.738018199999974], [179.47320950000008, -16.770598], [179.50992, -16.65614120000002], [179.5740218000001, -16.5536294], [179.67949389999998, -16.4944253], [179.76821879999997, -16.399815], [179.8326115, -16.298064699999962], [179.92145660000003, -16.21501379999996], [180.0, -16.168408100000143]]], [[[-179.95096920000003, -16.126846600000025], [-179.95096920000003, -16.126846600000025]]], [[[-179.15824510000002, -16.087164200000018], [-179.15824510000002, -16.087164200000018]]], [[[-179.98208159999996, -15.710012799999987], [-179.98208159999996, -15.710012799999987]]], [[[177.0767091, -12.479531600000028], [177.0767091, -12.479531600000028]]]]}}]}