{"type": "FeatureCollection", "features": [{"type": "Feature", "properties": {"code": "FRA", "name": "France", "tier": "country"}, "geometry": {"type": "MultiPolygon", "coordinates": [[[[9.37661563100005, 43.01236617300003], [9.34869253200003, 42.97085263800005], [9.354089411000075, 42.91621377300004], [9.331908488000067, 42.87064597500006], [9.325235861000067, 42.81276019200004], [9.34467158900003, 42.74752519800006], [9.322958497000059, 42.69710063400004], [9.26827367200002, 42.695918548000066], [9.22225478300004, 42.735610148000035], [9.170111452000071, 42.733834897000065], [9.11834626600006, 42.72769885000008], [9.076563086000021, 42.699808], [9.040527202000021, 42.652487859000075], [8.98625792200005, 42.641283937000026], [8.933247442000038, 42.64475006200007], [8.886032775000047, 42.62800689200003], [8.840545858000041, 42.604519577000076], [8.78877621600003, 42.55844393600006], [8.739519664000056, 42.56788388900003], [8.711121754000033, 42.524929832000055], [8.663624365000032, 42.50399754000006], [8.669907088000059, 42.45117256900005], [8.622912316000054, 42.42149690200006], [8.585718593000024, 42.38401130300008], [8.559079846000031, 42.34074514900004], [8.608587707000027, 42.349846514000035], [8.629948966000029, 42.30451237700004], [8.678200283000024, 42.28741069800003], [8.640503942000066, 42.25375144600008], [8.586643411000068, 42.242716227000074], [8.578273566000064, 42.18729843500006], [8.587304981000045, 42.13723516500005], [8.63599608800007, 42.124130679000075], [8.68743588700005, 42.10985826800004], [8.720812855000077, 42.06498119100007], [8.683533726000064, 42.02568770800008], [8.661446026000021, 41.97690158000006], [8.595182927000053, 41.96549756100006], [8.608680966000065, 41.91209961900006], [8.678625349000072, 41.905250496000065], [8.732617504000075, 41.91666529400004], [8.78415546900004, 41.92305668900008], [8.788450299000033, 41.87008009500005], [8.771270978000075, 41.81157217100008], [8.717892370000072, 41.80334020400005], [8.701326595000069, 41.755757018000054], [8.747342637000031, 41.73378364000007], [8.797039961000053, 41.70539023200007], [8.856554041000038, 41.69806086300008], [8.912386837000042, 41.690272495000045], [8.877261259000022, 41.650858061000065], [8.827410548000046, 41.636529978000056], [8.787566792000064, 41.601546909000035], [8.80994899500007, 41.55543037700005], [8.855326947000037, 41.51777106700007], [8.911159742000052, 41.50720415200004], [8.963311256000054, 41.49249948800008], [9.016076316000067, 41.47825116100006], [9.076817491000043, 41.48008983100004], [9.109163700000067, 41.441613989000075], [9.097678096000038, 41.39085426400004], [9.153510892000043, 41.39223512900003], [9.201367575000063, 41.36553320200005], [9.251678447000074, 41.41248445000008], [9.259041013000058, 41.46262036100006], [9.282355807000044, 41.51409581400003], [9.317327999000042, 41.55129810900007], [9.358435662000034, 41.58480777200003], [9.301989319000029, 41.58893789600006], [9.35230019000005, 41.61784137200004], [9.385431739000069, 41.658192806000045], [9.406292345000054, 41.713634771000045], [9.408746533000055, 41.76994416100007], [9.406905892000054, 41.82803293200004], [9.405065250000064, 41.902053987000045], [9.443105178000053, 41.99423177800003], [9.484826388000045, 42.03070098400008], [9.533910166000055, 42.08991884300008], [9.557224960000042, 42.22091244500007], [9.560906243000034, 42.280860553000025], [9.534523712000066, 42.34437961300006], [9.542499827000029, 42.43002864700003], [9.527161146000026, 42.48706307400005], [9.532683071000065, 42.55489346200005], [9.489734766000026, 42.610910981000075], [9.457216763000076, 42.65289108700006], [9.455989669000076, 42.70521368100003], [9.463352236000048, 42.76154646600003], [9.492188955000074, 42.80657584900007], [9.482372199000054, 42.86416566300005], [9.471328349000032, 42.92349894500006], [9.452921933000027, 42.976490976000036], [9.405065250000064, 43.00386727100005], [9.37661563100005, 43.01236617300003]]], [[[3.145042684000032, 42.42935933100006], [3.137728631000073, 42.494108733000076], [3.028017840000075, 42.53454310300003], [3.042645945000061, 43.00969207400004], [2.984133524000072, 43.00969207400004], [2.940249207000022, 43.04444628700003], [2.991447576000041, 43.04444628700003], [3.112129447000029, 43.047118874000034], [3.177955922000024, 43.09520551000003], [3.18526997400005, 43.145922694000035], [3.280352661000052, 43.15659463800006], [3.32789400300004, 43.175266057000044], [3.368121293000058, 43.21259177400003], [3.466861006000045, 43.21792215600004], [3.525373427000034, 43.22858152100008], [3.598513955000044, 43.27652560000007], [3.675311509000039, 43.31911087200007], [3.770394194000062, 43.366983652000044], [3.847191748000057, 43.414818679000064], [3.920332276000067, 43.44403261000008], [4.051985225000067, 43.449342718000025], [4.048328199000025, 43.38559064900005], [4.212894387000063, 43.38824832500006], [4.370146521000038, 43.38559064900005], [4.479857312000036, 43.37761692000004], [4.487171365000052, 43.297821964000036], [4.611510262000024, 43.27120034400008], [4.706592948000036, 43.26853754100006], [4.798018607000074, 43.27120034400008], [4.871159134000038, 43.281850390000045], [4.819960765000076, 43.33507266000004], [4.878473187000054, 43.366983652000044], [4.944299662000049, 43.28717471400006], [5.002812084000027, 43.273863031000076], [5.127150981000057, 43.26853754100006], [5.211262587000022, 43.26853754100006], [5.291717167000058, 43.28717471400006], [5.240518798000039, 43.22325207100005], [5.306345273000034, 43.21525702300005], [5.269775009000057, 43.17793293700004], [5.416056064000031, 43.16192991200006], [5.500167671000042, 43.16459737400004], [5.558680093000021, 43.16192991200006], [5.613535489000071, 43.13524888500007], [5.668390885000065, 43.09787588300003], [5.719589254000027, 43.071166908000066], [5.74518843900006, 43.02038777400003], [5.858556256000043, 43.041773585000044], [5.931696784000053, 43.06849537000005], [6.004837311000074, 43.063151944000026], [6.103577023000071, 43.02306140700006], [6.17306052400005, 43.02306140700006], [6.143804313000032, 43.09787588300003], [6.23522997300006, 43.09253502000007], [6.304713474000039, 43.063151944000026], [6.348597791000032, 43.09520551000003], [6.403453186000036, 43.140586023000026], [6.472936688000061, 43.13791751200006], [6.535106136000024, 43.16726472000005], [6.600932611000076, 43.17259906100003], [6.666759085000024, 43.19926378200006], [6.677730165000071, 43.284512610000036], [6.699672322000026, 43.348370946000045], [6.776469876000021, 43.39887786500003], [6.834982299000046, 43.409505541000044], [6.882523642000024, 43.42544355800004], [6.919093905000068, 43.45996153700003], [6.930064984000069, 43.51833171100003], [7.010519564000049, 43.531589791000044], [7.094631172000049, 43.542194159000076], [7.123887383000067, 43.60842919900006], [7.207998989000032, 43.65342741200004], [7.306738701000029, 43.70367966100008], [7.365251123000064, 43.70896692300005], [7.420106519000058, 43.74596470000006], [7.490251211000043, 43.76505929100006], [7.511684311000067, 43.811325071000056], [7.491930517000071, 43.868317051000076], [7.548102442000072, 43.89024849700007], [7.562145423000061, 43.954309513000055], [7.637041324000052, 43.96947175500003], [7.653424802000075, 44.021667636000075], [7.681510764000052, 44.08054328900005], [7.648743808000063, 44.14607864100003], [7.597252877000074, 44.196440995000046], [7.541080952000073, 44.19476294300006], [7.309371761000023, 44.13600101000003], [7.243837848000055, 44.13600101000003], [7.136174991000075, 44.20315272700003], [7.072981576000075, 44.218251327000075], [7.019150147000062, 44.21992871000003], [6.972340209000038, 44.24508372500003], [6.902125303000048, 44.28698485600006], [6.890422818000047, 44.36400489700003], [6.941913750000026, 44.37571647300007], [6.895103813000048, 44.41585266800007], [6.838931888000047, 44.43758161200003], [6.855315365000024, 44.49771191900004], [6.899784806000071, 44.52107919800005], [6.948935240000026, 44.569453046000035], [6.977021203000049, 44.62111857000008], [7.035533625000028, 44.636109634000036], [7.037874122000062, 44.69270760100005], [6.984042694000038, 44.70601673900006], [6.98872368800005, 44.77583952200007], [6.939573253000049, 44.80407715300004], [6.806164931000069, 44.81902089300007], [6.745312012000056, 44.85553373600004], [6.742971515000022, 44.928490011000065], [6.672756609000032, 44.96824533500006], [6.628287168000043, 45.016246281000065], [6.698502074000032, 45.06420702400004], [6.757014496000068, 45.05759413900006], [6.836591390000024, 45.04105858100007], [6.86935834600007, 45.08073589000003], [6.937232756000071, 45.11708256600008], [6.995745179000039, 45.13854927300008], [7.054257600000028, 45.15010492300007], [7.094046047000063, 45.20949697800006], [7.108089029000041, 45.27376846100003], [7.150217972000064, 45.31822151100005], [7.101067538000052, 45.369217226000046], [7.05893859400004, 45.41852418000008], [6.993404681000072, 45.451371583000025], [6.958297228000049, 45.49240395100003], [6.96999971200006, 45.55963236500003], [6.911487290000025, 45.58257000800006], [6.84361288100007, 45.59567302700003], [6.820207912000058, 45.690578437000056], [6.871698843000047, 45.74613789800003], [6.958297228000049, 45.77226441100004], [6.995745179000039, 45.82121865200003], [7.003205512000022, 45.90362962300003], [6.930064984000069, 45.96721329800005], [6.875209589000065, 45.995167018000075], [6.871552562000034, 46.05864571700005], [6.805726088000029, 46.086553251000055], [6.831325273000061, 46.13472393600006], [6.860581484000022, 46.19297949200006], [6.794755008000038, 46.248644478000074], [6.761841771000036, 46.31183164200007], [6.703329349000057, 46.316883467000025], [6.502192898000033, 46.32446033000008], [6.447337503000028, 46.316883467000025], [6.392482107000035, 46.27898341100007], [6.331044064000025, 46.28252185900004], [6.26316965500007, 46.28413936000004], [6.209338226000057, 46.211304563000056], [6.19988261900005, 46.14207057400006], [6.177413849000061, 46.096385518000034], [6.121990883000024, 46.060018082000056], [5.945236558000033, 46.05482077800008], [5.985680344000059, 46.10365612900006], [6.038107474000071, 46.111964224000076], [6.104015866000054, 46.15037287800004], [6.118995046000066, 46.21156370300008], [6.154945079000072, 46.250938688000076], [6.089972885000066, 46.30354563900005], [6.062074162000044, 46.35648977000005], [6.123488801000065, 46.41125460100005], [6.115999210000041, 46.48143845700008], [6.188374322000072, 46.52030416100007], [6.302656396000032, 46.591031556000075], [6.365511538000021, 46.63420847500004], [6.445508989000075, 46.68519136500004], [6.451223093000067, 46.826123894000034], [6.582647479000059, 46.876925623000034], [6.708357760000069, 46.92767930100007], [6.725500072000045, 47.00956452400004], [6.794069316000048, 47.01346069400006], [6.936921909000034, 47.12243805500003], [6.971206531000064, 47.16518963500005], [7.022633465000069, 47.22731238400007], [7.068346294000037, 47.289362409000034], [7.011205257000029, 47.316486431000044], [6.942636013000026, 47.304863554000065], [7.016919361000021, 47.37069272700006], [7.119773228000042, 47.39390695900005], [7.142629642000031, 47.34359653700005], [7.23976940600005, 47.33197962400004], [7.359765583000069, 47.32423359500007], [7.434048933000042, 47.362952378000045], [7.502618176000055, 47.42484336700005], [7.531188695000026, 47.52526121300008], [7.525474591000034, 47.583107305000055], [7.456905347000031, 47.63703938400005], [7.514046384000039, 47.660136108000074], [7.555416495000031, 47.81876475300004], [7.566387574000032, 47.87766600700007], [7.602957838000066, 47.93650037500004], [7.555416495000031, 47.99771506600007], [7.555416495000031, 48.05396851000006], [7.591986759000065, 48.13701333100005], [7.639528102000043, 48.17116927600006], [7.67609836500003, 48.22236056500003], [7.698040524000021, 48.31243031200006], [7.709011602000032, 48.37076906800007], [7.760209972000041, 48.45572675500006], [7.771181051000042, 48.50905608200003], [7.815065368000035, 48.586525935000054], [7.957689396000035, 48.67353778900008], [7.950375344000065, 48.74110995900003], [8.041801003000046, 48.765220889000034], [8.103970452000056, 48.79895675500006], [8.122255583000026, 48.86154892300004], [8.133226663000073, 48.92646573500008], [8.184425032000036, 48.948085941000045], [8.118598557000041, 49.017687359000035], [8.012544792000028, 49.034473140000046], [7.921119133000047, 49.07521503300006], [7.840664553000067, 49.06083935400005], [7.756552945000067, 49.08479650900006], [7.672441339000045, 49.07281937600004], [7.602957838000066, 49.07761057500005], [7.526160284000071, 49.125497160000066], [7.46399083600005, 49.16138177800008], [7.350623018000022, 49.17094662100004], [7.259197358000051, 49.14463885600003], [7.164114672000039, 49.11831711800005], [7.090974145000075, 49.120710580000036], [7.043432802000041, 49.15420693300007], [6.962978222000061, 49.199630066000054], [6.893494721000025, 49.21635439700003], [6.820354193000071, 49.19724041400008], [6.772812850000037, 49.168555584000046], [6.714300428000058, 49.16616443100003], [6.677730165000071, 49.21635439700003], [6.677730165000071, 49.276037976000055], [6.600932611000076, 49.297506405000036], [6.604589637000061, 49.36900033500007], [6.542420188000051, 49.42136323100004], [6.440023450000069, 49.454656012000044], [6.38882508100005, 49.47129392800008], [6.322998606000056, 49.45703320300004], [6.257172131000061, 49.48555050300007], [6.147461340000064, 49.49267723300005], [6.077977839000027, 49.454656012000044], [6.03043649600005, 49.433256104000066], [5.946324889000039, 49.46654081400004], [5.891469493000045, 49.46416408400006], [5.840271124000026, 49.49267723300005], [5.789072755000063, 49.51642551000003], [5.693990069000051, 49.53778910400007], [5.617192515000056, 49.51167677700005], [5.558680093000021, 49.48792619500006], [5.507481723000069, 49.48792619500006], [5.456283355000039, 49.47842273400005], [5.437998223000022, 49.540162261000035], [5.37582877400007, 49.57100280700007], [5.32463040500005, 49.587601189000054], [5.295374194000033, 49.651570641000035], [5.203948535000052, 49.682340801000066], [5.145436113000073, 49.682340801000066], [5.094237744000054, 49.73673264300004], [4.984526952000067, 49.74618587600003], [4.926014530000032, 49.750911802000076], [4.893101293000029, 49.80758700800004], [4.929671556000073, 49.86183855100006], [4.878473187000054, 49.901898405000054], [4.830931844000077, 49.918383978000065], [4.852874002000021, 49.98897262200006], [4.889444266000055, 50.050065766000046], [4.882130213000039, 50.120461341000066], [4.787047528000073, 50.13921603500006], [4.746820237000065, 50.106390496000074], [4.691964842000061, 50.073542445000044], [4.67002268300007, 50.005428419000054], [4.626138367000067, 49.956044132000045], [4.512770549000038, 49.92780177600008], [4.461572180000076, 49.911319423000066], [4.381117600000039, 49.93486391700003], [4.253121676000035, 49.94427849600004], [4.16901007000007, 49.94898509500007], [4.245807624000065, 49.99132379500003], [4.264092756000025, 50.06180554200006], [4.216551413000047, 50.08996928500005], [4.165353044000028, 50.106390496000074], [4.18729520200003, 50.16030628100003], [4.238493571000049, 50.176703376000034], [4.242150598000023, 50.24457427300007], [4.158038990000023, 50.28665249200003], [4.070270358000073, 50.33803094700005], [3.942274434000069, 50.34269896300003], [3.744795010000075, 50.331028063000076], [3.719195825000043, 50.38469046300003], [3.68559689600005, 50.456194494000044], [3.628455858000052, 50.48528943700006], [3.577028925000036, 50.50709889500007], [3.491317370000047, 50.51073282600004], [3.411319917000071, 50.48528943700006], [3.297037843000055, 50.517999848000045], [3.291323739000063, 50.68845296400008], [3.239896806000047, 50.74633873500005], [3.165613458000053, 50.789706152000065], [3.108472421000045, 50.80054172600006], [3.034189072000061, 50.786093736000055], [2.954191621000064, 50.77525481400005], [2.914192895000042, 50.73187399500006], [2.817053131000023, 50.74633873500005], [2.754197990000023, 50.83303337500007], [2.685628745000031, 50.83664216200003], [2.668486435000034, 50.91956728300005], [2.674200538000036, 50.96997121000004], [2.668486435000034, 51.020320498000046], [2.628487709000069, 51.070615168000074], [2.577060775000064, 51.11368142900005], [2.516034147000028, 51.09057418800006], [2.464835778000065, 51.07679046100003], [2.413637409000046, 51.053808454000034], [2.351467961000026, 51.04461245700003], [2.252728248000039, 51.03081503700008], [2.157645562000027, 51.03081503700008], [2.022335586000054, 51.01931404800007], [1.963823165000065, 51.010111202000076], [1.872397505000038, 50.998605077000036], [1.777314820000072, 50.98479395900006], [1.707831318000046, 50.92950838300004], [1.663947001000054, 50.89953456100005], [1.583492421000074, 50.88569397800006], [1.565207289000057, 50.417324836000034], [1.561550263000072, 50.23521850900005], [1.612748632000034, 50.18607061800003], [1.667604028000028, 50.18138722600003], [1.718802397000047, 50.141559855000025], [1.645661869000037, 50.14390356000007], [1.532294052000054, 50.17904535900004], [1.495723788000021, 50.12749521200004], [1.440868393000073, 50.08762293800004], [1.40429812900004, 50.04536905100008], [1.349442733000046, 50.00307793500008], [1.225103836000073, 49.93721773500005], [1.18121952000007, 49.90896434100006], [1.104421966000075, 49.887763429000074], [1.053223597000056, 49.87598111900007], [0.96545496300007, 49.86183855100006], [0.892314436000049, 49.85476571400005], [0.830144988000029, 49.84297535200005], [0.738719329000048, 49.82882312000004], [0.654607721000048, 49.80286660500008], [0.497355587000072, 49.76508681900003], [0.435186139000052, 49.74382274000004], [0.373016690000043, 49.72964150800004], [0.212107530000026, 49.66340762100003], [0.182851319000065, 49.61841177800005], [0.138967002000072, 49.580488288000026], [0.10605376500007, 49.53541583300006], [0.095082686000069, 49.48555050300007], [0.11702484500006, 49.430877760000044], [0.160909160000074, 49.397568834000026], [0.252334820000044, 49.385667312000066], [0.310847242000023, 49.371381677000045], [0.234049688000027, 49.366618877000064], [0.138967002000072, 49.33326635000003], [0.073140528000067, 49.314197610000065], [-0.010971078999944, 49.27842381800008], [-0.08045457999998, 49.254560198000036], [-0.16090915999996, 49.23068503500008], [-0.234049687999971, 49.23307307200008], [-0.307190215999924, 49.254560198000036], [-0.362045610999928, 49.28319515800007], [-0.449814243999924, 49.30704492900003], [-0.533925850999935, 49.31181349800005], [-0.621694483999931, 49.31896548700007], [-0.841116065999927, 49.34279795000003], [-0.921570646999953, 49.366618877000064], [-0.998368200999948, 49.366618877000064], [-1.067851701999928, 49.349945440000056], [-1.126364123999963, 49.340415223000036], [-1.133678176999979, 49.41184685600007], [-1.195847624999942, 49.47129392800008], [-1.239731941999935, 49.49980292600003], [-1.283616258999928, 49.533042445000035], [-1.199504650999927, 49.59471305300008], [-1.210475730999974, 49.665774672000055], [-1.345785706999948, 49.705996912000046], [-1.481095682999978, 49.71072675200003], [-1.539608103999967, 49.68470693000006], [-1.590806473999976, 49.65393826800005], [-1.667604027999971, 49.69180462700007], [-1.755372660999967, 49.727277567000044], [-1.912624794999942, 49.748548897000035], [-1.945538032999934, 49.71072675200003], [-1.897996688999967, 49.67997455600005], [-1.832170214999962, 49.630256821000046], [-1.839484267999978, 49.56151548200006], [-1.850455345999933, 49.49980292600003], [-1.828513188999978, 49.41898431000004], [-1.784628871999928, 49.392808571000046], [-1.751715634999925, 49.31896548700007], [-1.682232133999946, 49.30704492900003], [-1.64566186899998, 49.21396555300004], [-1.612748631999978, 49.14224654900005], [-1.598120526999935, 49.07281937600004], [-1.565207288999943, 49.02727992700005], [-1.535951077999925, 48.95048760900005], [-1.532294051999941, 48.87838730200008], [-1.557893236999973, 48.82063212300005], [-1.557893236999973, 48.70492186600006], [-1.492066761999979, 48.63246755500006], [-1.433554339999944, 48.62279910900003], [-1.539608103999967, 48.586525935000054], [-1.67491808099993, 48.57684868900003], [-1.780971845999943, 48.57684868900003], [-1.857769399999938, 48.62038170800008], [-1.810228056999961, 48.67353778900008], [-1.897996688999967, 48.68802517800003], [-1.978451269999937, 48.67353778900008], [-2.033306664999941, 48.62279910900003], [-2.113761245999967, 48.62521639400006], [-2.157645561999971, 48.58410679800005], [-2.179587720999962, 48.63488437700005], [-2.238100141999951, 48.63488437700005], [-2.289298511999959, 48.68078200400004], [-2.358782012999939, 48.66387721400008], [-2.428265514999964, 48.66629253100007], [-2.490434962999927, 48.63730108400006], [-2.530662252999946, 48.60587487000004], [-2.592831700999966, 48.581687543000044], [-2.669629254999961, 48.555068111000026], [-2.731798702999924, 48.60345665800003], [-2.782997072999933, 48.61554655800006], [-2.782997072999933, 48.678367381000044], [-2.885393810999972, 48.72905015400005], [-2.896364890999962, 48.79654780200008], [-2.958534338999925, 48.80859140900003], [-3.00607568199996, 48.87117154800006], [-3.126757552999948, 48.902432300000044], [-3.181612947999952, 48.91445046300004], [-3.254753475999962, 48.90723991200008], [-3.305951844999925, 48.90002832000005], [-3.390063451999936, 48.87838730200008], [-3.474175057999958, 48.89281568900003], [-3.561943690999954, 48.86636046700005], [-3.561943690999954, 48.80859140900003], [-3.605828007999946, 48.75798882500004], [-3.678968534999967, 48.78450130300007], [-3.730166904999976, 48.78450130300007], [-3.799650405999955, 48.786910834000025], [-3.839877695999974, 48.74593307100008], [-3.902047144999926, 48.73869823000007], [-3.94593146099993, 48.79413873400006], [-4.000786855999934, 48.79413873400006], [-4.062956304999943, 48.786910834000025], [-4.150724937999939, 48.786910834000025], [-4.216551412999934, 48.78209165700008], [-4.275063834999969, 48.76039962900006], [-4.373803546999966, 48.77004168700006], [-4.428658942999959, 48.74834445300007], [-4.494485416999964, 48.74110995900003], [-4.585911076999935, 48.743521573000066], [-4.633452419999969, 48.70733521600005], [-4.684650788999932, 48.70733521600005], [-4.754134289999968, 48.66387721400008], [-4.721221052999965, 48.59861988700004], [-4.772419421999928, 48.56232934500008], [-4.767873006999935, 48.48445011100006], [-4.748400072999971, 48.42384979600007], [-4.695972942999958, 48.43577688500005], [-4.598608271999979, 48.445713986000044], [-4.507235273999925, 48.44968828300006], [-4.438331045999973, 48.45465571600005], [-4.375418489999959, 48.48842137500003], [-4.391895587999954, 48.427825803000076], [-4.339468456999953, 48.427825803000076], [-4.297526753999932, 48.38307778700005], [-4.430560595999964, 48.39165754000004], [-4.517158980999966, 48.40875056100003], [-4.568649912999945, 48.407196887000055], [-4.62716233499998, 48.35900946000004], [-4.578011899999979, 48.34501101600006], [-4.535882955999966, 48.30766303100006], [-4.524180471999955, 48.24223824000006], [-4.46566804899993, 48.292093299000044], [-4.381410161999952, 48.29832176100007], [-4.304173764999973, 48.26561385400004], [-4.26906631199995, 48.201695192000045], [-4.325238236999951, 48.17516891300005], [-4.533542458999932, 48.18609316100003], [-4.680993762999947, 48.181411626000056], [-4.727803699999981, 48.139258563000055], [-4.659929290999969, 48.09863398500005], [-4.596735874999979, 48.104886011000076], [-4.517158980999966, 48.08612765200007], [-4.442263080999965, 48.06736244900003], [-4.37672916799994, 47.98596747200003], [-4.353324198999928, 47.92797353700007], [-4.372048173999929, 47.86520415600006], [-4.292471280999962, 47.85107055700007], [-4.217575379999971, 47.85107055700007], [-4.154381963999981, 47.86206368900008], [-4.130976994999969, 47.90758183500003], [-3.990547182999933, 47.87776412000005], [-3.946077741999943, 47.90915071200004], [-3.889905816999942, 47.835362040000064], [-3.810703401999945, 47.807829250000054], [-3.735807501999943, 47.80581715000005], [-3.683380371999931, 47.80682321000006], [-3.633949077999944, 47.77965275200006], [-3.569538602999955, 47.781665865000036], [-3.502132292999931, 47.77059277500007], [-3.452700998999944, 47.73433708200008], [-3.401771786999973, 47.704104708000045], [-3.320579949999967, 47.70568368100004], [-3.156013763999965, 47.617013961000055], [-3.145042683999975, 47.56275276300005], [-3.145042683999975, 47.50596499100004], [-3.075559182999939, 47.46395189200007], [-3.08653026199994, 47.54053878500008], [-3.013389733999929, 47.58495732600005], [-2.947563259999924, 47.56275276300005], [-2.92562110199998, 47.61947904300007], [-2.892707864999977, 47.57262262000006], [-2.834195441999952, 47.55781713700003], [-2.757397887999957, 47.58002379200008], [-2.812253283999951, 47.518315390000055], [-2.834195441999952, 47.46147948700008], [-2.768368967999947, 47.45406157300005], [-2.676943307999977, 47.45900696600006], [-2.589174674999924, 47.46889635400004], [-2.519691173999945, 47.466424181000036], [-2.464835777999951, 47.45406157300005], [-2.461178751999967, 47.38972915100004], [-2.512377120999929, 47.35010089100007], [-2.50751473899993, 47.29932929900008], [-2.543464769999957, 47.25054647200005], [-2.506016820999946, 47.21392983700008], [-2.402660477999973, 47.21291234700004], [-2.342743757999926, 47.214947307000045], [-2.293312463999939, 47.18950469100008], [-2.236391579999975, 47.19052263100008], [-2.168985269999951, 47.21799960200008], [-2.118056057999979, 47.24749605200003], [-2.162993597999957, 47.20477172500006], [-2.157001925999964, 47.135525990000076], [-2.207931137999935, 47.10698679800004], [-2.255864513999938, 47.087612199000034], [-2.216918645999954, 47.04475912100003], [-2.143520663999936, 47.05394482400004], [-2.074616435999928, 47.05292426800003], [-2.03417264899997, 47.01004330100005], [-1.99223094599995, 46.97632694100008], [-2.026683059999925, 46.93645290900008], [-2.092591450999976, 46.88221749200005], [-2.133035237999934, 46.847396064000066], [-2.145018581999977, 46.75613890000005], [-2.050649747999955, 46.70685729500008], [-1.98773719199994, 46.661642931000074], [-1.93081630699993, 46.61741960100005], [-1.890372520999961, 46.55462216900003], [-1.849928734999935, 46.49072072100006], [-1.819970374999968, 46.422614003000035], [-1.748070310999935, 46.408156172000076], [-1.67617024599997, 46.37199482400007], [-1.608763935999946, 46.32546645900004], [-1.517390937999949, 46.32546645900004], [-1.466461725999977, 46.27268642900003], [-1.402051251999978, 46.257153208000034], [-1.328653268999972, 46.24368752300006], [-1.283715728999937, 46.193939433000025], [-1.201330238999958, 46.19497631100006], [-1.154894781999928, 46.15867393000008], [-1.189346895999961, 46.10988731800006], [-1.246267778999936, 46.095346781000046], [-1.334644941999954, 46.11300264800008], [-1.415269207999927, 46.13725806900004], [-1.488409734999948, 46.182852523000065], [-1.528637025999956, 46.14739343600007], [-1.437211365999929, 46.09669794700005], [-1.385574153999926, 46.08599726800003], [-1.309180334999951, 46.04650407300005], [-1.231288598999924, 46.05378125800007], [-1.168376042999967, 46.05066258200003], [-1.115948912999954, 46.006982623000056], [-1.074007208999944, 45.95806174100005], [-1.115948912999954, 45.915350775000036], [-1.071947570999953, 45.847309995000046], [-1.109395521999943, 45.79511507500007], [-1.165567446999944, 45.78205870000005], [-1.210036887999934, 45.82611171000008], [-1.224079868999979, 45.87501864500007], [-1.298975768999981, 45.90434216300008], [-1.366850178999925, 45.946671027000036], [-1.38791465099996, 45.87175952000007], [-1.284932786999946, 45.808168393000074], [-1.198334403999979, 45.75267067300007], [-1.249825333999979, 45.71836507200004], [-1.240463346999945, 45.65950644000003], [-1.238122849999968, 45.589121900000066], [-1.163226949999967, 45.57765558800003], [-1.076628565999954, 45.55307703300008], [-1.04854260299993, 45.508808534000025], [-0.987689683999974, 45.48912246100008], [-0.943220242999928, 45.46450519100006], [-0.844919373999971, 45.415238388000034], [-0.790900705999945, 45.38552615200007], [-0.760942345999979, 45.32974068800007], [-0.739971493999974, 45.27917054300008], [-0.710013133999951, 45.18634144600003], [-0.707017297999926, 45.12296194500004], [-0.742967329999942, 45.188452883000025], [-0.780415279999943, 45.253868554000064], [-0.855311180999934, 45.29813963400005], [-0.897252883999954, 45.327634499000055], [-0.97514461999998, 45.37710922900004], [-1.023077995999927, 45.400252753000075], [-1.04854260299993, 45.46332329200004], [-1.099471814999958, 45.48643149600008], [-1.144409354999937, 45.44020561100007], [-1.181857304999937, 45.39604554400006], [-1.184876545999941, 45.194242434000046], [-1.199504650999927, 45.06524021800004], [-1.221446809999975, 44.923000785000056], [-1.22510383599996, 44.860822030000065], [-1.23607491599995, 44.78559967700005], [-1.232417888999976, 44.702481797000075], [-1.166591413999924, 44.663479153000026], [-1.089793859999929, 44.67128178300004], [-1.045909543999926, 44.619244415000026], [-1.122707096999932, 44.58018575500006], [-1.195847624999942, 44.59060396400008], [-1.247045993999961, 44.57237087200008], [-1.261674099999937, 44.45763193000005], [-1.279959231999953, 44.314708282000026], [-1.29710154299994, 44.20831054000007], [-1.319957957999975, 44.11402896100003], [-1.354242579999948, 44.01548755700003], [-1.400641101999952, 43.85682090700004], [-1.433554339999944, 43.78821989000005], [-1.45915352399993, 43.70367966100008], [-1.455496497999945, 43.64019614100005], [-1.524979998999925, 43.55809721300005], [-1.554236209999942, 43.50241816700003], [-1.631033763999937, 43.457307007000054], [-1.678575106999972, 43.412162168000066], [-1.795599950999929, 43.396220655000036], [-1.781118126999957, 43.34294559700004], [-1.664093282999943, 43.32762434800003], [-1.591537878999929, 43.28163740700006], [-1.502598997999939, 43.300377027000025], [-1.416000612999937, 43.254369472000064], [-1.39493614099996, 43.20832713300007], [-1.437065084999972, 43.17590611900005], [-1.472172537999938, 43.133220651000045], [-1.408979122999938, 43.063151944000026], [-1.357488190999959, 43.07683018300003], [-1.301316265999958, 43.08879613800008], [-1.249825333999979, 43.05460149400005], [-1.179610427999933, 43.05118098100007], [-1.116417011999943, 43.02209891200005], [-1.067266577999931, 43.006696944000055], [-1.013435149999964, 42.99300306200007], [-0.952582230999951, 42.96046786100004], [-0.837897882999926, 42.96046786100004], [-0.781725957999925, 42.96560614200007], [-0.748959001999935, 42.92277401900003], [-0.706830058999969, 42.87305142300005], [-0.657679623999968, 42.84216895700007], [-0.601507697999978, 42.80440274600005], [-0.512568816999931, 42.81985534800003], [-0.43065142599994, 42.818138583000064], [-0.383841487999973, 42.83873661800004], [-0.337031550999939, 42.87819699900007], [-0.26681664399996, 42.831871369000055], [-0.210644718999959, 42.79066385900006], [-0.14511080699998, 42.759740210000075], [-0.093619874999945, 42.706446619000076], [-0.018723974999943, 42.67720165900005], [0.030426460000058, 42.69956669100003], [0.11702484500006, 42.72708182800005], [0.182558756000049, 42.70816648200008], [0.273838135000062, 42.66687662100003], [0.327669563000029, 42.71332578500005], [0.37681999800003, 42.70300675000004], [0.432898303000059, 42.68876366500007], [0.64260682400004, 42.68876366500007], [0.657586004000052, 42.78118224800005], [0.692038118000028, 42.83063554300003], [0.739971494000031, 42.81635309700005], [0.811871558000064, 42.78667901100005], [0.882273704000056, 42.77128684500008], [1.038057176000052, 42.75919031600006], [1.08299471700002, 42.731689422000045], [1.202828157000056, 42.68766261500008], [1.348126204000039, 42.685460454000065], [1.386012996000034, 42.63147884400007], [1.587149447000058, 42.61533335400003], [1.678575107000029, 42.609950593000065], [1.694519742000068, 42.546291119000045], [1.701541233000057, 42.49626589300004], [1.78111812700007, 42.47037506000004], [1.91452644900005, 42.446200617000045], [1.919207442000072, 42.37707935800006], [1.989422349000051, 42.344220076000056], [2.061977752000075, 42.36151657700003], [2.104106696000031, 42.40646520000007], [2.211769553000067, 42.43065497500004], [2.284324956000034, 42.425472237000065], [2.387306819000059, 42.39436681400008], [2.441138247000026, 42.344220076000056], [2.499650670000051, 42.326918815000056], [2.548801104000063, 42.34594994100007], [2.630718494000064, 42.35459854800007], [2.72901936300002, 42.392638282000064], [2.808596257000033, 42.42201684100007], [2.867108680000058, 42.466922139000076], [2.995836008000026, 42.475554084000066], [3.044986443000028, 42.42028907100007], [3.101158368000029, 42.415105476000065], [3.145042684000032, 42.42935933100006]]]]}}]}