{"type": "FeatureCollection", "features": [{"type": "Feature", "properties": {"code": "FRO", "name": "Faroe Islands", "tier": "country"}, "geometry": {"type": "MultiPolygon", "coordinates": [[[[-6.724926530734763, 61.3972573597394], [-6.724926530734763, 61.3972573597394]]], [[[-6.789692689066328, 61.44001479454721], [-6.789692689066328, 61.44001479454721]]], [[[-6.775453339999615, 61.53287725208355], [-6.775453339999615, 61.53287725208355]]], [[[-6.706678012080545, 61.63715585745689], [-6.706678012080545, 61.63715585745689]]], [[[-6.872470681576658, 61.48632118887184], [-6.858726458759008, 61.46835488467025], [-6.831513472768506, 61.46304175387388], [-6.814888676471185, 61.45029874898813], [-6.794962219830552, 61.44222707102256], [-6.771320388624986, 61.43251210774764], [-6.756271854762247, 61.41540095808779], [-6.714908210845181, 61.40360311369278], [-6.694555757042508, 61.39568144804048], [-6.673583693732439, 61.39846596133509], [-6.680041649802263, 61.41859813519585], [-6.692765179869127, 61.43408477379336], [-6.71811547744727, 61.441181726955165], [-6.721958845324423, 61.46138934584167], [-6.747828656067554, 61.45752922179622], [-6.768232868551991, 61.44490692841208], [-6.790274839112499, 61.46170735241242], [-6.825093502263258, 61.471186157315344], [-6.793508774210522, 61.472217640132044], [-6.763619529018001, 61.46849050962936], [-6.744746575094325, 61.47785632281108], [-6.718408745467173, 61.48237132147938], [-6.737543736654061, 61.49036360729468], [-6.763145720298724, 61.499706085767286], [-6.73758382753158, 61.504506896176395], [-6.739135438649555, 61.52527297876503], [-6.761735523075856, 61.527406740828496], [-6.790304842294574, 61.529695865272004], [-6.810756426567764, 61.53339290625769], [-6.830609192759994, 61.55324567244986], [-6.800825920080115, 61.55203706995485], [-6.779846663092997, 61.54212963557427], [-6.749547561770498, 61.54287100879009], [-6.760962042264396, 61.56325135956263], [-6.791814432589945, 61.582321521321205], [-6.825631789675299, 61.57915381949323], [-6.843814425795074, 61.58827996514833], [-6.871228128775101, 61.59599775629147], [-6.926793310662731, 61.59358116553841], [-6.953139387073008, 61.599149579689424], [-6.921422193379499, 61.61188837394934], [-6.894628976745821, 61.6228658028146], [-6.923584816486027, 61.62475156333403], [-6.904593608907874, 61.637727392805004], [-6.92456287507656, 61.650568124319534], [-6.966036965633407, 61.64552282152107], [-6.98359227246533, 61.63274656869925], [-7.001737582223598, 61.62268640335486], [-6.977664313856963, 61.607818409292236], [-6.964098832195305, 61.59025625861949], [-6.940288391595971, 61.56597981721484], [-6.92080003969005, 61.55073039009551], [-6.902245707473355, 61.5363165536661], [-6.883024130459205, 61.524915319286606], [-6.900103962128128, 61.507838295301156], [-6.883862089963429, 61.494642623858056], [-6.872470681576658, 61.48632118887184]], [[-6.872470681576658, 61.5280030147274], [-6.872470681576658, 61.5280030147274]], [[-6.964098832195305, 61.5959156445914], [-6.964098832195305, 61.5959156445914]], [[-6.884646975077771, 61.587512274172184], [-6.884646975077771, 61.587512274172184]], [[-6.816906551895784, 61.506132373110574], [-6.816906551895784, 61.506132373110574]], [[-6.827325780560273, 61.50460734235503], [-6.827325780560273, 61.50460734235503]], [[-6.854910373614814, 61.498584946837866], [-6.854910373614814, 61.498584946837866]], [[-6.861601067035565, 61.49135175447992], [-6.861601067035565, 61.49135175447992]], [[-6.788519791455144, 61.483937319951394], [-6.788519791455144, 61.483937319951394]], [[-6.831903590578179, 61.4700698423494], [-6.831903590578179, 61.4700698423494]]], [[[-6.763864372143018, 61.685926828560355], [-6.740929174241955, 61.68220351388112], [-6.750479476146836, 61.70146768188806], [-6.763864372143018, 61.685926828560355]]], [[[-6.836448241692949, 61.78321436605023], [-6.857558648612724, 61.77144643670374], [-6.836627904654051, 61.75680389908075], [-6.815373187122816, 61.748579840886975], [-6.791962075189588, 61.74988064367682], [-6.807772247591117, 61.77833622473702], [-6.836448241692949, 61.78321436605023]]], [[[-6.879208045315011, 61.90278012060611], [-6.899320743457508, 61.90748723964447], [-6.931061185525266, 61.911462284456945], [-6.952017370405258, 61.91252771758013], [-6.936279396476891, 61.89999981703801], [-6.917978593037617, 61.887004073878984], [-6.912484044702865, 61.86528848797337], [-6.894252281317677, 61.84578456430626], [-6.876368790287415, 61.8193101888142], [-6.857447412368117, 61.83044083157915], [-6.832674177371359, 61.83582918796668], [-6.814846304912976, 61.8256572153083], [-6.776417713606577, 61.83072015201344], [-6.761342510348527, 61.817487109242734], [-6.751557453913335, 61.794982295396665], [-6.731009195218121, 61.77950306991079], [-6.702461194428508, 61.7673624363274], [-6.67649707717834, 61.752807273237124], [-6.660064927354483, 61.764966680168186], [-6.67470404395641, 61.78385173986595], [-6.655305523531013, 61.793067541633775], [-6.671248074339132, 61.80558241459681], [-6.644044036602963, 61.820733764351814], [-6.678751550743414, 61.8441625092924], [-6.695412753395829, 61.85885250683776], [-6.719358643586474, 61.86275438820451], [-6.745375483591658, 61.87149098622007], [-6.785023029489196, 61.87847736054181], [-6.803902035850228, 61.89116474685562], [-6.838271277197634, 61.89715972923818], [-6.861847489370064, 61.8963588775602], [-6.879208045315011, 61.90278012060611]], [[-6.866618736365524, 61.88909756969713], [-6.866618736365524, 61.88909756969713]], [[-6.865324075045976, 61.8819890800321], [-6.865324075045976, 61.8819890800321]], [[-6.824539248287635, 61.85700990748131], [-6.809768279382524, 61.840706539675125], [-6.828856600251868, 61.85644429416891], [-6.824539248287635, 61.85700990748131]], [[-6.800915751560638, 61.85332370152764], [-6.800915751560638, 61.85332370152764]], [[-6.736693670476484, 61.821890169295955], [-6.736693670476484, 61.821890169295955]], [[-6.753132839508908, 61.81963771470885], [-6.753132839508908, 61.81963771470885]]], [[[-6.959837888407776, 61.92010155064611], [-6.959837888407776, 61.92010155064611]]], [[[-6.887652208082898, 61.94050935951935], [-6.869591422905785, 61.931683894995786], [-6.881316541824901, 61.95600784038959], [-6.898881148546138, 61.96566218486197], [-6.931170491824673, 61.968757819517805], [-6.911949879783094, 61.95397492020646], [-6.890975974661444, 61.94446194646173], [-6.887652208082898, 61.94050935951935]]], [[[-7.001917902589071, 61.99279130457512], [-6.973399728714469, 61.98475853307991], [-6.955085765495653, 61.975720157659225], [-6.970384363047856, 61.99109959437084], [-6.998799108591925, 61.99904227088416], [-7.001917902589071, 61.99279130457512]]], [[[-6.637651085329253, 61.94850436488457], [-6.612715645010951, 61.95870024242231], [-6.630697388773399, 61.974232848966835], [-6.642252845192615, 61.99435651344237], [-6.661157117107223, 62.00195381251848], [-6.681441407694763, 62.02041704161326], [-6.675143376265737, 61.98193164732771], [-6.65360118054997, 61.96902591101701], [-6.637651085329253, 61.94850436488457]]], [[[-7.43580414964174, 62.07992788026752], [-7.43580414964174, 62.07992788026752]]], [[[-7.463166751344431, 62.08111222624831], [-7.463166751344431, 62.08111222624831]]], [[[-7.662491465308847, 62.10072639870441], [-7.686925895113916, 62.09740800647438], [-7.661862644045755, 62.099463713679484], [-7.662491465308847, 62.10072639870441]]], [[[-7.641428501224311, 62.108673966630306], [-7.664948417635344, 62.102149645090094], [-7.639641832504537, 62.10135017567012], [-7.618785902247566, 62.09546368839858], [-7.595950514704441, 62.09817644298852], [-7.574643502495576, 62.094887350670774], [-7.544473883762691, 62.094559803192396], [-7.56417339288771, 62.10885362959141], [-7.584135279219709, 62.11598714289238], [-7.610346794568841, 62.11451301556326], [-7.632870710914517, 62.10904647391567], [-7.641428501224311, 62.108673966630306]]], [[[-7.321718118096612, 62.04758853198524], [-7.297553438140596, 62.04237830431532], [-7.269615835102684, 62.03815622293138], [-7.249449536466898, 62.02884883510569], [-7.229328942276823, 62.02084049549251], [-7.203958643776332, 62.020775533863855], [-7.174593605310577, 62.02971828796865], [-7.147314386949347, 62.03330786446645], [-7.177179200259843, 62.042737630237525], [-7.152921575370385, 62.05419020601323], [-7.135048217001554, 62.04399527186433], [-7.108157581307296, 62.04708478753298], [-7.083441675392976, 62.04717189946365], [-7.062238058239757, 62.07440153100589], [-7.073872950875909, 62.092414461458304], [-7.135165463415376, 62.100916392177794], [-7.15900305544659, 62.10897363872249], [-7.181723763241052, 62.12474578149266], [-7.21347113458512, 62.134904770638684], [-7.237068270384327, 62.14201826053437], [-7.252659960588687, 62.15948270526269], [-7.288389614489063, 62.15030872736594], [-7.323888724485016, 62.14321366008238], [-7.346473456584704, 62.12983951008539], [-7.377022600012936, 62.12883291870429], [-7.399751531208153, 62.129994215061004], [-7.425832850805364, 62.142001461198504], [-7.447333902537537, 62.145513092555234], [-7.460280716282, 62.12910811574699], [-7.44508697338506, 62.111967555558294], [-7.426479325760226, 62.09544171346437], [-7.403734296700407, 62.09196530405558], [-7.370536570706122, 62.08599648564933], [-7.329660838676716, 62.078146513950514], [-7.359829513121497, 62.071422988979805], [-7.388552769294847, 62.07849057567955], [-7.41168712745889, 62.07500784943278], [-7.386516821993666, 62.06291954470129], [-7.363229996367181, 62.052579971688374], [-7.342118601991842, 62.052464765836305], [-7.321538454236247, 62.04758853198524], [-7.321718118096612, 62.04758853198524]], [[-7.215417250405721, 62.04267797640756], [-7.238789105133037, 62.024029864686554], [-7.235083072725558, 62.04460034023356], [-7.255301085976271, 62.05841673994064], [-7.225065234872659, 62.04994536009036], [-7.215417250405721, 62.04267797640756]], [[-7.341301388947898, 62.090887325389815], [-7.341301388947898, 62.090887325389815]], [[-7.295207862352925, 62.108541741108525], [-7.315968900644179, 62.1163994775539], [-7.28857028648946, 62.11298587949477], [-7.295207862352925, 62.108541741108525]], [[-7.356333781778574, 62.11647665467393], [-7.356333781778574, 62.11647665467393]]], [[[-6.971734511638374, 62.17263400955193], [-7.009636746838339, 62.18431879657527], [-7.032065764923061, 62.187482419078435], [-7.005421332128719, 62.19545121550124], [-7.017517357539987, 62.216843772122445], [-7.039886458293381, 62.22270034434547], [-7.063182254657306, 62.24466305495605], [-7.08172987613284, 62.26529856767479], [-7.099654597481617, 62.28321661155741], [-7.12730428346589, 62.29569090081446], [-7.148929731222097, 62.29008620081754], [-7.165814635736808, 62.30877457878381], [-7.19231717170004, 62.29787890998375], [-7.212298631776378, 62.30490269969988], [-7.226137379636327, 62.28519290502862], [-7.235432397287241, 62.2659902227706], [-7.225920696083222, 62.248050268705015], [-7.188636140445453, 62.250328383648025], [-7.210998223788977, 62.246683485354595], [-7.229140945298354, 62.235375548442846], [-7.236686793260844, 62.21490610003656], [-7.245271493084886, 62.195361384020714], [-7.259422501746997, 62.17555101186974], [-7.235516921868395, 62.169626890668496], [-7.218368663482977, 62.15819718914901], [-7.190474265674766, 62.14442691207239], [-7.150193732854461, 62.15477407356468], [-7.164602787588535, 62.13786921129514], [-7.131030844697705, 62.11412866510585], [-7.107067408733883, 62.11186127457819], [-7.083898640709663, 62.11226924482986], [-7.061567305186941, 62.11426319379143], [-7.038993845189736, 62.10810144382663], [-7.011209938987463, 62.098303382295285], [-6.995131104916538, 62.07790408280721], [-6.997426326763502, 62.05746999934104], [-6.98463191483097, 62.04196746072978], [-6.93643072449828, 62.03995285344149], [-6.920940576746148, 62.02298289824222], [-6.909481267746287, 62.00599653850952], [-6.891874289466841, 61.99521675544895], [-6.857866128618866, 61.98047811357412], [-6.801648089287823, 61.95277583613597], [-6.772199403979243, 61.94290248336296], [-6.744202322479168, 61.9382981793176], [-6.738602064233817, 61.96593966258541], [-6.761773333272686, 61.98848570764932], [-6.774591870418419, 62.00468634859618], [-6.753584452960069, 62.015688649111894], [-6.771211344927565, 62.044752369726154], [-6.796017652492594, 62.05115850236302], [-6.832982709584314, 62.04731612104223], [-6.857231254918418, 62.05040888236408], [-6.877141920363272, 62.055942864171925], [-6.912625371363731, 62.06312938531295], [-6.892682773690979, 62.06115309184179], [-6.851899262640814, 62.05630219009407], [-6.829249086875791, 62.057987057356854], [-6.804786929173417, 62.064449641337944], [-6.827734583584117, 62.0922347984972], [-6.874995525523047, 62.10759449688857], [-6.89605285895226, 62.106565689555], [-6.915589811120867, 62.09816367891068], [-6.93598156619629, 62.09708570024492], [-6.903130863398587, 62.11631458065341], [-6.873586030670708, 62.11995019074874], [-6.885076131558151, 62.13923039096983], [-6.908993423307777, 62.149972911520706], [-6.937849342972754, 62.1500455272793], [-6.971554848677272, 62.172544178071405], [-6.971734511638374, 62.17263400955193]], [[-7.114608212399048, 62.26035114528918], [-7.114608212399048, 62.26035114528918]], [[-7.159054857295757, 62.24185861628217], [-7.159054857295757, 62.24185861628217]], [[-7.181580944604889, 62.23578556914873], [-7.181580944604889, 62.23578556914873]], [[-7.160929520181185, 62.188361565733715], [-7.160929520181185, 62.188361565733715]], [[-7.088829899580162, 62.17386276675336], [-7.088829899580162, 62.17386276675336]], [[-7.215806754877804, 62.167513612463324], [-7.215806754877804, 62.167513612463324]], [[-7.150462568992339, 62.16826895664707], [-7.150462568992339, 62.16826895664707]], [[-7.116812418358393, 62.15403888498662], [-7.116812418358393, 62.15403888498662]], [[-7.023818898123579, 62.130548556270924], [-7.023818898123579, 62.130548556270924]], [[-7.002085153107259, 62.12838856458063], [-7.002085153107259, 62.12838856458063]], [[-6.994821212928571, 62.125831787507025], [-6.994821212928571, 62.125831787507025]], [[-6.861034269316008, 62.07139388511973], [-6.861034269316008, 62.07139388511973]], [[-6.97751579351899, 62.05184811689713], [-6.97751579351899, 62.05184811689713]], [[-6.821189602817867, 62.03370785143625], [-6.821189602817867, 62.03370785143625]], [[-6.860268420151442, 62.02218542351852], [-6.860268420151442, 62.02218542351852]]], [[[-6.325396718683578, 62.248631476261664], [-6.334842976222319, 62.2720846854599], [-6.308756832661629, 62.280850309993866], [-6.285597582162666, 62.28148182832376], [-6.299431811828583, 62.29656741605345], [-6.322881611696971, 62.304230773031804], [-6.343679187644341, 62.30437364562732], [-6.366763520120287, 62.28181344433506], [-6.39193371586822, 62.28236231317027], [-6.415977508055505, 62.27035893771483], [-6.391825373642007, 62.25514597180921], [-6.38581017090263, 62.23475079571273], [-6.348799233098077, 62.24005439729268], [-6.32858398256468, 62.24256613811684], [-6.325396718683578, 62.248631476261664]]], [[[-7.096959652166163, 62.319239051441116], [-7.096959652166163, 62.319239051441116]]], [[[-6.989880478801012, 62.33576805195406], [-7.010451897736857, 62.331456139089596], [-7.028058876016246, 62.32184416617537], [-7.051415070848805, 62.31375932932963], [-7.071356484114403, 62.3081134196986], [-7.096779989205118, 62.31914921996059], [-7.116222416331425, 62.300727837219995], [-7.090258957384947, 62.29800212160069], [-7.06381182055901, 62.271089356288826], [-7.050067598640737, 62.25150608453822], [-7.035959356339163, 62.2328910570767], [-7.005421332128719, 62.215842971476036], [-6.992995939910656, 62.19113588161571], [-6.966876722882432, 62.18404230540813], [-6.937764248221413, 62.17039673102437], [-6.903326054054105, 62.1620805166026], [-6.879476048680658, 62.15618244966038], [-6.857558648612724, 62.1467625314657], [-6.841537934128326, 62.12864573291432], [-6.818751431932981, 62.122867346850626], [-6.799706272226615, 62.114136166351045], [-6.768450867813272, 62.091511101456206], [-6.755930073713898, 62.10853921940952], [-6.757873206483225, 62.14015118612838], [-6.774644155203532, 62.15484736831144], [-6.818392106010833, 62.17595777613053], [-6.835807226522263, 62.18654885984205], [-6.802042768458932, 62.184761264820565], [-6.770601736780691, 62.17281367251303], [-6.754162567748267, 62.1561050099383], [-6.732659235335404, 62.141440342697706], [-6.723836183692868, 62.12130351934201], [-6.744700081043845, 62.107835304755554], [-6.739505906272484, 62.08546480016048], [-6.721054652550151, 62.07386923038075], [-6.697415101125955, 62.05598067346938], [-6.684499977691758, 62.092291205774586], [-6.650564190684804, 62.10153681287369], [-6.623863701348682, 62.108460880365385], [-6.641250750421761, 62.12055495244914], [-6.668718579998426, 62.13147141267564], [-6.699185677377045, 62.1367014011488], [-6.658675608792237, 62.14160774610065], [-6.614427883140252, 62.13432257652573], [-6.589902035450507, 62.12955979484872], [-6.627719263133429, 62.14284132816482], [-6.664350347090817, 62.15712997986475], [-6.690484037808062, 62.16196035368745], [-6.725955470268673, 62.17173569474659], [-6.747063860009064, 62.17790494415789], [-6.743023459664869, 62.19787666727444], [-6.680289300610696, 62.18939241272972], [-6.639195240168135, 62.18012002831671], [-6.696465641875818, 62.20965393877833], [-6.716612992695389, 62.21431583540755], [-6.739025868848728, 62.223530298984144], [-6.769074600712202, 62.21692094924248], [-6.794676584356807, 62.21862774827201], [-6.814072735967954, 62.22847768899419], [-6.777428931999566, 62.236594052473606], [-6.765433090164947, 62.25658491046528], [-6.800874959211967, 62.26713676934651], [-6.824720403223978, 62.26856847025874], [-6.85532163358647, 62.26138296894891], [-6.832267742262445, 62.28334801419953], [-6.855407867778808, 62.29247766900926], [-6.881443130396121, 62.28935897393757], [-6.910559246412049, 62.28231829675207], [-6.939791423535326, 62.281270672003984], [-6.951300385004743, 62.25819601083731], [-6.931976694468801, 62.23826334887451], [-6.954846186102543, 62.249170465144914], [-6.953947870397826, 62.27441312286737], [-6.929201830899729, 62.30527277252048], [-6.90200191655515, 62.31213223451505], [-6.926998414545153, 62.32166450321432], [-6.949007137169588, 62.329300181758015], [-6.97099656034294, 62.337168538297476], [-6.989880478801012, 62.33576805195406]], [[-7.066103401950386, 62.28559624826829], [-7.043469455351044, 62.28232063229143], [-7.066103401950386, 62.28559624826829]], [[-6.817493790306116, 62.21054291142627], [-6.817493790306116, 62.21054291142627]], [[-6.722951115001933, 62.101527382582674], [-6.704754704865707, 62.09225648834632], [-6.725146986943855, 62.098523004832884], [-6.722951115001933, 62.101527382582674]], [[-6.722044466179113, 62.08347955843493], [-6.722044466179113, 62.08347955843493]]], [[[-6.304196479383961, 62.35337502933419], [-6.327193349193635, 62.34906311646972], [-6.327263880323756, 62.32118306194883], [-6.300545757980274, 62.31811904745615], [-6.277468268445773, 62.3244010250873], [-6.256634022642004, 62.336193830580896], [-6.285943925471713, 62.3403612529695], [-6.304196479383961, 62.35337502933419]]], [[[-6.626422144866069, 62.23964832461053], [-6.619372125523114, 62.21741331187491], [-6.583439517119984, 62.19001469861951], [-6.552915573594817, 62.169366607083305], [-6.554517803054125, 62.20047206573332], [-6.571861427462864, 62.21767767478491], [-6.543507651456878, 62.21180055305314], [-6.511283137606654, 62.188029281526156], [-6.481403629373972, 62.17851185523796], [-6.456588022818949, 62.17704259683842], [-6.455160105354537, 62.197833462044684], [-6.483237719345198, 62.21374528661573], [-6.506209410835595, 62.221736355648375], [-6.531361447472761, 62.240022146704746], [-6.505716916902145, 62.23911379816332], [-6.472476358896813, 62.22958837780146], [-6.434496574257423, 62.23573529075111], [-6.426137418107317, 62.25469594835937], [-6.449402904620285, 62.25943482425777], [-6.486913793536701, 62.26938255725929], [-6.508710131367422, 62.2741136917935], [-6.528747121882134, 62.285414765079395], [-6.547604548111337, 62.312616905246045], [-6.575177385228073, 62.335898642508425], [-6.582135205175518, 62.35651913295169], [-6.603611693724645, 62.35946187746373], [-6.617528824695455, 62.337564682464176], [-6.601220280391601, 62.31794065074047], [-6.590448744114212, 62.297126779077644], [-6.594877245088753, 62.2738951115702], [-6.579619922821109, 62.255279008519494], [-6.594043671578106, 62.238644781931214], [-6.61895147842796, 62.2413130911263], [-6.626422144866069, 62.23964832461053]], [[-6.544273763223543, 62.29413366353782], [-6.544273763223543, 62.29413366353782]]], [[[-6.674482009437156, 62.361819193001395], [-6.70141567499337, 62.36323285171477], [-6.708300067993719, 62.33430748370347], [-6.695371961047101, 62.31020682828256], [-6.6715175687807, 62.292828584471636], [-6.657191985521649, 62.2657418587998], [-6.633703586751096, 62.25329765995912], [-6.606569379573159, 62.250248443810676], [-6.60536507493822, 62.27302179791769], [-6.613168662303849, 62.29682943173293], [-6.62916972660156, 62.312232039477124], [-6.646928909741348, 62.32466779458309], [-6.66438096361054, 62.33976174960509], [-6.674482009437156, 62.36172936152087], [-6.674482009437156, 62.361819193001395]]], [[[-6.713738383519512, 62.25698580754903], [-6.716732651090922, 62.236774000519745], [-6.689753367423918, 62.22608376475398], [-6.662391247757853, 62.224964160068], [-6.69429810577293, 62.26420902102956], [-6.740687840271562, 62.308099943357774], [-6.755179839477989, 62.3234309551745], [-6.770733150214653, 62.34947069731487], [-6.787490062316465, 62.362358181884645], [-6.811409722880342, 62.372411101391265], [-6.79481466536447, 62.32817394906857], [-6.772986131804487, 62.305177195271426], [-6.736291183391359, 62.279079306564824], [-6.718839042287925, 62.268277351618565], [-6.713738383519512, 62.25698580754903]]], [[[-6.535512646091718, 62.38274993696007], [-6.554208216835718, 62.39098193886542], [-6.575415737046569, 62.390260536894345], [-6.545663607889139, 62.362897170767894], [-6.554364018984245, 62.33869149071978], [-6.52284640193983, 62.299476117628785], [-6.447245457112103, 62.27777677168075], [-6.406381588939155, 62.30016133447805], [-6.429331788431227, 62.31178303585847], [-6.449094723142935, 62.3184305681163], [-6.466232804800029, 62.30063684291605], [-6.477784314094777, 62.328096782740374], [-6.498640490765979, 62.33729182635676], [-6.518256484349251, 62.35464712936158], [-6.528685450872786, 62.38122280089158], [-6.535512646091718, 62.38274993696007]]]]}}]}