{"type": "FeatureCollection", "features": [{"type": "Feature", "properties": {"code": "FSM", "name": "Federated States of Micronesia", "tier": "country"}, "geometry": {"type": "MultiPolygon", "coordinates": [[[[154.78060284000003, 1.026618443000075], [154.78060284000003, 1.026618443000075]]], [[[154.8062305200001, 1.046842452000021], [154.8062305200001, 1.046842452000021]]], [[[154.80703008000012, 1.047760118000042], [154.80703008000012, 1.047760118000042]]], [[[154.80978876000006, 1.070829295000067], [154.80978876000006, 1.070829295000067]]], [[[154.8098208, 1.074578038000027], [154.8098208, 1.074578038000027]]], [[[154.80749232000005, 1.079553439000051], [154.80749232000005, 1.079553439000051]]], [[[154.8063345600001, 1.085074313000064], [154.8063345600001, 1.085074313000064]]], [[[154.78124976000004, 1.100164749000044], [154.78124976000004, 1.100164749000044]]], [[[154.78579764000006, 1.099622149000027], [154.78579764000006, 1.099622149000027]]], [[[154.9610557200001, 3.82660185900005], [154.9610557200001, 3.82660185900005]]], [[[154.96744536000006, 3.831169940000052], [154.96744536000006, 3.831169940000052]]], [[[154.97425296000006, 3.84591855900004], [154.97425296000006, 3.84591855900004]]], [[[154.97318052000003, 3.849024643000064], [154.97318052000003, 3.849024643000064]]], [[[153.71143812000003, 5.317916561000061], [153.65641284000003, 5.287475658000062], [153.71143812000003, 5.317916561000061]]], [[[163.02202308000005, 5.334933045000071], [163.02202308000005, 5.334933045000071]]], [[[153.72981828000002, 5.321752507000042], [153.72981828000002, 5.321752507000042]]], [[[162.9987937200001, 5.36937552400002], [162.95636376000004, 5.340004062000048], [162.907308, 5.305960508000055], [162.94281336000006, 5.266035486000021], [163.0007604000001, 5.258925163000072], [163.03348548000008, 5.30672348500002], [163.02125808000005, 5.35609088800004], [162.9987937200001, 5.36937552400002]]], [[[153.46045620000007, 5.451295926000057], [153.46045620000007, 5.451295926000057]]], [[[153.5414436000001, 5.492329171000051], [153.5414436000001, 5.492329171000051]]], [[[153.81711684000004, 5.513614975000053], [153.81711684000004, 5.513614975000053]]], [[[153.7148149200001, 5.504264344000035], [153.7148149200001, 5.504264344000035]]], [[[153.58340520000002, 5.566229207000049], [153.58340520000002, 5.566229207000049]]], [[[157.30005744000005, 5.774804059000076], [157.30005744000005, 5.774804059000076]]], [[[157.1531947200001, 5.791362335000031], [157.1531947200001, 5.791362335000031]]], [[[157.34505816000012, 5.786513151000065], [157.34505816000012, 5.786513151000065]]], [[[157.3376457600001, 5.810759726000072], [157.3376457600001, 5.810759726000072]]], [[[157.32621684000003, 5.828419478000058], [157.32621684000003, 5.828419478000058]]], [[[157.29487452000012, 5.85066125700007], [157.29487452000012, 5.85066125700007]]], [[[153.12146760000007, 5.92142418100002], [153.12146760000007, 5.92142418100002]]], [[[160.7151636000001, 6.21993414700006], [160.7151636000001, 6.21993414700006]]], [[[159.7588725600001, 6.667622739000024], [159.7588725600001, 6.667622739000024]]], [[[143.0779212000001, 6.683962656000062], [143.0779212000001, 6.683962656000062]]], [[[159.76832436000007, 6.69313595400007], [159.76832436000007, 6.69313595400007]]], [[[159.75476460000004, 6.685830689000056], [159.75476460000004, 6.685830689000056]]], [[[149.30262504000007, 6.701570224000022], [149.30262504000007, 6.701570224000022]]], [[[158.23536516000001, 6.793083506000073], [158.23536516000001, 6.793083506000073]]], [[[158.2013383200001, 6.802086552000048], [158.2013383200001, 6.802086552000048]]], [[[152.70578460000002, 6.836622424000041], [152.70578460000002, 6.836622424000041]]], [[[158.33558340000002, 6.845798185000035], [158.33558340000002, 6.845798185000035]]], [[[158.35816440000008, 6.853016320000052], [158.35816440000008, 6.853016320000052]]], [[[158.3222184000001, 6.854249623000044], [158.3222184000001, 6.854249623000044]]], [[[158.3588768400001, 6.861887242000023], [158.3588768400001, 6.861887242000023]]], [[[158.35612212000012, 6.863000609000039], [158.35612212000012, 6.863000609000039]]], [[[152.72955792000005, 6.894609647000038], [152.72955792000005, 6.894609647000038]]], [[[152.74482768000007, 6.894452392000062], [152.74482768000007, 6.894452392000062]]], [[[158.30411004100006, 6.961922844000071], [158.30411004100006, 6.961922844000071]]], [[[158.20858476000012, 6.989654550000068], [158.18286960000012, 6.943295473000035], [158.1271938000001, 6.938785748000043], [158.13038160000008, 6.888756883000042], [158.15534076000006, 6.841593856000031], [158.18244948000006, 6.799512610000022], [158.23080576000007, 6.785577057000069], [158.28076656000007, 6.793935542000042], [158.3183005200001, 6.83342564700007], [158.29961904000004, 6.881711740000071], [158.31811584000002, 6.929309451000051], [158.27746680000007, 6.961200112000029], [158.2232558400001, 6.976580935000072], [158.20858476000012, 6.989654550000068]]], [[[151.97371452000004, 6.990081732000021], [151.97371452000004, 6.990081732000021]]], [[[158.2988684400001, 6.991522997000061], [158.2988684400001, 6.991522997000061]]], [[[158.22979020000002, 6.999217528000031], [158.22979020000002, 6.999217528000031]]], [[[152.5792878000001, 6.986671595000075], [152.5792878000001, 6.986671595000075]]], [[[158.2239492000001, 7.006500132000042], [158.2239492000001, 7.006500132000042]]], [[[158.25544992000005, 7.011323100000027], [158.25544992000005, 7.011323100000027]]], [[[157.82666580000011, 7.038362844000062], [157.82666580000011, 7.038362844000062]]], [[[157.8299421600001, 7.04303542100007], [157.8299421600001, 7.04303542100007]]], [[[157.82830704000003, 7.051730014000043], [157.82830704000003, 7.051730014000043]]], [[[157.8253003200001, 7.059289930000034], [157.8253003200001, 7.059289930000034]]], [[[157.81980852000004, 7.067395803000068], [157.81980852000004, 7.067395803000068]]], [[[157.77372996000008, 7.080954338000026], [157.77372996000008, 7.080954338000026]]], [[[152.00693532000003, 7.230757095000058], [152.00693532000003, 7.230757095000058]]], [[[144.44867124000007, 7.260546161000036], [144.44867124000007, 7.260546161000036]]], [[[151.8997428, 7.266742928000042], [151.8997428, 7.266742928000042]]], [[[151.82540856000003, 7.290667667000037], [151.82540856000003, 7.290667667000037]]], [[[151.87327776000006, 7.316649811000048], [151.87327776000006, 7.316649811000048]]], [[[143.83880496000006, 7.328611809000051], [143.83880496000006, 7.328611809000051]]], [[[151.78529664000007, 7.342040421000036], [151.78529664000007, 7.342040421000036]]], [[[151.60484196000004, 7.352735676000066], [151.55682552000007, 7.337877039000034], [151.60817592000012, 7.346255357000075], [151.60484196000004, 7.352735676000066]]], [[[143.88343236000003, 7.359753236000074], [143.88343236000003, 7.359753236000074]]], [[[151.88983344000007, 7.360109913000031], [151.88983344000007, 7.360109913000031]]], [[[151.6617428400001, 7.361690321000026], [151.6617428400001, 7.361690321000026]]], [[[151.75617984000007, 7.36199790400002], [151.75617984000007, 7.36199790400002]]], [[[149.2033021200001, 7.361518052000065], [149.2033021200001, 7.361518052000065]]], [[[151.7864000400001, 7.354633338000042], [151.7864000400001, 7.354633338000042]]], [[[151.82787312000005, 7.37030204000007], [151.83760356000005, 7.316592323000066], [151.83540288000006, 7.36808026500006], [151.82787312000005, 7.37030204000007]]], [[[143.84277756000006, 7.372619130000032], [143.84277756000006, 7.372619130000032]]], [[[143.85608532000003, 7.373026673000027], [143.85608532000003, 7.373026673000027]]], [[[143.911845, 7.372926349000068], [143.911845, 7.372926349000068]]], [[[147.02660964000006, 7.373796236000032], [147.02660964000006, 7.373796236000032]]], [[[151.86870468000006, 7.390624006000053], [151.86870468000006, 7.390624006000053]], [[151.88419152000006, 7.381108894000022], [151.88419152000006, 7.381108894000022]]], [[[151.74293004100002, 7.389919269000075], [151.74293004100002, 7.389919269000075]]], [[[151.59977676000005, 7.394191585000044], [151.6094884800001, 7.344206450000058], [151.59977676000005, 7.394191585000044]]], [[[151.71545952100007, 7.38732987000003], [151.71545952100007, 7.38732987000003]]], [[[151.66732536000006, 7.414330208000024], [151.66732536000006, 7.414330208000024]]], [[[146.38315860000012, 7.456570449000026], [146.38315860000012, 7.456570449000026]]], [[[151.8510067200001, 7.465640420000057], [151.84288512000012, 7.411892674000057], [151.8817258800001, 7.444574254000031], [151.8510067200001, 7.465640420000057]]], [[[151.87958532000005, 7.487311997000063], [151.87958532000005, 7.487311997000063]]], [[[146.1724768800001, 7.506874564000043], [146.1724768800001, 7.506874564000043]]], [[[149.41717704000007, 7.53817626600005], [149.41717704000007, 7.53817626600005]]], [[[155.1603826800001, 7.619316574000038], [155.1603826800001, 7.619316574000038]]], [[[149.4277563600001, 7.632254727000031], [149.4277563600001, 7.632254727000031]]], [[[151.76846736000005, 7.679302802000052], [151.76846736000005, 7.679302802000052]]], [[[137.48862024000005, 8.296627256000022], [137.48862024000005, 8.296627256000022]]], [[[151.74722592000012, 8.433637085000043], [151.74722592000012, 8.433637085000043]]], [[[151.9041124800001, 8.560301322000043], [151.9041124800001, 8.560301322000043]]], [[[151.92162072000008, 8.563958206000052], [151.92162072000008, 8.563958206000052]]], [[[150.4232744400001, 8.566791667000075], [150.4232744400001, 8.566791667000075]]], [[[144.52649424100002, 8.590157523000073], [144.52649424100002, 8.590157523000073]]], [[[144.50783652000007, 8.600829457000032], [144.50783652000007, 8.600829457000032]]], [[[149.69092860000012, 8.568897304000075], [149.69092860000012, 8.568897304000075]]], [[[152.23865076000004, 8.61063437000007], [152.23865076000004, 8.61063437000007]]], [[[152.34347736000007, 8.693534542000066], [152.34347736000007, 8.693534542000066]]], [[[152.340336, 8.695754592000071], [152.340336, 8.695754592000071]]], [[[150.3386442000001, 8.75494485300004], [150.3386442000001, 8.75494485300004]]], [[[150.2948476800001, 8.79710095400003], [150.2948476800001, 8.79710095400003]]], [[[150.12738036000007, 8.981019779000064], [150.12738036000007, 8.981019779000064]]], [[[138.1340322000001, 9.590045091000036], [138.0976135200001, 9.55093022400007], [138.072465, 9.50465527700004], [138.05465184000002, 9.456414770000038], [138.09429108000006, 9.488151784000024], [138.12463800000012, 9.530061396000065], [138.17458584000008, 9.537066984000035], [138.12871968000002, 9.560817283000063], [138.1340322000001, 9.590045091000036]]], [[[138.17221416000007, 9.616122062000045], [138.14573652, 9.572914742000023], [138.1749663600001, 9.615559124000072], [138.17221416000007, 9.616122062000045]]], [[[138.155742, 9.636666348000062], [138.155742, 9.636666348000062]]], [[[140.52624012, 9.772186529000066], [140.52624012, 9.772186529000066]]], [[[139.65817104000007, 9.900467508000077], [139.65817104000007, 9.900467508000077]]], [[[139.79166408000003, 10.011576843000057], [139.79166408000003, 10.011576843000057]]], [[[139.77270684000007, 10.025678559000028], [139.77270684000007, 10.025678559000028]]], [[[139.71249612000008, 10.087066758000049], [139.71249612000008, 10.087066758000049]]]]}}]}