{"type": "FeatureCollection", "features": [{"type": "Feature", "properties": {"code": "GAB", "name": "Gabon", "tier": "country"}, "geometry": {"type": "Polygon", "coordinates": [[[11.711325008852574, 2.301916325026969], [11.635328422453265, 2.315503015845349], [11.583442347886796, 2.31219520357518], [11.531336508570911, 2.305206136877548], [11.436952293146216, 2.301916325026969], [11.360292008957114, 2.301767911934297], [11.35354298778708, 2.251471595982246], [11.340373098223687, 2.142899898525649], [11.337712731221567, 1.887214351274058], [11.347341471816437, 1.165319779817008], [11.352528906612314, 1.019946430195909], [10.954240548625306, 0.99283253225979], [10.424927777967538, 0.989688966782762], [10.265662574958979, 0.988743097587538], [10.175659992045588, 0.989938967237423], [10.006548041695764, 0.986788281758489], [10.005111189093746, 0.920114766924587], [9.935893800969797, 0.910085375048107], [9.885306981358305, 0.961827173860038], [9.80005445161378, 0.974977613082973], [9.777414560054451, 1.024777788114714], [9.70194825365892, 1.029305040803665], [9.640065882917625, 0.994595953958449], [9.588748795862234, 0.993086855606219], [9.571600632621509, 0.90107586827127], [9.589798740478123, 0.850489138057211], [9.623402407485058, 0.802102252287044], [9.636236461879468, 0.578592156029351], [9.635166956448282, 0.522980488048761], [9.618054883922412, 0.458812571457983], [9.572613587308918, 0.505200797631117], [9.570996680882939, 0.559342022004428], [9.517521450646258, 0.578592156029351], [9.523073960773607, 0.642314025218169], [9.470163052198414, 0.61948517487995], [9.398587672691907, 0.604677320184766], [9.32824635201033, 0.589869425462579], [9.323488337073089, 0.504106169236548], [9.381427219599757, 0.49099358149022], [9.432588298934691, 0.431209334172348], [9.4621010049001, 0.375464498119684], [9.486114066592611, 0.312148898224193], [9.53500510050966, 0.298359316920872], [9.583896132630043, 0.31465609435976], [9.617862500721154, 0.247578029017652], [9.686725478312706, 0.211507236180425], [9.779707907770847, 0.167195184172766], [9.842846237365345, 0.172371973698815], [9.893774397021865, 0.184124568188611], [9.873668388774336, 0.129021869465724], [9.819618640997682, 0.092407593312306], [9.76556889322106, 0.085433440846393], [9.690596662028423, 0.094151131216079], [9.610393812227572, 0.090664055321829], [9.568548845395574, 0.135996010637649], [9.512755557483972, 0.139483080916616], [9.507524937079134, 0.081946363221522], [9.460449351638925, 0.135996010637649], [9.402912523592375, 0.156918426004845], [9.381990040176394, 0.205737307243389], [9.375015879636608, 0.303374585141828], [9.322735455440192, 0.310357239756361], [9.328637708453716, 0.212943891265636], [9.344445806276127, 0.154361242241527], [9.35095502397769, 0.101357754259402], [9.353682231925173, 0.015765518378975], [9.352105679618372, -0.135583334454228], [9.336340161940447, -0.204951304950312], [9.318811795738863, -0.297149516825723], [9.31049421097985, -0.367640771859594], [9.307019461883883, -0.418023436186396], [9.275268574641997, -0.458878136114423], [9.242310123486204, -0.509581633473089], [9.204281142488938, -0.559017158323203], [9.167519793952057, -0.593241509584237], [9.125687913777108, -0.650281621567665], [9.130758445415177, -0.716193831983761], [9.06804494438988, -0.744633031609133], [9.051311145243604, -0.696108855348455], [9.011150030885808, -0.660970346149586], [8.960948638836895, -0.731247104639749], [8.97281140779666, -0.782865603718819], [8.93174977818062, -0.739613314234954], [8.898336851356252, -0.778809556443539], [8.877891070623862, -0.834782665355365], [8.812988276436492, -0.804768194479859], [8.814610845842006, -0.745549817291845], [8.786070823089862, -0.693840838656637], [8.739758451704898, -0.665420416384107], [8.771823729533288, -0.731608901233641], [8.794988756444788, -0.810748903734727], [8.831666716170472, -0.87058544673082], [8.866414257436034, -0.95358293780891], [8.884499594385156, -1.014447448843139], [8.958071176878363, -1.090891699375235], [9.008691609651114, -1.167680193864331], [9.01570227862237, -1.219080614114658], [9.028422143669474, -1.315736010609434], [9.083750524675434, -1.407634191271438], [9.147460086670925, -1.491868245988756], [9.268713769236399, -1.641837852732995], [9.271288790896644, -1.729732268335595], [9.284274713574687, -1.781101904802644], [9.284274713574687, -1.847465836169781], [9.330225466345379, -1.923960164492474], [9.370662390444839, -1.979825829530455], [9.461097798730126, -2.092160717418866], [9.533654375682152, -2.159892389648382], [9.589946096524068, -2.221228188552194], [9.615332364282414, -2.347112703091626], [9.640585685870255, -2.390991457707532], [10.044650814801999, -2.77182107962747], [10.18763639968541, -2.891383759276326], [10.33030091949978, -2.989336476920871], [10.372576360812538, -3.03121713180327], [10.439734086263199, -3.082499962769676], [10.55034680746999, -3.194261615342653], [10.575366352386654, -3.256054040285933], [10.639890440206429, -3.292864750486177], [10.692563165873947, -3.336247054492599], [10.688697098962098, -3.397272507189352], [10.705731346841661, -3.461124728129733], [10.775522706329886, -3.507128173748871], [10.819371830730448, -3.541370122403229], [10.898315238011383, -3.603234797480478], [11.02691162484344, -3.71774822492188], [11.048104059188852, -3.763390826070794], [11.05549230534535, -3.835064780621888], [11.14028132775948, -3.914537628072595], [11.190384317453876, -3.953369949372927], [11.209600460869147, -3.882567330412987], [11.241665614730039, -3.831755680562276], [11.256755098054365, -3.765884241563361], [11.271727166181206, -3.706112102167748], [11.326338247822703, -3.645557957033316], [11.371240691809616, -3.597111703299594], [11.435560409309034, -3.594689322993178], [11.490171490950528, -3.548662872440399], [11.543568993558921, -3.511113280437399], [11.596966494370685, -3.514747178501692], [11.644296098220435, -3.569253938790864], [11.677062746486662, -3.610434681860708], [11.715897293511564, -3.660091327355293], [11.799634284523412, -3.691579481846484], [11.85909968409385, -3.714589353855942], [11.912497184905648, -3.698845822190996], [11.953073223008317, -3.648664480582362], [11.90738745797509, -3.620118096614954], [11.894293492222879, -3.557141602656453], [11.922578582080572, -3.509880118110568], [11.939554252617105, -3.460930006248601], [11.954643735941465, -3.40444596806376], [12.013115487416547, -3.361139292254637], [11.96608584720985, -3.316003821150541], [11.900875570480522, -3.285635558130444], [11.835336083657404, -3.238297139176883], [11.769610294329215, -3.207078598235946], [11.73887910183436, -3.111071900777105], [11.765528090065061, -3.057851139778601], [11.8188260665265, -3.047206670000802], [11.800171775303992, -2.983337647549697], [11.758916935138334, -2.945390216007254], [11.709565216397507, -2.876881071997485], [11.66229093439624, -2.852965267606709], [11.61284905534363, -2.905337431783331], [11.569930153487759, -2.820242116309706], [11.603801306446986, -2.773831381307009], [11.600991379831507, -2.702630501975535], [11.632229082907777, -2.655168098805937], [11.618232509721013, -2.593862883579801], [11.576242790160759, -2.544386328643992], [11.576242790160759, -2.457259978315599], [11.567629513247892, -2.405626852152337], [11.60464969875751, -2.3644780145945], [11.634687209495022, -2.324169727266964], [11.707717807659538, -2.359134333962163], [11.742711636433288, -2.398658482316136], [11.79139870247514, -2.429060897111007], [11.83552135489654, -2.38953762557255], [11.946637411140207, -2.355011596518041], [12.030768660153836, -2.347130930523167], [12.072834285558963, -2.397041054875952], [12.14119092414738, -2.418055300929789], [12.238467682447578, -2.399667853345634], [12.33048623667383, -2.368145939383214], [12.380439165494954, -2.35763847515196], [12.437264926688464, -2.329894798766798], [12.491961783066547, -2.303657204979627], [12.517278363118393, -2.237517084146988], [12.520861210984084, -2.180234105800043], [12.525638342070591, -2.122948947729366], [12.499533671816577, -2.079981828922463], [12.468901178120282, -2.022191041561026], [12.460494964677071, -1.855036063651585], [12.509709401079538, -1.898967843389514], [12.544415589299282, -1.854257939630038], [12.600552031852784, -1.827243230718458], [12.654609345240726, -1.815813807382829], [12.703322250423458, -1.829863665711631], [12.75727298229621, -1.858899008759814], [12.840993008623908, -1.892257994191487], [12.87868805438902, -1.966581819729722], [12.90274449752323, -2.051434719544617], [12.933876366482624, -2.10234431122219], [12.95482105086254, -2.174751899408171], [13.004849956495441, -2.198465519355931], [13.04243928941622, -2.245837142185365], [13.063507527182024, -2.3110682601407], [13.122591480523253, -2.336312058224995], [13.201167486734466, -2.354438746711414], [13.265444277339682, -2.354438746711414], [13.323499075775683, -2.37211267506556], [13.376154623858337, -2.379510996938786], [13.427987428328427, -2.404993799431046], [13.48640217630886, -2.400883701789926], [13.535766753534674, -2.383621157680194], [13.577384103443357, -2.344105060638724], [13.629143939559548, -2.309494588941446], [13.670940582419153, -2.25062378908789], [13.71479518294969, -2.215566752476522], [13.74622274226628, -2.176311154237113], [13.756261860232378, -2.120547004356539], [13.79373346174866, -2.078252160591068], [13.822475105976448, -2.120594052253874], [13.86367798578946, -2.186664024563223], [13.883815016457019, -2.234339382166778], [13.907909837416826, -2.288755584786604], [13.957457300854683, -2.329499017621369], [13.966662504657675, -2.37940246351293], [13.925795632490187, -2.418600275465192], [13.95954759158761, -2.464008697945345], [14.011971490209612, -2.44776803128379], [14.063052614992689, -2.464156187084125], [14.11767277321179, -2.461648869473994], [14.160708753396937, -2.427999193994675], [14.175677790608004, -2.364436419672217], [14.23368280620756, -2.336393088337423], [14.213366890424227, -2.278157287586404], [14.19064682602241, -2.233562802676567], [14.21122925218762, -2.175600719949527], [14.248651843418624, -2.128855480197979], [14.270011191930353, -1.998017994463748], [14.269234269583833, -1.925030074633047], [14.334723805585547, -1.904459142363486], [14.38711543402762, -1.885758080294228], [14.449455254759348, -1.866071871127236], [14.443105770990037, -1.816349775787277], [14.448862710726585, -1.764196370565812], [14.446991581075192, -1.702477349910938], [14.43699194137087, -1.640366016511879], [14.402084471238654, -1.601478360863994], [14.420795765955841, -1.554717864214647], [14.46570287758901, -1.513567770887153], [14.478800783352057, -1.459323274003061], [14.497512079865873, -1.390112885626487], [14.467525176618176, -1.336557395855781], [14.457611225412187, -1.279547647794412], [14.495752925214646, -1.245228450988622], [14.48720003485183, -1.178825694048561], [14.469053735532585, -1.128921254715135], [14.461425520617581, -1.076259113995945], [14.432264077487838, -1.020596587272187], [14.421376609432045, -0.966846195038423], [14.440424030372343, -0.901123467410104], [14.436633290790338, -0.846714910225643], [14.476014763601233, -0.799590555938213], [14.478688382550434, -0.747931105652214], [14.480496243856354, -0.686534162788334], [14.514823774217545, -0.636953262406414], [14.52122618582511, -0.569296404120437], [14.47127688979098, -0.510350977739675], [14.405157359890605, -0.476358750290784], [14.31766188600196, -0.460561484494303], [14.213153405796952, -0.454485603937476], [14.1808756189117, -0.357389372092773], [14.166119681848985, -0.295942699166496], [14.119581858480577, -0.269776709630856], [14.039377675579836, -0.26491590302484], [13.982262576016474, -0.251548674775711], [13.93365397961131, -0.274637514269204], [13.885569338171996, -0.23178321421603], [13.849282621701997, -0.17541812548545], [13.874548288836817, -0.07969709369315], [13.925435929084125, -0.013869955497577], [13.936531894320744, 0.036061882418642], [13.907305131093427, 0.088144857667193], [13.917099008088623, 0.146907993220283], [13.887717377102966, 0.195877155732006], [13.88937404296341, 0.260754275107399], [13.935943104347551, 0.327709445187991], [13.956274516069513, 0.385875830596947], [14.030327472485821, 0.455103148293559], [14.07771858757632, 0.485155808102139], [14.071544967888508, 0.536553234252056], [14.051999278409566, 0.589462736961453], [14.104011614782468, 0.59813099209272], [14.234042452121473, 0.593796866248764], [14.307726594418089, 0.637137978249243], [14.338067123070621, 0.69781491540525], [14.372742013985887, 0.788828833763319], [14.442091794019799, 0.836502008358076], [14.468430605661013, 0.885411421446832], [14.448693124970601, 0.948608227504485], [14.409774086003335, 0.989143097698009], [14.403268869398044, 1.039950040159453], [14.340044140737808, 1.089667390583844], [14.314310352525304, 1.159842554417374], [14.294723511223193, 1.243722890167887], [14.288717871103588, 1.307408261265649], [14.250854677785311, 1.360416885033046], [14.162154924223382, 1.379424349809938], [14.077841836433326, 1.383089070556444], [14.036306359877932, 1.416794691880908], [13.951983168735856, 1.42095752386285], [13.809017496807371, 1.440502288555683], [13.811461354554654, 1.383089070556444], [13.665919573106073, 1.360853180103086], [13.591108770966642, 1.326334610970479], [13.582476755196954, 1.274555858095699], [13.504788613269863, 1.275994171557671], [13.383940392494367, 1.287500645315628], [13.332148299672935, 1.238597776537525], [13.247266810073377, 1.219899379729139], [13.172456007933912, 1.217022692602], [13.151334615954422, 1.263351534030096], [13.151334615954422, 1.320406462070886], [13.206818789983503, 1.333085158878667], [13.240109294400929, 1.402816809440574], [13.21632854063414, 1.452948436426557], [13.16225597475098, 1.536698498597737], [13.122914699752402, 1.582644332991855], [13.130726208714595, 1.645125230409852], [13.12637447123763, 1.722706772875006], [13.140237781148613, 1.794223410079801], [13.168772498450734, 1.846510658634422], [13.152322760970327, 1.895609070703506], [13.152919878326214, 1.946327457933344], [13.192310951432557, 1.995930478647206], [13.209227645774048, 2.054672243590278], [13.259541140383913, 2.097217259077197], [13.268225118302905, 2.153200986370162], [13.271684889788135, 2.205060032007471], [13.264855264584307, 2.25582623621894], [13.213757080793986, 2.259016079351173], [13.132404453904782, 2.277691418688092], [13.082626653444935, 2.240705929517739], [13.025190733154277, 2.241981306469956], [12.957543981032645, 2.253459652797863], [12.853135683643067, 2.250908916274118], [12.769919967922593, 2.235604409555173], [12.658877185460039, 2.247082804816659], [12.600489147986266, 2.258645813880721], [12.537877091011062, 2.277663738221284], [12.467287929634152, 2.263831432081869], [12.41020169473749, 2.267288498933966], [12.29775910889021, 2.291487738180888], [12.228563671998534, 2.267288498933966], [11.865871736271137, 2.288733689628705], [11.803514241186182, 2.288756999884251], [11.737664789775991, 2.279984050213105], [11.711325008852574, 2.301916325026969]]]}}]}