{"type": "FeatureCollection", "features": [{"type": "Feature", "properties": {"code": "GEO", "name": "Georgia", "tier": "country"}, "geometry": {"type": "Polygon", "coordinates": [[[40.245084700000035, 43.585692300000034], [40.19166420000002, 43.57486149999997], [40.130665, 43.56503929999996], [40.09526749999996, 43.529692200000014], [40.044385500000026, 43.475071299999975], [40.01488329999998, 43.43007639999997], [40.05313029999997, 43.378075299999985], [40.1170096, 43.35934520000003], [40.175901099999976, 43.336174900000046], [40.23748509999998, 43.32043309999999], [40.266369499999975, 43.267775400000026], [40.27442750000003, 43.2054537], [40.3107441, 43.17080649999997], [40.36574849999997, 43.1671689], [40.41958840000004, 43.16120750000004], [40.47049670000003, 43.139801700000035], [40.53890050000004, 43.13022], [40.5749959, 43.09330459999999], [40.644094799999976, 43.100847], [40.69967279999997, 43.08764309999998], [40.757750500000036, 43.08758809999996], [40.82829809999997, 43.0823319], [40.8824209, 43.063369899999955], [40.922617, 43.028085], [40.963901800000045, 42.98498820000002], [41.01656090000003, 42.99491230000002], [41.062632400000034, 42.97273859999998], [41.09120750000002, 42.909089], [41.10526230000002, 42.8456409], [41.14988560000001, 42.79667350000001], [41.20133640000003, 42.80111159999996], [41.25695339999997, 42.792674100000035], [41.305783799999986, 42.77696779999999], [41.3605, 42.765692], [41.42175429999999, 42.739288], [41.47662989999996, 42.68201060000002], [41.498238100000016, 42.632476500000045], [41.530676199999974, 42.52065130000001], [41.54145450000004, 42.44905919999998], [41.5553101, 42.3959193], [41.60600620000001, 42.34663540000004], [41.629370299999955, 42.2840021], [41.63647610000001, 42.22511759999997], [41.65025740000004, 42.16439579999999], [41.699917, 42.08857349999998], [41.739839499999974, 42.03220109999997], [41.76731920000001, 41.91266369999998], [41.777518300000025, 41.85855749999999], [41.75513580000003, 41.77190760000001], [41.71748780000004, 41.70456920000004], [41.681538900000035, 41.66617470000001], [41.61269270000001, 41.6426564], [41.57246459999997, 41.60415410000003], [41.561484100000044, 41.54522380000004], [41.602207, 41.504065], [41.655724, 41.485451], [41.709758, 41.496232], [41.752828, 41.470545], [41.805968, 41.445791], [41.856632, 41.45195], [41.897349, 41.483335], [41.941879, 41.515329], [41.99448, 41.504775], [42.048665, 41.495799], [42.09833, 41.509411], [42.148939, 41.505464], [42.201994, 41.493312], [42.253872, 41.494883], [42.304111, 41.482518], [42.358841, 41.466891], [42.411428, 41.458649], [42.46131, 41.436814], [42.520234, 41.436706], [42.532349, 41.49064], [42.568357, 41.528829], [42.591309, 41.573697], [42.6603274, 41.5927009], [42.713653, 41.595541], [42.763379, 41.586367], [42.815753, 41.588586], [42.80674, 41.530893], [42.830394, 41.478712], [42.875751, 41.502307], [42.926494, 41.472613], [42.971399, 41.441474], [43.006273, 41.398258], [43.055365, 41.372302], [43.108759, 41.349472], [43.15941620000001, 41.31609349999997], [43.212594100000025, 41.30623130000003], [43.173417, 41.271718], [43.237638, 41.184119], [43.288662, 41.186981], [43.337328, 41.200621], [43.388983, 41.19824], [43.44848, 41.176399], [43.474145, 41.123038], [43.529558, 41.133599], [43.593445, 41.138197], [43.650844, 41.133742], [43.718259, 41.122205], [43.776457, 41.127789], [43.83422810000002, 41.1556771], [43.888287, 41.164946], [43.938712, 41.176241], [43.992839, 41.179887], [44.055922, 41.190634], [44.105907, 41.189194], [44.162065, 41.189045], [44.178454, 41.244553], [44.231759, 41.23603], [44.285606, 41.208665], [44.343912, 41.202535], [44.407837, 41.207482], [44.45644, 41.190027], [44.511005, 41.195276], [44.56422459999998, 41.20137149999997], [44.60441, 41.231767], [44.657239, 41.234712], [44.70673, 41.217596], [44.76279, 41.22036], [44.816697, 41.213451], [44.883541, 41.203822], [44.83313030000002, 41.2285679], [44.807428, 41.289601], [44.870611, 41.276698], [44.921563, 41.258226], [44.97259, 41.270511], [45.01966, 41.300403], [45.072981, 41.327961], [45.16507280000002, 41.406327500000025], [45.2328278, 41.435767299999966], [45.287881, 41.462675], [45.33879, 41.460969], [45.382785, 41.435189], [45.437258, 41.443532], [45.493311, 41.436416], [45.564103, 41.407136], [45.607067, 41.376528], [45.658368, 41.37077], [45.708911, 41.360894], [45.759996, 41.351846], [45.700654, 41.297772], [45.741317, 41.258493], [45.803276, 41.226833], [45.865526, 41.212979], [45.913715, 41.190585], [45.974164, 41.179976], [46.024102, 41.186256], [46.081939, 41.181723], [46.14221710000002, 41.196106900000025], [46.21361089999998, 41.188870099999974], [46.274036, 41.190739], [46.368857, 41.119457], [46.422695, 41.103024], [46.470333, 41.06455], [46.519277, 41.078459], [46.584192100000045, 41.110630599999986], [46.639629, 41.10170970000003], [46.65664150000004, 41.152097], [46.657212600000044, 41.20312569999999], [46.696503, 41.23643809999998], [46.724922099999986, 41.284928500000014], [46.68762860000002, 41.32085160000002], [46.6570285, 41.3610779], [46.611108600000016, 41.38201580000001], [46.5485745, 41.406237200000014], [46.49592510000002, 41.42036129999998], [46.45239369999996, 41.445353], [46.41052240000003, 41.48168390000003], [46.35789469999998, 41.489172799999984], [46.32078510000004, 41.528627599999986], [46.298530699999986, 41.57554240000004], [46.27767649999996, 41.6210177], [46.227788500000024, 41.6051135], [46.19384309999997, 41.64308290000004], [46.18849810000003, 41.69637459999996], [46.198603500000026, 41.749971199999976], [46.2515567, 41.769686700000015], [46.304449400000046, 41.77566930000004], [46.360657799999984, 41.82473289999998], [46.40369290000002, 41.8536852], [46.422893, 41.906904], [46.380404, 41.937992], [46.324201700000025, 41.934772], [46.278757, 41.961169], [46.25650379999997, 42.006129099999974], [46.2015701, 42.00703309999999], [46.153448, 41.991646], [46.094678, 41.994918], [46.073375, 42.04061], [46.023431, 42.026266], [45.974485, 42.038051], [45.92728, 42.057], [45.897218, 42.106021], [45.841721, 42.109295], [45.791241, 42.103512], [45.745207, 42.131048], [45.706667, 42.169339], [45.651022, 42.185251], [45.608612, 42.212313], [45.634242, 42.266044], [45.688205, 42.285638], [45.73816, 42.293772], [45.742794, 42.362114], [45.762727, 42.412455], [45.773614, 42.461559], [45.72371020000001, 42.478326], [45.68196590000002, 42.509679], [45.631025300000026, 42.51235070000004], [45.586649, 42.536760700000016], [45.522161, 42.545098], [45.466129, 42.539084], [45.410288, 42.548965], [45.355607, 42.522534], [45.325539, 42.565217], [45.28157, 42.590412], [45.242627, 42.63001], [45.198233, 42.667343], [45.158036, 42.708165], [45.106522, 42.704926], [45.057013, 42.695749], [44.996417, 42.723329], [44.945952, 42.750839], [44.893334, 42.748073], [44.864569, 42.705578], [44.833846, 42.661068], [44.803788, 42.61473], [44.763921, 42.651547], [44.744617, 42.700113], [44.714347, 42.742009599999975], [44.652686, 42.747041], [44.597123, 42.748679], [44.5471225, 42.76463020000004], [44.499928, 42.736198], [44.416457, 42.719994], [44.364366, 42.715822], [44.314021, 42.721673], [44.271489, 42.69184], [44.238044, 42.646755], [44.18539, 42.627981], [44.13844, 42.610645], [44.085623, 42.605453], [44.021778, 42.597196], [43.975605, 42.560844], [43.912435, 42.568671], [43.848332, 42.593996], [43.79860690000004, 42.599299299999956], [43.743225, 42.618485], [43.772055, 42.6744], [43.807887, 42.721072], [43.771051, 42.760679], [43.709782, 42.776344], [43.650896, 42.795677], [43.611705, 42.82697], [43.572169, 42.862816], [43.507662, 42.867795], [43.460511, 42.887035], [43.40689660000003, 42.8917812], [43.354881, 42.889824], [43.306259, 42.911201], [43.25502880000003, 42.92337230000004], [43.204910699999964, 42.930534], [43.15887430000003, 42.96815609999999], [43.11283290000003, 43.000288500000046], [43.050924700000024, 43.0192119], [43.02291109999996, 43.062983799999984], [43.00081050000002, 43.11347249999998], [42.948789299999966, 43.1253097], [42.90350479999998, 43.15316449999998], [42.86026690000004, 43.178557899999966], [42.80824109999997, 43.16909730000003], [42.74993669999998, 43.187688799999975], [42.7000396, 43.17067930000001], [42.63952989999997, 43.150741599999975], [42.593203400000014, 43.171901300000044], [42.54325179999996, 43.17659210000003], [42.49499470000004, 43.2000992], [42.44771039999997, 43.21982249999997], [42.413776200000044, 43.256982399999984], [42.35820340000003, 43.246849400000016], [42.31462330000002, 43.2182943], [42.25283310000001, 43.2122551], [42.199355900000015, 43.227937300000015], [42.14845769999997, 43.21952240000001], [42.095418199999955, 43.213976100000025], [42.047812600000036, 43.187168600000014], [41.99718860000004, 43.21276940000001], [41.94586189999998, 43.21441930000002], [41.898836600000024, 43.23301759999999], [41.8483786, 43.21151270000004], [41.794567, 43.207934700000024], [41.745493, 43.237071], [41.692713, 43.218475], [41.641843, 43.226327], [41.591666, 43.236462], [41.54454280000004, 43.26959930000004], [41.488212400000045, 43.28601860000002], [41.439492700000045, 43.306237300000035], [41.4134985, 43.354691199999984], [41.362827, 43.368351], [41.31677340000004, 43.33945759999996], [41.257629699999974, 43.36455680000003], [41.206079399999986, 43.38047920000002], [41.155507, 43.389172], [41.10619640000004, 43.40396259999998], [41.052318, 43.397294], [41.00429479999996, 43.43222229999998], [40.949938200000034, 43.41972529999999], [40.905564, 43.454429], [40.85357410000001, 43.486211200000035], [40.77736709999997, 43.5053548], [40.72084840000003, 43.52973369999998], [40.67551789999997, 43.5510011], [40.6188573, 43.550263499999986], [40.56895849999997, 43.5221317], [40.51767759999998, 43.524261299999985], [40.46662719999996, 43.54608229999997], [40.41355120000003, 43.552292199999975], [40.3636138, 43.56061159999999], [40.31410420000001, 43.57837489999997], [40.26059390000003, 43.5859582], [40.245084700000035, 43.585692300000034]]]}}]}