{"type": "FeatureCollection", "features": [{"type": "Feature", "properties": {"code": "GGY", "name": "Guernsey", "tier": "country"}, "geometry": {"type": "MultiPolygon", "coordinates": [[[[-2.384500393925236, 49.43371631113274], [-2.384500393925236, 49.43371631113274]]], [[[-2.377121708236132, 49.40793420404884], [-2.360210990205701, 49.42221298571735], [-2.345372099354222, 49.436774969150804], [-2.367444226029761, 49.4491186228276], [-2.37743278496788, 49.43158963321349], [-2.379683025091879, 49.410581887244916], [-2.377121708236132, 49.40793420404884]]], [[[-2.525839501881364, 49.45226777031263], [-2.525839501881364, 49.45226777031263]]], [[[-2.462435664313887, 49.456027469484866], [-2.462435664313887, 49.456027469484866]]], [[[-2.665344431278641, 49.4622931742104], [-2.665344431278641, 49.4622931742104]]], [[[-2.457431087994451, 49.479709589313586], [-2.457431087994451, 49.479709589313586]]], [[[-2.532799734098603, 49.4456634428613], [-2.533654032740458, 49.471221409773364], [-2.51170697057853, 49.476703545020825], [-2.50203577175381, 49.49681231783393], [-2.518269134675336, 49.50902326386108], [-2.547898974067778, 49.50617120079568], [-2.571004009714102, 49.4968368372775], [-2.589692793129359, 49.488427150660186], [-2.603389309292766, 49.47241080016562], [-2.621971955099184, 49.463259893842576], [-2.641874289221164, 49.46121539334251], [-2.650399500139258, 49.442054040420715], [-2.669792803596806, 49.43551248099038], [-2.651197678753476, 49.42446320390957], [-2.618760911371623, 49.41946202697619], [-2.593188776695342, 49.418644880335705], [-2.572595097893895, 49.42401404630459], [-2.552592956148942, 49.42449989534862], [-2.532201211851714, 49.42077291800939], [-2.532799734098603, 49.4456634428613]], [[-2.6192773110281, 49.450275028208125], [-2.6192773110281, 49.450275028208125]], [[-2.570949915610981, 49.44302558498799], [-2.570949915610981, 49.44302558498799]]], [[[-2.259356049409007, 49.72878570085055], [-2.259356049409007, 49.72878570085055]]], [[[-2.196021361935607, 49.7211767177144], [-2.220725030205813, 49.72045806554655], [-2.230970867848214, 49.70262145615675], [-2.203256132966317, 49.705953616723775], [-2.181605245065953, 49.712924219810304], [-2.159410674693618, 49.726793611209075], [-2.179582193595877, 49.72881239699791], [-2.196021361935607, 49.7211767177144]], [[-2.173694105845072, 49.72739330130986], [-2.173694105845072, 49.72739330130986]]], [[[-2.247458987348807, 49.7314392856826], [-2.247458987348807, 49.7314392856826]]]]}}]}