{"type": "FeatureCollection", "features": [{"type": "Feature", "properties": {"code": "GHA", "name": "Ghana", "tier": "country"}, "geometry": {"type": "Polygon", "coordinates": [[[1.061030000000756, 6.015919999998005], [1.138430000000881, 6.080439999997907], [1.191779999999198, 6.104420000003302], [1.191650000000664, 6.155019999998331], [1.124970000000758, 6.15737999999692], [1.057469999999739, 6.221920000003593], [0.99629, 6.323579999996582], [0.90384, 6.321340000002238], [0.86591000000044, 6.370349999997416], [0.79645999999957, 6.397530000002007], [0.75691, 6.432509999998729], [0.728170000000318, 6.478750000002037], [0.729099999999562, 6.543149999997695], [0.691149999999652, 6.579050000000279], [0.65182, 6.614249999998719], [0.643699999999626, 6.692049999997835], [0.64498999999978, 6.745860000002722], [0.588579999999638, 6.763010000002396], [0.568540000000212, 6.813179999997374], [0.528040000000146, 6.843079999998736], [0.557730000000447, 6.901709999998275], [0.51469, 6.94816], [0.557289999999739, 6.999589999999444], [0.599849999999606, 7.026539999998931], [0.610219999999572, 7.08009999999922], [0.598939999999857, 7.132060000003548], [0.632099999999809, 7.200550000001385], [0.643619999999828, 7.27042000000074], [0.652839999999742, 7.33292999999685], [0.64617, 7.390160000002652], [0.58284, 7.388330000001588], [0.534939999999551, 7.409939999997732], [0.51202000000012, 7.455509999999776], [0.508630000000267, 7.522299999996903], [0.51858, 7.587570000003325], [0.578010000000177, 7.616970000002766], [0.579630000000179, 7.676240000000689], [0.614419999999882, 7.722869999997783], [0.623410000000149, 7.784890000002633], [0.622489999999743, 7.860690000001341], [0.613510000000133, 7.920639999996638], [0.59739, 7.975299999998242], [0.59706, 8.038520000001881], [0.591379999999845, 8.089200000002165], [0.60732999999982, 8.143469999995432], [0.59173, 8.197060000005877], [0.631529999999657, 8.23750000000291], [0.6749, 8.262830000006943], [0.72523, 8.284060000005411], [0.71997999999985, 8.342090000005555], [0.707760000000235, 8.39698999999382], [0.659179999999651, 8.42960000000312], [0.649470000000292, 8.482579999996233], [0.586989999999787, 8.521309999996447], [0.54921000000013, 8.555099999997765], [0.503869999999552, 8.578049999996438], [0.438070000000153, 8.65270999999484], [0.39149, 8.732019999995828], [0.38590000000022, 8.786129999993136], [0.43829, 8.79033000000345], [0.493379999999888, 8.808759999999893], [0.51692, 8.853210000001127], [0.516139999999723, 8.920410000006086], [0.456859999999779, 9.017999999996391], [0.4564, 9.075410000004922], [0.468580000000202, 9.14212000000407], [0.515360000000328, 9.191860000006272], [0.502239999999802, 9.24391000000469], [0.533709999999701, 9.302270000000135], [0.553219999999783, 9.352950000000419], [0.562799999999697, 9.402189999993425], [0.522219999999834, 9.441179999994347], [0.483679999999822, 9.478770000001532], [0.433599999999842, 9.491599999993923], [0.380839999999807, 9.489010000004782], [0.33592, 9.451520000002347], [0.27846, 9.42384000000311], [0.2271, 9.455470000000787], [0.272309999999834, 9.481020000006538], [0.23711, 9.519629999995232], [0.23794, 9.57042000000365], [0.30114, 9.572180000002845], [0.36297999999988, 9.572310000003199], [0.36008, 9.630460000000312], [0.343670000000202, 9.701570000004722], [0.324349999999868, 9.753169999996317], [0.3386, 9.812309999993886], [0.346280000000206, 9.883830000006128], [0.374760000000151, 9.9278900000063], [0.3536, 9.977190000005066], [0.353050000000167, 10.028900000004796], [0.40416, 10.017000000007101], [0.397579999999834, 10.071209999994608], [0.34778, 10.095749999993131], [0.34924, 10.161269999996875], [0.35819, 10.216950000001816], [0.378990000000158, 10.27223000000231], [0.318879999999808, 10.305449999999837], [0.305989999999838, 10.363310000000638], [0.2815, 10.416029999993043], [0.22858, 10.4097299999994], [0.17628, 10.415609999996377], [0.1536, 10.472020000001066], [0.13193, 10.53070000000298], [0.07127, 10.554919999995036], [0.03439, 10.595960000006016], [-0.02606, 10.62115000000631], [-0.06797, 10.651329999993322], [-0.08714, 10.70793999999296], [-0.07303, 10.75969000000623], [-0.03431, 10.807790000006207], [-0.0313, 10.872650000004796], [-0.01569, 10.932539999994333], [0.018, 10.972330000004149], [0.02582, 11.053660000005038], [0.00731, 11.102750000005472], [-0.04895, 11.10284999999567], [-0.1117, 11.090070000005653], [-0.142, 11.138980000003357], [-0.273270000000139, 11.173299999994924], [-0.27397000000019, 11.121910000001662], [-0.328579999999874, 11.107669999997597], [-0.361080000000129, 11.068090000000666], [-0.37666, 11.1160200000013], [-0.432699999999841, 11.09827000000223], [-0.437510000000202, 11.029689999995753], [-0.490899999999783, 11.0153100000025], [-0.55163, 10.972779999996419], [-0.59505, 10.943549999996321], [-0.64952, 10.942070000004605], [-0.688780000000406, 10.98124999999709], [-0.749960000000101, 10.991399999998976], [-0.80887999999959, 10.992759999993723], [-0.860749999999825, 10.989360000006855], [-0.921540000000277, 10.97365], [-0.973909999999705, 10.99091999999655], [-1.0613400000002, 11.000599999999395], [-1.119549999999435, 11.000979999997071], [-1.194550000000163, 10.986409999997704], [-1.304500000000189, 10.991330000004382], [-1.362230000000636, 10.990749999997206], [-1.431780000000799, 11.018030000006547], [-1.487649999999121, 11.017449999999371], [-1.586859999999433, 11.018970000004629], [-1.645669999999882, 10.997849999999744], [-1.703419999999824, 10.984089999998105], [-1.755999999999403, 10.982120000000577], [-1.933859999999186, 10.981589999995776], [-2.047660000000178, 10.97903000000224], [-2.1579899999997, 10.977859999999055], [-2.216090000001714, 10.985369999994873], [-2.29594, 10.984899999995832], [-2.37068, 10.985650000002352], [-2.505440000000817, 10.98344999999972], [-2.555580000000191, 10.987819999994827], [-2.609059999998863, 10.996020000005956], [-2.676080000001093, 10.994309999994584], [-2.762299999998504, 10.998179999995045], [-2.834330000001501, 11.004159999996773], [-2.839690000000701, 10.95053000000189], [-2.833610000001499, 10.896599999992759], [-2.869129999999132, 10.852750000005472], [-2.893779999998515, 10.774139999994077], [-2.934560000001511, 10.72606000000087], [-2.915710000001127, 10.674190000005183], [-2.945599999999104, 10.62952000000223], [-2.91313000000082, 10.55674], [-2.896929999998974, 10.509200000000419], [-2.869879999998375, 10.451950000002398], [-2.807120000001305, 10.423599999994622], [-2.839499999998225, 10.376149999996414], [-2.853019999998651, 10.326480000003357], [-2.808199999999488, 10.27436999999918], [-2.764050000001589, 10.245699999999488], [-2.794020000001183, 10.194149999995716], [-2.789740000000165, 10.135370000003604], [-2.792969999998604, 10.0812900000019], [-2.783619999998336, 10.024210000003222], [-2.752749999999651, 9.956470000004629], [-2.771759999999631, 9.903049999993527], [-2.755120000001625, 9.852989999999409], [-2.763259999999718, 9.800910000005388], [-2.795239999999467, 9.747730000002775], [-2.79225999999835, 9.696750000002794], [-2.759060000000318, 9.652960000006715], [-2.776849999998376, 9.597269999998389], [-2.753720000000612, 9.545499999992899], [-2.690350000000763, 9.496469999998226], [-2.692419999999402, 9.441739999994752], [-2.678850000000239, 9.379239999994752], [-2.718740000000253, 9.329859999998007], [-2.69355, 9.277900000000955], [-2.66964, 9.232569999992847], [-2.715359999998327, 9.200790000002598], [-2.739760000000388, 9.15396999999939], [-2.765989999999874, 9.106660000004922], [-2.779669999999896, 9.055429999993066], [-2.70737999999983, 9.019209999998566], [-2.658340000001772, 9.003490000002785], [-2.664100000001781, 8.94757999999274], [-2.628100000001723, 8.909580000006827], [-2.622050000001764, 8.851280000002589], [-2.610469999999623, 8.801430000006803], [-2.573440000000119, 8.70060999999987], [-2.562620000000607, 8.628930000006221], [-2.548979999999574, 8.542390000002342], [-2.533049999998184, 8.480920000001788], [-2.517489999998361, 8.401769999996759], [-2.504460000000108, 8.33405999999377], [-2.500009999999747, 8.256550000005518], [-2.494900000001508, 8.20523000000685], [-2.556459999999788, 8.170350000000326], [-2.60939000000144, 8.15443999999843], [-2.591520000001765, 8.087289999995846], [-2.631150000001071, 8.039959999994608], [-2.68210000000181, 8.018570000000182], [-2.73272, 7.948649999998452], [-2.782190000001719, 7.929850000000442], [-2.791600000000471, 7.864589999997406], [-2.83036, 7.820110000000568], [-2.850620000001072, 7.76191000000108], [-2.882850000001781, 7.69999000000098], [-2.923470000001544, 7.608610000002955], [-2.934700000001612, 7.486559999997553], [-2.950300000000425, 7.419620000000577], [-2.969140000001062, 7.354970000000321], [-2.977559999999357, 7.277249999999185], [-2.969450000000506, 7.211089999997057], [-3.001840000000811, 7.167609999996785], [-3.035840000000462, 7.071739999999409], [-3.09030999999959, 7.052660000001197], [-3.13393, 6.974999999998545], [-3.229419999999664, 6.817999999999302], [-3.228240000000369, 6.760979999999108], [-3.197199999998702, 6.717649999998685], [-3.229849999999715, 6.662320000003092], [-3.255420000001322, 6.618510000000242], [-3.236649999998917, 6.538780000002589], [-3.19351000000097, 6.360489999999118], [-3.17696000000069, 6.312940000003437], [-3.173249999999825, 6.254990000001271], [-3.126280000000406, 6.190549999999348], [-3.091980000001058, 6.078419999998005], [-3.079239999999118, 6.003700000001118], [-3.060639999999694, 5.956610000001092], [-3.018390000001091, 5.862220000002708], [-3.021110000001499, 5.800080000000889], [-3.02523999999903, 5.745750000001863], [-2.980960000000778, 5.707970000003115], [-2.967550000001211, 5.637139999998908], [-2.907589999998891, 5.621469999998226], [-2.865379999999277, 5.651080000003276], [-2.812160000001313, 5.628160000000207], [-2.768860000000132, 5.600189999997383], [-2.77045999999973, 5.540580000000773], [-2.750510000001668, 5.434789999999339], [-2.72870999999941, 5.383090000002994], [-2.754939999998896, 5.337180000002263], [-2.775669999999081, 5.290979999997944], [-2.753639999998995, 5.242590000001655], [-2.747009999999136, 5.182739999996556], [-2.730859999999666, 5.131959999998799], [-2.780340000001161, 5.111190000003262], [-2.83309, 5.112589999996999], [-2.88358000000153, 5.117310000001453], [-2.928560000000289, 5.090510000001814], [-2.979490000001533, 5.08237999999983], [-3.025610000000597, 5.112480000003416], [-3.076509999998962, 5.105029999998806], [-3.032930000001215, 5.071230000001378], [-2.961899999998423, 5.060619999996561], [-2.900730000001204, 5.04602000000159], [-2.841659999998228, 5.036019999999553], [-2.770860000000539, 5.023090000002412], [-2.695230000001175, 5.008329999996931], [-2.637269999999262, 4.992089999999735], [-2.501430000000255, 4.966610000003129], [-2.431540000001405, 4.950879999996687], [-2.375899999999092, 4.936209999999846], [-2.268479999998817, 4.899030000000494], [-2.244819999999891, 4.853810000000522], [-2.201479999999719, 4.819960000000719], [-2.152930000000197, 4.796269999998913], [-2.11305, 4.764470000001893], [-2.068390000000363, 4.740290000001551], [-1.98423, 4.755440000000817], [-1.947910000000775, 4.791069999999308], [-1.889999999999418, 4.826569999997446], [-1.837079999999332, 4.848689999998896], [-1.789440000000468, 4.871240000000398], [-1.742319999999381, 4.907599999998638], [-1.705560000000332, 4.950349999999162], [-1.652830000000904, 4.967850000000908], [-1.632610000000568, 5.014210000001185], [-1.568849999999657, 5.03175999999803], [-1.4940600000009, 5.046119999999064], [-1.438109999999142, 5.063849999998638], [-1.387179999999717, 5.074650000002293], [-1.32825000000048, 5.094230000002426], [-1.278210000000399, 5.099730000001728], [-1.22957999999926, 5.11189000000013], [-1.185359999999491, 5.137150000002293], [-1.12738, 5.168449999997392], [-1.082930000000488, 5.195090000001073], [-1.012199999999211, 5.196510000001581], [-0.939690000000155, 5.203049999996438], [-0.881779999999708, 5.202960000002349], [-0.831049999999777, 5.210500000001048], [-0.781759999999849, 5.236680000001797], [-0.739410000000134, 5.275260000002163], [-0.694969999999557, 5.308779999999388], [-0.645400000000336, 5.324370000002091], [-0.600330000000213, 5.351730000002135], [-0.540560000000369, 5.363830000002054], [-0.492380000000139, 5.382850000001781], [-0.466800000000148, 5.42895999999746], [-0.413140000000112, 5.461569999999483], [-0.369139999999788, 5.494830000003276], [-0.21278, 5.530939999996917], [-0.149899999999889, 5.557809999998426], [-0.09895, 5.577960000002349], [-0.03976, 5.611019999996643], [0.01281, 5.631630000003497], [0.0536, 5.673609999998007], [0.10226, 5.698579999996582], [0.17938, 5.738340000003518], [0.23839, 5.76079000000027], [0.28638, 5.776530000002822], [0.348419999999805, 5.7835699999996], [0.424959999999828, 5.77842999999848], [0.59230000000025, 5.766309999999066], [0.645620000000235, 5.764790000001085], [0.730889999999818, 5.762159999998403], [0.81430999999975, 5.764589999998861], [0.9075899999998, 5.779450000001816], [0.953300000000127, 5.801599999998871], [0.990679999999884, 5.85732999999891], [0.995659999999589, 5.913480000002892], [1.030989999999292, 5.96643999999651], [1.061030000000756, 6.015919999998005]]]}}]}