{"type": "FeatureCollection", "features": [{"type": "Feature", "properties": {"code": "GIN", "name": "Guinea", "tier": "country"}, "geometry": {"type": "MultiPolygon", "coordinates": [[[[-14.914189796999949, 11.066912840000043], [-14.863568599999951, 11.088975800000071], [-14.878041799999949, 11.039182100000062], [-14.883513499999935, 10.982144400000038], [-14.826558599999942, 10.982257600000025], [-14.819309799999928, 11.036036100000047], [-14.777184, 11.063092400000073], [-14.740611099999967, 11.023256100000026], [-14.69234709999995, 11.040272], [-14.704340099999968, 11.092158300000051], [-14.668405699999937, 11.054508600000077], [-14.629733599999952, 11.016446300000041], [-14.620801799999981, 10.959704400000021], [-14.628226199999972, 11.012333900000044], [-14.684708099999966, 11.027514300000064], [-14.718568299999959, 10.98596770000006], [-14.765442599999972, 10.960984200000041], [-14.812499299999956, 10.93205880000005], [-14.76715919999998, 10.898969300000033], [-14.805126599999937, 10.860120700000039], [-14.759874399999944, 10.835287100000073], [-14.736914699999943, 10.88655840000007], [-14.722709699999939, 10.938258100000041], [-14.732827, 10.885336300000063], [-14.672412899999927, 10.888549700000056], [-14.696644, 10.84407], [-14.75030419999996, 10.834739100000036], [-14.760598499999958, 10.778162800000075], [-14.780393199999935, 10.730978700000037], [-14.736925399999961, 10.696865400000036], [-14.724812499999928, 10.74819210000004], [-14.671071799999936, 10.784628700000042], [-14.624766099999931, 10.80732960000006], [-14.638177199999973, 10.861735200000055], [-14.588470499999971, 10.86758960000003], [-14.549529699999937, 10.835146], [-14.551607499999932, 10.782615700000065], [-14.578262299999949, 10.728751400000021], [-14.610126599999944, 10.684166900000037], [-14.598534099999938, 10.634674700000062], [-14.559561599999938, 10.600202600000046], [-14.515300499999967, 10.575572700000066], [-14.562678299999959, 10.597740200000032], [-14.614090899999951, 10.577249], [-14.656784199999947, 10.549261200000046], [-14.659929899999952, 10.487775], [-14.608941099999981, 10.485248300000023], [-14.556917, 10.437375400000064], [-14.516297599999973, 10.394302], [-14.473331099999939, 10.350142400000038], [-14.453271399999949, 10.298402500000066], [-14.462095499999975, 10.247478600000022], [-14.409514, 10.223033400000077], [-14.351027899999963, 10.222152400000027], [-14.29826079999998, 10.215450300000043], [-14.288511, 10.266957], [-14.274657399999967, 10.214426100000026], [-14.225136799999973, 10.222114600000054], [-14.202071399999966, 10.268735900000024], [-14.186959899999977, 10.218837], [-14.139275599999962, 10.192093400000033], [-14.090963599999952, 10.174690800000064], [-14.130992899999967, 10.144117900000026], [-14.115543399999979, 10.091931100000068], [-14.062280099999953, 10.05032140000003], [-14.027178, 10.002361700000051], [-13.969094799999937, 9.974007200000074], [-13.893349199999932, 9.924498500000027], [-13.848540199999945, 9.885314300000061], [-13.815441699999951, 9.842414900000051], [-13.748756699999944, 9.857531], [-13.705229799999927, 9.89745320000003], [-13.69391079999997, 9.953750200000059], [-13.63900069999994, 9.941106200000036], [-13.660399299999938, 9.880975400000068], [-13.653817199999935, 9.829856500000062], [-13.61760739999994, 9.779057300000034], [-13.617213099999958, 9.726619300000038], [-13.623824099999979, 9.67106], [-13.641045799999972, 9.621848900000032], [-13.666156299999955, 9.57379590000005], [-13.692022599999973, 9.529236600000047], [-13.641049899999928, 9.553947100000073], [-13.586980599999947, 9.559077], [-13.555991699999936, 9.506947400000058], [-13.505657299999939, 9.448183400000062], [-13.47070279999997, 9.409292900000025], [-13.419807399999968, 9.397482300000036], [-13.421489599999973, 9.342776300000025], [-13.407960499999945, 9.293749300000059], [-13.348549599999956, 9.281392900000071], [-13.308622199999945, 9.243961], [-13.310309399999937, 9.18914540000003], [-13.25759789999995, 9.168574300000046], [-13.272545199999968, 9.120112300000073], [-13.309815799999967, 9.076022], [-13.254584, 9.06528399900003], [-13.202164, 9.083065999000041], [-13.142907, 9.057625999000038], [-13.089851299999964, 9.046580299000027], [-13.044677299999933, 9.08399429900004], [-13.001250299999981, 9.116372299000034], [-12.979227299999934, 9.169152299000075], [-12.96447829999994, 9.217000299000063], [-12.949350299999935, 9.265320399000075], [-12.896345, 9.272935799000038], [-12.845393899999976, 9.282092999000042], [-12.790175, 9.300309499000036], [-12.763525799999968, 9.343416099000024], [-12.755182299999944, 9.393538499000044], [-12.706937499999981, 9.407818599000052], [-12.677067299999976, 9.450119699000027], [-12.644624699999952, 9.51399199900004], [-12.633700899999951, 9.566231299000037], [-12.591488399999946, 9.599731299000041], [-12.586985499999969, 9.652820699000074], [-12.564142599999968, 9.703384399000072], [-12.52609339999998, 9.73709659900004], [-12.498605699999928, 9.794785999000055], [-12.495655499999941, 9.845346899000049], [-12.44922639999993, 9.87155769900005], [-12.345401, 9.893523999000024], [-12.222482, 9.932904999000073], [-12.187756, 9.892569999000045], [-12.140094, 9.874142999000071], [-12.070555399999932, 9.88765629900007], [-11.906884499999933, 9.940181799000072], [-11.894622, 9.999943999000038], [-11.500111, 9.999943999000038], [-11.208071, 9.999972999000022], [-11.171886, 9.960630999000045], [-11.161571, 9.909462999000027], [-11.140128, 9.861544999000046], [-11.091855, 9.847012999000071], [-11.043227, 9.818048999000041], [-11.014111, 9.772519999000053], [-10.987205, 9.727575999000067], [-10.963905, 9.663940999000033], [-10.915411, 9.634572999000056], [-10.881026, 9.591512999000031], [-10.863102, 9.544637999000031], [-10.822359, 9.513414999000076], [-10.839639, 9.464023999000062], [-10.809107, 9.419268999000053], [-10.775781, 9.381979999000066], [-10.716866, 9.36299199900003], [-10.683501, 9.324112999000022], [-10.662624, 9.274865999000042], [-10.655697, 9.22528999900004], [-10.698675, 9.191687999000067], [-10.714981, 9.14032099900004], [-10.727979, 9.088606999000035], [-10.666421, 9.085593999000025], [-10.614583099999948, 9.07120069900003], [-10.576149099999952, 9.038248299000031], [-10.591201699999942, 8.986904399000025], [-10.58285849999993, 8.93481439900006], [-10.573616699999945, 8.885108999000067], [-10.56027679999994, 8.836451999000076], [-10.532986799999946, 8.792032999000071], [-10.509047499999951, 8.747249299000032], [-10.485128799999927, 8.70297689900002], [-10.472127399999977, 8.654615299000056], [-10.509865799999943, 8.620604799000034], [-10.559172099999955, 8.604006799000047], [-10.59226609999996, 8.557814999000072], [-10.62240769999994, 8.516851299000052], [-10.63857939999997, 8.466704699000047], [-10.64394859999993, 8.414413499000034], [-10.676068099999952, 8.375577399000065], [-10.691936699999928, 8.327431499000056], [-10.642650299999957, 8.354449099000021], [-10.585802699999931, 8.337420899000051], [-10.54249249999998, 8.309204199000021], [-10.503411299999925, 8.340536899000028], [-10.469227399999966, 8.380993499000056], [-10.419450599999948, 8.43355359900005], [-10.389535599999931, 8.480996399000048], [-10.339227199999925, 8.494050599000047], [-10.286205499999937, 8.486982899000054], [-10.235391199999981, 8.48634639900007], [-10.182520499999953, 8.50716619900004], [-10.132039199999952, 8.523466099000075], [-10.079067799999962, 8.515975599000058], [-10.047119799999962, 8.477157699000031], [-10.058509399999934, 8.42792429900004], [-10.00439289999997, 8.441356399000028], [-9.96130489999996, 8.472004199000025], [-9.913565799999958, 8.499477099000046], [-9.860887, 8.500444199000071], [-9.805987099999982, 8.501387399000066], [-9.77561529999997, 8.549988099000075], [-9.724920199999929, 8.525550699000064], [-9.734142199999951, 8.472066699000038], [-9.681221199999982, 8.492704699000058], [-9.629891, 8.473212699000044], [-9.650045, 8.427120699000056], [-9.593821, 8.411508699000024], [-9.552117, 8.38156169900003], [-9.496846, 8.373439699000073], [-9.510023, 8.322592899000028], [-9.490934, 8.274994699000047], [-9.506557, 8.22677569900003], [-9.493469, 8.175505699000041], [-9.462671499999942, 8.13570149900005], [-9.440836499999932, 8.083102499000063], [-9.40879149999995, 8.029143499000043], [-9.437588499999947, 7.987993499000027], [-9.443511499999943, 7.934903499000029], [-9.435656499999936, 7.87752049900007], [-9.40999949999997, 7.830052499000033], [-9.370064499999955, 7.797730499000068], [-9.349224099999958, 7.746472999000048], [-9.373684499999968, 7.694868599000074], [-9.37601959999995, 7.643423099000074], [-9.371952799999974, 7.593276799000023], [-9.395250499999975, 7.543016499000032], [-9.417142699999943, 7.497786799000039], [-9.446739699999966, 7.454466999000033], [-9.46987839999997, 7.405803099000025], [-9.423142599999949, 7.424362899000073], [-9.372505899999965, 7.414195699000061], [-9.32206059999993, 7.436044199000037], [-9.293702, 7.387415999000041], [-9.241786, 7.38959999900004], [-9.201985, 7.359019999000054], [-9.192265, 7.30772599900007], [-9.155351, 7.271038999000041], [-9.113790199999926, 7.242511999000044], [-9.108188699999971, 7.190604499000074], [-9.058245099999965, 7.212622099000043], [-9.019375699999955, 7.245979199000033], [-8.969871399999931, 7.253138299000057], [-8.931791099999941, 7.285618499000066], [-8.880683099999942, 7.259422199000028], [-8.836053299999946, 7.287687499000072], [-8.848475199999939, 7.336375499000042], [-8.827814799999942, 7.383333299000071], [-8.786788, 7.415390499000068], [-8.759346899999969, 7.461148399000024], [-8.717242899999974, 7.507379299000036], [-8.724598699999945, 7.558058599000049], [-8.712935099999982, 7.606785699000056], [-8.701796499999944, 7.655683199000066], [-8.553884899999957, 7.69575209900006], [-8.561335, 7.642891999000028], [-8.499881, 7.581315999000026], [-8.443365, 7.585405999000045], [-8.407228, 7.623685999000031], [-8.36348, 7.590343999000027], [-8.314955, 7.60797799900007], [-8.260291, 7.573655999000039], [-8.218713, 7.538723999000069], [-8.170411, 7.584275999000056], [-8.168867, 7.635232999000038], [-8.144178, 7.68684599900007], [-8.115588, 7.734758999000064], [-8.102085, 7.788751999000056], [-8.124602, 7.83498799900002], [-8.124043, 7.889638999000056], [-8.105997, 7.939949999000021], [-8.080536, 7.98892999900005], [-8.062147, 8.036964999000077], [-8.009589, 8.033742999000026], [-7.957678899999962, 8.021167799000068], [-7.970835, 8.069945999000026], [-8.012981, 8.102007999000023], [-7.994246, 8.152866999000025], [-8.024752, 8.193316999000047], [-8.062524, 8.157135999000047], [-8.109224, 8.18388199900005], [-8.163445, 8.187652999000022], [-8.206541, 8.218037999000046], [-8.241099, 8.255711999000027], [-8.219625, 8.30164699900007], [-8.214965, 8.35793699900006], [-8.238012, 8.41561499900007], [-8.231434, 8.466098799000065], [-8.18752139999998, 8.49966899900005], [-8.13732639999995, 8.489730699000063], [-8.090379199999973, 8.508251399000073], [-8.036999099999946, 8.497553399000026], [-7.987163499999951, 8.488198699000066], [-7.936779099999967, 8.504892899000026], [-7.906673299999966, 8.462187399000072], [-7.872391899999968, 8.425431299000024], [-7.822958799999981, 8.443196899000043], [-7.826917799999933, 8.494816299000036], [-7.783206199999938, 8.466895199000021], [-7.763951499999962, 8.420565999000075], [-7.734865899999932, 8.379853499000035], [-7.681442199999935, 8.375275799000065], [-7.668909, 8.423875999000074], [-7.664259, 8.475973999000075], [-7.696374, 8.559727999000074], [-7.671642, 8.618031999000038], [-7.732688, 8.658843999000055], [-7.751906, 8.713839999000072], [-7.786656, 8.759414999000057], [-7.835119199999951, 8.771921999000028], [-7.88783989999996, 8.78899689900004], [-7.939236, 8.786725999000055], [-7.971353, 8.825581999000065], [-7.933117, 8.876017999000055], [-7.921927, 8.92720699900002], [-7.934516, 8.980991999000025], [-7.898678, 9.025192999000069], [-7.848511, 9.043532999000035], [-7.805804, 9.073928999000032], [-7.750652, 9.065223999000068], [-7.782297, 9.106206999000051], [-7.820816, 9.152081999000075], [-7.88264, 9.161608999000066], [-7.916516, 9.205811999000048], [-7.900014, 9.253013999000075], [-7.877476, 9.297913999000059], [-7.877101, 9.350340999000025], [-7.855415, 9.399507999000036], [-7.910649, 9.420209999000065], [-7.968136, 9.40076699900004], [-8.022138, 9.39790799900004], [-8.063808, 9.425992999000073], [-8.097874, 9.462650999000061], [-8.124208899999928, 9.507314799000028], [-8.141877199999954, 9.554768399000068], [-8.140044599999953, 9.608415399000023], [-8.115101099999947, 9.653693299000054], [-8.111954099999934, 9.705656599000065], [-8.121897, 9.759568799000021], [-8.109863, 9.809891999000058], [-8.094772299999931, 9.860300399000039], [-8.139843, 9.885239699000067], [-8.158287, 9.933301999000037], [-8.11205339999998, 9.962030199000026], [-8.126631799999927, 10.01141399900007], [-8.099813, 10.065909999000041], [-8.034252, 10.083280999000067], [-8.008816, 10.127990999000076], [-7.985755, 10.173618999000041], [-7.956411, 10.214627999000072], [-7.954041, 10.264920999000026], [-7.978661, 10.322192999000038], [-8.025926, 10.346620999000038], [-8.082277, 10.354317999000045], [-8.104528, 10.407244999000056], [-8.153698, 10.430798999000046], [-8.207715, 10.417974999000023], [-8.234606, 10.468597999000053], [-8.252907, 10.52402599900006], [-8.269496, 10.575373999000021], [-8.32532, 10.591040999000029], [-8.31979, 10.647653999000056], [-8.297408, 10.692417999000043], [-8.289114, 10.752191999000047], [-8.331245, 10.788133999000024], [-8.300963, 10.83250399900004], [-8.269364, 10.883718999000052], [-8.277132, 10.940595999000038], [-8.278054, 10.990626999000028], [-8.324485, 11.038323], [-8.362034, 11.071663], [-8.4233, 11.064038], [-8.481146, 11.0714], [-8.499237, 11.021547], [-8.547671, 10.98531299900003], [-8.603309, 10.958282999000062], [-8.660543, 10.951455999000075], [-8.675935, 11.002088999000023], [-8.634518, 11.038968], [-8.600959, 11.095749], [-8.563928, 11.135173100000031], [-8.556295, 11.190566], [-8.512805, 11.217544], [-8.480621, 11.256617], [-8.423194, 11.281124], [-8.371973, 11.280072], [-8.397951, 11.329242], [-8.354934, 11.37431], [-8.402001, 11.394294], [-8.449436, 11.415067], [-8.502708, 11.420588], [-8.516276, 11.473335], [-8.56655, 11.462186], [-8.614932, 11.476332], [-8.654728, 11.522426], [-8.655004, 11.573673], [-8.688818, 11.616743], [-8.745767, 11.610312700000065], [-8.793381099999976, 11.634463100000062], [-8.839556099999982, 11.65486160000006], [-8.819763, 11.781135], [-8.79847049999995, 11.82869450000004], [-8.793206, 11.879422], [-8.781532, 11.934746], [-8.780585, 11.988439], [-8.817836899999975, 12.028637200000048], [-8.868273899999963, 12.027985500000057], [-8.907029799999975, 12.06082630000003], [-8.896451599999978, 12.112420300000053], [-8.89458959999996, 12.163311300000032], [-8.93039349999998, 12.198965300000054], [-8.978790499999945, 12.22390370000005], [-8.958004, 12.292212], [-8.954618699999969, 12.35737290000003], [-8.995591, 12.390102], [-9.032755899999927, 12.423987700000055], [-9.08368, 12.440798], [-9.130607, 12.473171], [-9.178227899999968, 12.490181800000073], [-9.227160899999944, 12.501257100000032], [-9.27704689999996, 12.49249750000007], [-9.327372599999933, 12.481189], [-9.38578259999997, 12.477206800000033], [-9.369672899999955, 12.420872400000064], [-9.330132499999934, 12.378827900000033], [-9.30630259999998, 12.333527100000026], [-9.318358699999976, 12.280941300000052], [-9.358847599999933, 12.250144600000056], [-9.410328599999957, 12.26390280000004], [-9.460991, 12.260523100000057], [-9.502594, 12.224036800000022], [-9.544202499999926, 12.195385100000067], [-9.595591899999931, 12.188530100000037], [-9.64706, 12.168131900000049], [-9.67798339999996, 12.12439020000005], [-9.680829499999959, 12.072115300000064], [-9.70967769999993, 12.028934100000072], [-9.768053, 12.038941], [-9.816981399999975, 12.066505], [-9.870157699999936, 12.059881700000062], [-9.907801499999948, 12.094706200000076], [-9.959707699999967, 12.104620800000077], [-10.00582019999996, 12.133036400000037], [-10.05894829999994, 12.149997900000074], [-10.091263599999934, 12.188194300000077], [-10.148941799999932, 12.176448600000072], [-10.19250029999995, 12.205314400000077], [-10.242543799999964, 12.20029210000007], [-10.297729199999935, 12.192032200000028], [-10.337332199999935, 12.225012400000026], [-10.358745599999963, 12.17882650000007], [-10.408965399999943, 12.178863700000022], [-10.443687, 12.128711], [-10.513998699999945, 12.125401400000044], [-10.521471499999961, 12.072327700000073], [-10.559198099999946, 12.028328100000067], [-10.585597599999971, 11.984956600000032], [-10.623233599999935, 11.93804670000003], [-10.657180899999958, 11.89775050000003], [-10.707429, 11.908896], [-10.757237, 11.943089], [-10.780552, 12.000057], [-10.800322, 12.047945], [-10.789383, 12.102492], [-10.835462, 12.127667], [-10.875174, 12.160186], [-10.894505, 12.207765], [-10.942009, 12.22777], [-11.007708599999944, 12.21397440000004], [-11.06165, 12.184137], [-11.075471, 12.135405], [-11.113588, 12.099426], [-11.14743, 12.049553], [-11.188611, 12.014785], [-11.237343, 11.99904], [-11.294661, 12.022836], [-11.350589, 12.055111], [-11.366694799999948, 12.103083100000049], [-11.414881499999979, 12.120893500000022], [-11.460829599999954, 12.141171500000041], [-11.49140749999998, 12.182686500000045], [-11.478710599999943, 12.23911860000004], [-11.442423399999939, 12.281608], [-11.43108639999997, 12.334371100000055], [-11.432782799999927, 12.38885730000004], [-11.379520299999967, 12.391658300000074], [-11.413839, 12.434425], [-11.46629, 12.44253], [-11.516567, 12.443377], [-11.572551, 12.437996], [-11.62256, 12.427519], [-11.676429, 12.419396], [-11.722864, 12.394137], [-11.772995, 12.384475], [-11.821834, 12.397909], [-11.867451, 12.418561], [-11.968085, 12.405456], [-12.020061, 12.410539], [-12.069159, 12.430113], [-12.118167, 12.413493], [-12.155388, 12.377445], [-12.203746, 12.356515], [-12.254361, 12.351598], [-12.356297, 12.314932400000032], [-12.383113, 12.358215], [-12.4327, 12.386267], [-12.48336, 12.403942], [-12.535303, 12.384597], [-12.585543, 12.393662], [-12.626558, 12.435902], [-12.765245, 12.433511], [-12.783665, 12.480519], [-12.845049, 12.493359], [-12.877894, 12.533702], [-12.927016, 12.544848], [-12.942769, 12.494904], [-12.986573, 12.470112], [-13.036792, 12.479688], [-13.066463, 12.521138], [-13.050407, 12.569714], [-13.051322, 12.625465], [-13.104889, 12.628484], [-13.15544, 12.64155], [-13.205923, 12.644158], [-13.257056499999976, 12.652660600000047], [-13.30666, 12.644463500000029], [-13.48364719999995, 12.6739], [-13.708147699999927, 12.675615200000038], [-13.709542, 12.607889], [-13.684878, 12.555673], [-13.654603, 12.513082], [-13.636548799999957, 12.464540500000055], [-13.655557, 12.416991], [-13.651395, 12.367154], [-13.662278, 12.314063], [-13.704952099999957, 12.268937400000027], [-13.754802899999959, 12.276266400000054], [-13.799938099999963, 12.25163260000005], [-13.855269, 12.28134840000007], [-13.919187499999964, 12.234613500000023], [-13.956947299999968, 12.200227100000063], [-13.937796299999945, 12.144907], [-13.878201, 12.136383], [-13.836212, 12.099918], [-13.797016799999938, 12.066711800000064], [-13.750867, 12.028954], [-13.696348799999953, 12.00819690000003], [-13.706027, 11.955256], [-13.712656, 11.880333], [-13.707182, 11.799501], [-13.708166699999936, 11.707412200000022], [-13.755088899999976, 11.68974970000005], [-13.802693, 11.714539], [-13.845216, 11.744084], [-13.858869, 11.686692], [-13.908197, 11.67532], [-13.988392, 11.641663], [-14.040483699999982, 11.654530400000056], [-14.082562, 11.62611], [-14.129034599999954, 11.653882400000043], [-14.179187299999967, 11.656524500000046], [-14.227115, 11.671224], [-14.319521, 11.602356], [-14.366402199999982, 11.580064700000037], [-14.45034, 11.536803], [-14.511552, 11.49649], [-14.585824, 11.505541], [-14.663604, 11.504958], [-14.70163, 11.47186], [-14.752555, 11.398932], [-14.815485399999943, 11.259391200000039], [-14.837453, 11.202519800000061], [-14.914189796999949, 11.066912840000043]]], [[[-14.92252777899995, 11.05585461100003], [-14.92252777899995, 11.05585461100003]]], [[[-14.957303595999974, 10.97954020800006], [-14.904424, 10.962227100000064], [-14.918532399999947, 11.043994500000053], [-14.957303595999974, 10.97954020800006]]], [[[-13.41266509999997, 9.277538700000036], [-13.41266509999997, 9.277538700000036]]], [[[-13.81506769999993, 9.434826], [-13.81506769999993, 9.434826]]], [[[-13.745779399999947, 9.454218500000025], [-13.758031699999947, 9.504228], [-13.750312299999962, 9.450823900000046], [-13.745779399999947, 9.454218500000025]]], [[[-13.792688599999963, 9.462126600000033], [-13.792688599999963, 9.462126600000033]]], [[[-13.830564, 9.469672100000025], [-13.791022899999973, 9.510100700000066], [-13.834352, 9.483568], [-13.830564, 9.469672100000025]]], [[[-13.768873199999973, 9.432191700000033], [-13.768873199999973, 9.432191700000033]]], [[[-13.695898949999957, 9.743937563000031], [-13.650314199999968, 9.76916620000003], [-13.66064069999993, 9.826441900000077], [-13.694439199999977, 9.78656140000004], [-13.739143599999977, 9.813179800000057], [-13.75712249999998, 9.764773], [-13.704494799999964, 9.744109300000048], [-13.695898949999957, 9.743937563000031]]], [[[-13.780975299999966, 9.831341700000053], [-13.723983799999928, 9.853736200000071], [-13.772142799999926, 9.838498400000049], [-13.780975299999966, 9.831341700000053]]], [[[-13.681709499999954, 9.82474250000007], [-13.692880899999977, 9.87588610000006], [-13.736053699999957, 9.831854400000054], [-13.681709499999954, 9.82474250000007]]], [[[-13.665393599999959, 9.837541700000031], [-13.665393599999959, 9.837541700000031]]], [[[-13.659331799999961, 9.829993900000034], [-13.662775799999963, 9.886656600000038], [-13.674615, 9.939087700000073], [-13.689549599999964, 9.89121730000005], [-13.675886399999968, 9.843022800000028], [-13.659331799999961, 9.829993900000034]]], [[[-13.681497599999943, 9.916033200000072], [-13.681497599999943, 9.916033200000072]]], [[[-14.135517799999946, 10.052627], [-14.118708399999946, 10.101590700000031], [-14.170322099999964, 10.110632100000032], [-14.143148699999927, 10.055270700000051], [-14.135517799999946, 10.052627]]], [[[-14.17289969999996, 10.115717700000062], [-14.122769199999937, 10.110148800000047], [-14.17289969999996, 10.115717700000062]]], [[[-14.240727399999969, 10.15572960000003], [-14.21946289999994, 10.11003530000005], [-14.169083399999977, 10.14346], [-14.222842499999956, 10.145353500000056], [-14.240727399999969, 10.15572960000003]]], [[[-14.180581599999982, 10.188998100000049], [-14.230411699999934, 10.179791300000034], [-14.182480599999963, 10.162546500000076], [-14.180581599999982, 10.188998100000049]]], [[[-14.318329099999971, 10.201607400000057], [-14.318329099999971, 10.201607400000057]]], [[[-14.12610049999995, 10.164426200000037], [-14.12610049999995, 10.164426200000037]]], [[[-14.147027099999946, 10.155771800000025], [-14.151651299999969, 10.205625200000043], [-14.147027099999946, 10.155771800000025]]], [[[-14.253494699999976, 10.186507400000039], [-14.253494699999976, 10.186507400000039]]], [[[-14.256938699999978, 10.186085], [-14.256938699999978, 10.186085]]], [[[-14.308099199999958, 10.194274], [-14.261359, 10.160941300000047], [-14.285461299999952, 10.205134200000032], [-14.308099199999958, 10.194274]]], [[[-14.285756399999968, 10.21267860000006], [-14.242578199999969, 10.181116600000053], [-14.279678499999932, 10.220217500000047], [-14.285756399999968, 10.21267860000006]]], [[[-14.21703969999993, 10.195207800000048], [-14.21703969999993, 10.195207800000048]]], [[[-15.365088, 10.614792300000033], [-15.365088, 10.614792300000033]]], [[[-14.605223499999965, 10.59368], [-14.616773099999932, 10.646305200000029], [-14.611811, 10.593769700000053], [-14.605223499999965, 10.59368]]], [[[-14.787517199999968, 10.744626700000026], [-14.787517199999968, 10.744626700000026]]], [[[-14.61614549999996, 10.720690300000058], [-14.653728599999965, 10.682337700000062], [-14.704281099999946, 10.678339600000072], [-14.65376619999995, 10.672105600000066], [-14.61614549999996, 10.720690300000058]]], [[[-14.71702339999996, 10.699437800000055], [-14.656625399999939, 10.68674980000003], [-14.64693189999997, 10.742710900000077], [-14.645148199999937, 10.794327400000043], [-14.688506099999927, 10.764445200000068], [-14.711531699999966, 10.711910500000045], [-14.71702339999996, 10.699437800000055]]], [[[-14.572312799999963, 10.76072460000006], [-14.572312799999963, 10.76072460000006]]], [[[-14.606784599999969, 10.735659], [-14.620850099999927, 10.785914500000047], [-14.606784599999969, 10.735659]]], [[[-14.574431799999957, 10.76083], [-14.574431799999957, 10.76083]]], [[[-14.588473, 10.769655500000056], [-14.588473, 10.769655500000056]]], [[[-14.562099, 10.807366500000057], [-14.58945749999998, 10.86745650000006], [-14.635763199999928, 10.846372400000064], [-14.60240959999993, 10.808384600000068], [-14.562099, 10.807366500000057]]], [[[-14.714468, 10.853561900000045], [-14.714468, 10.853561900000045]]], [[[-14.576883299999963, 10.850429200000065], [-14.576883299999963, 10.850429200000065]]], [[[-15.073491399999966, 10.884167200000036], [-15.046774199999959, 10.81855820000004], [-15.01073329999997, 10.778073200000051], [-14.954761, 10.770450400000072], [-14.944281599999954, 10.823737700000038], [-14.937833599999976, 10.87563270000004], [-14.903833899999938, 10.918332600000042], [-14.934936799999946, 10.960099400000047], [-14.985126299999934, 10.960757700000045], [-15.025386199999957, 10.921298], [-15.066635899999937, 10.888552300000072], [-15.073491399999966, 10.884167200000036]]], [[[-14.88880279999995, 10.818373800000074], [-14.883127199999933, 10.869026400000052], [-14.890358499999934, 10.91871180000004], [-14.92834929999998, 10.871091500000034], [-14.916070099999956, 10.817156600000033], [-14.88880279999995, 10.818373800000074]]], [[[-14.870477899999969, 10.855170800000053], [-14.870477899999969, 10.855170800000053]]], [[[-14.867999599999962, 10.896925400000043], [-14.867999599999962, 10.896925400000043]]], [[[-14.81332539999994, 10.936051300000031], [-14.81332539999994, 10.936051300000031]]], [[[-14.912813899999946, 10.950629900000024], [-14.912813899999946, 10.950629900000024]]], [[[-14.749140099999977, 10.968436300000064], [-14.718831199999954, 11.009995900000035], [-14.778419199999973, 11.007353600000044], [-14.749140099999977, 10.968436300000064]]], [[[-14.801532599999973, 11.003605900000025], [-14.801532599999973, 11.003605900000025]]], [[[-14.712110099999961, 11.01235950000006], [-14.712110099999961, 11.01235950000006]]], [[[-14.715583799999933, 11.018260600000076], [-14.715583799999933, 11.018260600000076]]], [[[-14.859475499999974, 11.100283200000035], [-14.859475499999974, 11.100283200000035]]], [[[-14.85555409999995, 11.099527800000033], [-14.85555409999995, 11.099527800000033]]], [[[-14.715086799999938, 11.021190500000046], [-14.715086799999938, 11.021190500000046]]], [[[-14.807380699999953, 11.006133900000066], [-14.807380699999953, 11.006133900000066]]], [[[-14.793720099999973, 11.015888300000029], [-14.793720099999973, 11.015888300000029]]]]}}]}