{"type": "FeatureCollection", "features": [{"type": "Feature", "properties": {"code": "GLP", "name": "Guadeloupe", "tier": "country"}, "geometry": {"type": "MultiPolygon", "coordinates": [[[[-61.60981965286993, 15.837158045320336], [-61.60981965286993, 15.837158045320336]]], [[[-61.59095781876715, 15.842165143764987], [-61.59095781876715, 15.842165143764987]]], [[[-61.63453766435646, 15.867755547400407], [-61.650516928644834, 15.847865716988395], [-61.6283171385698, 15.842354456677526], [-61.62353863239639, 15.865645734822806], [-61.63453766435646, 15.867755547400407]]], [[[-61.59169603385408, 15.877539200112949], [-61.59169603385408, 15.877539200112949]]], [[[-61.56899734547852, 15.879127481057765], [-61.58440742093279, 15.86442818435438], [-61.60456902678624, 15.859388583391478], [-61.579534477618324, 15.85806027872843], [-61.56930741336021, 15.87550101589153], [-61.56899734547852, 15.879127481057765]]], [[[-61.3179182443327, 15.88191225820816], [-61.28271367479965, 15.869858034849472], [-61.2504535877726, 15.872151019512955], [-61.2218815057671, 15.888481670673514], [-61.203152686355395, 15.902612633872423], [-61.19709484861124, 15.926199198052416], [-61.205530984646145, 15.950747503408877], [-61.224583294032016, 15.964467425991074], [-61.23209896401795, 15.984349317191516], [-61.252251402494494, 15.992315197495486], [-61.27577546183221, 16.004958413854183], [-61.296788975791515, 15.99675207632464], [-61.3063227845862, 15.978652735505477], [-61.31987532577938, 15.952441231119508], [-61.337004108949884, 15.941709083870933], [-61.333242019241254, 15.919006403958008], [-61.32966976880169, 15.897035886031631], [-61.3179182443327, 15.88191225820816]], [[-61.29676059639968, 15.981202362859165], [-61.29676059639968, 15.981202362859165]]], [[[-61.78930092636625, 16.169156770870643], [-61.78930092636625, 16.169156770870643]]], [[[-61.10922966417888, 16.17198817444057], [-61.13078686060993, 16.172172772075385], [-61.10807672397914, 16.16906625947246], [-61.10922966417888, 16.17198817444057]]], [[[-61.10381630618946, 16.18064527057635], [-61.10381630618946, 16.18064527057635]]], [[[-61.540574902259095, 16.21541789875039], [-61.540574902259095, 16.21541789875039]]], [[[-61.55418501370201, 16.224169190780287], [-61.55418501370201, 16.224169190780287]]], [[[-61.55175721596254, 16.28220077003391], [-61.55175721596254, 16.28220077003391]]], [[[-61.68748512165439, 16.33619025981602], [-61.68748512165439, 16.33619025981602]]], [[[-61.68518122605769, 16.337851243761804], [-61.68518122605769, 16.337851243761804]]], [[[-61.68723218539179, 16.33873139966994], [-61.68723218539179, 16.33873139966994]]], [[[-61.67419005654892, 16.343556444536716], [-61.67419005654892, 16.343556444536716]]], [[[-61.684125288987275, 16.34725536049126], [-61.684125288987275, 16.34725536049126]]], [[[-61.090195338642275, 16.31004928721029], [-61.09603193117539, 16.290519155718016], [-61.0769901050578, 16.29926950469246], [-61.04843026084262, 16.3079521729847], [-61.02556708603947, 16.324353048884234], [-61.00185103814363, 16.33437952742679], [-61.01673526145464, 16.34849195848801], [-61.03458962715422, 16.338346216319678], [-61.055883469848936, 16.326708055896574], [-61.074834148554146, 16.318673113224463], [-61.090195338642275, 16.31004928721029]]], [[[-61.525624314157255, 16.350324370188616], [-61.525624314157255, 16.350324370188616]]], [[[-61.58125601450098, 16.350791226533147], [-61.58125601450098, 16.350791226533147]]], [[[-61.65828987733505, 16.289837194989218], [-61.63450669704491, 16.29644919847351], [-61.607706528632036, 16.29944664560918], [-61.627898399988226, 16.304446813692266], [-61.6512153818793, 16.321350250456703], [-61.67253190176967, 16.32466458617796], [-61.693542389178845, 16.334879171399166], [-61.71417404241339, 16.337530210118246], [-61.72746014849139, 16.354156564012612], [-61.74997976597621, 16.354181960717085], [-61.77148952452171, 16.349443808547278], [-61.78872093899844, 16.333311352566056], [-61.80021794265235, 16.316273365903783], [-61.801805332628874, 16.295646592433002], [-61.80410129038461, 16.27536429740468], [-61.80251996036213, 16.25139303236773], [-61.78747776428611, 16.228967237941276], [-61.78250468985891, 16.20765530173935], [-61.783915917612944, 16.176570590860763], [-61.77489119157002, 16.148622044004924], [-61.770132083829424, 16.127969303610087], [-61.77260219844396, 16.10565573279041], [-61.76737032381311, 16.08351555259668], [-61.7697938065254, 16.059986624460862], [-61.75457338940504, 16.040185923760987], [-61.746518686430136, 16.011241839250886], [-61.73341753437421, 15.995945478746762], [-61.7166715166037, 15.982030365603919], [-61.70953541549795, 15.954823520947286], [-61.68026598779994, 15.950686709225295], [-61.6623952063548, 15.96451063109265], [-61.6367241605069, 15.968013797232743], [-61.61459579043867, 15.982127697705948], [-61.602214348746486, 16.000534386897982], [-61.58448060642735, 16.012496673309556], [-61.569656321970285, 16.028351147228022], [-61.55626850845135, 16.051614967105763], [-61.56078109490022, 16.07348131029471], [-61.55891676186695, 16.093872188296814], [-61.57079397589797, 16.116192864930213], [-61.5635870140394, 16.13517095804002], [-61.57588689239503, 16.153694980883643], [-61.585436513818365, 16.1714392503344], [-61.59034018319727, 16.19205872060786], [-61.58575480602144, 16.214368563068547], [-61.582292410583705, 16.235848450878848], [-61.56230581828936, 16.231321806323308], [-61.54189085947428, 16.231342268434958], [-61.553320034408216, 16.250304285737798], [-61.548562955333466, 16.270850197680772], [-61.56331390077503, 16.286334993836306], [-61.583421094518485, 16.274347047541994], [-61.607085910375076, 16.26854712451643], [-61.62671302306484, 16.280278406189097], [-61.61053731811921, 16.293763727262217], [-61.63052301122127, 16.29897663112513], [-61.65579769960766, 16.29778557393729], [-61.65828987733505, 16.289837194989218]], [[-61.66349144260005, 16.290255955502403], [-61.66349144260005, 16.290255955502403]], [[-61.66848731210462, 16.3178039669412], [-61.66848731210462, 16.3178039669412]], [[-61.67107752374278, 16.239127191737055], [-61.67107752374278, 16.239127191737055]], [[-61.59024502231597, 16.212578797215883], [-61.59024502231597, 16.212578797215883]], [[-61.60776462523825, 16.041133672625108], [-61.60776462523825, 16.041133672625108]], [[-61.62814887992022, 16.026318972244155], [-61.62814887992022, 16.026318972244155]], [[-61.5548039651631, 16.2759133092369], [-61.5548039651631, 16.2759133092369]]], [[[-61.780596392345046, 16.369471939147616], [-61.780596392345046, 16.369471939147616]]], [[[-61.4665894115584, 16.506780318161645], [-61.48467524255915, 16.494114070961757], [-61.503696058277, 16.483904000893062], [-61.521771844639716, 16.466073085475102], [-61.537269668120075, 16.44354822087331], [-61.534364772014555, 16.4204526212651], [-61.52843589162978, 16.400575138300724], [-61.51157728289951, 16.38920614346773], [-61.49439974595225, 16.378441493701303], [-61.4994699413906, 16.355486678026352], [-61.519644596500655, 16.34324293340569], [-61.533291026546806, 16.326750910093892], [-61.53719299551341, 16.306436551178024], [-61.55178274425606, 16.286011459998917], [-61.547480985544325, 16.265382778485673], [-61.5419178133169, 16.244543115714634], [-61.53011575861734, 16.227078495122214], [-61.510454454681906, 16.216101921042366], [-61.48604254147119, 16.204993977135814], [-61.46410634637925, 16.19678239797196], [-61.44387348500538, 16.20283870050946], [-61.424009270612885, 16.209437983710075], [-61.39878674635554, 16.219569755497844], [-61.372447600501744, 16.227923889565375], [-61.3480086457223, 16.23677793078383], [-61.324371200407256, 16.2412962852232], [-61.30381403759276, 16.242073911258217], [-61.28404794483731, 16.24872400979922], [-61.25553516567169, 16.256349293540552], [-61.22920422220761, 16.252977891994874], [-61.20486698583528, 16.249815541732687], [-61.18256538962714, 16.245468933055065], [-61.20064051804434, 16.2541505267028], [-61.22034840453597, 16.263740787239442], [-61.24303875893236, 16.273424190957257], [-61.256249606986955, 16.295024965325922], [-61.27222492360096, 16.311826003806345], [-61.29560348921069, 16.323201753548744], [-61.31980470627332, 16.329812221826387], [-61.340382309267966, 16.332993959555495], [-61.365180721720435, 16.33749191767788], [-61.38587030707498, 16.35097885071815], [-61.40077711985532, 16.372756305441783], [-61.40568364033254, 16.394940074538624], [-61.40280977733278, 16.415890392812457], [-61.40169429617555, 16.442315258026497], [-61.4109654969057, 16.460516086971438], [-61.42692094355937, 16.47889946295362], [-61.44366522325646, 16.499592771184325], [-61.463969932302064, 16.502109079070635], [-61.4665894115584, 16.506780318161645]], [[-61.48257942229327, 16.421530204749388], [-61.48257942229327, 16.421530204749388]], [[-61.49740162325554, 16.34831751514878], [-61.49740162325554, 16.34831751514878]], [[-61.500147493882935, 16.3462996504839], [-61.500147493882935, 16.3462996504839]], [[-61.34140892389132, 16.325551825968432], [-61.34140892389132, 16.325551825968432]], [[-61.320882684525145, 16.304839058993252], [-61.320882684525145, 16.304839058993252]], [[-61.55358626117419, 16.287012480534145], [-61.55358626117419, 16.287012480534145]], [[-61.44888264501333, 16.206553440058315], [-61.44888264501333, 16.206553440058315]]]]}}]}