{"type": "FeatureCollection", "features": [{"type": "Feature", "properties": {"code": "GMB", "name": "Republic of the Gambia", "tier": "country"}, "geometry": {"type": "MultiPolygon", "coordinates": [[[[-16.611196974960365, 13.469101997059568], [-16.61270591504592, 13.448289405132016], [-16.59108266793072, 13.448805807542044], [-16.570283290641328, 13.451739095682797], [-16.60155148251488, 13.464885227071647], [-16.611196974960365, 13.469101997059568]]], [[[-13.891845382058705, 13.553131335942453], [-13.943392526144123, 13.57012915393733], [-13.985431542032018, 13.579492162133647], [-14.01133539751055, 13.56186209645864], [-14.0322122585888, 13.555511780244501], [-14.068662173220673, 13.55344500508295], [-14.108883704219522, 13.547343236301344], [-14.13882747980432, 13.525946004104867], [-14.185321836933156, 13.523804354987021], [-14.213363134501037, 13.50698601469287], [-14.2309909554682, 13.485997482098185], [-14.23946567000462, 13.46728620649327], [-14.265473696653714, 13.463123262728459], [-14.288583932302572, 13.461917620801614], [-14.320452492688332, 13.4531717255947], [-14.346141972274154, 13.459034954599531], [-14.366692735581239, 13.469900489815814], [-14.395388434728432, 13.487639442706154], [-14.424036405955349, 13.49696502381687], [-14.44102307415551, 13.52159781438769], [-14.460695717833062, 13.509767781457981], [-14.47877606596262, 13.498639558768673], [-14.474132245706528, 13.475519489033218], [-14.499424309484255, 13.467372943406644], [-14.504456206988323, 13.443424288699987], [-14.502481950481581, 13.42038050035984], [-14.486410196773136, 13.406990807379884], [-14.47995526872063, 13.38718873327349], [-14.456663247710651, 13.408342012673813], [-14.427522084676411, 13.397676509163603], [-14.416458918943931, 13.375176899694225], [-14.389258199706092, 13.373063156539502], [-14.377833573960231, 13.349783717044943], [-14.36035019580487, 13.328750169784541], [-14.317772703647336, 13.327932552045695], [-14.298766268748238, 13.336997528513166], [-14.289468953329504, 13.357325332797927], [-14.268259263953837, 13.36526952826614], [-14.248780164273114, 13.351612282480914], [-14.230429381011106, 13.337957061069574], [-14.215294772135962, 13.316959141351333], [-14.209120730237487, 13.340005034105104], [-14.189188480164205, 13.35133670232699], [-14.188907426736307, 13.379270949994407], [-14.166246850311836, 13.391235019680437], [-14.160892543156308, 13.419519743041747], [-14.139688304571564, 13.416507801094212], [-14.149160530933727, 13.392280752254976], [-14.12496404105758, 13.386868467605723], [-14.108110382588052, 13.375782745977006], [-14.11290120512649, 13.40024237298718], [-14.10134417849099, 13.428687315966897], [-14.086902750861213, 13.449494256554772], [-14.063505540648123, 13.454829701329686], [-14.049322448672001, 13.432723314129703], [-14.05074784263877, 13.40442703178212], [-14.029588159166167, 13.39111468769272], [-14.000315127640988, 13.41130767730749], [-14.003736364541567, 13.446605922825142], [-13.978713138700357, 13.466456342686115], [-13.951692049148676, 13.47644117541995], [-13.933933297683495, 13.458356935024597], [-13.926528480504942, 13.434619071512998], [-13.909923315508536, 13.41157655031759], [-13.889854935956464, 13.407629904296698], [-13.883196543485667, 13.426712432632712], [-13.87060880655116, 13.448800302791767], [-13.879723864464722, 13.467034030296304], [-13.891897451006514, 13.494193761133204], [-13.870436522527427, 13.50549157167876], [-13.880144981006026, 13.537786180487899], [-13.891845382058705, 13.553131335942453]]], [[[-16.133279773942377, 13.602416480036595], [-16.152995245134434, 13.593092345035757], [-16.5456534552427, 13.593378239514209], [-16.5363011786564, 13.570637757426596], [-16.52713638463638, 13.531171912353898], [-16.533130129551807, 13.508980017613794], [-16.543232216793342, 13.489835967555905], [-16.52838424793464, 13.474775447528941], [-16.501001897119806, 13.463505410746166], [-16.486106142784195, 13.44815633964339], [-16.477360700835618, 13.423715750381632], [-16.48014302158316, 13.397791315716688], [-16.496451805106688, 13.378822569605973], [-16.50752513317832, 13.362005994680942], [-16.48333193212295, 13.359692103807618], [-16.45501716061341, 13.354719378996208], [-16.417240772943273, 13.330811507645024], [-16.390557144996194, 13.33118252025713], [-16.354795319648247, 13.339751938800987], [-16.335448155907613, 13.347225438103521], [-16.315553983129746, 13.338171694168409], [-16.28303930661866, 13.357770917194102], [-16.264145431766224, 13.365460340122638], [-16.245277784741916, 13.37850910281287], [-16.21142951525985, 13.407488020056121], [-16.185443921299907, 13.431400287293457], [-16.145936293724958, 13.454009628441668], [-16.130489333216133, 13.4693582193064], [-16.137894156689924, 13.490768513256342], [-16.1204169649709, 13.502105152031163], [-16.094332909636023, 13.508653537630721], [-16.10463885609829, 13.525852772287635], [-16.102940153665088, 13.553558562477747], [-16.085298055960493, 13.57016550363511], [-16.092144111761286, 13.589256405558729], [-16.123583995904653, 13.593226694756197], [-16.133279773942377, 13.602416480036595]]], [[[-15.046382660031668, 13.720406657441345], [-15.070690987798798, 13.72084648707579], [-15.114738280647089, 13.697436541563206], [-15.146779973117248, 13.678779131751583], [-15.194606481603785, 13.652382169001953], [-15.214022236636879, 13.639917639187729], [-15.24061492603795, 13.640830800001481], [-15.267968627150367, 13.655358659674448], [-15.29594590917634, 13.680056890313267], [-15.317528794718044, 13.689981556603584], [-15.343940926332664, 13.676727299725144], [-15.367550595983175, 13.62114397581388], [-15.366738027937572, 13.586538048192438], [-15.368207976117162, 13.555122039250762], [-15.359974310465986, 13.531517885142307], [-15.344470144981187, 13.517429384758373], [-15.317294947603727, 13.514420410573564], [-15.2995775721472, 13.492544136502772], [-15.301836375947971, 13.469315582448246], [-15.315290571003004, 13.447673512522613], [-15.341189197823155, 13.43679032181592], [-15.387034631143251, 13.443834789643859], [-15.42422064626578, 13.465693425311372], [-15.442989243758575, 13.489265546467834], [-15.463827587772926, 13.49648515636494], [-15.488229234591472, 13.487129071149752], [-15.5173159868433, 13.497773355156255], [-15.535326634816272, 13.51224991749973], [-15.55526015383299, 13.514992114994186], [-15.579049499934456, 13.501083750614669], [-15.583772885010603, 13.471897657450995], [-15.601071004623122, 13.45045776321524], [-15.629411941907563, 13.452581849472836], [-15.64608322596007, 13.469252850238888], [-15.667405749675538, 13.487669583484546], [-15.691903094252325, 13.462826819202405], [-15.712555569983522, 13.456391792247473], [-15.733059531671984, 13.45076187795837], [-15.757307401615265, 13.4452657063473], [-15.78859707199723, 13.440844826227817], [-15.809712929707871, 13.440044799228133], [-15.836537457137865, 13.444281881303823], [-15.862917357949641, 13.449617084161162], [-15.879035422246886, 13.433655134976561], [-15.90373659276952, 13.4307823424312], [-15.92514224891562, 13.427919280550384], [-15.946773854329876, 13.425548349276937], [-16.026692024317413, 13.42166225640807], [-16.04649388528452, 13.412235453003802], [-16.0732439803254, 13.40827500508749], [-16.126095031660327, 13.422428949136759], [-16.146181350888583, 13.434432101560276], [-16.17166345580381, 13.400599434416392], [-16.1882628021865, 13.38861156237374], [-16.208012277644457, 13.370652569660422], [-16.21595929158798, 13.350641974247765], [-16.221261218630275, 13.325788244531907], [-16.252521317504772, 13.31723588702664], [-16.27720040517454, 13.305873662539568], [-16.300437763591844, 13.295598893773956], [-16.33306632485096, 13.293265400377948], [-16.352797812968674, 13.279924158373262], [-16.374330082867004, 13.269818668097116], [-16.41488683346057, 13.272510430711861], [-16.440041622023216, 13.27203647270511], [-16.459126665762994, 13.27991974360134], [-16.482199874524554, 13.286529540306105], [-16.506861752767634, 13.28871562042957], [-16.528714397151646, 13.290166942750261], [-16.550852221952425, 13.296359608708997], [-16.567461640742067, 13.312349679694023], [-16.579109004277086, 13.333619132616946], [-16.571469718552635, 13.357659861713273], [-16.58413301922343, 13.378511764806149], [-16.614082550469277, 13.380050040776837], [-16.62215720968743, 13.401506977165297], [-16.6425774921575, 13.410316212523242], [-16.65623280350104, 13.42557041863995], [-16.661091712812265, 13.44660971706486], [-16.640625722299205, 13.453592414058733], [-16.62964632122072, 13.470372189624925], [-16.659144944983154, 13.474410851579592], [-16.680666255743063, 13.482039438968968], [-16.700379220524553, 13.467433967803402], [-16.723153511725116, 13.449020243689347], [-16.737751328760794, 13.418382673521592], [-16.754092784654233, 13.398876604072086], [-16.785127770630083, 13.38106819654007], [-16.796263580000186, 13.362155010545337], [-16.80869339688269, 13.346182168772145], [-16.803702227875476, 13.318901971948492], [-16.806548889719465, 13.287335766332603], [-16.796277264983758, 13.270061369936343], [-16.786253934971057, 13.249898881728086], [-16.782982375835957, 13.218932757740617], [-16.783549990139875, 13.186464056371165], [-16.787955922627702, 13.161806060501362], [-16.77338553671308, 13.141280371192238], [-16.76651502834585, 13.111649906817775], [-16.77108287027818, 13.09072933509077], [-16.758824460580342, 13.074580495993132], [-16.74467253101244, 13.058033374140962], [-16.73221387467055, 13.074044862480491], [-16.72564014527643, 13.096839601566387], [-16.72535642985531, 13.122133721194302], [-16.708500327927766, 13.134092990299337], [-16.70885558711558, 13.155201754157702], [-16.68932100106332, 13.16131594437536], [-16.663135471624685, 13.167937875632504], [-16.63706840987919, 13.167637703517244], [-16.275789570332336, 13.16551340861696], [-15.930595718017912, 13.165873083476072], [-15.801210311007026, 13.16582938811581], [-15.803387180274115, 13.342723679254448], [-15.770472783891819, 13.346340871234247], [-15.737695999071036, 13.350250149524811], [-15.71615118093223, 13.355443192949053], [-15.687225030510717, 13.364875882416072], [-15.660141979468733, 13.351343707146441], [-15.62509082717986, 13.345421620211653], [-15.59201108234555, 13.349166289292839], [-15.562094791841105, 13.361696324825573], [-15.536735108938103, 13.379533617682341], [-15.516647871502016, 13.395733691156977], [-15.482487974340472, 13.390455584457698], [-15.41429875977991, 13.35787610729659], [-15.387931590670348, 13.349267632994895], [-15.366513996923345, 13.345194307571262], [-15.316213341072796, 13.351419879723721], [-15.280891364245008, 13.364363660054892], [-15.24781993903889, 13.385290923637285], [-15.229718867831423, 13.405540970739253], [-15.218354921142634, 13.425857294278785], [-15.210885154925904, 13.447855944496268], [-15.209424264717995, 13.46946881523371], [-15.208419626664408, 13.508864898096647], [-15.169430255901545, 13.543638985450855], [-15.142455210739342, 13.559214545414989], [-15.116961512663636, 13.584849425360744], [-15.076572150184518, 13.584568036485734], [-15.073982233093545, 13.556644906237466], [-15.037538061532246, 13.512019185636973], [-15.013401857709539, 13.493009496091418], [-14.96255745915937, 13.477931008509302], [-14.938885513255798, 13.460399507631223], [-14.90489555648469, 13.449174728331116], [-14.85420778116412, 13.452715251307836], [-14.816129091784092, 13.437094410478721], [-14.7687864743163, 13.43512448600626], [-14.755610551985342, 13.409638795494061], [-14.73483999616883, 13.386484243952737], [-14.700903424053706, 13.355811321435397], [-14.663478834980197, 13.342818620682863], [-14.632235592098823, 13.3437641561909], [-14.599302976351225, 13.354111407615392], [-14.581084137123185, 13.363365092425113], [-14.546485305152657, 13.321350083039931], [-14.526915551111756, 13.362240777090221], [-14.527815693339505, 13.384287989798963], [-14.52654007786225, 13.36261655610923], [-14.546138569739128, 13.321666033760494], [-14.50030393457888, 13.295756776054418], [-14.462775549352102, 13.294209931343289], [-14.422420239702262, 13.258373711377715], [-14.396755169515416, 13.242140519469444], [-14.333089849716771, 13.2328756102213], [-14.31113927815511, 13.232978067284023], [-14.28147833845452, 13.239719663231938], [-14.258035189072643, 13.237079586453774], [-14.239871153630816, 13.226182694575755], [-14.207071695102627, 13.216893714973025], [-14.184835030312342, 13.219121132434339], [-14.157784601278308, 13.230060546956736], [-14.13684379120798, 13.231979707397613], [-14.132511791985564, 13.254108169356584], [-14.119206898779282, 13.282839400717819], [-14.094314644804967, 13.282460059484208], [-14.068813790823754, 13.290406862087082], [-14.031601508302913, 13.293476445181852], [-13.977823498755413, 13.306113213154333], [-13.94440670330664, 13.318719435653463], [-13.910246871795664, 13.318909066700144], [-13.888317938821785, 13.319812672217097], [-13.851801605659546, 13.325190537113656], [-13.828406083473908, 13.340231877299345], [-13.79711276004582, 13.384281636088701], [-13.79111750426938, 13.430903737417623], [-13.813329014122644, 13.444353660692911], [-13.827002230968162, 13.458955526476416], [-13.8136131423326, 13.47668512911548], [-13.83127690920196, 13.491739668650837], [-13.85490703213378, 13.511594065313886], [-13.88689635078589, 13.499153077952258], [-13.887109191535899, 13.477130016537103], [-13.86969381921432, 13.455787769789765], [-13.881302322144393, 13.438480817935442], [-13.88418806312859, 13.413648708820915], [-13.906845765319758, 13.408961252559834], [-13.928023975725864, 13.435391857148545], [-13.933866651624612, 13.4552026735646], [-13.946031894256464, 13.473229919425307], [-13.97725238069279, 13.465307140412222], [-14.001675632824174, 13.450549930235127], [-13.995626792742257, 13.417631777384656], [-14.03362935091377, 13.387578118135707], [-14.051144310561426, 13.401611561124696], [-14.050949557875754, 13.432088412550229], [-14.064624336843622, 13.453604739267348], [-14.08820542154291, 13.446281365592597], [-14.101373991916148, 13.427392124047344], [-14.111622537350172, 13.40149344056988], [-14.1043065632972, 13.381766393304474], [-14.126275865039077, 13.386077578617403], [-14.148152186773927, 13.382917689200042], [-14.140608391064347, 13.413987966371621], [-14.15935800476808, 13.42096134099313], [-14.160865708285769, 13.397662795401743], [-14.181773003321382, 13.38817466812651], [-14.186452219094576, 13.358710876006171], [-14.205267978834115, 13.344655954508767], [-14.206613532788253, 13.323414621587574], [-14.225455416933926, 13.335308613401821], [-14.246459014971492, 13.340701687632816], [-14.265537839000046, 13.362260751932183], [-14.286736294944035, 13.366364687580301], [-14.29780819669088, 13.33487596305531], [-14.317069095662191, 13.326566140115347], [-14.350857794951253, 13.324081740479983], [-14.373905701287015, 13.336462520029329], [-14.382093781202968, 13.364051254461856], [-14.40497973402745, 13.369987407692747], [-14.424947013593737, 13.380234023181686], [-14.434655346167233, 13.403046123679701], [-14.465456084830407, 13.39796701446619], [-14.488714499074831, 13.407940007625314], [-14.504459109100537, 13.420653165811018], [-14.506700861755291, 13.443619607059247], [-14.513326635815531, 13.468882280093226], [-14.537604242741565, 13.4710817772023], [-14.555337698076244, 13.483441659205255], [-14.576124293301461, 13.48689377612692], [-14.568448160554112, 13.535523775801664], [-14.571902989831074, 13.556026593552474], [-14.595723475857653, 13.564829446421868], [-14.61745059916575, 13.554615196634074], [-14.627345881906876, 13.537177989672557], [-14.617709701941124, 13.487331873667074], [-14.619415870545936, 13.464163825999833], [-14.62718629631047, 13.444346698141658], [-14.651642816162962, 13.433727229128351], [-14.678438115626477, 13.48092138201622], [-14.704355953764207, 13.509471120296041], [-14.714342227211944, 13.536218185520909], [-14.735143225079753, 13.533121929433548], [-14.766403377014171, 13.545184058497568], [-14.792060203115852, 13.544761119030454], [-14.809203600665569, 13.559182299323709], [-14.833036830984895, 13.563358237392777], [-14.85338570728453, 13.556390044664852], [-14.879495897817378, 13.562419523242454], [-14.90666677934837, 13.577284294134927], [-14.926765386013699, 13.575877449584652], [-14.956924783951592, 13.573213418464547], [-14.97438399822289, 13.587029244404164], [-14.983755547280623, 13.613386715224749], [-14.956153774477059, 13.637601517995734], [-14.929270329761891, 13.643982135966837], [-14.906331610115672, 13.657342283519597], [-14.891890794924223, 13.682957860416991], [-14.90859342035003, 13.700045531476121], [-14.947634016496636, 13.704884096324008], [-14.989107453246334, 13.698651140737581], [-15.025567748752565, 13.711052309716365], [-15.046382660031668, 13.720406657441345]], [[-14.498050095935128, 13.387273072594269], [-14.504602472725878, 13.412016600285938], [-14.497674539948036, 13.387648803949219], [-14.498050095935128, 13.387273072594269]]], [[[-15.063059349009677, 13.821336491485965], [-15.08910200765149, 13.814005389037504], [-15.13323023408799, 13.797093578605825], [-15.20053881181667, 13.762334428990755], [-15.217491265309604, 13.749664088426982], [-15.237889699649884, 13.749955196275323], [-15.264607644826924, 13.777770982544837], [-15.294537348719643, 13.790547819026699], [-15.340148036502626, 13.789094243004968], [-15.375701747937285, 13.778762919473195], [-15.394126276506427, 13.766594910526749], [-15.409269797663, 13.752881343799004], [-15.448930631943085, 13.683851489754488], [-15.462845917505035, 13.64058964319753], [-15.470254308589404, 13.590301508607809], [-15.601207161081561, 13.590582963133272], [-15.660627547723095, 13.591167988312066], [-15.770405241208891, 13.593261686477717], [-16.084396518884205, 13.59286421131435], [-16.083563555113926, 13.570351740640376], [-16.101495412583176, 13.557138906535386], [-16.106117211140315, 13.529598917156363], [-16.0850877486007, 13.523793882381824], [-16.094226122337602, 13.50525871022137], [-16.11958355423758, 13.499607097989212], [-16.12787703020075, 13.476875284466871], [-16.129421426957265, 13.455781948478204], [-16.08334563229505, 13.441152427642464], [-16.040456891971928, 13.444728666294964], [-16.012892971633278, 13.445913309951322], [-15.98736335193712, 13.449088485145523], [-15.966905397765856, 13.446880470557346], [-15.933332039342076, 13.45243993645397], [-15.905563963905763, 13.448466830579832], [-15.873189108590452, 13.462878112035298], [-15.847643190480824, 13.467897980207681], [-15.816924203788915, 13.460422262277632], [-15.79692311780758, 13.455277748069648], [-15.735903422704723, 13.466912660490948], [-15.706260307567106, 13.490512170500324], [-15.680303053942737, 13.50228006657187], [-15.653550863481541, 13.501794253701917], [-15.622190286952161, 13.480059466371301], [-15.598498797881177, 13.488842904676346], [-15.578265191285482, 13.516181911765841], [-15.54450906993759, 13.523683860222036], [-15.522096396131758, 13.513149072271915], [-15.508023796660837, 13.497953971398715], [-15.470842330309267, 13.500254438091872], [-15.444089886239226, 13.49974625368668], [-15.424312613636175, 13.473880765085312], [-15.391645915726372, 13.45109736375241], [-15.359762698189911, 13.440840665964004], [-15.320129954233948, 13.449063370678061], [-15.304256726766482, 13.497077085639035], [-15.3393760089956, 13.511049552794702], [-15.361788822196331, 13.526799461625899], [-15.376826219754207, 13.556761574387224], [-15.377247690628394, 13.58331044072429], [-15.374088525165234, 13.626202750456628], [-15.367726125660113, 13.646069311349663], [-15.35682708080509, 13.669382583339598], [-15.337095699706708, 13.687386629389493], [-15.31745162119529, 13.694024670202396], [-15.294195868944144, 13.686304856484014], [-15.276475540114063, 13.667367116299431], [-15.244335201907973, 13.646118058201864], [-15.21285121501154, 13.643667482967999], [-15.163122983039216, 13.66859451102789], [-15.1342847818172, 13.693546064499344], [-15.103354658590604, 13.709674876594306], [-15.078838086508426, 13.720313466093614], [-15.05478567881596, 13.725972533705487], [-15.031703449854263, 13.715518090287674], [-15.003018631604505, 13.70296816444926], [-14.957432808277417, 13.71516308111137], [-14.93401161584336, 13.712613629015834], [-14.908207487085804, 13.704760439542724], [-14.88862531520607, 13.68885045498456], [-14.892249878029418, 13.665811873719065], [-14.919505465804548, 13.642145891219968], [-14.942921061757545, 13.638335887291419], [-14.963157208038695, 13.62830375471458], [-14.975226933676026, 13.611555074107457], [-14.967571420584534, 13.583142453661367], [-14.933759371297924, 13.580308723169082], [-14.91027855381219, 13.580230706082261], [-14.889332202119363, 13.567783318245574], [-14.862898042510608, 13.55476581509032], [-14.842807464992461, 13.566344840042404], [-14.810661402601625, 13.563000768570646], [-14.794348671054252, 13.546449727472975], [-14.764802826589118, 13.546918408257966], [-14.741409762250669, 13.535728553230172], [-14.712947836473404, 13.53696967700904], [-14.70265148757602, 13.510171620224128], [-14.677047443584627, 13.483071202374163], [-14.657891399268635, 13.445022360593498], [-14.631465045775201, 13.444136956455452], [-14.620812803667889, 13.468221446562552], [-14.625440937948895, 13.510421501351232], [-14.628279347613727, 13.543077600750735], [-14.614092822925386, 13.560583461057945], [-14.58720962102717, 13.566053090977391], [-14.569890486956353, 13.555422696100607], [-14.566322318819914, 13.531245858209843], [-14.579590198628694, 13.503069282821173], [-14.554272945739797, 13.485144872637818], [-14.537974792202874, 13.473100729115401], [-14.514002879229452, 13.471500668820852], [-14.489890532621928, 13.468201866522975], [-14.4825364390054, 13.496385779480192], [-14.461560824272567, 13.510476377982513], [-14.446858023079244, 13.528324747788929], [-14.467340184302032, 13.54236254079865], [-14.476891846881188, 13.567754520155006], [-14.489477985720441, 13.594068341480806], [-14.503581723317836, 13.621591645737908], [-14.526302252147161, 13.642201975640717], [-14.554753035324268, 13.653845105167534], [-14.589945534059098, 13.655389897625696], [-14.623556531808447, 13.651980116289394], [-14.66086054158069, 13.642846189699924], [-14.717548554921848, 13.616908710368762], [-14.760088028239863, 13.637943915079688], [-14.79641303963001, 13.666741169269585], [-14.800008157750256, 13.688794738386491], [-14.801936849206186, 13.716147517693855], [-14.804514924923808, 13.74555031059839], [-14.842173050845588, 13.770436802616416], [-14.873899208981243, 13.787859107811641], [-14.913233742243392, 13.79658326100872], [-14.94464810272774, 13.793143411739095], [-14.988325443264557, 13.796824456483535], [-15.008754944684881, 13.807202664371516], [-15.063059349009677, 13.821336491485965]]]]}}]}