{"type": "FeatureCollection", "features": [{"type": "Feature", "properties": {"code": "GNB", "name": "Guinea-Bissau", "tier": "country"}, "geometry": {"type": "MultiPolygon", "coordinates": [[[[-15.668306199999972, 11.006581900000032], [-15.67173359999996, 10.983870700000018], [-15.664628100000023, 10.96061149999996], [-15.668306199999972, 11.006581900000032]]], [[[-15.704170399999985, 11.02448739999997], [-15.708711099999984, 11.003434699999957], [-15.704170399999985, 11.02448739999997]]], [[[-15.953729, 11.045037], [-15.972745, 11.036214], [-16.002217, 11.033927], [-16.023599, 11.03102], [-15.969092, 11.035839], [-15.953729, 11.045037]]], [[[-15.632054100000015, 11.057025799999963], [-15.645121599999957, 11.031789099999976], [-15.62249349999998, 11.0337441], [-15.609014700000024, 11.051839600000022], [-15.632054100000015, 11.057025799999963]]], [[[-16.109036, 11.066413], [-16.132464, 11.052668], [-16.114428, 11.043457], [-16.090143, 11.037103], [-16.11049, 11.036771], [-16.132657, 11.034885], [-16.112561, 11.032511], [-16.085921, 11.024103], [-16.050785, 11.046519], [-16.0732, 11.040771], [-16.084482, 11.058513], [-16.107194, 11.062296], [-16.109036, 11.066413]]], [[[-15.92608, 11.129655], [-15.946401, 11.119025], [-15.926815, 11.114576], [-15.913846, 11.097735], [-15.920956, 11.07658], [-15.940509, 11.071881], [-15.958738, 11.061], [-15.942774, 11.045844], [-15.910697, 11.049679], [-15.887987, 11.04601], [-15.881036, 11.077215], [-15.892075, 11.060431], [-15.91723, 11.053139], [-15.90946, 11.071719], [-15.898299, 11.090823], [-15.904492, 11.11065], [-15.916158, 11.127882], [-15.92608, 11.129655]]], [[[-15.99765, 11.148755], [-16.009598, 11.132221], [-16.026756, 11.113608], [-16.029815, 11.09298], [-16.016425, 11.068929], [-15.994953, 11.084592], [-16.01545, 11.088905], [-16.000889, 11.103901], [-15.99641, 11.12943], [-15.982653, 11.112595], [-15.979076, 11.135672], [-15.99765, 11.148755]]], [[[-15.940764, 11.19172], [-15.951533, 11.172357], [-15.973965, 11.168161], [-15.965032, 11.15015], [-15.950465, 11.165015], [-15.936063, 11.150242], [-15.916776, 11.158677], [-15.912798, 11.138458], [-15.912276, 11.166978], [-15.934583, 11.177049], [-15.940764, 11.19172]]], [[[-16.01192, 11.199863], [-16.0155, 11.17859], [-16.028609, 11.195296], [-16.037406, 11.17336], [-16.054848, 11.161187], [-16.034485, 11.159454], [-16.047214, 11.142659], [-16.025104, 11.13775], [-16.017512, 11.156935], [-16.005957, 11.173725], [-16.000938, 11.194359], [-16.01192, 11.199863]]], [[[-16.11661, 11.205546], [-16.104801, 11.188839], [-16.119609, 11.170745], [-16.12109, 11.148577], [-16.136962, 11.136405], [-16.122795, 11.15089], [-16.126134, 11.170721], [-16.148308, 11.168317], [-16.171787, 11.165907], [-16.162577, 11.146743], [-16.181281, 11.125668], [-16.193213, 11.108097], [-16.206064, 11.092327], [-16.22651, 11.08374], [-16.232597, 11.104331], [-16.214382, 11.116259], [-16.194587, 11.125228], [-16.220907, 11.116876], [-16.239367, 11.101211], [-16.226171, 11.064929], [-16.2076, 11.053408], [-16.181993, 11.043201], [-16.162622, 11.026138], [-16.137315, 11.025203], [-16.146, 11.044885], [-16.152599, 11.064704], [-16.140666, 11.082273], [-16.147264, 11.101576], [-16.129713, 11.083731], [-16.119356, 11.104515], [-16.101568, 11.092597], [-16.079376, 11.088941], [-16.058275, 11.098293], [-16.08019, 11.097443], [-16.098231, 11.107428], [-16.081576, 11.119471], [-16.096506, 11.134494], [-16.085086, 11.151286], [-16.071961, 11.130459], [-16.066553, 11.150322], [-16.086414, 11.157466], [-16.082726, 11.18325], [-16.067917, 11.166423], [-16.053877, 11.181292], [-16.072716, 11.19411], [-16.092572, 11.199063], [-16.112675, 11.200407], [-16.11661, 11.205546]]], [[[-16.395739, 11.301171], [-16.393904, 11.281169], [-16.371482, 11.287458], [-16.392674, 11.296893], [-16.395739, 11.301171]]], [[[-15.657932, 11.304719], [-15.675401, 11.292695], [-15.694478, 11.298837], [-15.71768, 11.283318], [-15.73174, 11.267304], [-15.752127, 11.275501], [-15.752072, 11.254367], [-15.769793, 11.241951], [-15.756787, 11.225658], [-15.764998, 11.205494], [-15.783643, 11.197843], [-15.768584, 11.179326], [-15.74744, 11.179122], [-15.724444, 11.168482], [-15.722025, 11.193101], [-15.717906, 11.216307], [-15.739159, 11.207235], [-15.745478, 11.228353], [-15.72588, 11.221185], [-15.719282, 11.244912], [-15.712315, 11.225341], [-15.687263, 11.229524], [-15.689667, 11.252456], [-15.699894, 11.270732], [-15.683668, 11.255048], [-15.670318, 11.240129], [-15.659525, 11.258453], [-15.658793, 11.280877], [-15.655581, 11.30408], [-15.657932, 11.304719]]], [[[-15.833279799999978, 11.302859900000016], [-15.857422, 11.298796], [-15.860753, 11.277525], [-15.879791, 11.269995], [-15.886519, 11.250389], [-15.890371, 11.229502], [-15.89736, 11.210152], [-15.877225, 11.198742], [-15.835993, 11.202469], [-15.847279, 11.223442], [-15.853748, 11.203836], [-15.874644, 11.208157], [-15.868706799999966, 11.2307249], [-15.86262980000004, 11.2499429], [-15.852898800000027, 11.2703309], [-15.831480799999987, 11.267556899999985], [-15.821348800000013, 11.285625900000039], [-15.833279799999978, 11.302859900000016]]], [[[-16.2252919, 11.310697200000018], [-16.2372857, 11.290705699999968], [-16.261276500000022, 11.2888242], [-16.266007100000014, 11.2666243], [-16.279866099999985, 11.250087399999973], [-16.26182630000004, 11.231510900000028], [-16.248257700000025, 11.212926200000027], [-16.226943799999983, 11.21902440000002], [-16.197957299999977, 11.216381500000015], [-16.178695099999963, 11.228091800000016], [-16.16502130000004, 11.243628299999962], [-16.150716200000016, 11.258204600000042], [-16.159123, 11.27683659999996], [-16.1751574, 11.2957256], [-16.196056800000026, 11.291152800000013], [-16.2078398, 11.307479300000043], [-16.2252919, 11.310697200000018]]], [[[-16.451247, 11.315293], [-16.472367, 11.309649], [-16.47656, 11.287211], [-16.455534, 11.285124], [-16.430475, 11.285761], [-16.40999, 11.287535], [-16.43471, 11.297466], [-16.447321, 11.31338], [-16.451247, 11.315293]]], [[[-16.1219184, 11.343101099999984], [-16.11281920000003, 11.321204799999983], [-16.114507099999976, 11.296742], [-16.091342700000034, 11.297273600000011], [-16.0772639, 11.312550399999964], [-16.086185700000023, 11.332583399999983], [-16.106572099999973, 11.3359714], [-16.1219184, 11.343101099999984]]], [[[-16.17314959999996, 11.347954899999955], [-16.162658, 11.329526], [-16.17314959999996, 11.347954899999955]]], [[[-16.0322519, 11.356410699999973], [-16.05124849999997, 11.347868], [-16.029104299999975, 11.3384232], [-16.046174, 11.3198439], [-16.025871899999956, 11.323112199999972], [-16.021448299999964, 11.345483], [-16.0322519, 11.356410699999973]]], [[[-15.776283, 11.373632], [-15.807215, 11.366719], [-15.818267, 11.34955], [-15.824473, 11.327884], [-15.831334, 11.307247], [-15.801948, 11.304236], [-15.809965, 11.323028], [-15.808734, 11.349447], [-15.789687, 11.356329], [-15.775884, 11.371056], [-15.776283, 11.373632]]], [[[-15.844606, 11.38066], [-15.862301599999974, 11.37019379999997], [-15.879003, 11.354143], [-15.890964, 11.336969], [-15.870996, 11.340379], [-15.851051, 11.352035], [-15.84003, 11.378869], [-15.844606, 11.38066]]], [[[-16.00323380000004, 11.3864912], [-16.00323380000004, 11.3864912]]], [[[-16.091461, 11.422627], [-16.109832, 11.411219], [-16.130444, 11.405214], [-16.146588, 11.392781], [-16.140229, 11.369871], [-16.134826, 11.390508], [-16.119204, 11.403195], [-16.110254, 11.38519], [-16.100922, 11.40365], [-16.086611, 11.418264], [-16.091461, 11.422627]]], [[[-16.072118, 11.419091], [-16.089446, 11.408203], [-16.070846, 11.393583], [-16.068461, 11.419362], [-16.072118, 11.419091]]], [[[-16.308985, 11.437198], [-16.311372, 11.416572], [-16.308985, 11.437198]]], [[[-16.16806, 11.501445], [-16.184598, 11.488751], [-16.16806, 11.501445]]], [[[-15.661002200000041, 11.502473099999964], [-15.683978, 11.495555300000014], [-15.689376700000036, 11.475714299999982], [-15.7053203, 11.4634964], [-15.727004, 11.459324], [-15.715984200000022, 11.441793], [-15.6964771, 11.437219700000021], [-15.66844559999996, 11.44390110000004], [-15.650206599999962, 11.458422700000035], [-15.6554959, 11.4785582], [-15.6592295, 11.49900760000002], [-15.661002200000041, 11.502473099999964]]], [[[-15.9269947, 11.51674889999996], [-15.94382670000003, 11.50506830000002], [-15.963024799999982, 11.5149288], [-15.986754, 11.510362], [-16.007787, 11.509903], [-16.027906, 11.509447], [-16.040862300000015, 11.4818891], [-16.058583, 11.467588], [-16.0784984, 11.459216299999973], [-16.068597100000016, 11.441450699999976], [-16.0440212, 11.432327499999982], [-16.011257199999985, 11.4286888], [-15.988323699999963, 11.431005400000014], [-15.97941, 11.45077879999996], [-15.962293699999975, 11.43569860000002], [-15.943775599999977, 11.4454067], [-15.968381, 11.427847899999975], [-15.943407499999985, 11.4278526], [-15.91918069999998, 11.441819799999962], [-15.900601, 11.453171], [-15.90850140000002, 11.4757434], [-15.907947700000037, 11.5003802], [-15.9269947, 11.51674889999996]]], [[[-15.940027, 11.524691], [-15.961317, 11.52256], [-15.942468, 11.512313], [-15.940027, 11.524691]]], [[[-16.164386, 11.529419], [-16.188126, 11.520046], [-16.209806, 11.518282], [-16.234869, 11.513281], [-16.259582, 11.488694], [-16.272806, 11.466218], [-16.251635, 11.463991], [-16.232783, 11.454279], [-16.23235, 11.474766], [-16.21118, 11.472793], [-16.196879, 11.488959], [-16.212088, 11.502038], [-16.191981, 11.504698], [-16.16978, 11.50685], [-16.164386, 11.529419]]], [[[-15.98295, 11.581245], [-16.002213, 11.559274], [-15.989725, 11.575552], [-16.007152, 11.551783], [-16.00943, 11.531159], [-15.998909, 11.511738], [-15.983028, 11.528672], [-15.964786, 11.543551], [-15.975576, 11.565292], [-15.98295, 11.581245]]], [[[-16.273772, 11.593511], [-16.294487, 11.580019], [-16.311384, 11.560617], [-16.296939, 11.544964], [-16.318355, 11.54229], [-16.347098, 11.542287], [-16.360758, 11.55704], [-16.381404, 11.557458], [-16.4015, 11.552336], [-16.414744, 11.53591], [-16.412547, 11.514534], [-16.401217, 11.495263], [-16.383247, 11.507073], [-16.363103, 11.501628], [-16.339604, 11.5047], [-16.322313, 11.494601], [-16.2941, 11.495501], [-16.270036, 11.489551], [-16.26399, 11.510321], [-16.255713, 11.529426], [-16.242059, 11.544044], [-16.244779, 11.568384], [-16.256885, 11.587143], [-16.273772, 11.593511]]], [[[-15.948396, 11.604297], [-15.972255, 11.587466], [-15.970740300000031, 11.56746449999999], [-15.951284499999986, 11.550913300000019], [-15.940245, 11.533904], [-15.920922400000027, 11.520331099999968], [-15.905217199999978, 11.533955900000013], [-15.915875599999985, 11.5511761], [-15.9053496, 11.569665899999968], [-15.911362, 11.590242], [-15.934687, 11.576843800000034], [-15.949211100000028, 11.602783700000028], [-15.948396, 11.604297]]], [[[-15.469354100000011, 11.6380141], [-15.484000600000037, 11.62126449999996], [-15.50352030000004, 11.6135564], [-15.524572099999979, 11.60313949999998], [-15.547457, 11.588428300000018], [-15.56615290000003, 11.573233], [-15.58798939999997, 11.571638400000015], [-15.595174199999985, 11.551952500000027], [-15.61222139999996, 11.53516780000001], [-15.631528100000015, 11.52850319999996], [-15.61240460000002, 11.520641], [-15.58966089999998, 11.5100982], [-15.567989600000033, 11.50496550000004], [-15.5463043, 11.502009499999975], [-15.546731, 11.5286872], [-15.559192899999964, 11.54690109999996], [-15.537265400000045, 11.537595299999957], [-15.519205300000017, 11.548245399999988], [-15.506772700000027, 11.566060900000029], [-15.495807799999973, 11.54930909999998], [-15.4699197, 11.555033], [-15.471651, 11.5784728], [-15.479754499999988, 11.600673599999965], [-15.466341300000042, 11.620937199999968], [-15.469354100000011, 11.6380141]]], [[[-15.1636456, 12.686238400000025], [-15.239714399999983, 12.659612700000043], [-15.2706645, 12.64047549999998], [-15.3081965, 12.6239316], [-15.337638799999965, 12.61372279999997], [-15.369429, 12.579544], [-15.4047665, 12.552925200000018], [-15.429051, 12.537044500000015], [-15.53743289999996, 12.49198880000004], [-15.597337199999984, 12.465295499999971], [-15.627921699999959, 12.449067], [-15.683065299999988, 12.424853099999964], [-15.749399800000031, 12.434850399999984], [-15.88400579999998, 12.449933499999986], [-15.953417099999957, 12.442798700000022], [-16.001456, 12.45833079999996], [-16.038821, 12.47244850000002], [-16.068896099999975, 12.471653], [-16.162610599999972, 12.449674799999986], [-16.1923972, 12.457121700000016], [-16.224506400000017, 12.453361700000041], [-16.270339700000026, 12.4324642], [-16.311406299999987, 12.41090459999996], [-16.342562899999958, 12.391657899999984], [-16.375360800000017, 12.37589849999998], [-16.41831239999998, 12.366293700000018], [-16.4529883, 12.363262599999956], [-16.484865099999958, 12.3582543], [-16.514347799999985, 12.350516100000018], [-16.547490299999957, 12.360391499999988], [-16.606029, 12.3469446], [-16.638104300000013, 12.359409299999989], [-16.65815230000003, 12.3598484], [-16.689723700000037, 12.3592023], [-16.717345600000023, 12.33948950000001], [-16.694325899999974, 12.345183699999971], [-16.670742900000036, 12.3371825], [-16.63662960000003, 12.32155579999996], [-16.602723699999956, 12.2976033], [-16.585569700000026, 12.285394599999975], [-16.5617086, 12.281065199999961], [-16.52092669999996, 12.244732700000014], [-16.498034100000037, 12.219946], [-16.48740910000004, 12.201423699999967], [-16.4578211, 12.188531399999956], [-16.3465696, 12.098723399999976], [-16.32754820000002, 12.062331199999974], [-16.330576600000036, 12.033253200000036], [-16.323828299999988, 12.010230900000039], [-16.298272200000042, 11.969874], [-16.2927508, 11.9422132], [-16.298205300000014, 11.9099495], [-16.312415299999984, 11.870670100000023], [-16.330058, 11.860399500000039], [-16.31106689999997, 11.85250019999997], [-16.29063350000004, 11.852906199999989], [-16.26966230000002, 11.849862300000023], [-16.253487, 11.837964300000035], [-16.23211779999998, 11.839844700000011], [-16.213624299999974, 11.849990200000036], [-16.195897, 11.86920720000004], [-16.162818899999976, 11.8600179], [-16.154325699999973, 11.809652800000013], [-16.115036900000025, 11.786375], [-16.09263080000003, 11.775347], [-16.0799175, 11.75746940000004], [-16.0600618, 11.76353630000002], [-15.95071610000003, 11.7343317], [-15.932655200000024, 11.7500609], [-15.8982336, 11.7576675], [-15.87108860000004, 11.751649199999957], [-15.827767699999985, 11.75238239999996], [-15.808940900000024, 11.743259800000015], [-15.787082699999978, 11.752708899999973], [-15.76519169999997, 11.7693778], [-15.737201399999968, 11.782727], [-15.712000899999957, 11.793671], [-15.691680699999978, 11.794752400000029], [-15.670559900000015, 11.793346699999983], [-15.648921699999963, 11.790448299999976], [-15.601144599999973, 11.753464300000037], [-15.547174200000025, 11.717529400000036], [-15.53727930000004, 11.696163], [-15.529158300000013, 11.677238699999968], [-15.481951400000039, 11.647974099999956], [-15.460534, 11.643889], [-15.449610899999989, 11.624748899999958], [-15.458236899999967, 11.593725299999978], [-15.44589759999997, 11.568247], [-15.437116, 11.548821], [-15.4150404, 11.5129623], [-15.414983399999983, 11.491946], [-15.434814399999986, 11.4839393], [-15.453232, 11.469631], [-15.474942800000036, 11.467268399999984], [-15.464512299999967, 11.448852700000021], [-15.476989099999972, 11.420688600000027], [-15.484724100000037, 11.401468400000024], [-15.492357699999971, 11.380921], [-15.496688199999987, 11.3593608], [-15.50185740000003, 11.3388397], [-15.48082569999998, 11.326042200000018], [-15.417451800000027, 11.2864188], [-15.3978535, 11.2695397], [-15.3997996, 11.244932200000022], [-15.407360400000037, 11.22294250000002], [-15.403484100000032, 11.1981509], [-15.391255699999974, 11.180378299999958], [-15.357102, 11.159393599999976], [-15.340271500000014, 11.14713589999998], [-15.322048700000025, 11.1292889], [-15.30257679999998, 11.137411100000037], [-15.288578, 11.1205016], [-15.269118900000024, 11.114963299999967], [-15.247303699999982, 11.118797300000026], [-15.206969100000013, 11.092322299999989], [-15.234003100000027, 11.059014], [-15.25096260000003, 11.0461029], [-15.269977600000018, 11.028342199999972], [-15.250212300000033, 11.00564079999997], [-15.221941900000036, 10.997080700000026], [-15.200698, 10.99865], [-15.1044962, 10.9665064], [-15.098969599999968, 10.94293020000001], [-15.076207099999973, 10.922728100000032], [-15.074026400000019, 10.891763799999985], [-15.045644300000017, 10.91404610000004], [-15.021477900000036, 10.931520800000037], [-15.00729740000002, 10.949760800000028], [-14.9761435, 10.9667467], [-14.957672700000014, 10.977043500000015], [-14.9541001, 11.011749400000024], [-14.935909800000037, 11.026351], [-14.911861699999985, 11.070000400000033], [-14.837453, 11.2025198], [-14.832338, 11.222821699999972], [-14.815485400000018, 11.259391199999989], [-14.772312899999985, 11.364614], [-14.752555, 11.398932], [-14.726662, 11.432953], [-14.70163, 11.47186], [-14.663604, 11.504958], [-14.6194, 11.507817], [-14.585824, 11.505541], [-14.511552, 11.49649], [-14.45034, 11.536803], [-14.3664022, 11.5800647], [-14.319521, 11.602356], [-14.267145, 11.677024], [-14.250457800000028, 11.664137299999975], [-14.227115, 11.671224], [-14.204874, 11.672541], [-14.183744, 11.657756], [-14.135062, 11.664702], [-14.11772640000002, 11.647215199999959], [-14.103788, 11.632401], [-14.082562, 11.62611], [-14.05693, 11.647976], [-14.030479, 11.652594], [-13.988392, 11.641663], [-13.936302, 11.654852], [-13.930238, 11.675962], [-13.908197, 11.67532], [-13.890493, 11.66481], [-13.869065, 11.663795], [-13.864389, 11.690221], [-13.85101, 11.709521], [-13.859613, 11.727787], [-13.854383, 11.747154], [-13.833333, 11.741985], [-13.832498, 11.718035], [-13.814727, 11.705956], [-13.795444, 11.717533], [-13.798857, 11.697397], [-13.779438900000041, 11.687580499999981], [-13.75905, 11.684357], [-13.738846599999977, 11.692312], [-13.720202, 11.705844], [-13.70815649999997, 11.75041369999996], [-13.701208, 11.770549], [-13.706395, 11.795765], [-13.705431, 11.832252], [-13.712656, 11.880333], [-13.707405, 11.922115], [-13.706027, 11.955256], [-13.6963488, 12.008196899999966], [-13.719771, 12.019068], [-13.750867, 12.028954], [-13.774783, 12.041486], [-13.793196, 12.054109], [-13.800475, 12.075359], [-13.811848, 12.092736], [-13.829601, 12.102395], [-13.868168, 12.107841], [-13.875093, 12.130489], [-13.896189, 12.144762], [-13.929664100000029, 12.148929899999981], [-13.94944260000004, 12.159262400000024], [-13.954099399999965, 12.179031100000024], [-13.957084300000023, 12.1998021], [-13.937049400000024, 12.201877899999978], [-13.9220605, 12.224601699999969], [-13.8733182, 12.2404098], [-13.8533553, 12.252974299999984], [-13.864445300000018, 12.275152899999984], [-13.837414099999968, 12.284475699999973], [-13.82716970000002, 12.260096499999971], [-13.809314900000015, 12.27619160000004], [-13.80032480000002, 12.29727979999997], [-13.793889, 12.2732961], [-13.80502829999999, 12.256471], [-13.77847480000003, 12.251237499999988], [-13.7645776, 12.274937], [-13.744219900000033, 12.270062], [-13.73105539999997, 12.248044], [-13.7065908, 12.26466], [-13.698015699999978, 12.29325950000004], [-13.686146, 12.310637], [-13.662278, 12.314063], [-13.666298, 12.34342], [-13.653765, 12.361844], [-13.66615, 12.390511], [-13.661509, 12.412439], [-13.647137, 12.42757], [-13.636548799999982, 12.46454050000003], [-13.6416372, 12.489885199999982], [-13.652209, 12.507651], [-13.671439, 12.520106], [-13.684878, 12.555673], [-13.709542, 12.607889], [-13.70814770000004, 12.6756152], [-13.80463, 12.675865], [-13.84448, 12.675976], [-13.99162, 12.67579], [-14.154476, 12.676516], [-14.323380500000017, 12.676505600000041], [-14.425672, 12.679754], [-14.50801, 12.67712], [-14.895206, 12.678755], [-15.122430099999985, 12.685808499999983], [-15.1636456, 12.686238400000025]]]]}}]}