{"type": "FeatureCollection", "features": [{"type": "Feature", "properties": {"code": "GNQ", "name": "Equatorial Guinea", "tier": "country"}, "geometry": {"type": "MultiPolygon", "coordinates": [[[[5.633043300000031, -1.403775099999956], [5.6200863, -1.4570778], [5.642280300000026, -1.410818399999987], [5.633043300000031, -1.403775099999956]]], [[[9.3211266, 0.93597419999996], [9.3211266, 0.93597419999996]]], [[[9.50633090000004, 0.992547900000011], [9.50633090000004, 0.992547900000011]]], [[[9.822532, 2.348858400000036], [9.776771, 2.324404399999974], [9.78977680000002, 2.267861], [9.79295220000003, 2.184656700000037], [9.787539299999985, 2.126438900000021], [9.776816299999961, 2.06408], [9.801132800000016, 1.98796829999997], [9.811543300000029, 1.918863599999959], [9.7820476, 1.876757799999989], [9.7421067, 1.842702499999986], [9.725806, 1.777716200000028], [9.682224, 1.746504600000036], [9.64626969999998, 1.7030346], [9.608995600000018, 1.66730390000001], [9.614905299999958, 1.611344399999974], [9.59395809999997, 1.557417399999976], [9.560720699999962, 1.4863476], [9.514464599999965, 1.440384399999988], [9.4707402, 1.404081600000011], [9.463373500000042, 1.3528048], [9.43419189999997, 1.30248539999998], [9.398233299999962, 1.2633068], [9.384814700000014, 1.214824], [9.344573, 1.1801786], [9.374247800000028, 1.134622], [9.425783100000022, 1.113382200000017], [9.473231299999977, 1.134443400000023], [9.523880899999963, 1.129973400000011], [9.5721061, 1.07473209999998], [9.612898299999987, 1.0442249], [9.656168099999988, 1.069962300000031], [9.713889, 1.069444], [9.774167, 1.046944], [9.79614379999996, 1.000988600000023], [9.850064399999962, 1.0027209], [10.465833, 1.002222], [10.957778, 1.003044899999987], [11.35331280000003, 1.00216], [11.3494835, 1.471299799999986], [11.34654350000002, 1.831412699999961], [11.35498009999996, 2.159718599999976], [11.000134299999957, 2.171187199999963], [10.6560322, 2.1738606], [10.18881470000004, 2.173416600000038], [10.136990600000043, 2.166885600000029], [10.072851099999983, 2.1623], [10.0190015, 2.1709546], [9.965615900000028, 2.1869868], [9.9139536, 2.203484099999958], [9.865911300000011, 2.2367166], [9.838822800000017, 2.279405399999983], [9.828766700000017, 2.342617], [9.822532, 2.348858400000036]]], [[[8.714989400000041, 3.787675], [8.6802037, 3.7481954], [8.648081499999984, 3.7051586], [8.612084399999988, 3.667468199999973], [8.609932099999986, 3.61733520000001], [8.6089501, 3.565555200000019], [8.574147399999978, 3.5223496], [8.5738567, 3.468463099999979], [8.5173544, 3.468762100000027], [8.466432600000042, 3.468712199999984], [8.434344900000037, 3.42860259999998], [8.4187494, 3.380720099999972], [8.42308430000003, 3.325712600000013], [8.453787599999975, 3.269307599999976], [8.515050699999984, 3.256753200000034], [8.56329469999997, 3.23934940000004], [8.6203, 3.231235200000043], [8.668007500000032, 3.212409399999987], [8.708412599999972, 3.251464799999986], [8.740578799999989, 3.291861699999959], [8.7684877, 3.3355699], [8.7664095, 3.3930039], [8.807702, 3.4236327], [8.829740499999962, 3.4796175], [8.853384499999974, 3.5286528], [8.891026800000027, 3.583459500000035], [8.928690499999984, 3.630211500000029], [8.936560600000035, 3.683284100000033], [8.918876799999968, 3.731282599999957], [8.88389719999996, 3.767919699999971], [8.831852, 3.7538953], [8.783111600000028, 3.765732899999957], [8.7333225, 3.757294799999982], [8.714989400000041, 3.787675]]]]}}]}