{"type": "FeatureCollection", "features": [{"type": "Feature", "properties": {"code": "GRC", "name": "Greece", "tier": "country"}, "geometry": {"type": "MultiPolygon", "coordinates": [[[[24.121872999999805, 34.85918149911458], [24.06486199999981, 34.872695999114406], [24.09434999999983, 34.81481199911514], [24.121872999999805, 34.85918149911458]]], [[[25.73230749999976, 34.878986499114326], [25.680892999999813, 34.87203599911443], [25.73298449999982, 34.87262749911442], [25.73230749999976, 34.878986499114326]]], [[[26.14145799999984, 34.92990499911379], [26.14145799999984, 34.92990499911379]]], [[[25.746122999999777, 35.256440999110204], [25.746122999999777, 35.256440999110204]]], [[[27.015004999999796, 35.43314749910821], [26.931616499999834, 35.417596999108405], [26.871299499999772, 35.39316199910869], [26.88143999999983, 35.34335749910925], [26.926867999999786, 35.36636749910897], [26.96823649999977, 35.39519499910865], [27.01093849999986, 35.4261629991083], [27.015004999999796, 35.43314749910821]]], [[[25.216752999999848, 35.46695349910792], [25.216752999999848, 35.46695349910792]]], [[[23.81322649999981, 35.535327999107174], [23.777395999999833, 35.59778599910653], [23.762263999999867, 35.64826199910592], [23.73772899999985, 35.69454949910545], [23.705264999999798, 35.64062499910605], [23.713157499999838, 35.58514399910666], [23.724302499999784, 35.530242999107216], [23.655051999999788, 35.49958049910751], [23.610877999999843, 35.55242549910695], [23.60773099999979, 35.609409499106434], [23.58282849999983, 35.561504499106924], [23.571014499999777, 35.508815999107455], [23.555427499999823, 35.452903999108045], [23.549148499999795, 35.394851499108654], [23.533672999999833, 35.337331999109324], [23.535088999999843, 35.277429999109955], [23.579936999999774, 35.25361999911023], [23.626664999999825, 35.23241049911044], [23.678739499999846, 35.2299269991105], [23.730258999999776, 35.24079899911039], [23.78420049999982, 35.23172749911043], [23.839342499999805, 35.245971499110304], [23.899772499999806, 35.23126599911045], [23.952336999999783, 35.22972849911043], [24.001601999999778, 35.22112649911059], [24.048879499999817, 35.19399249911085], [24.100597999999785, 35.200050499110816], [24.152976999999776, 35.192584999110835], [24.20380399999978, 35.19812399911079], [24.251983499999763, 35.18267799911104], [24.30426799999984, 35.18544399911099], [24.366254999999793, 35.19140949911085], [24.414384499999812, 35.169864999111155], [24.464150999999823, 35.1490744991114], [24.520621999999815, 35.14356999911145], [24.55940799999982, 35.10267649911189], [24.643957999999778, 35.096372499111915], [24.69442199999977, 35.09747349911195], [24.742086499999772, 35.07876599911213], [24.76010499999982, 35.02278499911281], [24.749896499999824, 34.97296249911332], [24.73127549999984, 34.922855499113865], [24.793426999999816, 34.924499999113834], [24.87054449999978, 34.93685149911373], [24.922422999999842, 34.92862699911386], [24.981277499999774, 34.93417549911376], [25.039073999999843, 34.94070799911365], [25.097417999999813, 34.9335594991138], [25.16654949999982, 34.95428699911349], [25.217761999999848, 34.95177849911353], [25.267852499999847, 34.96753699911337], [25.320062999999834, 34.98360849911317], [25.371886999999823, 34.99789049911307], [25.452701499999797, 34.9909629991131], [25.505770999999815, 34.98244499911319], [25.55784999999985, 34.99597149911305], [25.608236499999826, 35.005115499112954], [25.66259549999977, 35.004199999112984], [25.734449499999798, 35.00442099911296], [25.795570499999773, 34.99812299911303], [25.84434499999978, 35.0150334991128], [25.894718499999836, 35.02624949911271], [25.94579899999977, 35.03288249911266], [26.000997499999812, 35.025581499112704], [26.064316999999797, 35.0216254991128], [26.11918299999977, 34.99733649911307], [26.17240749999982, 35.014908999112784], [26.2265854999998, 35.03554149911262], [26.258138499999795, 35.07642149911214], [26.28043549999982, 35.123130999111666], [26.289491499999766, 35.173343499111056], [26.27532199999977, 35.22176749911059], [26.270888999999798, 35.27195349911003], [26.314392499999776, 35.30652999910959], [26.25896249999976, 35.28010949910992], [26.215603499999844, 35.241446499110324], [26.172185999999787, 35.206500999110766], [26.114043999999833, 35.20262549911077], [26.062918999999766, 35.22470099911053], [26.008170499999828, 35.215865999110584], [25.95977749999977, 35.19845599911081], [25.896356499999825, 35.18773649911091], [25.849684499999796, 35.15645599911125], [25.81313499999983, 35.10961549911175], [25.756427999999765, 35.12755299911155], [25.71655799999978, 35.16314299911121], [25.714063499999796, 35.22024549911062], [25.72833249999976, 35.28498049910985], [25.768546999999828, 35.32957849910938], [25.712142999999788, 35.33908449910925], [25.65982699999986, 35.34776899910917], [25.593010499999814, 35.33221499910938], [25.543714499999822, 35.32111749910948], [25.48754299999984, 35.29663099910976], [25.425590499999807, 35.295448499109725], [25.385139499999802, 35.33817699910931], [25.328260499999804, 35.33612649910932], [25.266288999999798, 35.33255399910935], [25.199249499999777, 35.332587999109336], [25.13644999999983, 35.34286099910921], [25.075803999999813, 35.33868399910925], [25.03703699999978, 35.37886449910881], [25.007470499999844, 35.41934599910844], [24.95358449999977, 35.402950499108556], [24.894874499999798, 35.417294499108436], [24.835569499999796, 35.40624999910859], [24.7832944999998, 35.40957649910853], [24.733647499999815, 35.42548199910829], [24.651906999999785, 35.42016599910842], [24.60692999999984, 35.3906744991087], [24.53510499999981, 35.372890499108955], [24.476478499999818, 35.36957149910892], [24.421428999999762, 35.36764599910896], [24.370902999999792, 35.360789999109045], [24.29537199999982, 35.354606499109074], [24.263416999999777, 35.4029179991086], [24.258174999999838, 35.45542549910802], [24.207355499999828, 35.462050999107944], [24.150844499999817, 35.47228649910785], [24.08239199999976, 35.48771249910764], [24.135168499999782, 35.498122999107544], [24.1855919999998, 35.517496499107345], [24.185090999999822, 35.570792999106814], [24.133250999999845, 35.59927349910648], [24.081845999999793, 35.59120049910662], [24.048257999999823, 35.52787399910726], [23.992984999999837, 35.5116729991074], [23.931112999999804, 35.52060749910731], [23.87373899999979, 35.52306349910726], [23.81322649999981, 35.535327999107174]]], [[[27.214900999999777, 35.82999399910409], [27.165429999999795, 35.80267299910434], [27.162770999999783, 35.74187099910498], [27.1349064999998, 35.69572399910544], [27.121202499999775, 35.64510349910599], [27.06540349999979, 35.604945999106455], [27.103721499999793, 35.5594139991069], [27.11309999999977, 35.50397849910747], [27.084995499999817, 35.44937199910807], [27.13150399999983, 35.42658999910828], [27.173993999999794, 35.461837999107914], [27.22213149999976, 35.480796999107795], [27.198285999999776, 35.5257529991073], [27.188743499999816, 35.57702249910669], [27.15083699999984, 35.613006499106355], [27.165977499999798, 35.661804499105855], [27.200679999999792, 35.7115134991053], [27.209382999999836, 35.7708584991047], [27.232957999999815, 35.82498549910416], [27.214900999999777, 35.82999399910409]]], [[[23.287819499999863, 35.88988649910342], [23.30534449999976, 35.84118449910396], [23.287819499999863, 35.88988649910342]]], [[[27.238851499999843, 35.84549699910394], [27.240624499999807, 35.89750699910334], [27.192611999999794, 35.855730499103785], [27.238851499999843, 35.84549699910394]]], [[[29.575413499999826, 36.1240619991011], [29.575413499999826, 36.1240619991011]]], [[[27.599335499999793, 36.24776799909991], [27.53358199999977, 36.237754499099985], [27.581744999999806, 36.20928199910024], [27.599335499999793, 36.24776799909991]]], [[[27.72282899999982, 36.27122599909966], [27.72282899999982, 36.27122599909966]]], [[[26.694026499999776, 36.33995099909894], [26.694026499999776, 36.33995099909894]]], [[[22.952005499999814, 36.383102499098584], [22.907624499999805, 36.3545339990988], [22.916349499999804, 36.303012999099344], [22.924892999999788, 36.25047599909985], [22.9110004999998, 36.2021454991003], [22.940229499999802, 36.15763099910078], [22.98967749999984, 36.14010599910095], [23.047105499999788, 36.13056199910107], [23.047273499999832, 36.1992339991003], [23.094941999999804, 36.224262499100114], [23.050580999999756, 36.28536599909947], [23.00378599999976, 36.3073539990993], [22.969515499999805, 36.353463999098835], [22.952005499999814, 36.383102499098584]]], [[[25.83935449999978, 36.35685749909874], [25.77898399999982, 36.39225399909845], [25.727395999999814, 36.366763999098715], [25.786691999999775, 36.34443849909892], [25.843372499999784, 36.34481049909888], [25.83935449999978, 36.35685749909874]]], [[[25.396032499999766, 36.41272349909823], [25.396032499999766, 36.41272349909823]]], [[[28.228492499999803, 36.44557649909791], [28.177728999999808, 36.419744999098164], [28.11782899999979, 36.419415499098164], [28.056995499999793, 36.39919999909843], [28.008699499999857, 36.37509549909856], [27.958879499999767, 36.352815499098824], [27.896704999999848, 36.333029499099005], [27.841590499999825, 36.28076949909952], [27.7946619999998, 36.24905199909982], [27.76823749999985, 36.18931849910048], [27.716918499999814, 36.1648584991007], [27.710597999999813, 36.114751999101216], [27.758212499999853, 36.09589649910137], [27.75496249999979, 36.013304499102254], [27.732724499999765, 35.96045949910277], [27.750193999999777, 35.90929499910326], [27.809509499999844, 35.89892749910336], [27.854327499999776, 35.928377999103084], [27.89319699999976, 35.96364999910267], [27.93712949999979, 36.029540999102046], [27.980075499999828, 36.05733899910175], [28.036653999999835, 36.07739349910157], [28.083565999999827, 36.05367649910179], [28.094755499999817, 36.10405999910128], [28.089192999999828, 36.16240599910075], [28.1366714999998, 36.18527099910048], [28.156228999999822, 36.2328719991], [28.174274499999797, 36.28029999909957], [28.211479499999818, 36.322361999099144], [28.2395994999998, 36.3770464990986], [28.234746999999853, 36.42887299909811], [28.228492499999803, 36.44557649909791]]], [[[25.35582949999985, 36.44102299909795], [25.35582949999985, 36.44102299909795]]], [[[25.428235999999853, 36.46096799909779], [25.3811054999998, 36.480029999097574], [25.423736499999794, 36.44419099909795], [25.4343529999998, 36.3917769990984], [25.384715999999834, 36.366843999098656], [25.440940999999818, 36.33169149909907], [25.487022499999846, 36.362006999098796], [25.461787999999867, 36.42628099909807], [25.428235999999853, 36.46096799909779]]], [[[27.37048349999984, 36.461869499097766], [27.310170999999787, 36.4619074990978], [27.319066499999767, 36.41253449909822], [27.37449499999983, 36.39684399909839], [27.438273999999826, 36.39367999909847], [27.387309999999847, 36.4141404990982], [27.37048349999984, 36.461869499097766]]], [[[22.98324849999983, 36.47837999909757], [22.9320454999998, 36.484708999097606], [22.981202999999788, 36.46618499909775], [22.98324849999983, 36.47837999909757]]], [[[27.170396999999806, 36.61893049909625], [27.129392499999827, 36.587070499096555], [27.172195499999756, 36.55775049909685], [27.20012099999981, 36.60466399909637], [27.170396999999806, 36.61893049909625]]], [[[27.815059499999776, 36.62392449909623], [27.76816149999978, 36.603824499096454], [27.814272499999763, 36.583405499096585], [27.837707499999798, 36.53734949909704], [27.875728499999827, 36.56989749909673], [27.872306999999797, 36.62276849909624], [27.817144499999806, 36.62174999909628], [27.815059499999776, 36.62392449909623]]], [[[26.381395499999797, 36.64432149909605], [26.401851499999818, 36.58797499909661], [26.34146899999984, 36.57011799909677], [26.292873499999814, 36.598758499096476], [26.268003499999796, 36.5545044990969], [26.302333999999828, 36.51538849909724], [26.363133499999847, 36.511537499097315], [26.354312999999763, 36.5614814990968], [26.41410499999982, 36.573409999096725], [26.46836649999979, 36.580362499096616], [26.42214399999982, 36.628078499096176], [26.381395499999797, 36.64432149909605]]], [[[24.917226999999794, 36.631450499096175], [24.87007549999979, 36.661491499095916], [24.896039999999775, 36.614341499096305], [24.948520499999816, 36.5924719990965], [24.917226999999794, 36.631450499096175]]], [[[27.860798999999837, 36.66764649909584], [27.860798999999837, 36.66764649909584]]], [[[27.143695999999807, 36.668273999095796], [27.143695999999807, 36.668273999095796]]], [[[25.17705149999977, 36.69828399909555], [25.12453249999983, 36.704275499095466], [25.08105049999977, 36.66456799909589], [25.132760999999785, 36.66252899909586], [25.17705149999977, 36.69828399909555]]], [[[21.776181999999793, 36.70086949909552], [21.7611119999998, 36.75845699909496], [21.76449749999979, 36.70370499909542], [21.776181999999793, 36.70086949909552]]], [[[24.468215999999813, 36.74241249909516], [24.428018499999816, 36.77370049909478], [24.43546099999984, 36.72016449909531], [24.37169449999982, 36.73110599909527], [24.326874499999803, 36.69499649909554], [24.32696899999981, 36.644893499096035], [24.38629799999984, 36.65526799909592], [24.436319499999815, 36.66590499909583], [24.495855499999827, 36.66569499909587], [24.547607499999817, 36.70247249909553], [24.537568999999756, 36.75154099909505], [24.48132299999982, 36.747581499095034], [24.468215999999813, 36.74241249909516]]], [[[24.621215999999787, 36.78968899909467], [24.643772499999795, 36.743160999095075], [24.621215999999787, 36.78968899909467]]], [[[25.311309999999832, 36.78894399909467], [25.262290999999852, 36.771640999094835], [25.261970499999794, 36.7212219990953], [25.307468499999775, 36.690295999095596], [25.356702999999825, 36.64241799909607], [25.383338999999772, 36.697578499095556], [25.359259999999832, 36.74345799909514], [25.31418849999979, 36.78360399909477], [25.311309999999832, 36.78894399909467]]], [[[21.726430999999813, 36.78468349909471], [21.691518999999804, 36.739959499095164], [21.725684999999817, 36.78252399909476], [21.726430999999813, 36.78468349909471]]], [[[24.245647499999812, 36.76961899909489], [24.245647499999812, 36.76961899909489]]], [[[24.55971349999978, 36.846675999094195], [24.520667499999846, 36.79956049909458], [24.572460999999798, 36.77660749909484], [24.594861999999814, 36.82252499909436], [24.55971349999978, 36.846675999094195]]], [[[25.477995499999817, 36.82880899909431], [25.426208999999822, 36.83760949909419], [25.477995499999817, 36.82880899909431]]], [[[25.532365999999826, 36.87149799909394], [25.532365999999826, 36.87149799909394]]], [[[25.674440499999818, 36.89697149909373], [25.620155499999775, 36.89567799909375], [25.678434499999792, 36.87459749909394], [25.674440499999818, 36.89697149909373]]], [[[27.2973594999998, 36.892383499093754], [27.23225799999981, 36.89386749909371], [27.1725674999998, 36.890071999093756], [27.117484999999768, 36.863246499094025], [27.06791299999986, 36.8412704990942], [27.00766349999978, 36.784507999094664], [26.938295499999832, 36.76686099909488], [26.919054499999795, 36.71701249909538], [26.962037999999826, 36.6744384990958], [26.98306849999977, 36.72401449909531], [27.015987499999817, 36.76399599909491], [27.101867499999777, 36.756271499094986], [27.163417999999847, 36.80269649909458], [27.23354349999977, 36.826968999094326], [27.28934899999977, 36.83928299909425], [27.351131999999804, 36.85805849909406], [27.308032999999806, 36.88687149909383], [27.2973594999998, 36.892383499093754]]], [[[25.59174849999985, 36.91343899909355], [25.59174849999985, 36.91343899909355]]], [[[26.018996499999847, 36.933256499093325], [25.958898499999787, 36.91803749909349], [25.9079644999998, 36.866878499094014], [25.85575699999979, 36.85361999909413], [25.82907849999979, 36.808063499094516], [25.771314999999802, 36.806744499094556], [25.8055044999998, 36.7690179990949], [25.85228149999982, 36.78781149909468], [25.904721999999836, 36.81622299909446], [25.93681699999982, 36.854800999094124], [25.991617999999843, 36.8833259990938], [26.040666999999814, 36.89727349909367], [26.018996499999847, 36.933256499093325]]], [[[21.671313999999764, 36.909377999093586], [21.671313999999764, 36.909377999093586]]], [[[25.59912499999982, 36.92948149909337], [25.59912499999982, 36.92948149909337]]], [[[27.141072999999853, 36.95626449909318], [27.141072999999853, 36.95626449909318]]], [[[24.998159999999803, 36.969650499093056], [24.998159999999803, 36.969650499093056]]], [[[26.306712999999775, 36.99034099909286], [26.306712999999775, 36.99034099909286]]], [[[26.47635349999983, 37.0125459990926], [26.424477999999844, 37.004722499092665], [26.496769999999785, 36.99766599909276], [26.47635349999983, 37.0125459990926]]], [[[26.908960499999857, 37.01748199909258], [26.908960499999857, 37.01748199909258]]], [[[24.639716999999795, 37.04182449909235], [24.678725999999862, 36.993114499092805], [24.678968499999765, 36.939025999093346], [24.726981999999776, 36.92292399909346], [24.74979149999984, 36.972728999093015], [24.70475799999984, 37.02114249909255], [24.639716999999795, 37.04182449909235]]], [[[25.071573999999764, 36.93894149909328], [25.073109499999802, 36.99173299909281], [25.090759999999776, 37.04349049909234], [25.031719499999816, 37.01887149909261], [25.04230149999981, 36.969073499093014], [25.071573999999764, 36.93894149909328]]], [[[21.56024549999981, 37.05375699909224], [21.56024549999981, 37.05375699909224]]], [[[26.90556699999983, 37.0713994990921], [26.954715999999824, 37.03338249909249], [26.925007999999806, 36.98543749909289], [26.93966349999978, 36.92918399909339], [26.986625499999835, 36.95137799909319], [27.047868999999814, 36.945251499093246], [27.047710499999848, 37.000572499092776], [27.000254499999777, 37.018112999092565], [26.959434499999794, 37.058196999092225], [26.90972099999981, 37.071170999092125], [26.90556699999983, 37.0713994990921]]], [[[25.828622999999762, 37.126727999091585], [25.828622999999762, 37.126727999091585]]], [[[25.231128499999834, 37.15034499909138], [25.183673999999804, 37.13042049909154], [25.13193699999982, 37.09584049909195], [25.1066644999998, 37.052329999092315], [25.115720499999828, 37.000900499092744], [25.165223999999842, 36.97818749909297], [25.21421899999979, 36.99281349909284], [25.251321999999806, 37.02757249909251], [25.25573149999979, 37.080108999092], [25.280080999999818, 37.12613699909163], [25.22567349999977, 37.11946499909165], [25.231128499999834, 37.15034499909138]]], [[[26.811195499999837, 37.19909299909097], [26.767566499999774, 37.1733129990912], [26.81537799999986, 37.155723499091366], [26.85657299999978, 37.120430499091675], [26.837590999999776, 37.167548999091295], [26.811195499999837, 37.19909299909097]]], [[[25.58918649999978, 37.13843399909147], [25.553806499999776, 37.17897049909118], [25.499269499999844, 37.19068899909105], [25.465506499999783, 37.15343699909139], [25.41085799999977, 37.13371299909153], [25.374139999999812, 37.09579099909184], [25.37806299999977, 37.039523999092374], [25.390849999999777, 36.98957049909288], [25.425324499999824, 36.94357799909324], [25.484924499999806, 36.93609599909331], [25.536279499999804, 36.95574949909311], [25.568794999999767, 37.00970799909266], [25.585283499999786, 37.066711499092136], [25.596425999999795, 37.12231449909167], [25.58918649999978, 37.13843399909147]]], [[[24.499030499999808, 37.206014499090905], [24.445394499999818, 37.192207499091], [24.430711999999833, 37.1402089990915], [24.492542499999804, 37.124442999091634], [24.523015999999828, 37.166419999091225], [24.499030499999808, 37.206014499090905]]], [[[23.138872999999805, 37.276674499090284], [23.138872999999805, 37.276674499090284]]], [[[27.09604449999982, 37.276097499090326], [27.09604449999982, 37.276097499090326]]], [[[26.764731999999817, 37.30354949909005], [26.721124499999853, 37.32843299908983], [26.767495999999802, 37.29569899909009], [26.764731999999817, 37.30354949909005]]], [[[23.362310999999806, 37.339936999089694], [23.302336499999836, 37.33947999908973], [23.355892999999813, 37.33130099908986], [23.362310999999806, 37.339936999089694]]], [[[23.575954999999816, 37.36573399908956], [23.524284499999826, 37.36975449908946], [23.469104499999805, 37.35445799908962], [23.415407999999783, 37.326883499089895], [23.363321499999834, 37.301185999090094], [23.4220549999998, 37.30467149909007], [23.479715499999802, 37.318763999089974], [23.522992499999866, 37.34450899908969], [23.573272499999824, 37.359043499089545], [23.575954999999816, 37.36573399908956]]], [[[26.574804499999768, 37.36742799908955], [26.53537349999979, 37.332866499089796], [26.555547499999836, 37.286632499090246], [26.565186499999783, 37.34798999908973], [26.574804499999768, 37.36742799908955]]], [[[25.26834499999983, 37.37314599908948], [25.26834499999983, 37.37314599908948]]], [[[26.742390499999832, 37.38613099908932], [26.742390499999832, 37.38613099908932]]], [[[25.229507499999826, 37.42769249908901], [25.22020699999982, 37.37836099908944], [25.229507499999826, 37.42769249908901]]], [[[26.98717299999984, 37.47233949908863], [26.9256744999998, 37.47517749908859], [26.96976649999979, 37.44652949908886], [26.98717299999984, 37.47233949908863]]], [[[24.431352499999804, 37.43923199908891], [24.375183999999795, 37.4378899990889], [24.393913499999787, 37.3893739990893], [24.377231999999783, 37.3386594990898], [24.429662499999772, 37.33855699908975], [24.45449099999982, 37.384889499089354], [24.443362999999774, 37.437221499088935], [24.431352499999804, 37.43923199908891]]], [[[23.90129799999982, 37.49097149908848], [23.942049999999774, 37.4603314990887], [23.90129799999982, 37.49097149908848]]], [[[25.360436499999828, 37.495338499088454], [25.308664999999827, 37.48349799908854], [25.324340999999777, 37.43558349908896], [25.370112499999816, 37.41036999908915], [25.42062449999979, 37.433122499088924], [25.461495499999824, 37.47450249908862], [25.40637699999982, 37.48613549908851], [25.360436499999828, 37.495338499088454]]], [[[24.946260499999784, 37.446513999088815], [24.93081299999983, 37.5013389990884], [24.87847899999983, 37.51209649908825], [24.899490499999814, 37.45711899908876], [24.866487499999835, 37.418080999089106], [24.875671499999797, 37.365268499089495], [24.942823499999804, 37.390407499089356], [24.946260499999784, 37.446513999088815]]], [[[23.516628999999767, 37.52517949908822], [23.475150999999784, 37.557338999087854], [23.435862999999813, 37.52456549908814], [23.491525499999792, 37.501058999088336], [23.516628999999767, 37.52517949908822]]], [[[26.457896999999775, 37.582614999087674], [26.400110999999782, 37.57852399908771], [26.449653499999826, 37.563579499087844], [26.457896999999775, 37.582614999087674]]], [[[24.7433964999998, 37.630710499087236], [24.68458149999985, 37.60655999908753], [24.74443049999983, 37.59119799908759], [24.7433964999998, 37.630710499087236]]], [[[26.527983499999838, 37.62570349908733], [26.496078499999854, 37.58240899908768], [26.499626999999826, 37.53216549908807], [26.517628499999805, 37.58461749908771], [26.527983499999838, 37.62570349908733]]], [[[25.029325499999803, 37.67584599908696], [24.973474499999856, 37.671260999086954], [25.010799499999774, 37.63167199908729], [25.057755499999857, 37.5976469990876], [25.104490499999777, 37.57338999908778], [25.155507499999786, 37.53993799908805], [25.216718999999788, 37.53320199908809], [25.24705299999982, 37.574088999087785], [25.223275999999817, 37.62164149908735], [25.16810049999981, 37.63644599908728], [25.113662499999815, 37.65378949908711], [25.05667349999977, 37.65050499908716], [25.029325499999803, 37.67584599908696]]], [[[24.392130999999825, 37.671926999086914], [24.337943999999812, 37.68260399908687], [24.29014399999979, 37.645882499087186], [24.27007249999978, 37.59377249908759], [24.274336999999846, 37.538537499088015], [24.32830699999976, 37.55665849908787], [24.387457999999803, 37.60806149908749], [24.40902499999983, 37.655340999087045], [24.392130999999825, 37.671926999086914]]], [[[26.362521999999792, 37.68630199908682], [26.29781349999981, 37.68059549908687], [26.220628499999858, 37.63540649908726], [26.15914749999976, 37.632083999087264], [26.100427499999846, 37.63163749908728], [26.004737999999772, 37.570815999087806], [25.973784999999776, 37.522491499088225], [26.04801849999986, 37.51769149908822], [26.108817999999793, 37.55401599908791], [26.16177549999978, 37.56142799908784], [26.223279999999775, 37.57155999908781], [26.29346249999979, 37.61071799908744], [26.331571499999814, 37.64509599908713], [26.362521999999792, 37.68630199908682]]], [[[23.351667499999785, 37.71115249908662], [23.351667499999785, 37.71115249908662]]], [[[24.106073499999862, 37.64509199908714], [24.128902499999853, 37.694700499086736], [24.142785999999806, 37.7568669990862], [24.117522999999775, 37.707469999086605], [24.10129449999977, 37.65629949908703], [24.106073499999862, 37.64509199908714]]], [[[23.486951499999787, 37.772869499086106], [23.424137499999794, 37.7660824990862], [23.457650999999824, 37.72065499908656], [23.4786409999998, 37.67351799908691], [23.52535899999982, 37.692757999086794], [23.535885499999846, 37.74292199908633], [23.486951499999787, 37.772869499086106]]], [[[26.752095999999785, 37.81232049908574], [26.689750499999832, 37.79593299908596], [26.64359099999984, 37.77358649908611], [26.586366999999804, 37.75027449908631], [26.58023449999981, 37.694602999086754], [26.637296499999756, 37.69636549908674], [26.721820999999835, 37.709621499086616], [26.76669699999977, 37.67906199908683], [26.816673499999844, 37.63743199908723], [26.868440499999828, 37.63723749908721], [26.89855399999982, 37.67766199908692], [26.947576499999826, 37.6909179990868], [26.996396999999817, 37.70769099908669], [27.063121999999844, 37.709415499086624], [27.02911849999986, 37.75102449908628], [26.987248999999814, 37.78489699908597], [26.9408509999998, 37.76341999908621], [26.893090499999854, 37.779815499086034], [26.84796899999985, 37.80615999908581], [26.787370499999856, 37.810241499085784], [26.752095999999785, 37.81232049908574]]], [[[20.77505649999986, 37.84028999908557], [20.73126949999978, 37.878707499085245], [20.70542699999985, 37.9301534990848], [20.652384499999854, 37.90472299908507], [20.62316499999984, 37.84697599908548], [20.64857899999984, 37.79578449908592], [20.69346199999983, 37.76199799908623], [20.74080099999981, 37.7148559990866], [20.788683499999816, 37.67396799908691], [20.831700999999818, 37.64598499908713], [20.84120149999985, 37.69768199908676], [20.90090499999978, 37.73598149908642], [20.96206999999984, 37.71927299908655], [20.928368999999844, 37.76305449908616], [20.884658499999798, 37.814621499085774], [20.824893499999845, 37.83715099908559], [20.77505649999986, 37.84028999908557]]], [[[24.837026499999823, 37.925067999084895], [24.794885499999786, 37.96929949908453], [24.739343499999833, 37.98941799908437], [24.692907499999784, 37.96604899908454], [24.69729049999979, 37.91322699908501], [24.738909999999844, 37.88256549908521], [24.786771999999846, 37.85102449908548], [24.82609749999981, 37.81311799908582], [24.870043999999847, 37.76695449908613], [24.912990499999832, 37.71894549908654], [24.951349499999765, 37.68291449908689], [24.981698999999836, 37.73102549908648], [24.95186599999978, 37.771392999086075], [24.980680499999856, 37.813255499085756], [24.935760499999823, 37.84076699908551], [24.954902499999843, 37.89677049908511], [24.90104299999983, 37.90375899908507], [24.843367999999792, 37.91112899908499], [24.837026499999823, 37.925067999084895]]], [[[23.528210999999807, 37.98833699908436], [23.472797999999784, 37.99587199908435], [23.41853099999981, 37.98373649908442], [23.459921499999837, 37.95217749908465], [23.414582999999823, 37.92582549908486], [23.44449399999976, 37.87523099908531], [23.48983349999977, 37.90102249908507], [23.53753499999981, 37.92342799908492], [23.534683999999817, 37.98164449908446], [23.528210999999807, 37.98833699908436]]], [[[24.27898049999982, 37.982402999084414], [24.228325499999833, 37.98497399908441], [24.27813949999979, 37.97913349908447], [24.27898049999982, 37.982402999084414]]], [[[24.28605499999977, 38.03766949908396], [24.28605499999977, 38.03766949908396]]], [[[21.112197999999783, 38.31606499908181], [21.112197999999783, 38.31606499908181]]], [[[21.885635499999786, 38.325843999081734], [21.826156499999787, 38.31639499908184], [21.772823499999816, 38.30272249908196], [21.738416499999847, 38.262733499082195], [21.71801199999982, 38.215728499082594], [21.679785499999838, 38.18283149908285], [21.627319499999842, 38.15481549908306], [21.577459499999815, 38.1506354990831], [21.51025949999984, 38.16477199908301], [21.461318999999783, 38.194667999082796], [21.40984149999977, 38.19090999908276], [21.363637999999774, 38.168357999082936], [21.35496149999979, 38.10408799908342], [21.305127999999826, 38.027969499084016], [21.27062599999982, 37.98952099908436], [21.211631999999792, 37.94425199908477], [21.1511859999998, 37.93155249908483], [21.110711999999843, 37.889216999085185], [21.141666499999793, 37.83222949908565], [21.235254499999794, 37.80696499908577], [21.284419999999827, 37.778659999086095], [21.309381499999784, 37.73337149908641], [21.305275499999777, 37.67237499908694], [21.355813999999807, 37.66218949908706], [21.41084299999977, 37.641467999087176], [21.5336419999998, 37.56711599908787], [21.609483999999835, 37.49407199908839], [21.660960999999805, 37.41840349908907], [21.68260549999984, 37.37317649908941], [21.698320499999813, 37.31814199908994], [21.67056849999981, 37.258857999090495], [21.599300499999774, 37.21614849909087], [21.568894999999774, 37.17036049909119], [21.574872999999773, 37.104842999091815], [21.582692999999853, 37.05370349909226], [21.618447999999805, 37.015853999092634], [21.658744999999858, 36.97279349909302], [21.709659499999823, 36.943469499093254], [21.681695999999818, 36.89357749909371], [21.691933999999765, 36.83933249909427], [21.729266999999812, 36.79912199909464], [21.78216949999986, 36.8007544990946], [21.829580499999757, 36.77705749909476], [21.870155499999814, 36.73816299909514], [21.92163099999983, 36.75346099909502], [21.95798499999978, 36.792972499094624], [21.931558499999756, 36.840858499094224], [21.9254359999998, 36.8983719990937], [21.934924999999776, 36.9509999990932], [21.976058999999804, 37.006572499092684], [22.0358394999998, 37.02497849909256], [22.088963999999837, 37.02709599909251], [22.141830499999834, 37.0208284990926], [22.14048749999983, 36.96572099909304], [22.127604499999784, 36.91685299909355], [22.180040499999787, 36.88944249909372], [22.23758449999983, 36.88090399909379], [22.27009949999984, 36.83776849909428], [22.31269099999985, 36.77174399909482], [22.334600499999787, 36.72466849909532], [22.379918499999796, 36.69609849909559], [22.382943999999842, 36.64546599909598], [22.38623849999984, 36.59325799909652], [22.390996999999835, 36.54151899909703], [22.348186499999823, 36.51036449909735], [22.38506699999981, 36.47133999909771], [22.441448499999776, 36.458438999097815], [22.468326499999844, 36.4145429990982], [22.498699499999823, 36.45905199909782], [22.472600999999848, 36.52843449909715], [22.478042499999862, 36.580940499096656], [22.528526999999773, 36.616279499096315], [22.49941049999985, 36.659621999095876], [22.551196999999846, 36.650432499096], [22.520503999999864, 36.691051499095586], [22.555492499999804, 36.72867199909525], [22.580287999999793, 36.784938499094785], [22.631099499999852, 36.80678949909454], [22.70575699999985, 36.805541999094544], [22.77371799999982, 36.80212399909457], [22.799058999999822, 36.75258249909496], [22.82022099999982, 36.703086999095454], [22.865072499999773, 36.666916499095855], [22.8845194999998, 36.611236499096364], [22.93872999999981, 36.579822499096636], [22.965776499999787, 36.52670499909715], [23.01636699999977, 36.528949499097116], [23.06615049999977, 36.50368499909737], [23.087014999999848, 36.441898499098], [23.138166999999832, 36.43054949909808], [23.18919949999979, 36.43775949909797], [23.160731499999788, 36.484420499097524], [23.146783999999776, 36.533065999097055], [23.099668499999815, 36.56427749909685], [23.058761499999825, 36.59839649909644], [23.0312614999998, 36.642593499096016], [23.059714999999848, 36.6905899990956], [23.05043599999984, 36.743152499095096], [23.10896299999986, 36.770572499094804], [23.09044049999976, 36.81893899909444], [23.047000499999807, 36.85209749909411], [23.03285599999984, 36.90734849909363], [23.006945999999825, 36.96069899909314], [22.999301999999833, 37.01885399909258], [22.9682884999998, 37.066848499092195], [22.954906499999776, 37.11929299909172], [22.89741149999979, 37.11927049909172], [22.899526499999812, 37.17079699909123], [22.876859499999814, 37.24034549909059], [22.839038999999847, 37.27861799909031], [22.808881999999805, 37.33431249908978], [22.779119499999815, 37.37644549908942], [22.75168049999977, 37.43810249908889], [22.727742999999816, 37.4862479990885], [22.723907499999807, 37.541061499088016], [22.766509999999844, 37.589545999087605], [22.811059999999806, 37.54730599908798], [22.857760999999844, 37.51565549908827], [22.928722499999832, 37.5237654990882], [22.98048799999978, 37.51411799908825], [23.003972999999778, 37.46982949908863], [23.054031499999795, 37.465816499088625], [23.10307699999984, 37.453761999088755], [23.142379499999855, 37.41597749908909], [23.099038999999774, 37.39011749908934], [23.065204499999837, 37.35218049908967], [23.12432599999984, 37.341926499089716], [23.14835349999979, 37.295978499090126], [23.198907999999808, 37.29090499909022], [23.19319349999985, 37.341045499089745], [23.26745599999985, 37.34286899908971], [23.224250999999796, 37.37567499908945], [23.26815049999976, 37.406360499089175], [23.327274499999792, 37.407028499089186], [23.388320999999824, 37.411231999089146], [23.449222499999756, 37.413146999089115], [23.49942399999979, 37.424365999089055], [23.478250499999817, 37.47550599908858], [23.42284949999981, 37.50464999908832], [23.387561999999814, 37.54402149908803], [23.40590649999984, 37.594241999087615], [23.3836114999998, 37.6405029990872], [23.323621499999792, 37.6314659990873], [23.354082999999804, 37.57799499908773], [23.331979999999845, 37.532832999088136], [23.27171099999984, 37.55642149908788], [23.222438999999795, 37.58782199908761], [23.17363999999981, 37.61185199908748], [23.16059699999976, 37.663949999087045], [23.175855499999802, 37.71535899908657], [23.11913149999983, 37.73044949908643], [23.16108849999984, 37.766468499086166], [23.1590634999998, 37.817600499085756], [23.11286849999979, 37.84762499908553], [23.05378549999978, 37.844472499085484], [22.999410499999836, 37.85883499908544], [23.00939349999983, 37.91595449908496], [22.958020999999807, 37.95207599908466], [22.897664999999797, 37.93189649908487], [22.846236999999803, 37.9434964990847], [22.798825999999814, 37.96551149908458], [22.758684499999838, 38.006567999084176], [22.70807099999982, 38.04109549908398], [22.658674499999865, 38.064182499083735], [22.609704999999803, 38.08387399908359], [22.561469999999847, 38.101935999083445], [22.506767499999818, 38.12981399908328], [22.45260999999984, 38.130843999083226], [22.402039499999827, 38.134374499083194], [22.352615499999818, 38.150641999083106], [22.306464999999854, 38.17192049908299], [22.236280499999765, 38.18042399908289], [22.189101999999824, 38.20424249908267], [22.137641999999847, 38.239894999082395], [22.08811199999977, 38.255183999082256], [22.0270554999998, 38.28505299908205], [21.975906499999798, 38.319260499081764], [21.92638399999981, 38.32712949908176], [21.885635499999786, 38.325843999081734]]], [[[21.486297499999807, 38.32768649908176], [21.431396499999778, 38.327304999081726], [21.47786899999983, 38.30218499908197], [21.486297499999807, 38.32768649908176]]], [[[21.104353499999803, 38.41973849908108], [21.104353499999803, 38.41973849908108]]], [[[20.56432699999985, 38.47446099908066], [20.535865999999803, 38.43296799908092], [20.546056999999863, 38.380553999081336], [20.499353499999796, 38.32059099908181], [20.448962999999843, 38.3252179990818], [20.40100099999983, 38.35784149908148], [20.3867869999998, 38.293725999082035], [20.354009499999822, 38.25071699908235], [20.33757199999976, 38.189170999082776], [20.381133999999776, 38.15013149908305], [20.438806499999796, 38.16178499908307], [20.439397999999795, 38.22547899908253], [20.423326499999817, 38.27347199908217], [20.472844999999833, 38.22499449908251], [20.499145499999816, 38.179823999082885], [20.48922149999982, 38.12313049908331], [20.552486499999823, 38.093291999083576], [20.600171999999784, 38.11616149908336], [20.649442499999793, 38.101782999083504], [20.6967334999998, 38.07217049908372], [20.748489999999798, 38.06416299908382], [20.80006599999978, 38.07420349908368], [20.799082499999763, 38.12779849908333], [20.754348499999853, 38.182410999082876], [20.717374999999805, 38.22230149908256], [20.682046999999837, 38.263946499082266], [20.62621699999977, 38.2588464990823], [20.59776149999982, 38.30174249908197], [20.623550499999766, 38.35206599908159], [20.61091599999977, 38.40209599908118], [20.583381499999824, 38.451049999080844], [20.56432699999985, 38.47446099908066]]], [[[20.673221999999825, 38.473798999080614], [20.61944899999978, 38.47882449908064], [20.642049999999827, 38.42328849908106], [20.667403999999834, 38.37601099908137], [20.689462999999794, 38.32752049908177], [20.742004499999823, 38.308791999081926], [20.74111999999982, 38.363063999081454], [20.687614499999796, 38.369209499081414], [20.698639999999802, 38.42130649908104], [20.6704274999998, 38.46596149908075], [20.673221999999825, 38.473798999080614]]], [[[20.80740949999979, 38.476347999080645], [20.80740949999979, 38.476347999080645]]], [[[26.19049049999979, 38.54190849908013], [26.25002799999984, 38.50500499908045], [26.211756999999814, 38.53839849908015], [26.19049049999979, 38.54190849908013]]], [[[25.519321499999837, 38.53208399908026], [25.519321499999837, 38.53208399908026]]], [[[20.716512499999762, 38.538821999080206], [20.716512499999762, 38.538821999080206]]], [[[20.903379499999797, 38.54799849908011], [20.938961999999773, 38.599947499079754], [20.89766099999978, 38.567248999079986], [20.903379499999797, 38.54799849908011]]], [[[26.008172999999765, 38.60446949907969], [25.939985499999796, 38.58815749907982], [25.857202499999843, 38.58042899907989], [25.84364699999985, 38.5300789990802], [25.893072999999845, 38.47534199908064], [25.942594499999835, 38.459838999080745], [25.9627319999998, 38.40565899908117], [25.995918499999767, 38.350024999081576], [25.96452549999978, 38.29933349908197], [25.907087499999808, 38.28815849908203], [25.86605449999978, 38.25509249908232], [25.907291499999808, 38.22295399908255], [25.948538999999812, 38.19347799908275], [25.991327499999784, 38.164130999083], [26.03731349999982, 38.19849399908271], [26.095142999999858, 38.20808799908268], [26.101642499999834, 38.2672154990822], [26.150418999999832, 38.30197199908195], [26.14390199999982, 38.362521999081466], [26.133947499999795, 38.41744249908111], [26.152646999999792, 38.46423699908072], [26.15084849999984, 38.514658499080376], [26.137685999999853, 38.565593499079974], [26.085794999999827, 38.556735999080104], [26.04591199999983, 38.58880249907979], [26.008172999999765, 38.60446949907969]]], [[[25.57063049999976, 38.60966749907967], [25.5661374999998, 38.55938349908001], [25.60967449999979, 38.53382449908018], [25.619910999999796, 38.59007699907981], [25.57063049999976, 38.60966749907967]]], [[[20.95527999999981, 38.65293099907936], [20.90330299999977, 38.64672849907941], [20.86890999999981, 38.59564599907978], [20.917392499999806, 38.61458199907966], [20.96133999999984, 38.64541999907943], [20.95527999999981, 38.65293099907936]]], [[[20.78164849999985, 38.67842099907918], [20.738637499999857, 38.65193949907932], [20.770890999999818, 38.60789849907969], [20.798200499999798, 38.65032549907938], [20.78164849999985, 38.67842099907918]]], [[[24.627272499999798, 38.756608999078594], [24.627272499999798, 38.756608999078594]]], [[[24.491347499999783, 38.79814349907836], [24.491347499999783, 38.79814349907836]]], [[[24.359666999999774, 38.82858249907816], [24.359666999999774, 38.82858249907816]]], [[[20.68366049999985, 38.83447649907809], [20.631822499999764, 38.814994999078195], [20.598417499999833, 38.77532949907853], [20.58220499999982, 38.72735599907879], [20.5564214999998, 38.680907999079146], [20.55824349999983, 38.628333999079565], [20.548504499999776, 38.571486499079924], [20.588401999999814, 38.62371049907959], [20.63332949999984, 38.59774799907977], [20.684852499999796, 38.60608649907971], [20.723422999999823, 38.64222349907946], [20.723011999999827, 38.69556649907901], [20.72180949999981, 38.75091549907865], [20.726506999999817, 38.802051499078296], [20.68366049999985, 38.83447649907809]]], [[[24.576431999999823, 38.88414949907775], [24.560531999999824, 38.937715499077356], [24.504719499999783, 38.97089199907716], [24.448940999999802, 38.949101999077314], [24.45325599999978, 38.89569649907766], [24.48640249999982, 38.85429949907792], [24.535486999999804, 38.84040649907808], [24.531567499999774, 38.784974999078415], [24.592627499999764, 38.79005249907838], [24.64357149999977, 38.767938499078554], [24.68141249999983, 38.80663449907829], [24.62212999999983, 38.84959199907801], [24.570277499999797, 38.872462499077805], [24.576431999999823, 38.88414949907775]]], [[[23.296218499999803, 39.0387824990767], [23.236425499999836, 39.02360149907677], [23.182189999999803, 39.00313199907692], [23.12923999999982, 39.007640999076855], [23.087674999999827, 38.95796949907722], [23.038713499999805, 38.93758749907733], [22.992613499999848, 38.90953799907752], [22.942216999999843, 38.897544999077645], [22.879084999999833, 38.87636249907779], [22.8337859999998, 38.84822449907792], [22.886462999999754, 38.839206499077996], [22.959987499999805, 38.83611699907811], [22.96449099999983, 38.89061749907765], [23.025693999999838, 38.88293449907776], [23.063945499999846, 38.84841849907798], [23.11561599999984, 38.844272499078], [23.16955199999978, 38.84169399907802], [23.222371499999806, 38.8163564990782], [23.26467499999979, 38.78182999907845], [23.32146549999984, 38.761560499078556], [23.372920999999803, 38.71074599907897], [23.430167999999785, 38.68268599907915], [23.479497999999833, 38.63853449907944], [23.508390499999784, 38.5899694990798], [23.57067299999976, 38.572666499079915], [23.61980999999983, 38.54504449908015], [23.625215499999797, 38.48819749908053], [23.588145999999796, 38.449905499080835], [23.636958999999788, 38.41906349908109], [23.69205849999981, 38.4129754990811], [23.748222499999805, 38.4011804990812], [23.79855349999981, 38.38973599908126], [23.858968499999808, 38.399005999081155], [23.911267999999797, 38.385646499081304], [23.976956999999814, 38.39282599908128], [24.032613499999826, 38.3889999990813], [24.05937949999978, 38.341236499081624], [24.10783699999975, 38.31562049908182], [24.106202999999827, 38.2588464990823], [24.15374399999982, 38.27940399908215], [24.118372499999808, 38.22143949908256], [24.17370399999984, 38.21975699908254], [24.20734399999985, 38.17983249908289], [24.180536999999788, 38.13428699908323], [24.208481499999827, 38.0886814990836], [24.282838999999782, 38.08478949908357], [24.320549499999792, 38.04888549908393], [24.336779999999784, 37.99232199908437], [24.37798099999985, 37.96234549908457], [24.41459449999978, 38.01327899908421], [24.462118499999786, 37.99572249908433], [24.49951749999978, 37.94915949908471], [24.556897999999794, 37.97853099908445], [24.581226499999865, 38.02309399908407], [24.57828349999981, 38.075534999083715], [24.58286499999981, 38.127559499083276], [24.53009299999981, 38.144449499083166], [24.476909999999815, 38.14251899908315], [24.414274499999856, 38.15258649908304], [24.361091499999866, 38.156982499083014], [24.31250699999986, 38.182460999082835], [24.255950999999854, 38.22573449908255], [24.25636099999985, 38.28207199908206], [24.216611999999838, 38.32719049908175], [24.212381499999832, 38.379691999081345], [24.191888999999808, 38.42699449908097], [24.186704499999834, 38.484096499080536], [24.2284924999998, 38.521846999080275], [24.155215999999843, 38.56908049907999], [24.12015899999983, 38.60785649907968], [24.152370499999773, 38.646362499079416], [24.10252749999983, 38.668701499079205], [24.04704299999984, 38.68708399907913], [23.987113999999814, 38.67785649907918], [23.93545349999976, 38.6638374990793], [23.874810999999763, 38.67263999907918], [23.810487499999848, 38.694206499079094], [23.754823499999837, 38.70664599907895], [23.723726499999824, 38.74682249907869], [23.651008999999842, 38.75654599907864], [23.593316999999814, 38.76450499907852], [23.553415499999797, 38.79872499907832], [23.47549099999985, 38.83377849907807], [23.44039699999979, 38.869971999077805], [23.424521499999774, 38.922340499077464], [23.38618649999978, 38.96083049907723], [23.35372949999986, 39.009349999076846], [23.296218499999803, 39.0387824990767]]], [[[24.11554049999979, 39.05817399907653], [24.11554049999979, 39.05817399907653]]], [[[20.2494559999998, 39.139161499075975], [20.2494559999998, 39.139161499075975]]], [[[23.680164999999842, 39.15932949907584], [23.634546499999843, 39.191592999075624], [23.643953499999782, 39.13750849907599], [23.66053399999978, 39.08771249907636], [23.709792999999813, 39.07354349907641], [23.759439499999846, 39.08956899907629], [23.72433849999983, 39.127338499076046], [23.684947999999817, 39.15815349907589], [23.680164999999842, 39.15932949907584]]], [[[23.514008499999836, 39.170608499075776], [23.47453599999979, 39.20682549907552], [23.427367499999797, 39.17438149907574], [23.460817499999806, 39.128084499076046], [23.49703899999981, 39.164822499075825], [23.514008499999836, 39.170608499075776]]], [[[23.97188949999984, 39.24014299907529], [23.960009499999824, 39.189042999075674], [23.977029999999814, 39.23719399907538], [23.97188949999984, 39.24014299907529]]], [[[20.20396999999984, 39.18104899907572], [20.1690919999998, 39.22371699907539], [20.197958999999777, 39.17808299907574], [20.20396999999984, 39.18104899907572]]], [[[23.885862499999792, 39.15997649907582], [23.932560999999797, 39.207591499075576], [23.979205999999824, 39.258830999075194], [23.91555599999985, 39.249767499075226], [23.876794999999785, 39.205077999075556], [23.848125499999806, 39.157624999075864], [23.885862499999792, 39.15997649907582]]], [[[24.06689999999977, 39.34256749907471], [24.06689999999977, 39.34256749907471]]], [[[24.332031499999818, 39.36893099907451], [24.332031499999818, 39.36893099907451]]], [[[26.35111999999981, 39.37974649907447], [26.293868999999855, 39.37477049907445], [26.23553449999978, 39.38341149907438], [26.182277499999785, 39.37649699907448], [26.170394999999836, 39.32501599907478], [26.115169499999784, 39.3057174990749], [26.047201499999854, 39.29168299907498], [25.987953499999772, 39.2782394990751], [25.923791999999757, 39.280444999075044], [25.859089499999836, 39.25341149907525], [25.850152999999832, 39.18905449907564], [25.88822199999984, 39.1491584990759], [25.941702999999798, 39.12552149907609], [25.993112499999775, 39.10876849907614], [26.068902999999814, 39.087524499076345], [26.114812999999767, 39.10849749907619], [26.1411139999998, 39.15252349907595], [26.167491999999804, 39.19578899907558], [26.240718999999835, 39.2066994990755], [26.295736499999826, 39.18241099907569], [26.250938499999766, 39.1503564990759], [26.204573999999855, 39.12866599907609], [26.162046499999814, 39.09711449907626], [26.110528999999783, 39.092994499076276], [26.137559999999816, 39.0404624990766], [26.196326999999794, 39.01921449907682], [26.25897999999979, 39.01003999907682], [26.318994499999782, 38.983161999077026], [26.40390949999983, 38.96419549907717], [26.466823499999837, 38.97171399907712], [26.51775149999985, 38.971129999077135], [26.531257499999835, 39.021056999076755], [26.49325699999982, 39.05522149907651], [26.450494999999812, 39.08176799907632], [26.48754299999982, 39.119128999076125], [26.52890599999979, 39.0824354990764], [26.526380499999814, 39.02938849907674], [26.58222949999986, 39.0139119990768], [26.59382049999984, 39.06970199907647], [26.555896999999796, 39.10533499907622], [26.532773999999815, 39.15334299907589], [26.491588499999786, 39.193042499075624], [26.4520404999998, 39.236356499075356], [26.405830499999794, 39.262546499075185], [26.414143499999813, 39.323495999074794], [26.35463149999983, 39.34910599907458], [26.35111999999981, 39.37974649907447]]], [[[24.161508999999796, 39.36542099907454], [24.178392499999816, 39.41778349907417], [24.136472499999762, 39.370410999074466], [24.161508999999796, 39.36542099907454]]], [[[24.988362999999836, 39.46432849907388], [25.031570499999834, 39.505614999073664], [25.015855999999815, 39.55380249907329], [24.97081199999983, 39.50956349907358], [24.98664849999982, 39.46178449907391], [24.988362999999836, 39.46432849907388]]], [[[19.867925499999817, 39.81591699907172], [19.80395849999982, 39.79300649907186], [19.749373999999865, 39.79940399907189], [19.693822999999785, 39.79865849907185], [19.646120999999795, 39.766023999072004], [19.652337499999806, 39.715208499072354], [19.70020399999982, 39.6685299990726], [19.740984499999822, 39.62915299907288], [19.8056939999998, 39.59298149907307], [19.842053499999846, 39.55746699907333], [19.851818999999782, 39.5012504990737], [19.872592999999828, 39.453643999073996], [19.93407299999984, 39.43151349907412], [19.996167499999807, 39.40569999907427], [20.06417299999982, 39.37715799907445], [20.11194449999979, 39.36080799907453], [20.095543499999817, 39.42238499907418], [20.033273499999805, 39.43587149907408], [19.989455999999784, 39.46072349907387], [19.93575699999982, 39.47557349907385], [19.923534499999807, 39.52810549907347], [19.914608499999783, 39.579245499073124], [19.90180299999985, 39.627816499072885], [19.854730499999807, 39.648483499072746], [19.83804349999979, 39.69567049907246], [19.89985649999982, 39.72416899907225], [19.942976499999865, 39.75497499907216], [19.90341849999985, 39.79352449907192], [19.867925499999817, 39.81591699907172]]], [[[19.397068499999815, 39.86053499907153], [19.397068499999815, 39.86053499907153]]], [[[19.577071499999818, 39.875811999071416], [19.577071499999818, 39.875811999071416]]], [[[25.43698599999978, 40.0052694990707], [25.381553499999832, 40.01787449907057], [25.341563499999772, 39.980058499070736], [25.29951749999978, 39.944769999071056], [25.27249649999978, 39.98687549907076], [25.218894499999845, 39.99898249907066], [25.154829999999773, 39.988878999070785], [25.0934159999998, 39.99068899907079], [25.038672999999786, 39.988862999070804], [25.051455999999813, 39.939138499070985], [25.06092049999981, 39.87672549907142], [25.10061199999986, 39.84220949907159], [25.153081499999782, 39.84995349907156], [25.16354649999978, 39.7986299990719], [25.21442849999981, 39.79969649907185], [25.18418349999977, 39.84252099907161], [25.22364799999978, 39.87647799907136], [25.26624599999979, 39.907688499071256], [25.24689999999986, 39.86042449907144], [25.294032999999853, 39.82249249907173], [25.342443499999845, 39.78284199907193], [25.34704999999978, 39.83327099907166], [25.348099999999793, 39.88384949907132], [25.38290099999977, 39.91986349907118], [25.414493999999785, 39.96888449907086], [25.43698599999978, 40.0052694990707]]], [[[23.374940999999783, 40.140567999069894], [23.347547499999777, 40.18270499906964], [23.316551499999775, 40.14206699906993], [23.30852899999981, 40.08463649907017], [23.358907499999837, 40.03713249907049], [23.3760339999998, 39.98196049907082], [23.432880499999776, 39.96791849907088], [23.49317149999982, 39.96144799907094], [23.553754999999818, 39.93516549907108], [23.65134999999982, 39.915433999071176], [23.7142669999998, 39.90870099907119], [23.67679199999983, 39.966232499070834], [23.594375499999824, 39.99609399907069], [23.529800499999787, 40.01764299907061], [23.47187849999982, 40.049923999070444], [23.436703999999764, 40.10300449907009], [23.39692649999979, 40.13925149906995], [23.374940999999783, 40.140567999069894]]], [[[23.925113999999848, 40.31765749906893], [23.925113999999848, 40.31765749906893]]], [[[25.568062499999822, 40.51000399906792], [25.501065999999803, 40.496972499068015], [25.452772999999848, 40.46927249906819], [25.507963499999764, 40.42580199906842], [25.555973999999793, 40.39983899906851], [25.625474999999817, 40.402047999068486], [25.687488999999783, 40.42169749906838], [25.662031999999776, 40.48812049906803], [25.6100374999998, 40.50380599906797], [25.568062499999822, 40.51000399906792]]], [[[24.668412999999834, 40.78349699906657], [24.6142654999998, 40.78205099906658], [24.565461999999794, 40.76298899906669], [24.5338574999998, 40.71428649906694], [24.51108149999975, 40.66366949906722], [24.576419999999814, 40.626136999067384], [24.616391999999795, 40.59609599906749], [24.669276999999823, 40.578574999067584], [24.72717099999978, 40.602285499067456], [24.779038999999855, 40.61912499906742], [24.76309399999977, 40.6731984990671], [24.758630499999857, 40.72606299906684], [24.727954999999813, 40.76796149906671], [24.668412999999834, 40.78349699906657]]], [[[26.212547499999847, 41.73263549906259], [26.148783499999773, 41.74090549906257], [26.100893499999852, 41.713714999062674], [26.06761499999983, 41.67477699906277], [26.094673999999774, 41.627244499062954], [26.15394949999982, 41.605598499063035], [26.147407499999787, 41.554493999063276], [26.184897499999852, 41.52011899906343], [26.154968999999795, 41.47602349906359], [26.196133499999775, 41.4409729990637], [26.15891949999981, 41.3945924990639], [26.125943999999805, 41.354661499064015], [26.06791599999977, 41.34855499906408], [26.010274999999783, 41.344487499064066], [25.949988999999793, 41.32102049906424], [25.88159699999978, 41.30564399906427], [25.837555499999787, 41.33980549906412], [25.784584999999797, 41.32939449906421], [25.72348999999984, 41.318907499064196], [25.664315999999843, 41.30869849906421], [25.613256999999823, 41.30410199906423], [25.559483499999825, 41.31748599906419], [25.525430999999788, 41.27627949906438], [25.47394049999977, 41.286551499064345], [25.415630999999806, 41.264717499064446], [25.35397249999977, 41.24980849906452], [25.29671699999979, 41.245040999064514], [25.23293249999979, 41.247166999064454], [25.18779999999986, 41.29629149906425], [25.131797999999776, 41.323942499064145], [25.07696899999984, 41.34191399906413], [25.030065999999785, 41.366652499064], [24.977603999999857, 41.37584199906395], [24.917397499999787, 41.40654849906387], [24.86958699999978, 41.39093199906393], [24.81923299999983, 41.401141999063825], [24.81228299999979, 41.34863549906407], [24.757315999999804, 41.37651849906396], [24.709434999999836, 41.42090499906381], [24.659615499999784, 41.416307499063834], [24.607496499999815, 41.4280704990638], [24.57303399999978, 41.47650299906355], [24.553550499999844, 41.53098949906336], [24.5074644999998, 41.55884599906318], [24.461241499999783, 41.53851699906327], [24.407958499999786, 41.537751999063296], [24.352347999999846, 41.5236804990634], [24.301808999999775, 41.5135594990634], [24.273429999999763, 41.556787999063275], [24.21500949999985, 41.5510429990633], [24.17348499999984, 41.516267499063446], [24.11276699999981, 41.54146749906332], [24.063695499999838, 41.527026499063396], [24.07054499999982, 41.47743899906354], [24.02388899999978, 41.455804499063625], [23.971521999999805, 41.43828449906368], [23.925699999999836, 41.47514199906357], [23.879679499999796, 41.45356899906368], [23.82064299999981, 41.436764999063726], [23.767927499999864, 41.396947499063884], [23.69500299999981, 41.40449199906388], [23.647581999999804, 41.38153549906393], [23.59565199999983, 41.380125999063914], [23.5382529999998, 41.39393999906392], [23.484278999999823, 41.398724999063866], [23.42025849999984, 41.39845649906386], [23.36133399999979, 41.37791799906393], [23.309640999999807, 41.399306999063874], [23.260849999999856, 41.38571649906399], [23.228844499999816, 41.34571649906406], [23.179175999999828, 41.319453999064216], [23.122489499999766, 41.32083699906415], [23.029237499999848, 41.33368549906414], [22.971831499999855, 41.33282849906418], [22.910652999999822, 41.34117649906414], [22.840325499999803, 41.33724949906412], [22.79057749999981, 41.32888849906417], [22.756382999999836, 41.27451099906443], [22.747391999999767, 41.163033499064866], [22.677404999999762, 41.1704024990648], [22.617663999999834, 41.133597499065], [22.562107999999792, 41.131152999065], [22.506953499999835, 41.12595049906506], [22.45655399999985, 41.12040099906501], [22.40268349999982, 41.128521999065015], [22.3493884999998, 41.13561399906496], [22.288141999999834, 41.15515899906491], [22.229275499999794, 41.16490699906489], [22.171999999999848, 41.15673799906493], [22.126520499999803, 41.12481449906503], [22.080739499999765, 41.14560999906491], [22.02323349999985, 41.13303499906501], [21.964134499999847, 41.119144499065065], [21.915324999999786, 41.09308249906521], [21.905422999999836, 41.04272599906536], [21.860995499999788, 41.018727499065534], [21.814781999999855, 40.98588149906564], [21.790045499999867, 40.93786199906588], [21.735390999999808, 40.93085799906594], [21.6836354999998, 40.937954999065845], [21.645402999999853, 40.90016149906608], [21.59932599999984, 40.87145699906619], [21.531949499999826, 40.906409499065994], [21.46471899999981, 40.90682899906598], [21.365783499999836, 40.88199999906618], [21.31130149999984, 40.867000499066236], [21.25972249999978, 40.859411499066205], [21.208004999999808, 40.884009499066075], [21.1524429999998, 40.8569434990663], [20.980204499999815, 40.85566499906621], [20.984783499999875, 40.793144999066506], [20.98352699999982, 40.74085099906677], [21.026365999999797, 40.70830599906694], [21.057320499999832, 40.667159999067195], [21.05661399999982, 40.6167169990674], [21.042621999999767, 40.56604199906769], [20.998837499999812, 40.53966049906779], [20.968983999999836, 40.498313499068026], [20.92917099999977, 40.46258399906816], [20.8790754999998, 40.47387299906814], [20.8311919999998, 40.45573049906824], [20.787548499999787, 40.42861799906834], [20.790471999999827, 40.36260249906875], [20.754474499999798, 40.31445049906899], [20.713544999999815, 40.282557999069155], [20.72117149999978, 40.232403499069434], [20.6846689999998, 40.19179749906962], [20.68358649999985, 40.14100299906992], [20.650823999999794, 40.09058899907017], [20.603259499999805, 40.07304299907032], [20.549131999999826, 40.06386149907034], [20.496688499999827, 40.0665414990703], [20.4247979999998, 40.062159999070346], [20.39809299999983, 40.015887499070594], [20.329483499999846, 39.99193549907071], [20.337615999999848, 39.92399999907112], [20.38469899999978, 39.88858849907136], [20.416642999999798, 39.84172699907163], [20.38846949999983, 39.78796399907194], [20.330653499999844, 39.80734249907178], [20.292087999999783, 39.76653999907207], [20.299978999999787, 39.714071499072354], [20.264015999999778, 39.67416299907262], [20.193766999999852, 39.64472799907281], [20.136179999999804, 39.65441899907273], [20.089633999999805, 39.68217549907259], [20.038823999999778, 39.691275999072516], [20.1018809999998, 39.66216249907265], [20.14850399999978, 39.63881649907285], [20.16958799999981, 39.59235299907313], [20.136165499999848, 39.52769099907347], [20.18881049999982, 39.52515049907352], [20.262635999999816, 39.510139499073624], [20.212241999999836, 39.49127899907374], [20.276866999999832, 39.45276649907396], [20.225261499999803, 39.443137999074054], [20.248296999999823, 39.3978634990743], [20.282429999999774, 39.355949999074625], [20.310167499999825, 39.311427999074844], [20.38123099999981, 39.28136049907504], [20.432660999999797, 39.27380749907515], [20.475856999999824, 39.24660499907533], [20.532005499999773, 39.18941099907565], [20.59596949999979, 39.12365549907609], [20.64749899999984, 39.09495149907628], [20.691989999999805, 39.062347499076495], [20.715337499999798, 39.012908999076856], [20.72677599999978, 38.949634499077305], [20.778571999999762, 38.970847999077165], [20.826961499999797, 38.956744999077166], [20.77772899999982, 38.99572399907697], [20.782630999999785, 39.04886599907659], [20.772540999999823, 39.1037254990762], [20.839158999999785, 39.09610349907628], [20.85512899999981, 39.04571899907664], [20.896485499999862, 39.07394049907639], [20.947257999999803, 39.06790849907641], [20.973801999999772, 39.02443349907678], [21.02221099999982, 39.00641649907689], [21.06616199999979, 39.04080199907662], [21.117763499999846, 39.04079049907664], [21.15539399999981, 38.98987099907698], [21.14324949999976, 38.93641299907733], [21.170652499999843, 38.88599399907766], [21.122455499999838, 38.904094499077544], [21.08095549999981, 38.87095649907782], [21.034555499999808, 38.893390499077654], [20.992845499999813, 38.92689899907739], [20.94314949999977, 38.93259799907736], [20.886367999999848, 38.92070749907745], [20.81673999999979, 38.91993699907747], [20.77105899999986, 38.95349899907719], [20.761695999999834, 38.89637349907763], [20.74184199999979, 38.850245999077934], [20.731780999999824, 38.80013649907831], [20.763148999999796, 38.76081449907854], [20.838268499999824, 38.79051199907838], [20.884914499999844, 38.74859599907869], [20.900632999999832, 38.69700599907906], [20.94618399999985, 38.66937699907923], [20.991111499999782, 38.64133449907946], [21.020611999999772, 38.59990999907975], [21.012819499999836, 38.535564499080174], [21.06825299999978, 38.52250499908029], [21.083034499999787, 38.47374749908062], [21.11711499999983, 38.43333799908097], [21.11712449999982, 38.383056499081356], [21.098586999999817, 38.33415999908166], [21.146986999999825, 38.31126599908187], [21.196782999999797, 38.304645499081886], [21.250427499999784, 38.30397049908191], [21.25998299999984, 38.35684949908158], [21.321271999999773, 38.380477999081364], [21.34042649999984, 38.42844249908096], [21.301120999999846, 38.47970599908064], [21.35703299999977, 38.46099099908075], [21.36400599999985, 38.40663899908117], [21.415928499999815, 38.38529799908133], [21.412141999999868, 38.32837649908171], [21.44751949999985, 38.365112499081484], [21.486819999999785, 38.327838999081756], [21.54125799999979, 38.31535349908183], [21.588365499999796, 38.343768999081625], [21.64645399999977, 38.353984999081554], [21.70252999999977, 38.35032299908154], [21.76027099999985, 38.330779999081706], [21.792075999999827, 38.37461099908137], [21.846233999999843, 38.38589449908131], [21.89623449999977, 38.371405999081425], [21.9418694999998, 38.4057194990812], [21.994167999999792, 38.39809049908117], [22.051316999999838, 38.394901499081215], [22.11072599999983, 38.3676869990814], [22.158233499999803, 38.34862899908155], [22.226804999999842, 38.35734549908158], [22.277185499999852, 38.34136199908163], [22.349995999999795, 38.34984199908155], [22.40262599999977, 38.36387249908147], [22.41649999999983, 38.41202149908115], [22.46795049999982, 38.40991849908113], [22.5129889999998, 38.3613584990815], [22.5364514999998, 38.31610099908186], [22.5733889999998, 38.28176699908206], [22.590553499999796, 38.33436199908167], [22.646808499999775, 38.36151499908148], [22.684610499999806, 38.325721499081716], [22.744690999999836, 38.29816799908199], [22.79750449999981, 38.275195999082165], [22.804940999999776, 38.22556299908256], [22.860356999999787, 38.23260549908247], [22.903291499999845, 38.19836049908276], [22.952508999999818, 38.18794999908283], [23.005660999999822, 38.21122349908266], [23.04687499999981, 38.17684949908291], [23.106694999999785, 38.20505149908272], [23.15229099999979, 38.16329949908304], [23.221717999999825, 38.157004999083014], [23.177208499999832, 38.13407649908323], [23.2152769999998, 38.09932699908354], [23.169101499999808, 38.07354199908368], [23.115251999999828, 38.05964699908376], [23.056620499999784, 38.052179499083856], [23.002205499999814, 38.06103149908381], [22.94894199999983, 38.07769099908364], [22.885329499999852, 38.04925049908393], [22.93066099999982, 38.00262899908425], [22.975883999999784, 37.978277499084435], [23.00362449999981, 37.920656499084956], [23.057176999999818, 37.91461799908499], [23.133436999999805, 37.920439499084864], [23.196064999999855, 37.95439499908468], [23.242550499999826, 37.97574749908446], [23.29604899999981, 37.971760999084516], [23.355499499999855, 37.9777779990845], [23.420163499999795, 37.9691434990845], [23.45115549999982, 38.02364499908409], [23.49942499999979, 38.037612999084004], [23.558342499999785, 38.04069249908396], [23.592403499999815, 38.002559499084285], [23.55516749999981, 37.96446249908457], [23.605826999999813, 37.961091499084574], [23.653039499999803, 37.93226899908477], [23.699928499999768, 37.91453099908498], [23.7311974999998, 37.87392049908525], [23.76925099999977, 37.83386599908559], [23.82632049999981, 37.809837499085766], [23.883292499999772, 37.78821949908595], [23.90353549999985, 37.73310649908643], [23.939514999999812, 37.68236749908682], [23.985870999999815, 37.66215649908698], [24.04192949999978, 37.667756499086934], [24.061123999999786, 37.717818999086504], [24.08079549999983, 37.76642399908613], [24.05703199999979, 37.816289499085755], [24.042225999999797, 37.86660549908535], [24.03190699999981, 37.92109599908492], [24.006458499999795, 37.965114499084585], [24.008957999999836, 38.022744999084054], [23.983737499999766, 38.08805949908356], [24.033556999999814, 38.141258499083136], [24.079524999999776, 38.16165199908297], [24.05210999999977, 38.20666299908264], [23.99858099999984, 38.24673749908236], [23.960728999999848, 38.280118999082056], [23.906877499999794, 38.29850049908198], [23.854547499999768, 38.30787649908186], [23.794234999999812, 38.32160199908178], [23.740417499999808, 38.334701499081696], [23.67777999999986, 38.33965299908163], [23.63734649999979, 38.37417599908144], [23.59667699999982, 38.41877299908104], [23.588590499999807, 38.47573849908067], [23.54019649999984, 38.51028999908035], [23.489469499999846, 38.486640999080535], [23.428203999999816, 38.49658949908045], [23.368299499999782, 38.51070399908041], [23.31803799999984, 38.557582999080005], [23.340513499999805, 38.6050224990797], [23.302591499999792, 38.64311199907945], [23.246009999999803, 38.64649949907937], [23.20052049999982, 38.678058999079155], [23.14334099999983, 38.646224999079415], [23.085723999999786, 38.641391999079424], [23.06047249999982, 38.69775849907907], [23.039283499999804, 38.747932499078686], [22.96740349999985, 38.74527349907869], [22.920432999999804, 38.769906499078466], [22.86615949999983, 38.75444799907861], [22.8246669999998, 38.78790599907843], [22.76662849999979, 38.78058999907844], [22.726162999999826, 38.82215549907818], [22.66836899999979, 38.83743899907805], [22.611560999999806, 38.82246399907813], [22.557079499999844, 38.83332849907806], [22.550224499999846, 38.88394949907773], [22.603938999999762, 38.90903099907758], [22.66137699999983, 38.887790499077724], [22.724353999999803, 38.87541949907775], [22.775794999999807, 38.8810539990777], [22.831437999999768, 38.889121999077645], [22.874660499999855, 38.92256149907745], [22.93991649999984, 38.92816099907745], [22.99051099999979, 38.94419099907724], [23.015187999999835, 38.989902499077004], [23.060775999999795, 39.02313999907679], [22.997242999999823, 39.01832849907681], [22.9823549999998, 39.07899849907635], [22.946606999999812, 39.12155899907609], [22.907000999999816, 39.163286499075824], [22.850267499999774, 39.154559999075865], [22.822810999999803, 39.20723349907554], [22.816400499999816, 39.265178499075155], [22.862563999999786, 39.28605649907506], [22.935296999999803, 39.29489499907498], [22.941312999999834, 39.346587999074636], [22.993482499999807, 39.35039899907463], [23.042093499999783, 39.31508649907484], [23.094896499999773, 39.31028349907484], [23.141666499999836, 39.29064549907494], [23.18154499999982, 39.24900799907527], [23.205224999999785, 39.19465649907568], [23.206151999999836, 39.144088499075934], [23.150691999999825, 39.132220999076054], [23.107675499999825, 39.100036499076246], [23.1062699999998, 39.153182999075895], [23.064631499999766, 39.11615199907613], [23.122131499999814, 39.08411049907633], [23.173381499999827, 39.10239399907625], [23.22525199999984, 39.11189249907615], [23.272893999999848, 39.14094149907598], [23.32420649999979, 39.15193749907587], [23.333068999999792, 39.210548499075514], [23.30750299999983, 39.25563399907519], [23.27516749999984, 39.29595199907494], [23.240369499999847, 39.339546999074656], [23.202607999999792, 39.37618049907448], [23.167148499999776, 39.412025999074245], [23.11507699999983, 39.462238999073854], [23.061195499999776, 39.51863449907355], [23.01147599999983, 39.536020999073415], [22.965543999999824, 39.56153149907325], [22.909066999999784, 39.61350649907298], [22.888824999999795, 39.67835649907256], [22.86651949999986, 39.73291849907227], [22.851812999999844, 39.79835149907185], [22.805131999999865, 39.823104999071674], [22.75322599999984, 39.86236099907143], [22.713826499999794, 39.90951649907125], [22.676041999999782, 39.97054699907085], [22.611858499999816, 39.999038499070664], [22.58380649999986, 40.04287349907047], [22.568404999999803, 40.09812099907016], [22.54928449999979, 40.157473499069866], [22.5882444999998, 40.207463999069496], [22.599473999999812, 40.27094949906919], [22.626709499999798, 40.317642499068945], [22.66010899999981, 40.35549299906879], [22.615579999999802, 40.4018729990685], [22.594727499999834, 40.453651999068214], [22.653382499999786, 40.468152499068175], [22.656467499999778, 40.52156849906788], [22.70644199999986, 40.51201249906792], [22.741486999999776, 40.55849649906772], [22.791815999999788, 40.56393649906765], [22.853007999999864, 40.589817999067584], [22.876456999999814, 40.63742749906732], [22.93225449999977, 40.63541949906728], [22.934583499999828, 40.57942249906762], [22.979860499999813, 40.55300149906773], [22.93326099999983, 40.512278499068], [22.86727499999984, 40.50085649906801], [22.816337499999843, 40.50193049906797], [22.854844999999802, 40.46629999906819], [22.89042299999985, 40.41007949906843], [22.944397999999822, 40.38068349906863], [22.996489499999825, 40.35471549906875], [23.041931999999832, 40.31743299906892], [23.103835999999845, 40.298591499069], [23.173271999999823, 40.27114699906919], [23.23054299999984, 40.25168499906935], [23.293296499999794, 40.23635849906936], [23.334190499999774, 40.19734199906959], [23.387053999999797, 40.273414499069204], [23.43824349999978, 40.270218999069236], [23.495626499999823, 40.25901399906927], [23.548768999999837, 40.236098999069384], [23.61493699999978, 40.22881299906939], [23.67541899999982, 40.2089004990695], [23.714494499999798, 40.177345499069695], [23.746437999999863, 40.1352959990699], [23.79124249999983, 40.08999999907018], [23.812743999999853, 40.04288099907047], [23.855220999999805, 40.01561749907063], [23.902347499999788, 39.98467649907082], [23.934962999999858, 39.939967999071044], [23.99412449999979, 39.95388199907096], [24.01692949999984, 40.0050999990707], [23.98704149999985, 40.04766849907044], [23.981706499999767, 40.10164649907007], [23.933835999999864, 40.13989249906988], [23.882420999999784, 40.16792299906975], [23.824001499999785, 40.180652499069744], [23.774591499999865, 40.19285599906962], [23.737750999999808, 40.23001499906945], [23.704280999999828, 40.26938649906919], [23.700382499999854, 40.3219909990689], [23.74001099999984, 40.35359949906879], [23.80920999999984, 40.35605649906878], [23.86542849999981, 40.369510499068646], [23.915332999999784, 40.36498099906872], [23.98004699999986, 40.325733499068924], [24.039703499999806, 40.293457499069056], [24.10372149999976, 40.28954699906908], [24.156224999999758, 40.28371449906916], [24.222715499999733, 40.21750999906949], [24.25860399999981, 40.177650499069706], [24.29156499999977, 40.137309999069906], [24.341472499999817, 40.12621699906997], [24.394834499999785, 40.136760499069915], [24.37377949999976, 40.19295899906961], [24.330514999999753, 40.22154999906943], [24.286370999999807, 40.246616499069326], [24.25348449999979, 40.29570399906902], [24.19413399999976, 40.320422999068946], [24.15303599999977, 40.357005999068726], [24.101871499999817, 40.3608659990687], [24.05139149999974, 40.3856469990686], [24.02286149999976, 40.42895499906833], [23.99588599999979, 40.38190099906865], [23.94224349999979, 40.38148099906862], [23.8892364999998, 40.39530949906857], [23.84693349999986, 40.43951399906833], [23.820346999999835, 40.48754499906805], [23.879828999999816, 40.518615499067906], [23.83372099999982, 40.55707149906777], [23.784053999999777, 40.5924374990675], [23.756864499999775, 40.63456349906735], [23.709583499999795, 40.663505499067156], [23.711482999999845, 40.721214499066896], [23.76249499999979, 40.75680549906669], [23.81241999999978, 40.7782264990666], [23.872754999999824, 40.7779119990666], [23.93875149999979, 40.74984349906675], [24.000312999999796, 40.7305584990669], [24.049648499999762, 40.71889499906692], [24.117221499999783, 40.732757999066806], [24.19615549999977, 40.77084749906664], [24.27185049999981, 40.80350499906647], [24.338040999999844, 40.82500849906638], [24.316611999999783, 40.87763999906614], [24.364760999999813, 40.90455849906606], [24.409465999999814, 40.93498599906588], [24.462350499999797, 40.9427219990659], [24.54187949999981, 40.95614999906576], [24.58357449999981, 40.907012999066005], [24.627527499999847, 40.85849749906625], [24.682311999999833, 40.87033849906618], [24.739978999999835, 40.854102999066214], [24.79867749999983, 40.845683999066345], [24.855655499999852, 40.89025099906608], [24.90556349999985, 40.92040949906594], [24.965675999999778, 40.93351999906592], [25.02846499999983, 40.976324999065724], [25.07791949999979, 41.00479549906562], [25.128371499999858, 40.99960249906558], [25.16374449999982, 40.949517999065776], [25.2133269999998, 40.941158499065864], [25.26511649999977, 40.92215049906592], [25.313780999999825, 40.94494349906586], [25.372657499999807, 40.91582449906593], [25.454622499999843, 40.89775849906603], [25.50736899999978, 40.880058999066165], [25.564758999999782, 40.85952549906622], [25.614761499999787, 40.863963999066186], [25.707240499999788, 40.84803749906627], [25.77623699999981, 40.85093849906624], [25.844057499999796, 40.84739749906627], [25.91199049999985, 40.84771799906632], [25.975334499999818, 40.83070749906635], [26.007900999999823, 40.792212999066585], [26.035883999999843, 40.74593899906674], [26.09379249999985, 40.73462799906681], [26.128096999999777, 40.77219499906665], [26.169147999999772, 40.81201049906647], [26.213666499999803, 40.836317999066374], [26.22387049999978, 40.890464499066084], [26.274659999999802, 40.894141499066095], [26.310210999999835, 40.930476499065904], [26.359038999999818, 40.947176499065854], [26.327637999999787, 40.98817499906567], [26.367792999999818, 41.02005999906556], [26.32997299999981, 41.05311199906535], [26.33501299999981, 41.10399349906511], [26.32892799999976, 41.15373199906489], [26.320170999999785, 41.207519499064674], [26.333630499999828, 41.25883999906443], [26.388744499999806, 41.2531274990645], [26.443449499999787, 41.28246049906435], [26.48851949999979, 41.308183499064235], [26.531946499999822, 41.34220599906414], [26.597049499999848, 41.32267649906421], [26.63034599999978, 41.364216499064], [26.63011649999979, 41.41582149906377], [26.602000999999817, 41.47650699906353], [26.59220449999981, 41.5295149990634], [26.598900999999834, 41.57938599906315], [26.529821499999773, 41.621566499063015], [26.489558499999777, 41.65328399906283], [26.44798599999979, 41.68423399906273], [26.39319799999978, 41.68910449906273], [26.34726349999984, 41.711588999062634], [26.27966749999978, 41.713426999062655], [26.233892999999846, 41.73814749906256], [26.212547499999847, 41.73263549906259]]]]}}]}