{"type": "FeatureCollection", "features": [{"type": "Feature", "properties": {"code": "GRD", "name": "Grenada", "tier": "country"}, "geometry": {"type": "MultiPolygon", "coordinates": [[[[-61.70953675, 12.011943259961713], [-61.6861479, 12.015184], [-61.6656454, 12.0215613], [-61.6485747, 12.0333481], [-61.6362622, 12.0499082], [-61.6262445, 12.0682613], [-61.621759, 12.0894675], [-61.6268156, 12.1117479], [-61.6078057, 12.125036], [-61.6086967, 12.1493485], [-61.6020008, 12.1688004], [-61.6035371, 12.1899848], [-61.6095453, 12.215773], [-61.6250975, 12.2298292], [-61.6544728, 12.2346285], [-61.6758663, 12.225115], [-61.6912802, 12.2114337], [-61.7171482, 12.1910057], [-61.7274681, 12.1694381], [-61.7351242, 12.1509119], [-61.7492341, 12.1308091], [-61.7459177, 12.108682], [-61.7616041, 12.0887969], [-61.75263, 12.0707045], [-61.755511, 12.0479374], [-61.7582895, 12.0263943], [-61.7858024, 12.010694], [-61.7683832, 11.9977501], [-61.7472174, 12.0051213], [-61.7260012, 12.0019056], [-61.7053838, 11.9986346], [-61.7175203, 12.0153244], [-61.70953675, 12.011943259961713]]], [[[-61.5847459, 12.2922792], [-61.5769354, 12.313613], [-61.5961185, 12.2993822], [-61.5847459, 12.2922792]]], [[[-61.4388789, 12.4551176], [-61.43198, 12.4791388], [-61.4226845, 12.4985552], [-61.4290961, 12.5238354], [-61.45024, 12.5168701], [-61.45482, 12.4965399], [-61.4668709, 12.478999], [-61.493512, 12.4726356], [-61.4850319, 12.4535441], [-61.4997036, 12.4357867], [-61.4802872, 12.4485628], [-61.4551629, 12.4580112], [-61.4388789, 12.4551176]]], [[[-61.3947763, 12.5196298], [-61.3947763, 12.5196298]]]]}}]}