{"type": "FeatureCollection", "features": [{"type": "Feature", "properties": {"code": "GTM", "name": "Guatemala", "tier": "country"}, "geometry": {"type": "Polygon", "coordinates": [[[-90.45464259999996, 17.815429], [-90.49104349999998, 17.8165947], [-90.98771559999994, 17.815343799999976], [-90.98839259999991, 17.500792299999983], [-90.98743309999993, 17.251291500000036], [-91.43977719999992, 17.250842], [-91.42877129999994, 17.2185486], [-91.40337249999995, 17.20462019999997], [-91.37640319999996, 17.204857599999983], [-91.35445539999996, 17.19051729999998], [-91.350259, 17.164522499999972], [-91.33196007621534, 17.17667932105868], [-91.308983, 17.1793998], [-91.284785, 17.1780934], [-91.26311689999991, 17.16446310000003], [-91.272088, 17.143866199999984], [-91.2705676, 17.11596140000004], [-91.25629629999992, 17.101039499999963], [-91.23445849999996, 17.100587400000038], [-91.21725239999998, 17.0765855], [-91.210307, 17.0530781], [-91.18984929999998, 17.034845099999966], [-91.17525319999996, 17.015704], [-91.154403, 17.00487], [-91.12771929999992, 17.006164699999974], [-91.12223529999994, 16.983022299999988], [-91.104409, 16.970200599999956], [-91.09320189999997, 16.9518194], [-91.07404269999995, 16.93695489999997], [-91.0740410415821, 16.9127447814473], [-91.04853189999993, 16.898459500000033], [-91.01673579999998, 16.888076], [-90.99387359999992, 16.87705780000001], [-90.985063, 16.897954], [-90.96500929999998, 16.9015], [-90.95450919999992, 16.8844741], [-90.97228711375625, 16.870702110467032], [-90.95004679999992, 16.86540370000004], [-90.93193011697541, 16.854069994793345], [-90.92605659999995, 16.8331707], [-90.89590869999995, 16.824835700000033], [-90.87492139999993, 16.822752399999967], [-90.85397869999996, 16.797610600000016], [-90.82616959999994, 16.796788899999974], [-90.80370687939299, 16.798380716604637], [-90.80285599235323, 16.776601617412094], [-90.77969482863936, 16.76744901552442], [-90.75846439999991, 16.75934469999997], [-90.7248830369273, 16.73097931097302], [-90.7078886, 16.71736409999997], [-90.68179609999999, 16.6884778], [-90.67652819999994, 16.6616737], [-90.65811759999995, 16.6403346], [-90.66063879999993, 16.619661300000026], [-90.65389979999993, 16.5941213], [-90.62606859999995, 16.57774349999998], [-90.64280234232207, 16.566468358282453], [-90.64902519999994, 16.545049900000024], [-90.646082, 16.51900350000001], [-90.61968909999996, 16.5221304], [-90.605928, 16.50272710000004], [-90.6239683636799, 16.487224677666028], [-90.59752749999994, 16.49116529999998], [-90.59168009999992, 16.471123300000016], [-90.57023909999992, 16.47503940000003], [-90.54952469999994, 16.4831757], [-90.53748629999996, 16.4631742], [-90.51362029999997, 16.470255299999963], [-90.49695570796858, 16.45349989499873], [-90.47890129999993, 16.44343409999997], [-90.48751131602293, 16.42488076327781], [-90.45900929999995, 16.42128510000002], [-90.42013439999997, 16.424564], [-90.40864289999995, 16.404296800000033], [-90.38987819999997, 16.413296899999967], [-90.40171383335709, 16.396659266237272], [-90.38605989999998, 16.3768052], [-90.37545068265693, 16.358666742337828], [-90.39683549730873, 16.372607329449355], [-90.41324239640876, 16.35484891997238], [-90.38372879999991, 16.345122800000038], [-90.40464222095022, 16.33007836539057], [-90.41316601132321, 16.30607372981751], [-90.43842085861425, 16.299788223618165], [-90.4409062766133, 16.278796235881636], [-90.4234417371292, 16.258579674676803], [-90.44700632794802, 16.25989817158943], [-90.43852226425405, 16.24008143378414], [-90.45254994062839, 16.222089867605842], [-90.45377469999991, 16.1856321], [-90.4316603999999, 16.177285], [-90.43940478679424, 16.15446423478683], [-90.43171179999999, 16.129961399999974], [-90.45408393352758, 16.12431669887612], [-90.45679789999994, 16.101786], [-90.43244159999998, 16.107118800000013], [-90.44112859999993, 16.088299], [-91.10756466940613, 16.07335577233026], [-91.73123664445467, 16.07271201147266], [-91.89159697029226, 15.802481012410833], [-92.080203453998, 15.480205199991019], [-92.11554713945756, 15.426746563121256], [-92.1619186077975, 15.341758918213603], [-92.20982144709735, 15.26087124530057], [-92.05927979999996, 15.07082080000001], [-92.06990032120821, 15.049999485608804], [-92.07910897536173, 15.031323774450549], [-92.09728007127983, 15.014041523084646], [-92.11750042463933, 15.013847386981098], [-92.13554050346433, 15.003463217935302], [-92.15052573273228, 14.986800402149118], [-92.14601719999997, 14.959230799999983], [-92.14280687199717, 14.938870389527718], [-92.14162439656235, 14.916143060595825], [-92.13701319248618, 14.896397281781308], [-92.14656279999991, 14.8702054], [-92.16465930793474, 14.860423438100582], [-92.18073206802133, 14.847619635110558], [-92.17983130212559, 14.821048883111214], [-92.16857521973942, 14.786959004355086], [-92.15892519999996, 14.768843099999966], [-92.1695796999999, 14.7452243], [-92.14756503099046, 14.716353320791146], [-92.14265150375365, 14.68951785048817], [-92.14690956938672, 14.667806215308314], [-92.15781966907129, 14.647701810560491], [-92.17257759999997, 14.6277671], [-92.18182942435878, 14.590035979956799], [-92.19160713520066, 14.569258632339281], [-92.21507318615343, 14.555155454666739], [-92.22642863135775, 14.532204525403706], [-92.20332268894663, 14.514172194322132], [-92.17733749999991, 14.495553899999962], [-92.13239946618019, 14.464102423242757], [-91.9997552999999, 14.3614017], [-91.94727, 14.31677], [-91.92120269999995, 14.299084399999977], [-91.89835159999991, 14.279811100000021], [-91.88373829999996, 14.295787799999975], [-91.89645, 14.27918], [-91.87513, 14.26388], [-91.85527989999996, 14.26997], [-91.83548989999997, 14.26627], [-91.85313, 14.252699900000014], [-91.81753155313883, 14.220206651693516], [-91.79837438942604, 14.199785680331349], [-91.75409009999997, 14.175940099999977], [-91.72171, 14.15825], [-91.64086692186615, 14.107426803400795], [-91.59569626379023, 14.076755920276522], [-91.54802205714931, 14.048524491004503], [-91.46793632621461, 14.01813509535436], [-91.33635, 13.961810700000036], [-91.29446601379297, 13.94771788034656], [-91.21525989999996, 13.93066], [-91.137198, 13.9206767], [-91.08380019999993, 13.915814], [-91.041247, 13.914103499999968], [-90.95196989999997, 13.91353], [-90.907495, 13.910982], [-90.88579, 13.91437990000001], [-90.8093, 13.9175701], [-90.7846125999999, 13.914791599999969], [-90.7661243999999, 13.924487800000033], [-90.7375856999999, 13.926320599999979], [-90.71732719999997, 13.927359100000018], [-90.66542449999994, 13.9268371], [-90.63280619999992, 13.9234097], [-90.59264579999997, 13.91667290000002], [-90.53658, 13.90518], [-90.48688869999992, 13.890304199999985], [-90.42006069999991, 13.867468599999981], [-90.37144, 13.84759], [-90.35062794637928, 13.837463116946218], [-90.32525309999997, 13.8275685], [-90.25096225199594, 13.795040236420856], [-90.20055824894042, 13.774294394025237], [-90.17865304130979, 13.77025092233967], [-90.14054, 13.747949900000027], [-90.12056189999997, 13.743833699999978], [-90.09429459999998, 13.7519471], [-90.10298340997763, 13.772016786418899], [-90.11782049999991, 13.788841499999986], [-90.10738399589773, 13.808871323275966], [-90.11217549999992, 13.83458160000001], [-90.09584484205435, 13.85094483311348], [-90.08126769999994, 13.87704320000002], [-90.054156, 13.890174800000025], [-90.0355700703777, 13.903803042903988], [-90.03098656331225, 13.924451381583395], [-90.01481349999993, 13.944226799999974], [-89.99592529999995, 13.956305199999967], [-89.97530449999998, 13.964900299999965], [-89.959855, 13.978232100000014], [-89.9386547999999, 13.9869096], [-89.928103, 14.0064862], [-89.90764429999993, 14.01388380000003], [-89.90074757029518, 14.033673427857078], [-89.87825789999997, 14.041776400000032], [-89.85726329999997, 14.052732199999955], [-89.8367917, 14.0565724], [-89.8165239, 14.063113799999975], [-89.79481769999991, 14.047675], [-89.77884629999996, 14.033558], [-89.75811669999993, 14.031814700000027], [-89.737473, 14.031734], [-89.74535409999991, 14.050311799999974], [-89.7399191999999, 14.0757636], [-89.72556469999998, 14.119211299999971], [-89.71406909999997, 14.1379756], [-89.671253, 14.174953599999977], [-89.63004189999992, 14.2042558], [-89.59426359999992, 14.201897], [-89.57210679999994, 14.2065241], [-89.55297969999991, 14.218596500000029], [-89.53075239999997, 14.2184094], [-89.52230459252331, 14.240723339704246], [-89.5442965333511, 14.266085622137574], [-89.5451358999999, 14.289311400000042], [-89.55732843165265, 14.307035935407956], [-89.57799489551724, 14.313951401727103], [-89.59178879999996, 14.3329445], [-89.57409169999995, 14.352692200000032], [-89.580501, 14.3737003], [-89.57844439999994, 14.4048197], [-89.54258539999991, 14.416139600000026], [-89.53322659999996, 14.391641599999964], [-89.51174579999997, 14.398232300000029], [-89.49140829999997, 14.419989599999987], [-89.47072439999992, 14.429600600000018], [-89.446368, 14.4204727], [-89.4262573999999, 14.417106900000036], [-89.41162359999994, 14.4327016], [-89.393536, 14.450985499999984], [-89.3850857308407, 14.42762840401181], [-89.35537095911022, 14.421382535056619], [-89.35131917591725, 14.444636172057994], [-89.35634859999998, 14.465328], [-89.33911809999992, 14.47692150000001], [-89.3156058999999, 14.4893766], [-89.3054724999999, 14.506925700000021], [-89.28536129999998, 14.5216329], [-89.27628469999993, 14.542314499999957], [-89.2567152999999, 14.560344900000015], [-89.245214, 14.577924800000012], [-89.2042083999999, 14.583272199999968], [-89.1777402999999, 14.5732003], [-89.15675469999994, 14.580998200000021], [-89.14947099343058, 14.603084890399469], [-89.14689915112986, 14.626046641330241], [-89.15526320713356, 14.652429670114834], [-89.15670379999999, 14.67340310000002], [-89.13189476996459, 14.711341484215438], [-89.16349668668069, 14.72787106508288], [-89.1690976677804, 14.77400375462991], [-89.1943916999999, 14.797237099999975], [-89.22237569635571, 14.829928378720851], [-89.22824384657888, 14.873152484387912], [-89.21429909999992, 14.890955], [-89.19375339999993, 14.90160320000004], [-89.17929014884463, 14.917288954796241], [-89.17522469999994, 14.941298699999976], [-89.16438859999998, 14.9598428], [-89.156696, 14.979359600000024], [-89.17814656564379, 14.99146744939032], [-89.17945179999994, 15.011445], [-89.17529979999995, 15.03662490000001], [-89.15589447873309, 15.0520202738523], [-88.97445069403834, 15.136017605507483], [-88.845633, 15.243200499999958], [-88.67821549999996, 15.342336700000018], [-88.60520579999998, 15.41323679999999], [-88.58485319999998, 15.42175930000002], [-88.56465017412934, 15.435915522665226], [-88.53173708587158, 15.463986641019282], [-88.50270143627625, 15.492677381317314], [-88.471972, 15.5131087], [-88.34457589999998, 15.61853849999996], [-88.32947349999998, 15.639423300000026], [-88.32553334870133, 15.664504373358039], [-88.31243559999997, 15.68015550000003], [-88.28213319999998, 15.675076800000014], [-88.26890069999997, 15.691318], [-88.24910669999993, 15.688142], [-88.24241523697918, 15.708571811280418], [-88.22704087626283, 15.723140144486695], [-88.25268066693867, 15.731069402138413], [-88.2707902132899, 15.742313820372981], [-88.30465509999996, 15.774079300000025], [-88.32795869999997, 15.790300400000039], [-88.3681950999999, 15.815141100000034], [-88.43054369999992, 15.84663779999999], [-88.4548210701415, 15.861679162737634], [-88.50394033085811, 15.896914032303748], [-88.54452849835708, 15.936106129940335], [-88.59099822128931, 15.961589509614342], [-88.62049971351462, 15.96411332002629], [-88.61124009999992, 15.93615], [-88.59147009999991, 15.92652], [-88.57302989999995, 15.91661], [-88.5497, 15.89514], [-88.53998009999992, 15.876280099999988], [-88.52025, 15.8721701], [-88.49485009999994, 15.855089899999967], [-88.49920802204095, 15.834397599884024], [-88.52346995807352, 15.839405512077047], [-88.54418240597619, 15.84713642978545], [-88.56366203716526, 15.85346047700708], [-88.56327, 15.82499], [-88.56974909975648, 15.779581064468566], [-88.58347460483094, 15.761776100122564], [-88.590276064655, 15.74025964184668], [-88.60291669999994, 15.717914200000031], [-88.62025178479351, 15.693307868717625], [-88.64178271034353, 15.694766917190776], [-88.64650949999992, 15.714790500000035], [-88.63454949999996, 15.732460500000027], [-88.62726042171305, 15.751594663992911], [-88.64931324719238, 15.759140613680415], [-88.67899914515256, 15.779993917813322], [-88.7172481546167, 15.803248058946899], [-88.74089885663548, 15.809046054813518], [-88.76575188807499, 15.801916323922153], [-88.77636592911182, 15.773697503436239], [-88.79746485657539, 15.778849621770956], [-88.8181572002737, 15.773992892541415], [-88.8363386975998, 15.764231051885861], [-88.84391167879456, 15.742479470873498], [-88.85854722762883, 15.72616863049107], [-88.87630291621119, 15.707143882968026], [-88.8893942469923, 15.684744699103874], [-88.9108487037901, 15.692130361241034], [-88.93620381442453, 15.694257970190943], [-88.94828201560952, 15.67642294240165], [-88.96872355561669, 15.668174727007493], [-88.992019605789, 15.664928052428444], [-88.99394427106664, 15.640516991506985], [-88.98115767366504, 15.62394888269835], [-89.0038900938861, 15.607654800107255], [-88.99976504752809, 15.576606180855538], [-88.98627135004152, 15.553756512260357], [-88.98257613185186, 15.525587108808018], [-88.98842606496098, 15.50380482034183], [-89.01137379392408, 15.488057706805318], [-89.02720588400115, 15.470638127411622], [-89.0494230466829, 15.452397099650376], [-89.07181156198033, 15.439515087094328], [-89.08593935616499, 15.424030487253841], [-89.1105465595806, 15.417949290780168], [-89.14332229738706, 15.405557046930866], [-89.17242761362321, 15.405981815934748], [-89.2021781589321, 15.407040923234831], [-89.23275063422018, 15.4131383756316], [-89.25935265767926, 15.415869126908703], [-89.26499255843731, 15.38978271119306], [-89.27739190805015, 15.370173106875999], [-89.30322985520363, 15.35920416599578], [-89.32913142426555, 15.36747944943339], [-89.34029298031545, 15.385379462093411], [-89.3254969253599, 15.399922885421706], [-89.34290178628714, 15.411030502226712], [-89.32238265350333, 15.424992736405223], [-89.33776725113782, 15.444002322328913], [-89.36452191518995, 15.449641189977996], [-89.35451254919577, 15.469686024277156], [-89.37432244931429, 15.465293926830263], [-89.39483631570849, 15.450851959701499], [-89.38995823127662, 15.472927403880814], [-89.41205781440367, 15.453451083953677], [-89.40040246739125, 15.476903900590504], [-89.38430271816848, 15.49455997702686], [-89.36174687233951, 15.510742993678932], [-89.339430536715, 15.521015977324996], [-89.31302323960688, 15.530389879790178], [-89.29818273814112, 15.516963797068499], [-89.27428342123794, 15.517679270841793], [-89.25488847048699, 15.530673122993825], [-89.24388270119658, 15.551430626631106], [-89.2246770158561, 15.571464454701005], [-89.20071548828057, 15.56776619066315], [-89.17938724920359, 15.578863757737864], [-89.1585846891518, 15.566542606667781], [-89.13170351248176, 15.568664307406614], [-89.11612914340542, 15.58144178501352], [-89.09321956551884, 15.580812372187928], [-89.0705246349448, 15.58813388560755], [-89.05633516390843, 15.603217788379535], [-89.04017312492299, 15.616223549248424], [-89.0087552140244, 15.627319705999724], [-89.00173503260058, 15.649513768558158], [-88.99660364909332, 15.669801166591395], [-88.97715171583683, 15.67862072064629], [-88.95672814012575, 15.68360661783456], [-88.95042804288238, 15.70770841978825], [-88.92966640129005, 15.720366847137061], [-88.91178567061857, 15.729651319069308], [-88.8928702075619, 15.741398371219077], [-88.8754367701492, 15.752334780321313], [-88.86206769646519, 15.771006893682308], [-88.84686283010038, 15.784008563761269], [-88.82698700516976, 15.787525103969273], [-88.81060571729816, 15.772890242425401], [-88.79228726197974, 15.783425840705327], [-88.77355498264939, 15.790567011908944], [-88.75923403693618, 15.810028852677942], [-88.74758419999998, 15.826346], [-88.79433231877485, 15.858534519864868], [-88.81528138637806, 15.863520549420766], [-88.83692295985526, 15.86300035695282], [-88.8610643635369, 15.85991119844951], [-88.88209735469745, 15.860961087594198], [-88.90622611494736, 15.892745547891966], [-88.93259127383662, 15.889148485874031], [-88.95690580559305, 15.88693977073791], [-88.98280343035702, 15.894840665515623], [-89.0028752968628, 15.89717318049341], [-89.03136039973543, 15.910464251710891], [-89.0498042474305, 15.90091293853159], [-89.07394631256045, 15.908846215421939], [-89.10257462555515, 15.911829614736554], [-89.115823, 15.896008], [-89.13273437752416, 15.906690751624978], [-89.14974235842675, 15.895986371927854], [-89.16857149999996, 15.906129399999973], [-89.18761859159075, 15.897351194988467], [-89.20814726048967, 15.897629362361691], [-89.21647371870351, 16.063139629091864], [-89.19235977121778, 16.43033291322488], [-89.16748381810082, 16.794048454508108], [-89.15223541336408, 17.049801580072714], [-89.15143943932851, 17.11946796577867], [-89.15327138264635, 17.327970974598276], [-89.15688627615852, 17.815625089107005], [-89.7434077999999, 17.815544399999965], [-90.24549849999994, 17.815825799999978], [-90.3650472999999, 17.812424600000025], [-90.45464259999996, 17.815429]], [[-89.34766268540643, 15.408046194995244], [-89.34766268540643, 15.408046194995244]], [[-91.17222254311734, 14.744138348813777], [-91.1494429644221, 14.732044448620655], [-91.13261823625515, 14.717613213552198], [-91.1199088103154, 14.696613091818815], [-91.11588644720294, 14.672623098268549], [-91.13451600249807, 14.649743232946737], [-91.15320914811483, 14.659602496411043], [-91.17027227280757, 14.673818085261196], [-91.19205101535091, 14.671958680073597], [-91.21074245361581, 14.66299737913354], [-91.23063845780975, 14.648574935452078], [-91.23261430749716, 14.628108218405426], [-91.25095031563673, 14.608713591756299], [-91.25100659410369, 14.628940652619075], [-91.2381718473732, 14.64832145223313], [-91.24129935712624, 14.671831783305393], [-91.26307804303808, 14.685849850341707], [-91.28181158040407, 14.693354753761671], [-91.26849207742617, 14.71619359790041], [-91.24782649932808, 14.721401823770545], [-91.22024860763788, 14.735007023341932], [-91.20006675548433, 14.740163557999335], [-91.17936460387712, 14.7391814514278], [-91.17222254311734, 14.744138348813777]], [[-90.60488552019379, 14.472634109422426], [-90.5836826270937, 14.48008936365585], [-90.56710973664713, 14.467819698564625], [-90.56100174391793, 14.448773921107342], [-90.53740374792368, 14.447604650831718], [-90.53400795626861, 14.425339266639085], [-90.5560462602141, 14.430535048689112], [-90.56876462420726, 14.45377431279135], [-90.58743965022123, 14.46524320160733], [-90.60488552019379, 14.472634109422426]]]}}]}