{"type": "FeatureCollection", "features": [{"type": "Feature", "properties": {"code": "GUM", "name": "Guam", "tier": "country"}, "geometry": {"type": "MultiPolygon", "coordinates": [[[[144.74768571544087, 13.481524186037575], [144.74768571544087, 13.481524186037575]]], [[[144.8955483989779, 13.625164788088341], [144.87871308152592, 13.645535313636515], [144.85860110671058, 13.653509300379937], [144.8466360349953, 13.636258081737196], [144.83558261285646, 13.61110696652105], [144.8360799320874, 13.590489820989092], [144.82522933267967, 13.573457964187753], [144.81161049249022, 13.55497126879743], [144.80257277476096, 13.53578242471093], [144.80459731757492, 13.514354262399195], [144.78356881341904, 13.50814173065288], [144.7690049329085, 13.480615650737604], [144.7490665461031, 13.477506901119511], [144.72908340802337, 13.48084663354507], [144.7073401116479, 13.47653031230169], [144.6905617722947, 13.46363854598519], [144.66924926587296, 13.463451689403428], [144.68147972547308, 13.444139513393395], [144.67044508220158, 13.421312284357498], [144.6643162137351, 13.442221184948835], [144.6406969770677, 13.441464788628707], [144.61882492482914, 13.445950772139383], [144.63898957505216, 13.430499882119534], [144.65345244993034, 13.415318355073566], [144.66044820025013, 13.390165529198441], [144.65201514559453, 13.370761920666268], [144.64358698441026, 13.348883734454432], [144.6497210999936, 13.329840329267086], [144.65504811083258, 13.30779664777765], [144.6598336460595, 13.286405867748101], [144.6656194835639, 13.266956466194415], [144.68346338244385, 13.253891375046464], [144.7062733842679, 13.246435095626623], [144.72738379169868, 13.246614758668557], [144.74166319841572, 13.262924136251229], [144.7591991622544, 13.279122277145802], [144.76995978758634, 13.29611455851267], [144.7716043228893, 13.316507059447474], [144.76349606313363, 13.335907290525086], [144.77171223695154, 13.362313919677206], [144.7762594752079, 13.387470583568984], [144.78378981738308, 13.410167780600887], [144.79727126754256, 13.428481480132461], [144.8180250903298, 13.441920635348367], [144.8374146626869, 13.455651808802088], [144.86931114698302, 13.482914271802827], [144.8917330814612, 13.497915916491593], [144.92403060559934, 13.52001067649968], [144.93253744886647, 13.539382012794704], [144.93840327612065, 13.560807389802903], [144.9498884860975, 13.577565524740237], [144.956274507162, 13.599023815482383], [144.93170898555945, 13.601398566349133], [144.9079640757783, 13.605034834906292], [144.89635688266674, 13.624535967441432], [144.8955483989779, 13.625164788088341]], [[144.7384012351729, 13.416963943089627], [144.7384012351729, 13.416963943089627]], [[144.74965913587278, 13.412352511263578], [144.74965913587278, 13.412352511263578]], [[144.7007038299671, 13.35153797517603], [144.7007038299671, 13.35153797517603]], [[144.73501566586287, 13.27081939704891], [144.73501566586287, 13.27081939704891]]]]}}]}