{"type": "FeatureCollection", "features": [{"type": "Feature", "properties": {"code": "GUY", "name": "Guyana", "tier": "country"}, "geometry": {"type": "MultiPolygon", "coordinates": [[[[-59.993875068999955, 8.495425281000053], [-59.90882342499998, 8.416690968000069], [-59.87630605399994, 8.349426553000058], [-59.82161774699995, 8.280687897000064], [-59.82752999599995, 8.22802888800004], [-59.93690660999994, 8.200233807000075], [-59.98716072999997, 8.14610097600007], [-60.006375540999954, 8.077327098000069], [-60.01967810199994, 8.026104891000045], [-60.106883780999965, 8.00854150300006], [-60.14235727799996, 7.970484898000052], [-60.18965527299997, 7.952919117000022], [-60.26060226599998, 7.875327938000055], [-60.309378323999965, 7.84897290300006], [-60.35815438199995, 7.802115383000057], [-60.423189125999954, 7.818223249000027], [-60.514828991999934, 7.818223249000027], [-60.54439023899994, 7.769897791000062], [-60.58281985999997, 7.721566771000028], [-60.59316629699998, 7.633678048000036], [-60.636030104999975, 7.585331534000034], [-60.69810872299996, 7.558958415000063], [-60.73358221999996, 7.507672746000026], [-60.68776228699994, 7.435862652000026], [-60.64194235399998, 7.405083295000054], [-60.59760048299995, 7.327392523000071], [-60.638986229999944, 7.251154446000044], [-60.56360504899993, 7.13164], [-60.51972507299996, 7.188926539000022], [-60.44351248199996, 7.177469808000069], [-60.37884725499998, 7.177469808000069], [-60.32803886099998, 7.143097884000042], [-60.284158884999954, 7.088097435000066], [-60.33958622399996, 7.005584466000073], [-60.37191883699995, 6.955152674000033], [-60.41810828599995, 6.927642138000067], [-60.50586823799995, 6.870323374000066], [-60.577461883999945, 6.835928796000076], [-60.665221835999944, 6.826756490000037], [-60.72526811899996, 6.751078278000023], [-60.81302807199995, 6.787772231000076], [-60.861526992999984, 6.774012325000058], [-60.91926380299998, 6.803824956000028], [-60.912335386999985, 6.746491338000055], [-60.96314377999994, 6.709794257000055], [-61.05552267699994, 6.707500597000035], [-61.145592101999966, 6.714381544000048], [-61.19409102399999, 6.666212883000071], [-61.24028047199994, 6.560684084000059], [-61.19640049499998, 6.517089557000077], [-61.189472078999984, 6.452838091000046], [-61.17792471599995, 6.393168717000037], [-61.198709967999946, 6.333492377000027], [-61.154829990999986, 6.257739404000063], [-61.157139463999954, 6.204935375000048], [-61.205638384999986, 6.161310660000026], [-61.27492255799996, 6.108497002000036], [-61.33034989699996, 6.041898444000026], [-61.35344462099994, 5.95691598600007], [-61.399634068999944, 5.933945489000052], [-61.24720888899998, 5.74784949900004], [-60.87538382699995, 5.331788321000033], [-60.74605337099996, 5.198404111000059], [-60.66753130899997, 5.223703310000076], [-60.59593766299997, 5.200704080000037], [-60.533581907999974, 5.200704080000037], [-60.46198826199998, 5.170803827000043], [-60.420417758999974, 5.214503719000049], [-60.325729388999946, 5.209903874000076], [-60.27723046799997, 5.23750244200005], [-60.19408945999999, 5.21910353100003], [-60.12942423199996, 5.198404111000059], [-60.12249581499998, 5.131701366000073], [-60.05090216999997, 5.094896859000073], [-59.997784303999936, 5.071892972000057], [-59.997784303999936, 5.018980925000051], [-60.00933166599998, 4.931551641000055], [-60.02549797199998, 4.855616863000023], [-60.055521114999976, 4.793482042000051], [-60.03935480699994, 4.738246344000061], [-60.05090216999997, 4.685307990000069], [-60.10171056299998, 4.653082679000022], [-60.143281066999975, 4.60704396400007], [-60.18254209799994, 4.56790871000004], [-60.13866212199997, 4.501143653000042], [-60.07630636599998, 4.505748337000057], [-60.004712720999976, 4.489631814000063], [-59.919262240999956, 4.46430513100006], [-59.868453847999945, 4.45970018600002], [-59.817645453999944, 4.443582649000064], [-59.69293394199997, 4.365292484000065], [-59.72757602899998, 4.312326849000044], [-59.755289697999956, 4.240932552000061], [-59.74836128099997, 4.17874504200006], [-59.702171831999976, 4.14649772000007], [-59.64212554899996, 4.114249082000072], [-59.591317155999945, 3.969114203000061], [-59.52896139999996, 3.939162530000033], [-59.58438873899996, 3.904601568000032], [-59.59593609999996, 3.819345137000028], [-59.68138658099997, 3.784779295000021], [-59.68138658099997, 3.706424966000043], [-59.729885501999945, 3.681073543000025], [-59.77145600499995, 3.651111840000056], [-59.84766859499996, 3.611929645000032], [-59.833811760999936, 3.515119359000039], [-59.859215957999936, 3.43443643400002], [-59.79686020199995, 3.381412503000035], [-59.84766859499996, 3.337607935000051], [-59.90078646099994, 3.229240933000028], [-59.94004749299995, 3.176206033000028], [-59.970070634999956, 3.07474041100005], [-59.99085588599996, 3.01708516900004], [-59.98623694099996, 2.950201261000075], [-60.007022192999955, 2.844101327000033], [-60.02780744499995, 2.788740942000061], [-60.01626008299996, 2.731071103000033], [-60.00240324899994, 2.636486601000058], [-59.956213799999944, 2.576502444000027], [-59.93542854799995, 2.509593706000032], [-59.919262240999956, 2.408070490000057], [-59.903095933999964, 2.350383454000053], [-59.82226439899995, 2.295001656000068], [-59.74836128099997, 2.290386409000064], [-59.73681391799994, 2.209617199000036], [-59.75990864299996, 2.158845722000024], [-59.755289697999956, 2.084993285000053], [-59.74836128099997, 1.997289024000054], [-59.75759917099998, 1.946510719000059], [-59.77607494999995, 1.886498027000073], [-59.713719193999964, 1.858799159000057], [-59.69062446999993, 1.808016777000034], [-59.695243414999936, 1.752616196000019], [-59.651363438999965, 1.724915288000034], [-59.58438873899996, 1.747999406000076], [-59.547437178999985, 1.697213976000057], [-59.45505828199998, 1.563318825000067], [-59.411178305999954, 1.524072043000047], [-59.348822549999966, 1.464046177000057], [-59.298014156999955, 1.417871335000029], [-59.20794473199999, 1.385548397000036], [-59.13866055899996, 1.355533845000025], [-59.01394904799997, 1.330136625000023], [-58.944664873999955, 1.311665756000025], [-58.92849856799995, 1.256252336000045], [-58.87999964699998, 1.200837741000043], [-58.79454916599997, 1.189292891000036], [-58.74143130099998, 1.221618349000039], [-58.71140815899997, 1.295503633000067], [-58.62595767899995, 1.283959196000069], [-58.53126930899998, 1.258561253000039], [-58.48969880599998, 1.300121392000051], [-58.485079860999974, 1.37862199500006], [-58.52665036399998, 1.461737457000027], [-58.43196199499994, 1.45712001000004], [-58.40886727099996, 1.510220067000034], [-58.36960623899995, 1.57486185700003], [-58.30032206599998, 1.561010211000053], [-58.22410947599997, 1.556392975000051], [-58.16637266499998, 1.533306645000039], [-58.08323165799993, 1.496368002000054], [-58.00240012199998, 1.507911395000065], [-57.98623381599998, 1.577170456000033], [-57.98854328799996, 1.637193115000059], [-57.92156858699997, 1.662586780000026], [-57.81533285499995, 1.678746214000057], [-57.77376235199995, 1.722606861000031], [-57.71371606799994, 1.713373123000054], [-57.65136031299994, 1.692597052000053], [-57.53588669099997, 1.697213976000057], [-57.489697242999966, 1.791858447000038], [-57.44581726599995, 1.821866660000069], [-57.438888848999966, 1.898039092000033], [-57.34881942399994, 1.967283849000069], [-57.29339208599998, 1.994980953000038], [-57.23565527599993, 1.953435124000066], [-57.10170587399995, 2.034217716000057], [-57.07861114999997, 1.971900065000057], [-57.02318381099997, 1.923429164000027], [-56.93311438699993, 1.939586285000075], [-56.82456918199995, 1.893422675000068], [-56.722952394999936, 1.92112099000002], [-56.669834529999946, 1.91650463600007], [-56.593621938999945, 1.925737333000029], [-56.487386206999986, 1.953435124000066], [-56.542813544999944, 2.006521275000068], [-56.61209771899996, 2.024985621000042], [-56.669834529999946, 2.008829329000037], [-56.729880811999976, 2.098840884000026], [-56.782998677999956, 2.149614361000033], [-56.80609340299998, 2.202693916000044], [-56.80609340299998, 2.260386939000057], [-56.861520740999936, 2.283463510000047], [-56.85690179699998, 2.343460849000053], [-56.930804913999964, 2.389610902000072], [-56.965447, 2.486520929000051], [-56.98854172499995, 2.555738035000047], [-57.01163644899998, 2.641100649000066], [-57.050897479999946, 2.680319354000062], [-57.09939640099998, 2.754139375000022], [-57.12941954399997, 2.814114778000032], [-57.21256055099997, 2.887926417000074], [-57.17560899199998, 2.929443363000075], [-57.21948896799995, 2.966346024000075], [-57.198703715999955, 3.026310215000024], [-57.249512109999955, 3.077046557000074], [-57.24720263699999, 3.132392537000044], [-57.29108261299996, 3.164676344000043], [-57.27953525199996, 3.236158325000076], [-57.284154196999964, 3.309940886000049], [-57.31879628299998, 3.38371795200004], [-57.378842565999946, 3.365274206000038], [-57.42734148699998, 3.379107048000037], [-57.48045935299996, 3.332996815000058], [-57.53819616399994, 3.356052204000036], [-57.602861391999966, 3.367579694000028], [-57.653669785999966, 3.369885175000036], [-57.68600239899996, 3.450573569000028], [-57.64905084099996, 3.489762613000039], [-57.67676450899995, 3.556610728000067], [-57.734501319999936, 3.602710058000071], [-57.81764232799998, 3.634978201000024], [-57.84304652499998, 3.690292326000076], [-57.84997494199996, 3.791692574000024], [-57.95159172899997, 3.916122048000034], [-58.03935168099997, 3.96450632400007], [-58.04858957099998, 4.029014283000038], [-58.043970625999975, 4.121159615000067], [-58.03935168099997, 4.20177803200005], [-57.98854328799996, 4.266266773000041], [-57.94697278399997, 4.310023912000077], [-57.965448563999985, 4.369898015000047], [-57.94466331099994, 4.418254380000064], [-57.84766546999998, 4.611647969000046], [-57.863831775999984, 4.694514950000041], [-57.882307555999944, 4.75896025000003], [-57.930806476999976, 4.804988919000039], [-57.86614124899995, 4.874026084000036], [-57.81071390999995, 4.91314400300007], [-57.73912026499994, 4.926949780000029], [-57.68369292699998, 4.993673644000069], [-57.605170864999934, 4.977568502000054], [-57.55436247099993, 5.002876405000052], [-57.50586354999996, 4.972966961000054], [-57.413484652999955, 4.982170011000051], [-57.35574784199997, 5.007477737000045], [-57.300320502999966, 4.998275041000056], [-57.334962588999986, 5.064991646000067], [-57.28877314099998, 5.166203663000033], [-57.221798440999976, 5.122500438000031], [-57.17560899199998, 5.154703105000067], [-57.21256055099997, 5.205303994000076], [-57.24258369199998, 5.262800060000075], [-57.277225778999934, 5.21910353100003], [-57.29108261299996, 5.290396288000068], [-57.34650995199996, 5.322590332000061], [-57.26567841699995, 5.380075497000064], [-57.274916306999955, 5.465143556000044], [-57.22872685799996, 5.499627176000047], [-57.173299519999944, 5.570886977000043], [-57.15944268499993, 5.630646603000059], [-57.164061629999935, 5.70418846900003], [-57.170990046999975, 5.770827645000054], [-57.14327637699995, 5.855838659000028], [-57.16868057499994, 6.012041254000053], [-57.187156354999956, 6.092422242000055], [-57.26798788899998, 6.188863530000049], [-57.35112889699997, 6.250852224000027], [-57.441198320999945, 6.30824261500004], [-57.501244604999954, 6.328901604000066], [-57.524339328999986, 6.271513493000043], [-57.59593297499998, 6.312833572000045], [-57.61440875399995, 6.377102692000051], [-57.64674136799994, 6.43218409900004], [-57.78069076899993, 6.558389730000044], [-57.845355997999945, 6.615745399000048], [-57.956210673999976, 6.739610847000051], [-58.087850601999946, 6.81758400800004], [-58.16175371999998, 6.819877145000021], [-58.26798945199994, 6.858858791000046], [-58.374225183999954, 6.858858791000046], [-58.450437773999965, 6.842807910000033], [-58.48969880599998, 6.787772231000076], [-58.56822086799997, 6.737317328000074], [-58.52434089199994, 6.812997701000029], [-58.37653465599993, 6.890958929000021], [-58.371915710999986, 6.950567696000064], [-58.425033576999965, 6.929934744000036], [-58.485079860999974, 6.87261625900004], [-58.427343049999934, 6.94598267300006], [-58.459675663999974, 6.998707724000042], [-58.48738933299995, 6.93451992200005], [-58.52434089199994, 6.895544485000073], [-58.528959836999945, 6.950567696000064], [-58.48277038799995, 7.037674588000073], [-58.50586511299997, 7.179761177000046], [-58.468913552999936, 7.234750572000053], [-58.52665036399998, 7.358452142000033], [-58.57053034099994, 7.411129410000058], [-58.632886095999936, 7.48211923100007], [-58.68831343499994, 7.569123246000061], [-58.746050244999935, 7.592016130000047], [-58.725264993999986, 7.534781642000041], [-58.76683549699993, 7.575991239000075], [-58.813024945999985, 7.635509248000062], [-58.84766703199995, 7.708750799000029], [-58.976997488999984, 7.836892953000074], [-59.08785216499996, 7.946697722000067], [-59.131732140999986, 8.013023898000029], [-59.19177842499994, 8.006163069000024], [-59.25182470799996, 8.061046457000032], [-59.35344149499997, 8.138785166000048], [-59.50355720299996, 8.22108030000004], [-59.75990864299996, 8.371910247000073], [-59.81302650899994, 8.374195103000034], [-59.78762231199994, 8.326210324000044], [-59.75990864299996, 8.262221475000047], [-59.81995492699997, 8.330780557000026], [-59.91695276899998, 8.435881123000058], [-59.993875068999955, 8.495425281000053]]], [[[-59.993875068999955, 8.495425281000053], [-59.993875068999955, 8.495425281000053]]]]}}]}