{"type": "FeatureCollection", "features": [{"type": "Feature", "properties": {"code": "HND", "name": "Honduras", "tier": "country"}, "geometry": {"type": "MultiPolygon", "coordinates": [[[[-87.63643359999996, 13.293662700000038], [-87.63643359999996, 13.293662700000038]]], [[[-87.67218670000003, 13.315674900000037], [-87.67218670000003, 13.315674900000037]]], [[[-87.5698854, 13.358134399999962], [-87.5698854, 13.358134399999962]]], [[[-87.51471509999999, 13.375701], [-87.51471509999999, 13.375701]]], [[[-87.56787969999996, 13.376128500000036], [-87.56787969999996, 13.376128500000036]]], [[[-87.42089260000002, 13.382312400000014], [-87.42089260000002, 13.382312400000014]]], [[[-87.475108, 13.3868229], [-87.475108, 13.3868229]]], [[[-87.4133964, 13.387382600000038], [-87.4133964, 13.387382600000038]]], [[[-87.4848, 13.39499960000002], [-87.4848, 13.39499960000002]]], [[[-87.4580736, 13.392261599999962], [-87.4580736, 13.392261599999962]]], [[[-87.3842705, 13.394028400000042], [-87.3842705, 13.394028400000042]]], [[[-87.41391119999996, 13.400197], [-87.41391119999996, 13.400197]]], [[[-87.45864639999998, 13.400952199999956], [-87.45864639999998, 13.400952199999956]]], [[[-87.45313490000002, 13.413498799999964], [-87.45313490000002, 13.413498799999964]]], [[[-87.5876799, 13.41725], [-87.6173028, 13.375520299999984], [-87.5876799, 13.41725]]], [[[-87.60400159999998, 13.42337440000004], [-87.60400159999998, 13.42337440000004]]], [[[-87.66257659999998, 13.4343993], [-87.66257659999998, 13.4343993]]], [[[-87.60745440000002, 13.451301599999972], [-87.60745440000002, 13.451301599999972]]], [[[-84.08, 15.485649900000016], [-84.06220349999997, 15.435923699999961], [-84.08, 15.485649900000016]]], [[[-86.47608160000001, 15.980799599999969], [-86.47608160000001, 15.980799599999969]]], [[[-86.00122950000004, 16.027713799999972], [-85.95032, 16.007509900000024], [-85.9136601, 15.965068700000014], [-85.86948079999998, 15.99933040000004], [-85.8172899, 15.98273], [-85.85027, 15.94259], [-85.90031970000004, 15.9618127], [-85.9421204, 15.925736500000028], [-85.98983639999999, 15.905241499999974], [-86.06345459999997, 15.8979188], [-86.11607390000003, 15.900927], [-86.17987, 15.88768], [-86.23934859999999, 15.855379499999962], [-86.28365929999995, 15.814199], [-86.33269010000004, 15.8011201], [-86.38602939999998, 15.7857708], [-86.43891, 15.786350099999964], [-86.48234239999995, 15.811289500000044], [-86.5327414, 15.8058616], [-86.59605830000002, 15.797819099999984], [-86.6490071, 15.792107800000029], [-86.70291149999998, 15.787259900000013], [-86.75251239999999, 15.7947632], [-86.80635139999998, 15.7797026], [-86.86350260000003, 15.763899899999963], [-86.9136849, 15.755516499999985], [-86.99283650000004, 15.768091799999969], [-87.04719, 15.77598], [-87.09780490000001, 15.786958600000041], [-87.17945, 15.795240100000026], [-87.26756009999997, 15.81654], [-87.319158, 15.833064599999965], [-87.37301, 15.84833], [-87.4310278, 15.814119100000042], [-87.48667079999996, 15.782732599999967], [-87.54079259999999, 15.804767399999971], [-87.5870553, 15.843207500000041], [-87.54741989999998, 15.77531], [-87.59694, 15.78600009999996], [-87.61306, 15.83825], [-87.62332010000003, 15.88769], [-87.68160109999995, 15.900065800000014], [-87.73054119999998, 15.919556700000033], [-87.7864479, 15.8976891], [-87.8400399, 15.89237], [-87.89557, 15.8687], [-87.95198010000004, 15.86434], [-87.89726410000004, 15.85905949999998], [-87.93694869999996, 15.817263200000038], [-87.98869430000003, 15.7915792], [-88.04023229999999, 15.784711899999955], [-88.0761125, 15.74846279999998], [-88.10995690000004, 15.7097886], [-88.15468049999998, 15.6821107], [-88.20972770000003, 15.71376190000003], [-88.25377519999998, 15.688070099999958], [-88.3043189, 15.671465700000027], [-88.34457590000004, 15.618538499999975], [-88.48721170000002, 15.501765099999972], [-88.55266670000003, 15.446362700000023], [-88.60520580000004, 15.4132368], [-88.67821550000002, 15.342336700000033], [-88.845633, 15.243200499999972], [-88.97384220000004, 15.136247700000023], [-89.1535958, 15.068276099999974], [-89.1769198, 15.017994100000028], [-89.16210330000004, 14.96693249999997], [-89.1790978, 14.917559], [-89.22444859999997, 14.8869424], [-89.22376650000002, 14.834736699999958], [-89.16890660000001, 14.775031], [-89.131294, 14.712619400000023], [-89.15702560000001, 14.667621899999979], [-89.1520662, 14.614243], [-89.18917729999998, 14.578142800000034], [-89.23891620000003, 14.584642699999957], [-89.27350060000002, 14.54303369999997], [-89.30191050000002, 14.493832800000035], [-89.348066, 14.472090900000019], [-89.35598749999998, 14.42061590000004], [-89.30476439999998, 14.41408490000003], [-89.2452835, 14.391237], [-89.19817340000003, 14.3702093], [-89.14839420000004, 14.35372980000001], [-89.11656960000003, 14.392622100000015], [-89.08038660000003, 14.356802799999986], [-89.03626430000001, 14.33263860000001], [-89.02397980000002, 14.28398], [-88.98745340000002, 14.2481901], [-88.95453740000005, 14.206185499999975], [-88.902709, 14.205668], [-88.86423009999996, 14.173709399999986], [-88.84018939999999, 14.128202900000016], [-88.7917649, 14.114646400000026], [-88.74095, 14.116975299999986], [-88.73109510000005, 14.05183], [-88.68232, 14.032130100000025], [-88.62770980000005, 14.0228197], [-88.57754180000002, 13.997774], [-88.49975769999998, 13.966999300000012], [-88.5109595, 13.91091270000003], [-88.4921077, 13.860031100000032], [-88.44006609999995, 13.85913], [-88.3947368, 13.881128600000022], [-88.345368, 13.8960783], [-88.29750939999995, 13.910607800000026], [-88.23601159999997, 13.939197599999982], [-88.238254, 13.990766900000036], [-88.18730809999998, 13.989855899999977], [-88.13719369999995, 13.989439499999985], [-88.07273490000004, 13.99227119999998], [-88.06002520000004, 13.942512099999956], [-88.02824369999996, 13.90387239999998], [-87.9790305, 13.886940400000032], [-87.9265786, 13.888050100000012], [-87.87724749999995, 13.900678200000012], [-87.80345180000003, 13.921123799999975], [-87.77429089999998, 13.874270400000029], [-87.7421982, 13.8303219], [-87.70908839999998, 13.789317899999983], [-87.73518540000002, 13.7408754], [-87.75545359999995, 13.6892778], [-87.7547853, 13.637253200000028], [-87.76935040000004, 13.58591379999999], [-87.78081050000003, 13.53534730000004], [-87.72076829999996, 13.5053341], [-87.72097610000002, 13.449441199999963], [-87.77315489999997, 13.4305885], [-87.81967890000001, 13.409258300000023], [-87.774929, 13.379473100000013], [-87.72526160000004, 13.356957800000043], [-87.67650459999997, 13.375789300000037], [-87.67884789999997, 13.42672929999998], [-87.64610979999998, 13.470552], [-87.59478819999998, 13.469992200000032], [-87.59652760000002, 13.418556799999955], [-87.5961173, 13.3685108], [-87.64696109999997, 13.363311899999982], [-87.6288918, 13.313284400000043], [-87.57630920000003, 13.322836099999964], [-87.582708, 13.3741337], [-87.54211, 13.40369], [-87.490285, 13.3912627], [-87.4454358, 13.414919700000024], [-87.3946444, 13.414663599999972], [-87.3893683, 13.3644468], [-87.4390873, 13.356845199999963], [-87.4710054, 13.315072400000012], [-87.51451959999997, 13.274809899999969], [-87.46890009999998, 13.247915799999983], [-87.4384, 13.1845801], [-87.42950949999995, 13.125586], [-87.37418250000003, 13.1094611], [-87.35547139999996, 13.0592997], [-87.30912280000004, 13.02267539999998], [-87.06470779999998, 13.002376199999961], [-87.0095401, 13.003065299999957], [-86.96339319999998, 13.030384400000024], [-86.93434529999996, 13.0790309], [-86.92372550000003, 13.132639799999975], [-86.93093409999997, 13.185522499999987], [-86.91145030000001, 13.232311600000031], [-86.88286059999997, 13.2794412], [-86.835194, 13.305736600000014], [-86.7543387, 13.2674572], [-86.71134989999999, 13.295985400000017], [-86.7105353, 13.359159400000038], [-86.74437969999997, 13.40194710000003], [-86.7232267, 13.4501372], [-86.74224259999997, 13.527754500000018], [-86.76989640000002, 13.5769012], [-86.748981, 13.6392656], [-86.76889209999997, 13.7008131], [-86.77155290000003, 13.752805299999967], [-86.72315319999996, 13.787201400000011], [-86.6661363, 13.784336899999968], [-86.61132549999998, 13.78459420000003], [-86.56063249999995, 13.801898699999978], [-86.51606250000002, 13.778173], [-86.46473269999998, 13.779864400000015], [-86.41696480000004, 13.7590918], [-86.36712339999995, 13.763272499999964], [-86.31604620000003, 13.792734399999958], [-86.2995856, 13.840009200000043], [-86.2679618, 13.880525], [-86.2253992, 13.908072], [-86.19582719999995, 13.95498210000002], [-86.157675, 13.993224100000042], [-86.13824920000003, 14.042832], [-86.09110569999997, 14.0643043], [-86.03921040000003, 14.07415], [-86.04207029999996, 13.996173600000013], [-85.99510870000003, 13.969561099999968], [-85.9504698, 13.946549499999968], [-85.91374080000001, 13.908462199999956], [-85.863037, 13.9228985], [-85.83732439999997, 13.87766240000002], [-85.79740389999998, 13.842210099999981], [-85.74675590000004, 13.83981949999998], [-85.7553398, 13.90466820000001], [-85.75218, 13.956541299999977], [-85.71000669999998, 13.991794299999956], [-85.66390360000004, 14.012044900000038], [-85.60952809999996, 14.024630399999978], [-85.573277, 14.065053399999979], [-85.51939459999997, 14.047455700000018], [-85.48884080000005, 14.0896475], [-85.435308, 14.107534600000012], [-85.39470960000003, 14.1398475], [-85.37530629999998, 14.187277599999966], [-85.35093029999997, 14.23320649999998], [-85.30303680000003, 14.254503599999964], [-85.24982179999996, 14.257332], [-85.198495, 14.256666499999955], [-85.15889450000002, 14.2878325], [-85.1809152, 14.333316300000039], [-85.21926049999996, 14.36894679999999], [-85.18823540000004, 14.416203], [-85.18404819999998, 14.4678603], [-85.14715809999998, 14.505590799999986], [-85.143229, 14.564410100000032], [-85.08502119999997, 14.552383299999956], [-85.03730910000003, 14.586827299999968], [-85.02454509999998, 14.637776400000043], [-85.02016590000002, 14.688976500000013], [-84.9867738, 14.74010569999998], [-84.940019, 14.75840880000004], [-84.90900360000003, 14.804428899999962], [-84.85251410000002, 14.812853200000038], [-84.7996537, 14.821815599999962], [-84.75214119999995, 14.77344379999997], [-84.74481250000002, 14.715353899999968], [-84.70593750000003, 14.6821137], [-84.6463466, 14.671965600000021], [-84.59729169999997, 14.658005400000025], [-84.54346380000001, 14.654701200000016], [-84.50320359999998, 14.624562], [-84.45111930000003, 14.630458799999964], [-84.40281950000005, 14.662998299999959], [-84.36640079999998, 14.705135799999976], [-84.32085040000003, 14.678267299999977], [-84.2660601, 14.6711516], [-84.27329880000003, 14.723660100000043], [-84.23539280000001, 14.7606099], [-84.19911479999996, 14.721131299999975], [-84.14837289999998, 14.7190996], [-84.095786, 14.730143099999989], [-84.11728439999996, 14.781361599999972], [-84.05656980000003, 14.764767900000038], [-84.0025318, 14.759849200000026], [-83.94591959999997, 14.758143799999964], [-83.8985518, 14.7745787], [-83.8437961, 14.773028499999981], [-83.78598919999996, 14.80593289999997], [-83.73773219999997, 14.819964199999987], [-83.70336539999995, 14.8566281], [-83.65903079999995, 14.880099300000012], [-83.60937060000003, 14.89041], [-83.56388, 14.912724], [-83.52901989999998, 14.950065100000039], [-83.51406989999998, 15.0003023], [-83.46577270000003, 14.983489100000032], [-83.41349450000003, 15.0036857], [-83.35995419999996, 15.0142591], [-83.29884049999997, 14.999115699999972], [-83.24022159999998, 14.983329399999963], [-83.174581, 14.990643], [-83.22728140000001, 15.030241399999962], [-83.294905, 15.076751600000023], [-83.33145, 15.13191], [-83.35106990000001, 15.19298], [-83.38255569999995, 15.2475269], [-83.46576, 15.2857299], [-83.58315, 15.320190100000016], [-83.66852, 15.358569899999981], [-83.72033550000003, 15.39699719999997], [-83.70023, 15.34891], [-83.64457990000004, 15.3326], [-83.64867009999998, 15.27798], [-83.688, 15.2422401], [-83.72083990000002, 15.19795], [-83.77303589999997, 15.197195499999967], [-83.768295, 15.2544549], [-83.81862190000004, 15.262255900000017], [-83.8296, 15.31334], [-83.8843501, 15.33142989999999], [-83.92648010000002, 15.36692], [-83.97704, 15.39661], [-84.03251, 15.39185], [-84.0306, 15.33828], [-84.08793009999998, 15.336090100000018], [-84.13043, 15.37949], [-84.1256201, 15.430269899999967], [-84.09612, 15.47222], [-84.04390009999997, 15.5237799], [-83.98273, 15.497419899999983], [-83.9301, 15.4731601], [-83.88321, 15.44096], [-83.82508, 15.420350099999965], [-83.78382, 15.391149900000041], [-83.73361009999996, 15.385579899999964], [-83.8067417, 15.416190599999975], [-83.88776, 15.4642], [-83.98339, 15.543750099999983], [-84.09950540000001, 15.650843700000035], [-84.19921960000002, 15.73175], [-84.28977, 15.80211], [-84.36211989999998, 15.82049989999997], [-84.449277, 15.8259963], [-84.59678069999997, 15.85359850000004], [-84.64805050000002, 15.865258200000028], [-84.69811410000003, 15.876708800000035], [-84.7553845, 15.890923899999983], [-84.81892939999996, 15.911777400000034], [-84.87998620000005, 15.935590800000028], [-84.92585509999998, 15.957120399999976], [-85.009668, 15.983931500000022], [-85.06507390000003, 15.983162199999963], [-85.13091, 15.94696], [-85.17463, 15.91037], [-85.2501701, 15.88446], [-85.32396, 15.87616], [-85.391, 15.878869899999966], [-85.44755, 15.86125], [-85.504413, 15.866429500000041], [-85.56182049999995, 15.885410300000043], [-85.65122, 15.92895], [-85.6952631, 15.9593331], [-85.75181989999999, 15.97644], [-85.8595, 16.00639990000002], [-85.93895940000002, 16.016203700000016], [-86.00122950000004, 16.027713799999972]]], [[[-86.88819740000004, 16.123442199999978], [-86.93957969999998, 16.1163084], [-86.9893935, 16.092361900000014], [-86.93656580000001, 16.0766785], [-86.88206250000002, 16.09272429999998], [-86.88819740000004, 16.123442199999978]]], [[[-86.19709509999997, 16.429167500000037], [-86.19709509999997, 16.429167500000037]]], [[[-86.2750131, 16.43124990000003], [-86.32962320000003, 16.42348990000003], [-86.38895739999995, 16.407296800000022], [-86.43755320000001, 16.38257840000002], [-86.4864509, 16.36481050000001], [-86.53557240000002, 16.3494236], [-86.5817499, 16.319220100000027], [-86.60302749999997, 16.268131499999956], [-86.55557760000005, 16.30562580000002], [-86.50706659999999, 16.32062420000003], [-86.459729, 16.3538601], [-86.4109241, 16.36538429999997], [-86.36561759999998, 16.39589059999996], [-86.31008559999997, 16.405808299999965], [-86.26385720000003, 16.42671729999999], [-86.2750131, 16.43124990000003]]], [[[-86.14366, 16.446319900000013], [-86.14366, 16.446319900000013]]], [[[-85.92398539999998, 16.45568309999997], [-85.95175950000004, 16.402559800000034], [-85.90609690000002, 16.432946], [-85.92398539999998, 16.45568309999997]]], [[[-85.85843990000002, 16.5157999], [-85.89882359999997, 16.48328249999996], [-85.84717960000005, 16.46869920000001], [-85.85843990000002, 16.5157999]]], [[[-83.89321, 17.41648], [-83.89321, 17.41648]]], [[[-83.91832520000003, 17.410965399999963], [-83.91832520000003, 17.410965399999963]]]]}}]}