{"type": "FeatureCollection", "features": [{"type": "Feature", "properties": {"code": "HRV", "name": "Croatia", "tier": "country"}, "geometry": {"type": "MultiPolygon", "coordinates": [[[[18.0039168, 42.683403099999985], [18.0039168, 42.683403099999985]]], [[[17.945856499999962, 42.697759099999956], [17.945856499999962, 42.697759099999956]]], [[[17.8053968, 42.74816620000004], [17.8053968, 42.74816620000004]]], [[[17.834894, 42.75588090000002], [17.875360799999967, 42.71839329999998], [17.839361, 42.753891299999985], [17.834894, 42.75588090000002]]], [[[16.5108401, 42.773659700000046], [16.5108401, 42.773659700000046]]], [[[16.82570970000002, 42.7750953], [16.82570970000002, 42.7750953]]], [[[16.855839400000022, 42.777998], [16.815558399999958, 42.74663769999996], [16.866783200000018, 42.737467], [16.920407700000034, 42.7347464], [16.88012720000001, 42.770261800000014], [16.855839400000022, 42.777998]]], [[[16.792762200000016, 42.77667939999996], [16.792762200000016, 42.77667939999996]]], [[[17.370055300000026, 42.799458], [17.317398, 42.786158], [17.3669409, 42.7643545], [17.4184452, 42.7585439], [17.469101800000036, 42.748273200000014], [17.5187346, 42.73292229999997], [17.571318399999974, 42.72366670000003], [17.6217913, 42.72013659999998], [17.67063619999996, 42.708698300000016], [17.721215399999984, 42.69983339999999], [17.674099299999973, 42.725080699999964], [17.620064799999962, 42.74013230000003], [17.571796199999984, 42.754014400000045], [17.51229659999996, 42.76568040000002], [17.453986699999962, 42.78078180000003], [17.392103, 42.787736700000025], [17.370055300000026, 42.799458]]], [[[16.694708900000027, 42.992033], [16.6407181, 42.99092019999998], [16.686971400000022, 42.966900300000034], [16.6429692, 42.93809759999996], [16.6938744, 42.924062399999976], [16.7529047, 42.90745880000002], [16.8068264, 42.904313], [16.857497900000023, 42.909817400000044], [16.91052, 42.9027364], [16.95843419999999, 42.9211063], [17.032457299999987, 42.922355200000034], [17.083804300000033, 42.9159582], [17.134379800000016, 42.91035229999998], [17.1854619, 42.918254500000025], [17.1469423, 42.954577], [17.097262200000035, 42.96382580000002], [17.0454109, 42.973067499999964], [16.995065599999975, 42.974119100000024], [16.944383399999957, 42.974342], [16.887679100000025, 42.9647325], [16.837552599999977, 42.96147490000002], [16.783652299999968, 42.96643980000004], [16.73462, 42.97983410000002], [16.694708900000027, 42.992033]]], [[[16.00561590000003, 42.994202799999975], [16.00561590000003, 42.994202799999975]]], [[[15.759736599999966, 43.0348473], [15.759736599999966, 43.0348473]]], [[[17.00654919999996, 43.04811069999999], [17.034136800000038, 43.001753], [17.08100910000004, 42.9831411], [17.135694800000017, 42.97445449999997], [17.18715, 42.97475690000004], [17.23726060000002, 42.96683819999996], [17.288152199999956, 42.944692600000025], [17.3432992, 42.92699450000002], [17.398566499999962, 42.9123149], [17.45443559999998, 42.8924506], [17.4959859, 42.857104], [17.549138699999972, 42.84098889999997], [17.609632700000027, 42.8271718], [17.668994, 42.811780199999966], [17.718969300000037, 42.79535080000004], [17.7604117, 42.76136610000001], [17.73253230000003, 42.809042600000026], [17.781417599999966, 42.78719379999996], [17.839648700000016, 42.80480780000003], [17.8879378, 42.78747849999998], [17.92827430000004, 42.74019409999999], [17.971472100000035, 42.711078200000024], [18.018616199999965, 42.6943792], [18.07320439999996, 42.6688601], [18.130461200000042, 42.67162450000002], [18.0786097, 42.66667969999998], [18.124407299999984, 42.63965129999998], [18.180291099999973, 42.6144779], [18.228493399999973, 42.600961], [18.2463034, 42.55074740000003], [18.289585400000036, 42.5231432], [18.37272, 42.48890350000001], [18.420299899999964, 42.464545499999986], [18.475578299999956, 42.4340886], [18.5182259, 42.395937600000046], [18.49353460000001, 42.4416007], [18.449890200000013, 42.47465020000001], [18.4370558, 42.52758880000003], [18.419021399999963, 42.576212199999965], [18.3642672, 42.615620500000034], [18.29210949999998, 42.614668], [18.23765290000004, 42.6143405], [18.192901099999986, 42.65620870000002], [18.1406294, 42.68011909999996], [18.09225260000003, 42.71432049999997], [18.048126699999983, 42.7426513], [18.000036400000013, 42.7613939], [17.9501444, 42.799032099999984], [17.8914212, 42.80983930000004], [17.856589299999964, 42.868560599999974], [17.80904819999996, 42.917179299999965], [17.75127509999997, 42.91301019999998], [17.696368600000017, 42.92218609999998], [17.648938844917833, 42.8890633079766], [17.695609, 42.867244699999986], [17.741135800000013, 42.838085299999975], [17.6931223, 42.8563182], [17.639596, 42.877917300000014], [17.588652399999965, 42.8998328], [17.53886, 42.91777419999998], [17.47940270000004, 42.9198451], [17.4401932, 42.953354500000046], [17.39000750000002, 42.96638019999999], [17.34359639999999, 42.98602429999998], [17.2872875, 43.0057426], [17.234119600000014, 43.01554179999996], [17.18244949999997, 43.0203352], [17.1300687, 43.023006799999976], [17.07865180000004, 43.0207775], [17.0310319, 43.04206010000003], [17.00654919999996, 43.04811069999999]]], [[[16.18486239999997, 43.08054960000001], [16.1327123, 43.076257499999976], [16.082660600000015, 43.07046150000003], [16.088450199999965, 43.0201978], [16.141423199999988, 43.0116692], [16.19316210000004, 43.01751179999998], [16.251927599999988, 43.05018549999998], [16.204028699999956, 43.0693116], [16.18486239999997, 43.08054960000001]]], [[[16.6892457, 43.09840350000003], [16.740911899999983, 43.086855599999964], [16.6917266, 43.09865169999996], [16.6892457, 43.09840350000003]]], [[[16.352117, 43.174973], [16.39990350000003, 43.15636829999998], [16.351316099999963, 43.172801100000015], [16.352117, 43.174973]]], [[[16.5614116, 43.23471810000004], [16.587328, 43.185203900000026], [16.535473399999972, 43.1947519], [16.487370500000026, 43.20857], [16.437965800000015, 43.20024420000004], [16.3877034, 43.197949199999954], [16.43186269999997, 43.17078659999996], [16.481798200000025, 43.1633137], [16.530749900000036, 43.14427359999998], [16.584767399999972, 43.137441700000025], [16.644078799999967, 43.1261841], [16.69490989999996, 43.12183], [16.784041, 43.12730850000004], [16.856563199999957, 43.118238900000044], [16.90761469999998, 43.11639], [16.96487049999998, 43.112853], [17.020377100000022, 43.113428700000036], [17.071531, 43.11380149999997], [17.1321136, 43.11655269999997], [17.18201, 43.1232976], [17.131772500000025, 43.135925499999985], [17.072584500000026, 43.13684280000003], [17.02303830000003, 43.14385179999998], [16.958574200000026, 43.1519846], [16.901552300000017, 43.15216410000003], [16.842071300000022, 43.1568087], [16.79093889999997, 43.15804479999996], [16.727414, 43.15920370000002], [16.6793614, 43.17861219999997], [16.64269719999996, 43.218955], [16.59109180000003, 43.21376979999996], [16.5614116, 43.23471810000004]]], [[[16.441985299999967, 43.391754699999964], [16.432453299999988, 43.34260640000003], [16.459318199999956, 43.2993426], [16.508763200000015, 43.28317580000003], [16.56030889999998, 43.268047], [16.6134793, 43.26274350000001], [16.666893099999985, 43.260250599999985], [16.72180739999996, 43.26149730000002], [16.782229600000026, 43.26173629999999], [16.832702699999974, 43.269015], [16.882940399999985, 43.284094899999964], [16.859024600000044, 43.333191300000045], [16.8063004, 43.340040299999984], [16.759355500000034, 43.3594067], [16.705264, 43.366212700000034], [16.6532131, 43.37538940000001], [16.6031033, 43.37916710000003], [16.546496100000013, 43.38631359999999], [16.482303099999967, 43.3854056], [16.441985299999967, 43.391754699999964]]], [[[16.2104829, 43.413018500000035], [16.24672630000004, 43.37721159999997], [16.296150499999978, 43.364135400000016], [16.347092099999966, 43.3404839], [16.39882790000003, 43.32948780000004], [16.3617172, 43.36450890000001], [16.314254700000014, 43.382643100000045], [16.2689913, 43.4103236], [16.21502280000003, 43.41295649999997], [16.2104829, 43.413018500000035]]], [[[16.075472, 43.45578089999998], [16.075472, 43.45578089999998]]], [[[16.1387849, 43.458973100000044], [16.1387849, 43.458973100000044]]], [[[16.2653202, 43.51675020000001], [16.2054976, 43.49831370000002], [16.2550751, 43.48589840000004], [16.305175099999985, 43.4837907], [16.378677100000033, 43.484153199999966], [16.32610890000002, 43.503105800000036], [16.2653202, 43.51675020000001]]], [[[15.609992099999962, 43.67459009999997], [15.651246099999975, 43.64543849999998], [15.699571, 43.63173169999999], [15.660940299999963, 43.66584650000003], [15.609992099999962, 43.67459009999997]]], [[[15.7436126, 43.708598299999984], [15.7436126, 43.708598299999984]]], [[[15.8458021, 43.70423520000002], [15.8458021, 43.70423520000002]]], [[[15.64169280000001, 43.70993320000003], [15.692951899999978, 43.67817510000003], [15.647697399999986, 43.70612829999998], [15.64169280000001, 43.70993320000003]]], [[[15.477275899999968, 43.70508650000003], [15.477275899999968, 43.70508650000003]]], [[[15.673714499999972, 43.718953], [15.7114885, 43.685084], [15.673714499999972, 43.718953]]], [[[15.75987060000004, 43.729721400000045], [15.75987060000004, 43.729721400000045]]], [[[15.479798100000023, 43.73207220000004], [15.479798100000023, 43.73207220000004]]], [[[15.78438180000004, 43.743485100000036], [15.78438180000004, 43.743485100000036]]], [[[15.369228499999958, 43.75746269999996], [15.369228499999958, 43.75746269999996]]], [[[15.323722699999957, 43.7768798], [15.323722699999957, 43.7768798]]], [[[15.251949, 43.82193090000004], [15.251949, 43.82193090000004]]], [[[15.5975898, 43.82866689999996], [15.624537, 43.7826357], [15.600645799999983, 43.8290483], [15.5975898, 43.82866689999996]]], [[[15.498804899999955, 43.8613465], [15.498804899999955, 43.8613465]]], [[[15.541006799999971, 43.86041209999996], [15.541006799999971, 43.86041209999996]]], [[[15.239431800000029, 43.87505319999998], [15.260763899999978, 43.828467], [15.3036519, 43.800515899999986], [15.3512754, 43.7806432], [15.40950960000003, 43.75681339999998], [15.459544599999967, 43.7338536], [15.405480099999961, 43.761802899999985], [15.359162899999971, 43.78959359999999], [15.2996533, 43.834208], [15.251130699999974, 43.86246889999997], [15.239431800000029, 43.87505319999998]]], [[[15.22294059999996, 43.8805354], [15.22294059999996, 43.8805354]]], [[[15.270270800000011, 43.892482599999965], [15.306301400000025, 43.85488020000002], [15.355461, 43.83207969999999], [15.323048, 43.872251900000016], [15.272259599999986, 43.889407800000015], [15.270270800000011, 43.892482599999965]]], [[[15.292524600000016, 43.93234830000004], [15.292524600000016, 43.93234830000004]]], [[[15.2094617, 43.939791799999966], [15.2094617, 43.939791799999966]]], [[[15.269498100000026, 44.0162424], [15.297247099999959, 43.973540700000015], [15.338027200000019, 43.94358879999998], [15.373623100000037, 43.90721020000004], [15.427526500000036, 43.88944960000001], [15.399195, 43.93302340000003], [15.357625799999978, 43.96580689999996], [15.30431709999998, 44.0008458], [15.269498100000026, 44.0162424]]], [[[15.055892299999977, 44.04309759999996], [15.055892299999977, 44.04309759999996]]], [[[15.0746275, 44.083522700000046], [15.10569040000003, 44.03602770000004], [15.149848299999972, 44.00566290000003], [15.116273400000017, 44.0499306], [15.0746275, 44.083522700000046]]], [[[15.084136700000043, 44.14432510000004], [15.117253600000028, 44.106565400000044], [15.152412699999966, 44.06781130000002], [15.192659, 44.03616390000003], [15.243506800000043, 44.02420479999996], [15.211702599999958, 44.063585], [15.17027379999996, 44.1009], [15.126548800000043, 44.1261478], [15.084136700000043, 44.14432510000004]]], [[[15.027867799999987, 44.1669594], [15.027867799999987, 44.1669594]]], [[[14.892930900000016, 44.17517680000001], [14.937487399999986, 44.1491959], [14.892930900000016, 44.17517680000001]]], [[[14.860256, 44.173272], [14.873817, 44.123881], [14.92220469999999, 44.103768199999976], [14.962156299999977, 44.07214229999999], [15.004261, 44.041815], [15.036701, 44.003031], [15.069041, 43.960195], [15.12692090000001, 43.91012159999997], [15.178054, 43.8782], [15.1331, 43.914292], [15.183359, 43.901939], [15.150191400000027, 43.948009700000014], [15.102365199999971, 43.9860257], [15.051551, 44.00763], [15.021833, 44.057261], [14.970486, 44.089293], [14.929272, 44.118671], [14.8898981, 44.1519203], [14.860256, 44.173272]]], [[[14.915299099999983, 44.190597300000036], [14.915299099999983, 44.190597300000036]]], [[[14.945895300000037, 44.1994474], [14.976982200000014, 44.1560167], [15.024273400000036, 44.1253696], [14.9767866, 44.178726099999956], [14.945895300000037, 44.1994474]]], [[[14.805760799999982, 44.26138839999996], [14.8288134, 44.20095949999996], [14.878820400000018, 44.20582960000004], [14.836842399999965, 44.238799700000044], [14.805760799999982, 44.26138839999996]]], [[[14.695223199999988, 44.29223590000002], [14.695223199999988, 44.29223590000002]]], [[[14.7604507, 44.29245710000003], [14.7604507, 44.29245710000003]]], [[[15.032806599999974, 44.32622660000001], [15.0629569, 44.28597880000003], [15.119505199999987, 44.29098750000003], [15.0762517, 44.316347], [15.032806599999974, 44.32622660000001]]], [[[14.59780350000002, 44.35273829999998], [14.6317758, 44.31542509999998], [14.59780350000002, 44.35273829999998]]], [[[14.848766299999964, 44.388764], [14.848766299999964, 44.388764]]], [[[14.678772900000018, 44.4131965], [14.697318100000038, 44.35718430000004], [14.69418340000002, 44.4097754], [14.678772900000018, 44.4131965]]], [[[14.7849093, 44.42199920000003], [14.7659187, 44.37325360000002], [14.81509539999997, 44.341118], [14.804441299999963, 44.39205579999999], [14.7849093, 44.42199920000003]]], [[[14.892395400000028, 44.4557912], [14.92863349999998, 44.4151653], [14.898224100000016, 44.45537959999997], [14.892395400000028, 44.4557912]]], [[[14.541786500000024, 44.464426], [14.541786500000024, 44.464426]]], [[[14.85286530000001, 44.48767139999999], [14.85286530000001, 44.48767139999999]]], [[[14.548061099999957, 44.506976299999984], [14.548061099999957, 44.506976299999984]]], [[[14.293504500000024, 44.52054559999996], [14.293504500000024, 44.52054559999996]]], [[[14.439997, 44.54755789999996], [14.475177, 44.51123640000004], [14.51427840000004, 44.47964470000004], [14.49208370000004, 44.52576230000003], [14.439997, 44.54755789999996]]], [[[14.298266599999957, 44.5912253], [14.298266599999957, 44.5912253]]], [[[14.279164100000012, 44.68418440000002], [14.239961199999977, 44.643340700000024], [14.2805917, 44.6039146], [14.250828899999982, 44.64948779999998], [14.279164100000012, 44.68418440000002]]], [[[14.743036500000043, 44.69674659999998], [14.770540499999955, 44.65472780000002], [14.805867, 44.6176957], [14.8434553, 44.581914], [14.883441099999976, 44.55172839999997], [14.9156547, 44.50899270000002], [14.941054199999963, 44.465096], [14.993538400000043, 44.44728], [15.033339500000013, 44.40966679999998], [15.082240299999986, 44.39771770000003], [15.096141499999986, 44.349375], [15.14899560000003, 44.29907539999998], [15.196872500000017, 44.31406470000004], [15.256024699999985, 44.32163069999997], [15.226668300000016, 44.36219529999997], [15.181610699999974, 44.384956], [15.14167619999998, 44.41647119999997], [15.0962598, 44.446025400000046], [15.0530683, 44.477239], [14.997627, 44.482076399999976], [14.947980299999978, 44.51864540000004], [15.000705600000023, 44.512532], [15.050059, 44.496768899999985], [15.0099145, 44.5276975], [14.96470520000002, 44.55816789999996], [14.930248400000016, 44.597760800000025], [14.8815038, 44.60940240000002], [14.82959259999999, 44.61993740000003], [14.779127299999976, 44.66526409999996], [14.743036500000043, 44.69674659999998]]], [[[14.341075600000023, 44.711042], [14.348292699999957, 44.66155080000003], [14.383690600000024, 44.61121770000003], [14.36869, 44.56218790000004], [14.4190111, 44.56406], [14.400411700000019, 44.61327990000004], [14.39951369999997, 44.66395090000002], [14.361378399999984, 44.6970462], [14.341075600000023, 44.711042]]], [[[14.7890763, 44.733312300000044], [14.82801879999998, 44.690392699999975], [14.7890763, 44.733312300000044]]], [[[14.32047160000001, 44.78340470000002], [14.32047160000001, 44.78340470000002]]], [[[14.800956500000021, 44.851469100000024], [14.800956500000021, 44.851469100000024]]], [[[14.725574400000022, 44.85210680000003], [14.728041, 44.8012312], [14.6766011, 44.797895], [14.706405099999968, 44.7561818], [14.762303800000035, 44.753562800000026], [14.8083932, 44.7325175], [14.850372, 44.70040479999997], [14.827387, 44.75796820000002], [14.779018500000033, 44.78841609999998], [14.73722550000001, 44.82005509999998], [14.725574400000022, 44.85210680000003]]], [[[14.750146700000014, 44.88328469999998], [14.750146700000014, 44.88328469999998]]], [[[13.745948899999986, 44.927459], [13.745948899999986, 44.927459]]], [[[14.7686903, 44.93379679999996], [14.8385453, 44.88396819999996], [14.800747300000031, 44.92178519999999], [14.7686903, 44.93379679999996]]], [[[13.7351533, 44.94114359999997], [13.7351533, 44.94114359999997]]], [[[14.524137800000018, 44.98540869999999], [14.524137800000018, 44.98540869999999]]], [[[14.3263185, 45.17481169999998], [14.291915800000025, 45.13629580000003], [14.3006555, 45.08195819999999], [14.349324, 45.0532554], [14.351252900000015, 45.002966800000046], [14.393282, 44.9671311], [14.402252700000021, 44.912064700000045], [14.345848, 44.913854100000044], [14.3280866, 44.8666151], [14.3421863, 44.81637890000001], [14.368136300000026, 44.7702052], [14.390233400000033, 44.7238868], [14.407777099999967, 44.676112200000034], [14.443724799999961, 44.640237699999965], [14.484286900000013, 44.607782], [14.53233289999996, 44.62442550000004], [14.507627599999976, 44.66806680000004], [14.47076780000001, 44.712743], [14.4708472, 44.7632869], [14.464938699999989, 44.81816420000003], [14.446746400000036, 44.86801049999998], [14.4595136, 44.916401499999964], [14.4833839, 44.9620805], [14.4352408, 44.9777669], [14.399092, 45.014617199999975], [14.375072199999964, 45.06143740000002], [14.3589482, 45.11137560000003], [14.3608998, 45.16372250000003], [14.3263185, 45.17481169999998]]], [[[14.5548265, 45.245436], [14.5333618, 45.19888809999997], [14.529077800000016, 45.1458083], [14.47930390000001, 45.12592219999996], [14.435007100000034, 45.09311940000003], [14.464968, 45.04339180000004], [14.516910300000022, 45.02198519999996], [14.574218, 45.0201404], [14.620831200000021, 45.0405263], [14.628064, 44.98981910000004], [14.677871200000018, 44.9647084], [14.727877200000043, 44.93762430000002], [14.7745601, 44.96868289999996], [14.759377699999957, 45.01846209999996], [14.736298100000015, 45.0658373], [14.6866818, 45.073112799999976], [14.659221399999959, 45.1170968], [14.630050499999973, 45.15938519999998], [14.581534799999977, 45.2299821], [14.5548265, 45.245436]]], [[[15.304251100000025, 45.68974110000004], [15.304251100000025, 45.68974110000004]]], [[[16.376006400000037, 46.552575799999964], [16.323930299999972, 46.5291514], [16.27502079999999, 46.5141671], [16.259250100000028, 46.46088660000003], [16.2823043, 46.41492479999996], [16.238789200000042, 46.378752300000016], [16.1878652, 46.380508099999986], [16.13602220000004, 46.40437309999999], [16.088388, 46.388548], [16.068953199999974, 46.3397847], [16.017983100000027, 46.3211121], [15.969813599999986, 46.30585259999998], [15.917136500000021, 46.285371900000044], [15.86669950000004, 46.27594570000002], [15.81103489999998, 46.2619627], [15.785714099999963, 46.21640809999997], [15.730031500000011, 46.21619630000003], [15.673835500000036, 46.22684739999996], [15.635971700000043, 46.18578809999998], [15.6001725, 46.1494121], [15.6138998, 46.10044519999997], [15.658372599999963, 46.071248399999966], [15.710155099999982, 46.05825710000003], [15.713235899999981, 46.00711829999997], [15.7104516, 45.94968270000002], [15.679475, 45.904497900000024], [15.7093986, 45.8464604], [15.650726300000043, 45.8308996], [15.5938769, 45.84486780000004], [15.538554, 45.84759870000004], [15.478901900000034, 45.82749270000002], [15.437212599999976, 45.79389619999996], [15.381955200000034, 45.7791475], [15.3319404, 45.76302320000001], [15.28010790000001, 45.74328360000002], [15.288105500000041, 45.69245990000002], [15.339764, 45.71455529999997], [15.376989200000017, 45.676706], [15.3399548, 45.6327681], [15.292488200000024, 45.6124081], [15.299072199999978, 45.5470047], [15.352613, 45.50194849999998], [15.3272945, 45.452584499999965], [15.273806800000015, 45.46600169999997], [15.228582300000019, 45.43655789999997], [15.177764499999972, 45.421442499999955], [15.1238336, 45.4469085], [15.086202800000018, 45.48283769999997], [15.027805399999975, 45.485501099999986], [14.977100400000024, 45.5009096], [14.931132100000037, 45.52927710000004], [14.911748500000014, 45.48158050000004], [14.860993199999987, 45.46674459999998], [14.80508759999997, 45.47893049999998], [14.759576599999983, 45.510420099999976], [14.71340250000002, 45.53470630000001], [14.690323300000022, 45.58067930000003], [14.643339400000025, 45.600757399999964], [14.595730199999982, 45.62707629999996], [14.570010199999976, 45.67294360000003], [14.545471199999986, 45.62425090000004], [14.5072941, 45.58919380000002], [14.490486100000014, 45.5377537], [14.441691, 45.51645819999997], [14.394341699999961, 45.4940482], [14.342067, 45.4802993], [14.2910182, 45.4849119], [14.244983300000017, 45.505377], [14.207614400000027, 45.469271599999985], [14.15399240000004, 45.481049], [14.09150039999996, 45.48192], [14.042198099999984, 45.49888259999997], [13.987464500000039, 45.50964919999996], [13.987119900000037, 45.459006899999956], [13.92574410000003, 45.453919800000044], [13.877823100000034, 45.42676020000003], [13.826526499999984, 45.435465099999966], [13.786152300000024, 45.466434], [13.731231300000028, 45.458783599999954], [13.68195389999998, 45.4442195], [13.6273842, 45.46261479999996], [13.578411500000035, 45.4798784], [13.528595700000027, 45.50017809999996], [13.517011599999988, 45.45132659999998], [13.530502699999984, 45.4025846], [13.556217600000013, 45.357890900000044], [13.581579599999975, 45.313346199999984], [13.57549820000004, 45.2636669], [13.5947362, 45.2140541], [13.6036737, 45.1648558], [13.65854370000004, 45.1355171], [13.711663500000041, 45.13688930000002], [13.645490599999958, 45.1302284], [13.633497600000014, 45.07989220000002], [13.67725790000001, 45.05282579999999], [13.715192900000032, 45.02016130000004], [13.7542072, 44.985478], [13.788699099999983, 44.94581119999999], [13.809080399999955, 44.898941700000044], [13.83070729999996, 44.85030970000002], [13.874856299999964, 44.820933], [13.903464, 44.778511499999986], [13.909900399999978, 44.83001720000002], [13.958701799999988, 44.80539970000002], [13.9806239, 44.85346340000001], [14.012263599999967, 44.9014659], [14.050213599999987, 44.93811510000003], [14.069769, 44.9929766], [14.116028400000017, 44.97134470000002], [14.16563419999997, 44.979204500000016], [14.156627400000014, 45.02986549999997], [14.15351660000002, 45.0797793], [14.198476100000027, 45.10872139999998], [14.228536199999956, 45.14943529999998], [14.2420955, 45.19823859999997], [14.2626284, 45.246629899999974], [14.277134699999964, 45.29715859999999], [14.3109768, 45.3344429], [14.362910800000032, 45.343338], [14.413266500000036, 45.3327575], [14.474119200000017, 45.311743399999976], [14.522935500000015, 45.28423829999997], [14.574125799999974, 45.2867634], [14.598895799999982, 45.238165799999976], [14.648115300000034, 45.20486419999999], [14.690225899999957, 45.172929], [14.73667849999996, 45.1436292], [14.785195399999965, 45.12721249999996], [14.834274, 45.1079478], [14.871102, 45.055439300000046], [14.89904760000003, 44.998865100000046], [14.927946100000037, 44.95138940000003], [14.911421, 44.903468799999985], [14.891427100000024, 44.85508040000004], [14.8799172, 44.805497], [14.88866720000002, 44.75596630000003], [14.896425100000025, 44.705274], [14.9297641, 44.66622580000004], [14.960351300000022, 44.625702299999986], [14.986141299999959, 44.58183840000003], [15.031705, 44.555287800000045], [15.0726342, 44.52391370000002], [15.11817440000001, 44.49434389999998], [15.15590039999997, 44.46018510000003], [15.1980918, 44.43241219999999], [15.243268200000019, 44.39767240000001], [15.282451699999958, 44.36568060000004], [15.328148599999961, 44.34414859999998], [15.378155499999972, 44.32654350000003], [15.427797099999955, 44.30428750000002], [15.476240800000033, 44.277451], [15.525800399999982, 44.2690543], [15.5413196, 44.219241300000036], [15.59003349999997, 44.201377800000024], [15.616183, 44.15510919999997], [15.5690296, 44.189770600000024], [15.49662670000003, 44.18856869999997], [15.5362593, 44.2191883], [15.49706179999997, 44.2512426], [15.442988699999963, 44.262997], [15.3720007, 44.274872199999976], [15.327876, 44.3034885], [15.2800788, 44.32357479999998], [15.28825780000003, 44.2711927], [15.232921899999988, 44.28190119999998], [15.183707299999986, 44.24858490000001], [15.1402359, 44.27988160000003], [15.155509599999965, 44.231521899999976], [15.161348800000022, 44.1816056], [15.210843700000035, 44.14570159999998], [15.24171170000002, 44.098437900000015], [15.2838766, 44.068482500000044], [15.321709600000014, 44.035044], [15.367240300000033, 44.005423400000026], [15.404495, 43.968646299999975], [15.4431899, 43.935798], [15.491158899999972, 43.91208160000004], [15.535486099999977, 43.88794309999997], [15.581280599999973, 43.8574884], [15.632924, 43.834068200000026], [15.6834456, 43.816758800000024], [15.6305986, 43.8101019], [15.67791369999996, 43.78592090000004], [15.729621500000016, 43.764678100000026], [15.78000329999996, 43.757483099999966], [15.828102100000011, 43.72972350000004], [15.879889199999967, 43.729345], [15.90998979999996, 43.68467959999998], [15.95065119999997, 43.6526449], [15.925879, 43.608327], [15.946045, 43.558386], [15.99465, 43.53801579999997], [15.95225890000003, 43.508656400000014], [16.0015074, 43.499243], [16.052408900000042, 43.476674100000025], [16.103244, 43.47338639999996], [16.15901579999997, 43.4830092], [16.109997499999956, 43.51367720000004], [16.16089659999998, 43.512210700000026], [16.22246720000003, 43.51788290000003], [16.272474399999975, 43.523744100000044], [16.321187400000042, 43.54166630000003], [16.37771009999996, 43.54806219999996], [16.4288112, 43.54439959999996], [16.47748429999996, 43.53214480000003], [16.427128899999982, 43.52860870000002], [16.472310399999973, 43.50143379999998], [16.523846400000025, 43.49771040000002], [16.5695837, 43.473194100000036], [16.6231844, 43.45298249999998], [16.67605269999997, 43.438409099999966], [16.723042, 43.415807], [16.7747334, 43.40726060000004], [16.826813200000018, 43.40086040000002], [16.88620149999998, 43.40105089999997], [16.928326899999973, 43.368676100000016], [16.966857399999974, 43.33611950000003], [17.012652, 43.299822700000014], [17.053297199999978, 43.26969349999997], [17.093526500000028, 43.228180500000015], [17.135276, 43.19714959999997], [17.1817241, 43.17385340000004], [17.23104349999996, 43.15748139999998], [17.282223300000027, 43.13848239999998], [17.3311637, 43.11319330000001], [17.36835429999997, 43.07853270000002], [17.40852980000001, 43.040179500000036], [17.459181, 43.03677289999999], [17.47367069999997, 42.98782769999998], [17.524455899999985, 42.94777790000004], [17.576397500000024, 42.942827], [17.66561540000003, 42.9607897], [17.6852121, 43.01062060000001], [17.64466260000002, 43.08313470000003], [17.58878449999997, 43.11494049999998], [17.515528, 43.14443410000002], [17.4501818, 43.17735160000003], [17.39814139999996, 43.239305900000026], [17.342290300000013, 43.2596667], [17.313585300000028, 43.3039006], [17.266648099999987, 43.3853606], [17.294382899999988, 43.44284310000002], [17.262372900000017, 43.4814163], [17.207800700000014, 43.49664990000002], [17.1552217, 43.4925684], [17.091654, 43.53393310000003], [17.0199002, 43.56888260000003], [16.96331829999998, 43.62079920000004], [16.920931799999966, 43.659668700000026], [16.87885540000003, 43.695237800000044], [16.833773, 43.724412299999976], [16.7999317, 43.7630301], [16.7247223, 43.796218400000036], [16.710302299999974, 43.85486479999999], [16.663719400000026, 43.87750469999996], [16.609955899999967, 43.917159099999964], [16.5554045, 43.952044399999984], [16.531283500000043, 44.0019033], [16.48239209999996, 44.029281], [16.435870799999957, 44.0549898], [16.38895870000004, 44.080433300000045], [16.3333577, 44.112540299999964], [16.291992400000016, 44.15641840000002], [16.245611399999987, 44.1937549], [16.21485569999997, 44.2350893], [16.191867899999984, 44.2801774], [16.2005824, 44.3326467], [16.1683594, 44.374736300000045], [16.119598799999984, 44.39666470000004], [16.172238, 44.40285], [16.138697200000035, 44.4414777], [16.1309174, 44.4927394], [16.093559500000026, 44.5344548], [16.03065430000004, 44.5545906], [16.046602400000026, 44.60678010000004], [16.030558899999964, 44.65429579999998], [15.976761899999973, 44.67058539999998], [15.9380137, 44.71099830000003], [15.89748790000001, 44.74619279999997], [15.84660960000002, 44.72652880000001], [15.7886622, 44.74560149999998], [15.755980499999959, 44.7859625], [15.79343039999999, 44.84660359999997], [15.760609, 44.8873715], [15.73889139999998, 44.934904], [15.778867, 44.968767899999975], [15.75480140000001, 45.047334799999966], [15.773356799999986, 45.0951179], [15.775915300000024, 45.14625520000002], [15.7914618, 45.19547430000004], [15.8383877, 45.22416020000004], [15.889829299999962, 45.21726], [15.957283199999987, 45.21585050000004], [16.01068140000002, 45.21886079999997], [16.0487049, 45.17868459999997], [16.0858132, 45.131833500000035], [16.121747, 45.09305], [16.1722251, 45.072517199999986], [16.20907590000003, 45.032573500000034], [16.2575697, 45.01108559999998], [16.307066499999983, 45.000703700000024], [16.3585796, 45.01144060000004], [16.382829499999968, 45.05910160000002], [16.394442800000025, 45.11270540000001], [16.44468519999998, 45.13364379999998], [16.47469320000004, 45.1832762], [16.513027, 45.22059559999998], [16.56472650000001, 45.22213479999997], [16.6190399, 45.223488], [16.668529899999967, 45.20196769999996], [16.723639600000034, 45.204829500000045], [16.77497679999998, 45.192762], [16.834724500000014, 45.18830540000001], [16.8774961, 45.21906379999999], [16.9131335, 45.256077299999966], [16.971544800000032, 45.22713120000002], [17.022114200000043, 45.235910900000015], [17.0646169, 45.198198500000025], [17.113417, 45.17598059999997], [17.162653700000035, 45.152335], [17.217589800000038, 45.1458278], [17.2618468, 45.1732856], [17.312492700000043, 45.1652646], [17.363278099999985, 45.13782990000004], [17.4149971, 45.135032500000044], [17.469546699999988, 45.126432399999985], [17.53078120000003, 45.1090502], [17.5838727, 45.11384550000002], [17.647730800000044, 45.130363], [17.698455, 45.11488629999998], [17.746036699999973, 45.093331800000016], [17.805226500000032, 45.06427160000004], [17.85149809999998, 45.044287], [17.920646, 45.074001], [17.957915699999965, 45.111612800000024], [18.00442060000003, 45.15188530000001], [18.059943900000036, 45.1434006], [18.094086200000042, 45.09873819999997], [18.143781899999972, 45.085871], [18.1992185, 45.079219599999966], [18.219001600000034, 45.12861190000002], [18.27079790000004, 45.1369545], [18.317338400000033, 45.102845399999985], [18.4100252, 45.110490100000035], [18.4592978, 45.076502200000014], [18.5074549, 45.0571852], [18.54445380000001, 45.09410219999999], [18.597185799999988, 45.083109], [18.65456279999998, 45.05599219999996], [18.7166203, 45.037231], [18.743708400000042, 44.992600699999976], [18.79416050000003, 44.99478240000001], [18.80531629999998, 44.94138839999997], [18.7519295, 44.9424837], [18.793895799999977, 44.887104], [18.8451202, 44.8566719], [18.894975299999977, 44.852513500000015], [18.981102799999988, 44.850008599999974], [18.9916882, 44.9026093], [19.044114399999984, 44.91258310000004], [19.1012845, 44.92991290000004], [19.156487599999977, 44.95294179999996], [19.092864, 44.97097169999998], [19.0973578, 45.022498200000044], [19.105857600000014, 45.07916120000002], [19.077897, 45.1272764], [19.142050799999982, 45.129924900000034], [19.187238, 45.16599730000004], [19.2463004, 45.179494900000044], [19.318863199999964, 45.20762929999998], [19.3642008, 45.17284470000003], [19.41863390000003, 45.16578890000003], [19.427440899999976, 45.217504700000035], [19.370919199999964, 45.23165509999996], [19.284864500000026, 45.23731740000004], [19.193894, 45.26570309999998], [19.14450779999997, 45.28023759999998], [19.099056899999983, 45.31041979999997], [19.056018400000024, 45.343105499999986], [19.005405100000022, 45.35763410000003], [19.030546699999956, 45.4114171], [18.988437, 45.44683360000002], [19.01098629999996, 45.49615340000002], [19.082297700000034, 45.48829179999996], [19.052676, 45.533048], [18.99219650000004, 45.54031779999997], [18.928746199999985, 45.5439025], [18.89340990000004, 45.58030350000002], [18.93034019999998, 45.629142], [18.96627250000003, 45.666357800000014], [18.908638800000027, 45.705161100000026], [18.888707900000018, 45.775266399999964], [18.8475838, 45.81199950000001], [18.8336504, 45.8683866], [18.773047800000025, 45.88798410000004], [18.721628599999956, 45.90522790000003], [18.66952029999998, 45.9106871], [18.63762220000003, 45.868085], [18.60083820000003, 45.8340503], [18.559716, 45.803796200000015], [18.5101881, 45.7848045], [18.45628280000003, 45.7695229], [18.4105726, 45.738922699999975], [18.36422570000003, 45.7729364], [18.30974819999996, 45.7564085], [18.244047300000027, 45.76123060000002], [18.1985229, 45.78564740000002], [18.14807769999996, 45.78829409999999], [18.096004400000037, 45.766160200000044], [18.035997200000025, 45.77515279999998], [17.98664650000004, 45.79449729999996], [17.93020950000002, 45.78633010000002], [17.8759343, 45.77930350000004], [17.8307121, 45.806240400000014], [17.78090549999996, 45.817488400000045], [17.730473599999957, 45.8310005], [17.672641100000025, 45.83487260000001], [17.6276212, 45.89794460000003], [17.578692899999965, 45.93186509999998], [17.51381659999996, 45.939562500000044], [17.45199210000004, 45.949068299999986], [17.3955076, 45.930270700000044], [17.343366399999965, 45.94519580000003], [17.39142360000004, 45.96300430000002], [17.342734, 45.98421030000002], [17.286321600000015, 46.00016620000003], [17.256863299999964, 46.0459561], [17.221316900000044, 46.08130310000003], [17.17592709999996, 46.10845830000004], [17.1562307, 46.15858190000002], [17.103503599999975, 46.182495500000044], [17.05302669999998, 46.202725], [17.006004, 46.2228032], [16.956485599999965, 46.241229400000044], [16.9081345, 46.266356799999954], [16.877243499999977, 46.30703009999997], [16.862747699999986, 46.35519220000002], [16.814128, 46.371148200000036], [16.764237600000037, 46.3797397], [16.715605800000027, 46.39814279999999], [16.6805765, 46.4391455], [16.636439, 46.4647442], [16.582408500000017, 46.471974], [16.52438080000001, 46.47887630000001], [16.48076379999997, 46.50887549999996], [16.431577299999983, 46.52722939999996], [16.382065399999984, 46.54255590000003], [16.376006400000037, 46.552575799999964]]]]}}]}