{"type": "FeatureCollection", "features": [{"type": "Feature", "properties": {"code": "HTI", "name": "Haiti", "tier": "country"}, "geometry": {"type": "MultiPolygon", "coordinates": [[[[-73.70397419999996, 18.10902220000002], [-73.7003473, 18.0884461], [-73.68465390000003, 18.07500130000002], [-73.67007679999998, 18.060440100000037], [-73.62878319999997, 18.057593499999964], [-73.60334610000001, 18.055644], [-73.576325, 18.06033729999997], [-73.5799338, 18.082876], [-73.5980743, 18.09825130000003], [-73.62300860000002, 18.08878010000002], [-73.64921710000003, 18.08395529999996], [-73.67163209999997, 18.099290799999974], [-73.692096, 18.107238100000018], [-73.70397419999996, 18.10902220000002]]], [[[-73.64735, 18.521624399999965], [-73.64735, 18.521624399999965]]], [[[-73.81063769999996, 18.6160682], [-73.81063769999996, 18.6160682]]], [[[-73.75602870000002, 18.643540699999967], [-73.78761439999997, 18.6271119], [-73.79564890000003, 18.60714620000004], [-73.77624080000002, 18.595274], [-73.75242390000001, 18.590019200000036], [-73.715345, 18.593110600000024], [-73.69975889999998, 18.6115963], [-73.713045, 18.6315162], [-73.7426392, 18.6396369], [-73.75602870000002, 18.643540699999967]]], [[[-73.20474570000005, 18.9696795], [-73.23726509999997, 18.965556], [-73.28078140000002, 18.950002699999963], [-73.2974818, 18.935663100000017], [-73.29988320000001, 18.911945500000044], [-73.2831256, 18.89928559999999], [-73.26491269999995, 18.886223200000025], [-73.25240020000001, 18.867708300000025], [-73.23808859999998, 18.850014], [-73.21587319999996, 18.83767469999998], [-73.19535590000001, 18.83746419999997], [-73.1659443, 18.825908499999972], [-73.14546740000003, 18.82179489999996], [-73.1242136, 18.819381500000027], [-73.10251239999997, 18.804440100000026], [-73.07524349999997, 18.7965563], [-73.0534455, 18.77185110000002], [-73.0365578, 18.758816599999967], [-73.00274559999995, 18.74752870000001], [-72.98225, 18.74418129999998], [-72.95624809999997, 18.74421349999998], [-72.93265950000001, 18.740994800000028], [-72.91179, 18.73771159999998], [-72.8843605, 18.727379], [-72.8606247798494, 18.721868357972433], [-72.83912059999997, 18.723838099999963], [-72.834668, 18.70284850000002], [-72.8137068, 18.699775899999988], [-72.81927080000001, 18.719943], [-72.79761960000005, 18.7347181], [-72.8048253, 18.7534508], [-72.80691763655398, 18.77625393569969], [-72.81882010000002, 18.796113200000015], [-72.83069084874907, 18.815197110936516], [-72.85166570000004, 18.83137080000002], [-72.880924, 18.84343269999998], [-72.90202259999997, 18.853903199999984], [-72.92463440000002, 18.853629499999986], [-72.9454597602784, 18.863822961653504], [-72.97202029999997, 18.873377], [-72.99219049999996, 18.8823917], [-73.00923169999997, 18.897066499999966], [-73.03459370000003, 18.9097647], [-73.05791771246881, 18.924964141681972], [-73.08115909999995, 18.929571], [-73.107127, 18.930278299999987], [-73.13438649999998, 18.93757649999997], [-73.15981060000001, 18.950243], [-73.1805249, 18.96369369999998], [-73.20474570000005, 18.9696795]]], [[[-72.0520495, 19.71783559999996], [-72.06781340000002, 19.7054098], [-72.04707134868855, 19.70147511871246], [-72.0520495, 19.71783559999996]]], [[[-72.04784549999997, 19.737320099999984], [-72.047785, 19.716651300000027], [-72.04784549999997, 19.737320099999984]]], [[[-72.81768379999998, 19.95268879999997], [-72.83637459999997, 19.942409499999975], [-72.86016679999999, 19.940859], [-72.88917879999997, 19.93368239999998], [-72.92673010000004, 19.9306888], [-72.94804479999996, 19.923758399999986], [-72.96418419999998, 19.910907400000017], [-72.98371539999995, 19.9211769], [-73.01509307035448, 19.92149362393579], [-73.03248870000003, 19.9089083], [-73.05988860000004, 19.919706600000026], [-73.12179932171452, 19.925644422552164], [-73.1518477, 19.92553130000004], [-73.18269450000001, 19.920785300000016], [-73.1977699, 19.907237799999972], [-73.22925340000002, 19.88852], [-73.2467898910164, 19.877420993799195], [-73.27160880000004, 19.8656557], [-73.291779, 19.86161949999999], [-73.31981339999996, 19.84830939999996], [-73.34060590000003, 19.838146900000037], [-73.3673958, 19.8460589], [-73.40128820000002, 19.8436672], [-73.422174, 19.828657899999975], [-73.39366719999998, 19.82177560000003], [-73.3696596, 19.82505690000001], [-73.38174759999998, 19.80262090000003], [-73.4102244, 19.7909275], [-73.4307574, 19.7867453], [-73.44239170000002, 19.76926909999997], [-73.45254770000003, 19.75007479999998], [-73.45545751999111, 19.724753779836607], [-73.4547255, 19.692281900000037], [-73.4371284, 19.6675287], [-73.416005611408, 19.649137819489166], [-73.39116860000001, 19.635966200000016], [-73.36921455627403, 19.625935792250832], [-73.34153919999997, 19.62427239999996], [-73.32127970000005, 19.624424799999957], [-73.29559840000005, 19.62887730000003], [-73.268816, 19.633691199999987], [-73.24234131662, 19.628932936808347], [-73.22341490000002, 19.638405400000043], [-73.21165679999997, 19.661553100000024], [-73.1931057, 19.647968], [-73.1551989, 19.629347300000017], [-73.1334915, 19.62255379999996], [-73.1170549, 19.6387323], [-73.0538061, 19.630561500000027], [-73.02772870000001, 19.614319399999964], [-73.00271559789853, 19.604770625746], [-72.9848195, 19.5916431], [-72.96504619999997, 19.5793415], [-72.92604520000003, 19.5636367], [-72.89288590000001, 19.547191099999967], [-72.8677004, 19.5396473], [-72.84843609999999, 19.53102780000003], [-72.8330506, 19.516040300000032], [-72.803493, 19.499787100000027], [-72.78282, 19.47635890000002], [-72.77029340000001, 19.453662399999978], [-72.744726, 19.445116], [-72.72604939999997, 19.4554962], [-72.70198650000002, 19.45956509999996], [-72.70040860000002, 19.427685], [-72.6821026, 19.412360800000023], [-72.69806549999996, 19.395286], [-72.71568559999999, 19.413170200000025], [-72.71231020000005, 19.393190299999958], [-72.72355395737702, 19.371140144306615], [-72.74789509999995, 19.3746438], [-72.76781556618046, 19.36835357808671], [-72.77329759999998, 19.34533990000003], [-72.76103249999998, 19.329538500000016], [-72.72801179999998, 19.3261237], [-72.71934750000003, 19.306424], [-72.7248756, 19.282947], [-72.74716429999997, 19.277867399999977], [-72.76967420000003, 19.284253800000013], [-72.77562909999997, 19.243775100000022], [-72.75543610000004, 19.23590370000004], [-72.773629, 19.22376089999996], [-72.7958271218162, 19.22302409381385], [-72.78206539999996, 19.20215769999996], [-72.76209728296091, 19.164659610278562], [-72.74219594671013, 19.147556191446686], [-72.71440320000002, 19.136216599999962], [-72.701658, 19.111454100000042], [-72.71789869999996, 19.093907], [-72.73781070000001, 19.08967919999996], [-72.75875349999998, 19.0929666], [-72.81042676925867, 19.078512049124924], [-72.82391963403987, 19.056915342536424], [-72.81109550000002, 19.0311646], [-72.7896582, 19.0241078], [-72.76777696947853, 19.015030911413195], [-72.74495172266937, 18.995495197268603], [-72.72899680000002, 18.971750400000015], [-72.7146949, 18.9492399], [-72.69052889999996, 18.941447399999973], [-72.671696, 18.9301379], [-72.65344510000003, 18.9203039], [-72.63507329999996, 18.906318699999975], [-72.62405769999998, 18.889354600000036], [-72.61088739999997, 18.8592976], [-72.59337360000002, 18.84768610000001], [-72.5763977, 18.834670899999956], [-72.56423719999997, 18.80816480000001], [-72.54759930000002, 18.78929480000003], [-72.52206840000002, 18.76761620000001], [-72.496842, 18.765498500000028], [-72.47737213512669, 18.760318201391996], [-72.46025429999999, 18.7477852], [-72.45026401588011, 18.71966184207941], [-72.42695734676288, 18.713520380171673], [-72.40544059999998, 18.7133154], [-72.383028, 18.70548730000004], [-72.36336869999998, 18.6956702], [-72.341474, 18.686329799999985], [-72.32216189999995, 18.679955599999982], [-72.31865589999995, 18.6583763], [-72.3427114, 18.63255179999997], [-72.35204530000001, 18.61478450000001], [-72.33862469999998, 18.59336219999997], [-72.3429734, 18.572915299999988], [-72.34803539999997, 18.553081899999963], [-72.361689, 18.5358383], [-72.3819687, 18.53790349999998], [-72.40054190000002, 18.551405199999966], [-72.42364910000003, 18.54882679999997], [-72.445201, 18.54341219999996], [-72.46875379999997, 18.5480972], [-72.49548140000005, 18.546803399999973], [-72.51744869999996, 18.545298], [-72.53998459999995, 18.544150899999973], [-72.553916, 18.5601124], [-72.57721370000002, 18.56489769999999], [-72.59801640000003, 18.5598087], [-72.62649329999998, 18.551111], [-72.64812720000002, 18.525940500000033], [-72.670162, 18.4695903], [-72.68597830000003, 18.448401], [-72.7049587, 18.43763969999997], [-72.72659530000001, 18.4262014], [-72.7494768, 18.430380700000033], [-72.78254790000001, 18.4327001], [-72.80537320000005, 18.43925439999999], [-72.83805119999995, 18.442637200000018], [-72.86406859999997, 18.435835399999984], [-72.8900928, 18.42579260000002], [-72.90163570000001, 18.443165], [-72.93070329999998, 18.458029400000015], [-72.971883, 18.466477800000042], [-72.99276770000003, 18.467336500000037], [-73.02123589999997, 18.4654982], [-73.0416459, 18.46482939999999], [-73.062322, 18.456850299999978], [-73.08267990000002, 18.447049400000044], [-73.1049367, 18.44589989999997], [-73.11827140000003, 18.461225100000018], [-73.13731030000004, 18.477945599999963], [-73.1603225, 18.4854119], [-73.18844893310195, 18.489577811559094], [-73.21223659999998, 18.4807391], [-73.2344489702179, 18.47798940694923], [-73.26954469999995, 18.48369509999997], [-73.29337879999997, 18.483985099999984], [-73.3275365, 18.50194990000003], [-73.34907049999997, 18.50668380000003], [-73.39300310000002, 18.514279400000017], [-73.41729139999995, 18.519257], [-73.44306829999996, 18.52427169999998], [-73.47049050000003, 18.522117199999972], [-73.50564480000001, 18.527139600000037], [-73.52580679999996, 18.525630300000035], [-73.54998490000003, 18.517197100000022], [-73.56998470000005, 18.5052321], [-73.59261070000002, 18.503970399999965], [-73.61227320000003, 18.49543520000004], [-73.63022780000004, 18.50455740000004], [-73.66178539999997, 18.4987924], [-73.67235730000002, 18.516729], [-73.6600491, 18.53290429999997], [-73.67912430000001, 18.54465490000002], [-73.696773, 18.53442849999996], [-73.72473909999997, 18.536525099999974], [-73.70551769999996, 18.54796], [-73.6856626, 18.554370099999968], [-73.66302179999995, 18.56011180000004], [-73.63985919999998, 18.560868600000042], [-73.61879630000001, 18.556386600000014], [-73.59265990000002, 18.552561199999957], [-73.5641883914209, 18.58049548694248], [-73.59847229999998, 18.58541950000004], [-73.63472970000002, 18.581413799999986], [-73.65562550000003, 18.571971200000032], [-73.68832749999996, 18.5775033], [-73.71667390000003, 18.57124550000003], [-73.7214483, 18.551585400000043], [-73.74198268745221, 18.5475970122526], [-73.76227319999995, 18.5386132], [-73.7833831, 18.539790200000034], [-73.80151139999998, 18.551811099999977], [-73.82068565283559, 18.560239241843163], [-73.84024758907401, 18.5696497593334], [-73.86080129999996, 18.571011600000038], [-73.88175279999996, 18.5705228], [-73.90279440000003, 18.566159899999974], [-73.91871419999998, 18.58089929999996], [-73.939995, 18.587992699999962], [-73.960537, 18.600743199999965], [-73.9844837, 18.599604399999976], [-74.00830209999995, 18.601071699999967], [-74.03454450000002, 18.603061600000032], [-74.06332769999999, 18.609667899999966], [-74.08435419999996, 18.61863879999997], [-74.10886879999998, 18.63651880000002], [-74.1196035, 18.65403789999996], [-74.140844, 18.663698], [-74.16255920000003, 18.66848549999996], [-74.1920369, 18.67256880000004], [-74.2444760042979, 18.669064486445947], [-74.26398259999998, 18.6616514], [-74.279434, 18.6477566], [-74.2969883, 18.661095799999956], [-74.32977539999996, 18.65516910000003], [-74.34929109999999, 18.64805330000004], [-74.36760709999997, 18.635061499999967], [-74.38589789999999, 18.643885399999977], [-74.39645509999997, 18.626277300000044], [-74.42484730000001, 18.6162614], [-74.42122660000001, 18.595437399999987], [-74.41973529999999, 18.57413249999998], [-74.43173509999997, 18.552288400000034], [-74.4451837, 18.53231079999998], [-74.45391269999998, 18.502904599999976], [-74.453732, 18.482724300000026], [-74.45980709999998, 18.4618518], [-74.4698335, 18.443514300000025], [-74.47359070000002, 18.423308800000033], [-74.45330780000002, 18.403535099999974], [-74.45235050000004, 18.38010350000004], [-74.45063390000001, 18.356603], [-74.43110739999999, 18.34108350000004], [-74.41113029999997, 18.3379367], [-74.39957540000005, 18.3209591], [-74.376926, 18.30592709999997], [-74.35924179999998, 18.296363300000024], [-74.33102809999997, 18.28779529999996], [-74.310772, 18.2853096], [-74.25757839999999, 18.311600499999987], [-74.22937229999998, 18.310994500000028], [-74.20723769999998, 18.296687500000026], [-74.1826977, 18.29155559999996], [-74.16604609999997, 18.272920799999987], [-74.14270550000002, 18.267210400000018], [-74.11514849999999, 18.257877800000017], [-74.09151030000001, 18.24724340000004], [-74.06352069999997, 18.227607600000024], [-74.05231980000002, 18.209905799999976], [-74.0345957, 18.1991534], [-74.00422859999998, 18.17975149999998], [-73.98497040000002, 18.1647566], [-73.97470290000004, 18.145723], [-73.95239760000003, 18.132937700000024], [-73.94249229999998, 18.11486879999998], [-73.9271958, 18.091038099999974], [-73.91752039999997, 18.064153599999983], [-73.906029, 18.0458729], [-73.88987139999996, 18.024889600000044], [-73.8664157, 18.02330620000004], [-73.8380295, 18.024643799999957], [-73.80980689999997, 18.022116500000013], [-73.78936590000002, 18.027976500000015], [-73.7815692, 18.0484331], [-73.80072569999999, 18.061875599999972], [-73.81341990000003, 18.078647], [-73.82990629999998, 18.091971899999965], [-73.8437006, 18.10897029999999], [-73.83356689999998, 18.136728100000028], [-73.81620750000002, 18.151195200000043], [-73.79422159999997, 18.166908400000043], [-73.77531220000002, 18.177255400000043], [-73.75510189999999, 18.184141400000026], [-73.73495680000002, 18.19778930000003], [-73.7190352, 18.209917699999984], [-73.69939269999996, 18.2151102], [-73.694415, 18.2373565], [-73.67442009999998, 18.2329693], [-73.65485929999996, 18.23870730000004], [-73.66067569999998, 18.218494], [-73.64060719999996, 18.2164101], [-73.63153640000004, 18.2358461], [-73.61959610000002, 18.25263950000003], [-73.60005209999996, 18.24308519999998], [-73.61625169999996, 18.227464399999988], [-73.6002093, 18.21208], [-73.5846474, 18.2251696], [-73.56505110000005, 18.217953], [-73.56788050000003, 18.238905099999975], [-73.56358389999997, 18.259108200000036], [-73.5421721, 18.255197799999962], [-73.531098, 18.232485300000018], [-73.50751940000005, 18.232385799999957], [-73.49761640000001, 18.25054950000003], [-73.4753186, 18.2498547], [-73.45130140000002, 18.2549824], [-73.43262159999998, 18.264751699999977], [-73.41037739999996, 18.252925599999987], [-73.39348850000003, 18.266780399999966], [-73.37251310000002, 18.2667464], [-73.35532549999996, 18.256507], [-73.36655809999996, 18.235915399999964], [-73.36274480000003, 18.216222600000027], [-73.3424798, 18.22105469999998], [-73.32171449999996, 18.22319340000001], [-73.293652, 18.23250060000004], [-73.27351210000003, 18.229728299999987], [-73.25637440000004, 18.216222600000027], [-73.235484, 18.211746899999987], [-73.21184149999998, 18.213410399999958], [-73.18611409999998, 18.211113100000038], [-73.164765, 18.2058451], [-73.1405645, 18.19691169999998], [-73.08479609999996, 18.185542499999958], [-73.05529630000002, 18.18231369999997], [-73.03248660000004, 18.182667], [-73.00887250000001, 18.187213099999983], [-72.966692, 18.17058780000001], [-72.94545659999996, 18.16600330000003], [-72.92541060000002, 18.1628652], [-72.90346060000002, 18.157670299999957], [-72.87719889999995, 18.148020700000018], [-72.85461460000005, 18.143571300000023], [-72.83354120000001, 18.148662199999983], [-72.81211120000005, 18.14312590000003], [-72.7857189, 18.14778289999997], [-72.76166989999997, 18.156498], [-72.75847170000003, 18.177064], [-72.73799990000003, 18.1779935], [-72.71707830000003, 18.1757403], [-72.69393809999995, 18.17930030000004], [-72.6727669, 18.186811299999956], [-72.65232020000003, 18.1880259], [-72.6293102, 18.187442400000037], [-72.603463, 18.183546199999984], [-72.5828502, 18.17992549999999], [-72.56164680000003, 18.171384500000027], [-72.542152, 18.179074600000018], [-72.55230340000003, 18.19640719999998], [-72.55753049999998, 18.2210915], [-72.53515170000003, 18.231376400000016], [-72.52053040000004, 18.21535], [-72.4943163, 18.220085199999964], [-72.47297630000003, 18.220762300000032], [-72.44754411110937, 18.223591113948896], [-72.4229178, 18.224963800000033], [-72.40290440000001, 18.22963950000001], [-72.37984179999997, 18.23383509999997], [-72.3572911, 18.231646199999958], [-72.33694520000003, 18.234533], [-72.315362, 18.2309715], [-72.2972507, 18.22127669999996], [-72.27465690000001, 18.228423300000014], [-72.24503349999998, 18.22730820000003], [-72.21545730000003, 18.2203936], [-72.19183319999998, 18.2242485], [-72.17044149999998, 18.227554299999966], [-72.14476245084785, 18.22976558577268], [-72.12367370000001, 18.2304509], [-72.09824839999996, 18.235625599999967], [-72.0731965, 18.2359619], [-72.05128289999998, 18.236833099999956], [-72.03317440000004, 18.21986829999996], [-72.01461879999995, 18.209791400000015], [-71.9938084, 18.2121088], [-71.97392209999995, 18.198590299999957], [-71.94239240000002, 18.19402529999999], [-71.9198486, 18.186206099999975], [-71.900895, 18.168612], [-71.88323059999998, 18.155569899999985], [-71.8667297, 18.14186770000002], [-71.84786330000004, 18.1199314], [-71.82857789999997, 18.107474899999982], [-71.813487, 18.086143900000035], [-71.80379250000001, 18.067749699999986], [-71.78741089999995, 18.054319599999975], [-71.7656075, 18.04113290000003], [-71.74400450000003, 18.05310930000002], [-71.73910789999998, 18.0770922], [-71.73750910000003, 18.09750989999997], [-71.7467306, 18.121555299999976], [-71.7485169, 18.1421004], [-71.7646873, 18.157030400000036], [-71.78082290000003, 18.169271], [-71.78140680000003, 18.1930272], [-71.76982430000002, 18.21216810000002], [-71.757372, 18.232213900000033], [-71.69523850000002, 18.340622199999974], [-71.795323, 18.378810399999985], [-71.81730530000003, 18.3978568], [-71.83676580000002, 18.4175181], [-71.86562670000004, 18.4385343], [-71.90454590000004, 18.457183899999958], [-71.91372070000004, 18.485265300000037], [-71.88073369999996, 18.490231199999958], [-71.95512749999999, 18.5790867], [-71.96512879999999, 18.603425], [-71.98631150000001, 18.61890550000001], [-72.00823060000003, 18.62501560000001], [-71.98236929999997, 18.63623039999996], [-71.9663612, 18.656664699999965], [-71.94457250000002, 18.64794260000003], [-71.92569749999997, 18.634797200000037], [-71.90828069999998, 18.64901869999998], [-71.8842455, 18.636524699999974], [-71.8523, 18.6357576], [-71.82756550000005, 18.63324739999997], [-71.80713, 18.635347600000014], [-71.8095417, 18.661331700000023], [-71.80161089999999, 18.68072179999996], [-71.78379850000003, 18.70610689999997], [-71.73795489999996, 18.72219330000003], [-71.72201639999997, 18.804242600000027], [-71.72225369999998, 18.825729], [-71.7248838, 18.8469957], [-71.72516530000001, 18.875451100000024], [-71.7391372, 18.891348299999972], [-71.76031839999999, 18.905818100000033], [-71.77311870000003, 18.9233718], [-71.78167439999996, 18.9430558], [-71.79677059999999, 18.956869699999974], [-71.81551470000002, 18.9647137], [-71.8365122, 18.97033419999999], [-71.85484270000002, 18.95474150000001], [-71.87595259999998, 18.94866050000002], [-71.87649440000004, 18.970628600000012], [-71.8563785, 18.97712630000002], [-71.84191840000003, 18.9991533], [-71.81913139999996, 18.996683], [-71.79877569999998, 19.005213699999974], [-71.77572820000002, 19.012623599999962], [-71.76774380000002, 19.03166830000001], [-71.75179079999998, 19.0464807], [-71.72465719999998, 19.052602199999964], [-71.710585, 19.0701128], [-71.6966961, 19.0878419], [-71.6968786, 19.1086498], [-71.67771450000002, 19.1173136], [-71.6557234, 19.117327199999973], [-71.64605909999999, 19.1355719], [-71.645825, 19.15700280000004], [-71.64384779999999, 19.177433500000014], [-71.63921559999997, 19.19692450000004], [-71.63382740000002, 19.216609], [-71.65280139999999, 19.230152], [-71.67635770000003, 19.235735200000043], [-71.696992, 19.240712099999985], [-71.70867380000001, 19.259597099999965], [-71.725542, 19.2782949], [-71.74818120000002, 19.27453759999998], [-71.7610667, 19.291468], [-71.76647449999997, 19.311827700000023], [-71.77912409999998, 19.32903], [-71.75263319999996, 19.33965260000002], [-71.73492210000003, 19.359526700000036], [-71.71693180000001, 19.368445199999968], [-71.69371039999997, 19.360325699999976], [-71.6981355, 19.396003099999987], [-71.6888439, 19.414255], [-71.67970490000005, 19.4342418], [-71.6855193, 19.455702500000022], [-71.6932837, 19.474915300000035], [-71.688106, 19.503052899999968], [-71.6998971, 19.5201566], [-71.71204470000004, 19.548492700000015], [-71.72494310000002, 19.56500880000001], [-71.743137, 19.5846797], [-71.745748, 19.63378190000003], [-71.73499319999996, 19.66152970000004], [-71.75213, 19.67468470000003], [-71.7598334, 19.695022300000026], [-71.775691, 19.70743179999997], [-71.81021460147615, 19.71222992120068], [-71.83406758373805, 19.71456635902949], [-71.840288, 19.690647100000042], [-71.82183620000002, 19.682513500000038], [-71.81596159999997, 19.662515399999975], [-71.83881290000002, 19.668673], [-71.86043779999996, 19.66823779999996], [-71.88475789999995, 19.66438969999998], [-71.89783020000003, 19.6802866], [-71.87545769999997, 19.68158639999998], [-71.85712910000002, 19.692713500000043], [-71.8509855, 19.716145099999977], [-71.8809455, 19.719982], [-71.9080031, 19.726147], [-71.92857290000003, 19.72673569999997], [-71.956539, 19.7294337], [-71.98273339999999, 19.7321247], [-71.98917030000003, 19.704564300000033], [-72.01236139999996, 19.6982584], [-72.03393241418479, 19.700855063234208], [-72.05367840000004, 19.6897074], [-72.06845139999996, 19.70332249999996], [-72.063863, 19.72549350000004], [-72.08666809999997, 19.7283098], [-72.11472440000001, 19.730030700000018], [-72.12689960000003, 19.75043979999998], [-72.14730480000003, 19.75548809999997], [-72.17028259999998, 19.7460239], [-72.189505, 19.74042639999996], [-72.198202, 19.758953399999985], [-72.19163049999999, 19.779849099999975], [-72.21261890000001, 19.785815100000043], [-72.23331019999996, 19.786146], [-72.2526777, 19.7765422], [-72.2691811, 19.76156150000004], [-72.29404729999997, 19.765459499999977], [-72.31492048945427, 19.77017150452219], [-72.310285, 19.747902800000034], [-72.31250053798031, 19.726192592722242], [-72.31932660000002, 19.70681669999997], [-72.33476370081607, 19.72058932106749], [-72.33998090611371, 19.74128977306678], [-72.33882009816715, 19.77136668330098], [-72.35800372218864, 19.78764602508501], [-72.37608379999998, 19.798474200000033], [-72.38400840000001, 19.81729629999996], [-72.4058229, 19.804877699999974], [-72.42337730000001, 19.8169201], [-72.44461370000003, 19.817313499999962], [-72.46443453830305, 19.831137924011372], [-72.48468741233876, 19.827833103649557], [-72.504245, 19.835927099999957], [-72.52241210000004, 19.850004], [-72.5407504, 19.861907099999982], [-72.5615166, 19.8798083], [-72.5811543, 19.89736380000003], [-72.60173619999996, 19.89579980000003], [-72.63138289999998, 19.89729310000004], [-72.65224459999999, 19.913564500000042], [-72.68009509999997, 19.9228891], [-72.70232360000001, 19.930155700000036], [-72.72220510000002, 19.936474900000018], [-72.7457194554064, 19.942414479315335], [-72.76720139999998, 19.9489139], [-72.80035870000002, 19.948379099999986], [-72.81768379999998, 19.95268879999997]]], [[[-72.81964350000003, 20.089626], [-72.85051060000004, 20.08660820000004], [-72.8722616, 20.08530480000002], [-72.90252040000003, 20.07951580000003], [-72.9337662, 20.07565289999998], [-72.95350080000003, 20.06841830000002], [-72.93957380000002, 20.05285789999996], [-72.90981269999996, 20.044237900000034], [-72.88950270000004, 20.039485500000016], [-72.87013220000003, 20.03267690000004], [-72.83090810000002, 20.0299948], [-72.8105112, 20.02903120000002], [-72.78841230000002, 20.021375899999978], [-72.76305659999996, 20.015199700000014], [-72.7417781, 20.00746770000002], [-72.7136451, 20.004676299999986], [-72.68736080000002, 19.9985493], [-72.66194069999996, 19.99768], [-72.63750459999996, 19.9941104], [-72.64311549999995, 20.02439270000001], [-72.6736611, 20.0422817], [-72.69935140000004, 20.049955100000034], [-72.72196580000004, 20.057114], [-72.74320290000003, 20.0648531], [-72.76787989999998, 20.074084399999965], [-72.80166259999999, 20.088957299999983], [-72.81964350000003, 20.089626]]]]}}]}