{"type": "FeatureCollection", "features": [{"type": "Feature", "properties": {"code": "HUN", "name": "Hungary", "tier": "country"}, "geometry": {"type": "Polygon", "coordinates": [[[16.535271061257447, 46.996895243634015], [16.449325023958977, 46.99846779298838], [16.30506639697012, 47.010941834580194], [16.27946251374732, 46.96491087868685], [16.21029916495837, 46.94172272011281], [16.12729934171324, 46.86868648135794], [16.196509211554485, 46.86406422567097], [16.300560678147008, 46.87349202453004], [16.363660161904363, 46.834341541547246], [16.332516871067128, 46.78510957786193], [16.382099001114852, 46.7129404857327], [16.437598340098248, 46.68472887413475], [16.413439804305426, 46.629158197554204], [16.49832114628009, 46.57353040918747], [16.554288364188437, 46.50532268766972], [16.603521775656986, 46.47034250452265], [16.687549407211293, 46.45085823994543], [16.726327578879364, 46.41376526780732], [16.766105456875266, 46.379819110109736], [16.831398796855865, 46.374188292929716], [16.8844496355901, 46.34813821055866], [16.91097505495702, 46.287541383210396], [16.968106727440045, 46.23746319772948], [17.065694153375205, 46.19624122907834], [17.175322396683725, 46.15868769974111], [17.198627214801718, 46.10816797925219], [17.24764383923167, 46.07563169248567], [17.301794870744914, 46.02938020243215], [17.3789106581508, 45.960072811089674], [17.425794105634907, 45.932988404926334], [17.569009496948468, 45.944546870719364], [17.646178063138052, 45.90244891825489], [17.725183004514463, 45.848807998771576], [17.783947010496945, 45.82833807763973], [17.843363949879404, 45.80640416478326], [17.90082208906199, 45.80604004354666], [17.997456232233105, 45.8051297300442], [18.054914371416032, 45.787375643474036], [18.105547475562105, 45.78739631896559], [18.170779231425342, 45.79089340494767], [18.23838865676123, 45.78509906944612], [18.32392293213576, 45.77234853672172], [18.383992804917852, 45.78464374348357], [18.443953802330782, 45.763328082301825], [18.48650334868728, 45.80695034217371], [18.553851767814933, 45.81062709812494], [18.611866561449972, 45.84789838440554], [18.651557770699583, 45.88316879570823], [18.69272126824967, 45.92116756043691], [18.7730985493817, 45.89870749407248], [18.826926500010757, 45.917582877966595], [18.880997547182233, 45.91545358338914], [18.945265781725652, 45.935819919238384], [19.0069728850072, 45.93197476631434], [19.07789777556104, 45.96369753120041], [19.098301944304808, 46.03102688005043], [19.163778602988884, 45.9974112047347], [19.21578588326588, 46.00253799606713], [19.294323977261456, 45.99335295061121], [19.3629750272504, 46.05450681278933], [19.420402152096813, 46.04765523415864], [19.475126132668038, 46.085623892638125], [19.52801373805221, 46.112619255256504], [19.56584306690354, 46.16478977213956], [19.618189455792617, 46.16613933981375], [19.670516452559696, 46.18513558967163], [19.718530171287853, 46.16738957320575], [19.809393427898215, 46.13291857084016], [19.85776795762291, 46.15115386314369], [19.907364778672104, 46.161086023681605], [20.01999650428388, 46.18217425780324], [20.07363396286968, 46.14801117485325], [20.136364029151537, 46.15015803238947], [20.189797446050136, 46.16601391301623], [20.229874702171514, 46.134402851095274], [20.277917541729153, 46.15920465913268], [20.33934551598287, 46.16817674261449], [20.397639409917417, 46.16806821808967], [20.472204404175613, 46.16271407569394], [20.512044949268102, 46.20352424119545], [20.625064274737497, 46.154868456797146], [20.714831553616534, 46.1876915972108], [20.752719102362505, 46.25759238285303], [20.842858371909983, 46.297410556007264], [20.908233328565643, 46.275583203079634], [20.966262784473315, 46.27659862165535], [21.025895757752494, 46.28016775137621], [21.076812570727782, 46.270505827964996], [21.124165658696256, 46.31714331581651], [21.18034145293268, 46.31990080293531], [21.20590173052426, 46.362964902039664], [21.21198751090327, 46.414597048839255], [21.286116357257697, 46.423250096935305], [21.307838551872123, 46.480901992531415], [21.26797669038973, 46.52106497650095], [21.315445777345815, 46.5804956691735], [21.334007407501588, 46.634846993676376], [21.40490674891663, 46.626279829721966], [21.44213809268797, 46.66293610244742], [21.49051893984938, 46.69081114505849], [21.524585046423795, 46.73269675006918], [21.47555410098778, 46.75764085350335], [21.518939058767558, 46.84049447080133], [21.587879539623145, 46.86228005855378], [21.583564152841518, 46.91473337864244], [21.62825488882453, 46.941115441022305], [21.671083568241556, 47.00286041022332], [21.635424698833503, 47.03883891039851], [21.71153270753041, 47.098369098142086], [21.769739773603817, 47.12940691270552], [21.81417547940208, 47.18260097404334], [21.814784057440022, 47.23799827930088], [21.844604381297017, 47.294163250363795], [21.89549671971605, 47.366063298768495], [21.9668144585321, 47.38377192005606], [21.991880266468, 47.44995588564302], [21.968985560682427, 47.50288633551497], [22.026824817404076, 47.557849849105764], [22.07667953026862, 47.58360237833307], [22.139664500813865, 47.596084424300216], [22.19835938388826, 47.689670072854085], [22.233542801704232, 47.72934095931612], [22.28489157365175, 47.76386841973277], [22.336240345599265, 47.748525709398905], [22.39506321657484, 47.74502182276632], [22.408914452717227, 47.7947927252294], [22.505215841434165, 47.78572396547236], [22.55390208446579, 47.76282014520211], [22.637438929199106, 47.78140311139549], [22.676188233955827, 47.818490060973716], [22.732291521824436, 47.83125876816433], [22.7479814243639, 47.88166445658004], [22.82928364661427, 47.900793020563526], [22.89066101547047, 47.95309406597181], [22.844022645969687, 47.98423830363055], [22.883447091987193, 48.02560517663687], [22.838108028163845, 48.08052305562592], [22.798854744719392, 48.11804198254697], [22.748647056592915, 48.120352679754944], [22.682007761443117, 48.09475146391378], [22.613542732179724, 48.10267701251996], [22.560231296059897, 48.172028240775205], [22.51836112705257, 48.2268060802611], [22.463443044912765, 48.237832444694334], [22.395367505593526, 48.25201728564065], [22.338142151967645, 48.27523646794481], [22.326731313756966, 48.347017457399545], [22.249708155835606, 48.3849225615196], [22.163194984135885, 48.39971053256585], [22.1017286023083, 48.37364242440401], [22.04573942282167, 48.37404668302332], [21.993706000581426, 48.369599661678194], [21.928588150526537, 48.37061038245065], [21.872598971039906, 48.3596935364759], [21.82634704015976, 48.339673241305434], [21.77400932890066, 48.33845963729186], [21.71951725138723, 48.352106972402225], [21.668230858688503, 48.39534151961908], [21.637801956793794, 48.45213465131201], [21.620991875088862, 48.5094891438863], [21.571387312521267, 48.49724779312214], [21.53510441289859, 48.53752019296303], [21.475554100987267, 48.568578521699806], [21.342546518095105, 48.550425778152714], [21.28722895615516, 48.51639109680059], [21.231290845541878, 48.53342749101131], [21.16916796015596, 48.516202783585754], [21.119313247291473, 48.484071433209294], [21.06075586848499, 48.51614634576089], [21.005070978017386, 48.5147353797031], [20.955167578909766, 48.538112033246875], [20.90039555549913, 48.54032822475875], [20.855360780694696, 48.57476745210761], [20.7929815318102, 48.565908136716644], [20.71417067590255, 48.560269582384024], [20.65453002818873, 48.54214140019235], [20.589716467152698, 48.52702962029048], [20.52612006219232, 48.5346868191578], [20.490518246975398, 48.47319506946599], [20.413038655525554, 48.42248393264322], [20.394971495025572, 48.36565765898291], [20.304901945416702, 48.28260261888215], [20.244044141627057, 48.29130900130889], [20.188663540178368, 48.26842626341738], [20.12750144736964, 48.27267958306817], [20.05264634870838, 48.19505147916851], [19.989049943748228, 48.17658988696223], [19.912064821954175, 48.13660080129665], [19.86735235007859, 48.16981512800305], [19.797328843746925, 48.16309451796235], [19.755660266214534, 48.21675055950976], [19.706365445145025, 48.20600356594889], [19.643681907241614, 48.249383255485384], [19.573622403518755, 48.214479684672085], [19.51983627652953, 48.20722031994512], [19.50492611460095, 48.15751268827995], [19.478148680933543, 48.10958546827624], [19.408466495594382, 48.089263829903814], [19.315696380942427, 48.0904198385324], [19.24818225486314, 48.06945520643501], [19.181619031968182, 48.058651910137144], [19.1350247759417, 48.07707969751743], [19.069488528485635, 48.05957981164636], [19.01532508311277, 48.06934083046855], [18.956254977309413, 48.079303294611066], [18.906332560138196, 48.063736096722266], [18.830735756993136, 48.045939246815635], [18.819324918782456, 47.99219360047755], [18.77796063026932, 47.95654431149774], [18.777675359314003, 47.877034282250065], [18.817841509815253, 47.83803767495368], [18.74237783311594, 47.80963950428196], [18.666914156416738, 47.74686331084092], [18.5982399284527, 47.75779580452104], [18.537382124663054, 47.75843506055509], [18.489836965452298, 47.7427710266432], [18.441816354649518, 47.75683690574323], [18.384375859177965, 47.73795498718863], [18.334602020629234, 47.732458962248586], [18.272198999165255, 47.732458962248586], [18.183794718757838, 47.73345828265849], [18.128077735307784, 47.74245130339102], [18.028530058210322, 47.75044379560131], [17.972813074760438, 47.75044379560131], [17.789496770278618, 47.73189933444263], [17.719605386238925, 47.761950828348404], [17.62784322896215, 47.809550097023646], [17.387220601448178, 47.9737170999997], [17.331523539419948, 47.98310333285963], [17.277834784916593, 47.998327887930486], [17.196589616857295, 48.01257901781133], [17.120213073101354, 47.97449935124854], [17.116561604873823, 47.92211941099475], [17.072707471463104, 47.866567288022964], [17.08582841396003, 47.8071871351255], [17.078829766524223, 47.726808044137556], [16.9397696848647, 47.6899517145672], [16.889561996738223, 47.68728885938981], [16.83768144930127, 47.67888678310919], [16.76514284208332, 47.67972593714239], [16.729496722385193, 47.72828994239302], [16.66954643016561, 47.73977428842113], [16.623625565737996, 47.76600274365342], [16.56001698921699, 47.75484233967802], [16.509809301090513, 47.707359340219284], [16.46021019100192, 47.69404814936979], [16.493377694067192, 47.64527970508317], [16.5706671048801, 47.62436499235929], [16.622846585849402, 47.626145119276316], [16.67270129871406, 47.60829188600127], [16.7097028434182, 47.546151917926636], [16.674648748435175, 47.50459659497204], [16.641931593117988, 47.437723461700614], [16.59266111516979, 47.420069514350416], [16.537548288057792, 47.411899266310684], [16.477372091670475, 47.41493031268669], [16.449134070712148, 47.357706370872506], [16.48516189055556, 47.31892296988667], [16.497637740332436, 47.266914163003264], [16.45351583258497, 47.22229447340146], [16.480293266252374, 47.17474144827338], [16.534761000644096, 47.14763784861117], [16.48010308561561, 47.09680722281786], [16.532878212339483, 47.06248723133166], [16.46298682829979, 47.033978367706595], [16.528123696418447, 47.009669013075836], [16.535271061257447, 46.996895243634015]]]}}]}