{"type": "FeatureCollection", "features": [{"type": "Feature", "properties": {"code": "IMN", "name": "Isle of Man", "tier": "country"}, "geometry": {"type": "MultiPolygon", "coordinates": [[[[-4.802887656611972, 54.060896308972474], [-4.828819623167931, 54.05512130015785], [-4.800682644772905, 54.05420013230031], [-4.802887656611972, 54.060896308972474]]], [[[-4.658662678147095, 54.06965115390932], [-4.635005143556384, 54.07711925442027], [-4.627281409205182, 54.056278780182936], [-4.607957763008415, 54.07162880712525], [-4.604089700177497, 54.09163421666716], [-4.577132348534292, 54.10076955160832], [-4.55096953213075, 54.10097068561197], [-4.530103814709491, 54.1165440631915], [-4.510530500047082, 54.12822130558976], [-4.488338693046785, 54.13425843997561], [-4.46706007082912, 54.14209257761678], [-4.466157062273453, 54.1650345085215], [-4.445506251852748, 54.16975360219715], [-4.422806686216177, 54.1715616808724], [-4.403249381566013, 54.18147233903852], [-4.387171688599551, 54.196840547213924], [-4.400986750131267, 54.21576791270962], [-4.370645013480271, 54.23234816654099], [-4.3629565669508, 54.25125033271587], [-4.346892690844243, 54.26458475394048], [-4.323096417434613, 54.28193378443751], [-4.310248579960103, 54.29930795942619], [-4.33985947051616, 54.30729903905086], [-4.369674675146769, 54.31300474425052], [-4.382568831999322, 54.32975497835639], [-4.382969740251951, 54.351183140668354], [-4.36378899986363, 54.3882369296731], [-4.361629797494459, 54.41636087800168], [-4.408122566127133, 54.40768716736625], [-4.459848371761609, 54.39905174780017], [-4.490540398708845, 54.38803136824333], [-4.529305287932516, 54.371125738326214], [-4.547057693978502, 54.35697068334866], [-4.55661407031107, 54.33636093970608], [-4.574221048423624, 54.31821497246756], [-4.588953417864616, 54.29396046180244], [-4.609255341606854, 54.27060426634688], [-4.63782176527917, 54.251020994772944], [-4.655853666662779, 54.2415449645772], [-4.679864616791917, 54.23053421021774], [-4.698817368026312, 54.223173223268134], [-4.718927654114339, 54.21154576542875], [-4.720983602870035, 54.18499467333015], [-4.738422826757926, 54.174416880145316], [-4.731218255435294, 54.1552878104265], [-4.736851147976495, 54.1316465928893], [-4.750815234211643, 54.10722031453054], [-4.778541132239241, 54.09605245370119], [-4.759592547994373, 54.087924499437236], [-4.778138601053797, 54.07566986581526], [-4.771768946388931, 54.05620239268592], [-4.750323485587955, 54.06574857086025], [-4.729188054288443, 54.07769848789212], [-4.698547873463099, 54.0845631863923], [-4.680671400787617, 54.073154583227506], [-4.662345770507159, 54.063812105045315], [-4.658662678147095, 54.06965115390932]], [[-4.391366662722362, 54.326074079148555], [-4.391366662722362, 54.326074079148555]], [[-4.362800019734891, 54.40405151700361], [-4.362800019734891, 54.40405151700361]], [[-4.396803794483446, 54.40148879241815], [-4.396803794483446, 54.40148879241815]], [[-4.371974809486915, 54.40499222173656], [-4.371974809486915, 54.40499222173656]], [[-4.50683249425083, 54.26607418950789], [-4.50683249425083, 54.26607418950789]], [[-4.517267864120925, 54.22470035912488], [-4.517267864120925, 54.22470035912488]], [[-4.452491968500567, 54.19452532398549], [-4.452491968500567, 54.19452532398549]], [[-4.620663944771593, 54.17268790847618], [-4.620663944771593, 54.17268790847618]], [[-4.617250346974288, 54.161548799874254], [-4.617250346974288, 54.161548799874254]], [[-4.674473025839916, 54.136306142478475], [-4.674473025839916, 54.136306142478475]]], [[[-4.605033260120649, 54.075400371252215], [-4.605033260120649, 54.075400371252215]]], [[[-4.688237502312404, 54.078379549428746], [-4.688237502312404, 54.078379549428746]]]]}}]}