{"type": "FeatureCollection", "features": [{"type": "Feature", "properties": {"code": "IND", "name": "Puducherry", "tier": "country"}, "geometry": {"type": "MultiPolygon", "coordinates": [[[[77.23982763061245, 8.17652598473137], [77.23982763061245, 8.17652598473137]]], [[[73.01205066948715, 8.276888979295181], [73.01205066948715, 8.276888979295181]]], [[[73.02461552214713, 8.267195138774875], [73.02461552214713, 8.267195138774875]]], [[[72.28627130394878, 10.04731084952469], [72.28627130394878, 10.04731084952469]]], [[[73.62812995453672, 10.074343882501974], [73.62812995453672, 10.074343882501974]]], [[[73.64346444526997, 10.056939628649017], [73.64346444526997, 10.056939628649017]]], [[[72.33607262679432, 10.107510370142034], [72.33607262679432, 10.107510370142034]]], [[[72.33191145702345, 10.129072981928296], [72.33191145702345, 10.129072981928296]]], [[[73.6632605706771, 10.135689143844052], [73.6632605706771, 10.135689143844052]]], [[[91.85898816128865, 23.437752658184454], [91.97363359857064, 23.481309607659092], [91.95481296990023, 23.602782779305883], [91.95933489320772, 23.725756799930416], [92.05143532168563, 23.648152816229246], [92.13566747845512, 23.735196358906013], [92.2247982760297, 23.65198812025044], [92.3080075705925, 23.56540351557626], [92.32980439954592, 23.44724393689568], [92.37148210815684, 23.331883709244764], [92.35480019929464, 23.206885771901465], [92.37195062718821, 23.08730627000549], [92.37502365957063, 22.96378912843047], [92.46012601884743, 22.870617743043358], [92.47806262622652, 22.750921223055098], [92.52766527047731, 22.636242047086142], [92.54314590542923, 22.513872961010566], [92.55882452727309, 22.39419403531763], [92.58044155213418, 22.273484680380427], [92.6104737664048, 22.138241981718977], [92.59761022031957, 22.009345396986973], [92.68155487846893, 22.103465069612607], [92.80387742237355, 22.09830858122155], [92.89075545272637, 22.01201378274182], [93.00177190646626, 22.05804643469291], [93.04883370815678, 22.169394606572403], [93.14173988142704, 22.245657639389304], [93.18675847398697, 22.359024498999556], [93.13117338411719, 22.467873742257623], [93.14015578237355, 22.59271517965418], [93.09090132961846, 22.704757931742215], [93.10499995321813, 22.826359224637102], [93.14607233836304, 22.942338002172985], [93.1830715446175, 23.059687307939498], [93.29362002370507, 23.006661671930505], [93.35765505520948, 23.109309103425623], [93.38130862639667, 23.232382062841154], [93.35537106075182, 23.352605816700546], [93.39696814376939, 23.46593011889555], [93.4229474909564, 23.585057190682093], [93.40888481973104, 23.707111587309193], [93.38868564091719, 23.825496920089364], [93.36173799519385, 23.943709722209896], [93.33838218408229, 24.0620507455371], [93.44969310467404, 24.01540602928475], [93.56488939158312, 23.980405315694043], [93.68342729726315, 24.00637794181235], [93.79270217638195, 23.95127071102171], [93.91908446487199, 23.951474339886808], [94.0372588915268, 23.913002429289413], [94.12915910259585, 23.83471778622535], [94.19072449919584, 23.938685410100966], [94.22778956004547, 24.05691527797569], [94.276431601627, 24.17337568246366], [94.32172028076192, 24.328896220749947], [94.40832696330507, 24.439886468741715], [94.45453239295037, 24.565996854106288], [94.54492510700517, 24.66882390705657], [94.62845291003173, 24.75602839051731], [94.66065213834707, 24.872668625362362], [94.70711728172083, 24.98711880257075], [94.74114475411587, 25.103588789875925], [94.63507115895426, 25.171590486975735], [94.59352853899577, 25.285949236054588], [94.64066804944993, 25.397951097801165], [94.74416377529181, 25.481242059604835], [94.84156030327392, 25.55714038434301], [94.92484343845476, 25.649688693809985], [95.02279856852493, 25.731484481518336], [95.01803075206962, 25.860078773739055], [95.09675241022268, 25.957323812501613], [95.17656078283282, 26.064319962009446], [95.1265574019304, 26.178073404108492], [95.12809661306746, 26.301734322427677], [95.10399892199031, 26.42055253005495], [95.10721692000168, 26.541475504221687], [95.18103530204282, 26.642975191831813], [95.30339233406782, 26.650843801774958], [95.41796710178468, 26.693468220203915], [95.49822751922218, 26.783647200738322], [95.61199845735486, 26.824300068305558], [95.72305902735833, 26.881477709698192], [95.7834292945246, 26.990109706018075], [95.90077326912342, 27.032390876868934], [95.98729391013036, 27.118972791111997], [96.071570173282, 27.204964845764167], [96.18530990843325, 27.24916956335148], [96.30744643819199, 27.294218567497573], [96.43579037417469, 27.302363589572078], [96.5549038565084, 27.32032283933579], [96.66881419790178, 27.361858784617187], [96.7892748746839, 27.34580105794069], [96.88427232324068, 27.260187525094867], [96.96397369122913, 27.16129058919109], [97.06344080809333, 27.091770747554158], [97.0940742872415, 27.21233133684661], [97.01491659673101, 27.31301959088641], [96.94009757770165, 27.41331531692901], [96.91957413042641, 27.536681336986153], [96.93511696472858, 27.661659123822584], [97.02951801817497, 27.741461739669905], [97.13353117541715, 27.806574670782204], [97.23300187745767, 27.88137900890679], [97.3608811499782, 27.876187529428105], [97.3875344276644, 28.003287412673465], [97.33669401544486, 28.116378849557105], [97.33072102908584, 28.239980914898076], [97.22144668626129, 28.292560191427476], [97.1102526939802, 28.35202912489015], [96.99398143539139, 28.309513221374598], [96.89641344147942, 28.379625870284755], [96.77224140744032, 28.368060025774785], [96.67960383133828, 28.445619069424108], [96.55782874592065, 28.44772077631329], [96.43745216402553, 28.395847034652707], [96.31827406317852, 28.381188602102554], [96.37033273824703, 28.49197182372555], [96.44323754083071, 28.6013411241208], [96.52133344423494, 28.704452849454913], [96.60747902513603, 28.793619124671572], [96.53551918106096, 28.89314007330127], [96.48837737451295, 29.006867315165277], [96.36873229344863, 29.03163016054086], [96.25556118827896, 28.95593157470081], [96.16104679349486, 29.03356555816175], [96.22820322716812, 29.143622339927], [96.34673887358518, 29.16813799822172], [96.24422995247279, 29.232583763911574], [96.1868125213073, 29.342357645997716], [96.09427767204961, 29.454768639867538], [95.97937017643633, 29.398803624582687], [95.86038007950356, 29.365946204233953], [95.74492614409286, 29.31471706187219], [95.63937350711736, 29.24828821407877], [95.54792145566208, 29.126918740965934], [95.4602609244248, 29.04129225876032], [95.3194352874381, 29.053484437857826], [95.19808106273105, 29.106279497541525], [95.0797772418444, 29.144528304467652], [94.92067216443357, 29.16147398336783], [94.79998870995256, 29.163918788308788], [94.73899446400681, 29.281614129759653], [94.63083573084873, 29.348474078175798], [94.56985660534586, 29.24055118840689], [94.43372524603032, 29.226650424222612], [94.30008063362702, 29.150349045330575], [94.18732162969563, 29.038813518239987], [94.08095475884829, 28.905371594330315], [93.98754355811516, 28.806239871958788], [93.93627362362905, 28.67640449184393], [93.78715343378889, 28.670841728543163], [93.64085232888856, 28.661460784436468], [93.52057740933414, 28.673496586326213], [93.39191525953507, 28.649213344334232], [93.29957271352858, 28.557279966398013], [93.20954535148634, 28.451857566359056], [93.20864558362642, 28.322725956036905], [93.08890843153368, 28.30576149789132], [92.99173907850377, 28.23395080393272], [92.84141597532793, 28.178940826136365], [92.706449893531, 28.136206502146727], [92.72284600428384, 28.015852704058982], [92.67063547260983, 27.899571873902808], [92.56208551236575, 27.820490759665006], [92.41542977055755, 27.822602674418434], [92.28636604418205, 27.80720099466972], [92.15799207392614, 27.83675483746833], [92.05723765149686, 27.75887978995762], [91.93591390033919, 27.721371868784473], [91.83106533503562, 27.79656783142198], [91.71188885924091, 27.813272275543625], [91.59663232322403, 27.862117568535353], [91.63190602212451, 27.74696202712564], [91.55988794745609, 27.63341458498273], [91.62240085557677, 27.513159046702214], [91.73496596264567, 27.46999737632652], [91.86459167685953, 27.4817649493128], [91.99051794637538, 27.47390707729539], [92.04752649676288, 27.367873915363436], [92.06669759505657, 27.24438620561529], [92.02896352108563, 27.1228541966093], [92.0886861972551, 27.01629705458721], [92.1081704922743, 26.89305505931237], [91.98359411484766, 26.857858981297184], [91.8593657483554, 26.91317833312873], [91.72074775262044, 26.811910419054893], [91.59296507145085, 26.805207172304684], [91.46426008548745, 26.80240242691496], [91.33730486947552, 26.780616092091226], [91.19260861740663, 26.813446465725782], [91.05411452270556, 26.780804668125977], [90.81686748526587, 26.77629477420214], [90.69305478632354, 26.77083867676922], [90.54638448551951, 26.816835697042173], [90.41805778461385, 26.904413944768706], [90.30061592778505, 26.848525779428464], [90.18768792110431, 26.807114888973747], [90.04920523770227, 26.730401919836208], [89.8976477109855, 26.724305320293247], [89.76379764669021, 26.69878661734676], [89.64274652164485, 26.714737035513892], [89.54769203725405, 26.813077499290205], [89.42872296359388, 26.835253906252067], [89.30737817838383, 26.837605383678408], [89.18736150111741, 26.806890498095097], [89.08937193413082, 26.889338830601712], [88.94120315539797, 26.930918391849623], [88.8768221656097, 27.03736498654353], [88.79942183132322, 27.138938696431584], [88.82746259200002, 27.257023978028165], [88.86434020229763, 27.379002165619625], [88.77686418591803, 27.468734244758267], [88.79437652258171, 27.590263295600444], [88.84243079467619, 27.702968436109273], [88.87266972476843, 27.826365755171757], [88.83877480148847, 27.943005479264556], [88.78405636667898, 28.05401522153166], [88.66377583624728, 28.088049516231063], [88.54887146138128, 28.04753615157333], [88.43076765308761, 28.007954669461892], [88.31335829281419, 27.971123514902317], [88.19590501660147, 27.944135633620277], [88.18876228540199, 27.824248506559837], [88.14735690196777, 27.702738182263346], [88.09039833833425, 27.595514097232314], [88.04636004759946, 27.481555716162823], [88.04897775450709, 27.360407742864087], [88.02472808914513, 27.242617397333987], [87.99085894392059, 27.117758742364916], [88.07989615770379, 27.034319172658677], [88.14383677267855, 26.921195360714616], [88.17840145018992, 26.800232097966035], [88.1641823113067, 26.678629261983186], [88.1114814899304, 26.564464402700658], [88.0903983464191, 26.441110395414366], [87.9974270524772, 26.365028484478422], [87.89845786369015, 26.449212141031516], [87.77665772066594, 26.453075809163774], [87.64951682468141, 26.405934613272557], [87.51590970705976, 26.430846029309315], [87.38796991054697, 26.419151568032245], [87.27241783508977, 26.372380990905], [87.13712502434589, 26.416345747336393], [87.07916331562784, 26.522324293510447], [86.94789406173649, 26.520332792578674], [86.851425488053, 26.44809102458292], [86.73017646235395, 26.422457214236445], [86.62268474176905, 26.48123523410262], [86.51544033906, 26.53937179144677], [86.39521836531011, 26.5854747251853], [86.27617901375032, 26.6181005886126], [86.15551276560025, 26.610040279421554], [86.02727627890528, 26.666270272118503], [85.91381888334952, 26.60848119175788], [85.76970166465156, 26.629557463301605], [85.7286512136709, 26.749480980221122], [85.6427252475006, 26.853394934363653], [85.52202678396782, 26.81649882594988], [85.4030310438184, 26.78352177419382], [85.26005605456376, 26.7556354945886], [85.1929751629177, 26.86481233369352], [85.07063780399739, 26.85527374867637], [84.97069496181658, 26.923274700220283], [84.86590327783681, 26.983742595219653], [84.72965140862762, 27.01529975673664], [84.67531807619052, 27.12375585801314], [84.64773436305886, 27.298983052630387], [84.51585120948548, 27.353004133479597], [84.396317706366, 27.368993368211825], [84.28005259944024, 27.400809673494877], [84.17537410767783, 27.474338258118777], [84.0531656336446, 27.46253106908893], [83.91586860963662, 27.440249758628717], [83.61485865476516, 27.469260102074095], [83.38815945662682, 27.479408077396794], [83.37441314779004, 27.35897571841352], [83.24017945076614, 27.406555947616337], [83.0768955966048, 27.452651298330505], [82.95425830099096, 27.468191261208162], [82.83284218325916, 27.50232667263648], [82.75112497870515, 27.59307726244467], [82.70906068999317, 27.717704966971517], [82.58503110360527, 27.6990305435277], [82.44923592171686, 27.67966938766095], [82.33755539738632, 27.755252896617023], [82.23018081172461, 27.821903428153504], [82.11333881211331, 27.87843275425454], [81.99102856704323, 27.928494017181677], [81.88463384842207, 27.856901591378644], [81.69880227973105, 27.98770212398171], [81.575613256836, 28.03079504383326], [81.47946239750554, 28.110136209688218], [81.3752262325958, 28.17849629964088], [81.23274618002839, 28.28892539257685], [81.12311817496804, 28.37552202346166], [81.01293442985211, 28.4371854834264], [80.90162623025742, 28.485428186208114], [80.78421600221145, 28.529262385578136], [80.6770468900013, 28.60431546239862], [80.56915430161081, 28.68812301986464], [80.52153081750912, 28.576221251602863], [80.4153799268089, 28.639435933657786], [80.30741615861024, 28.705221048418505], [80.17134014899092, 28.781992714749023], [80.05891981980312, 28.91576231694443], [80.13496976343536, 29.00929009585681], [80.16586427863204, 29.125841890122054], [80.24747988911732, 29.215336724512284], [80.31762663291174, 29.313091090011355], [80.24294543520986, 29.41102109921091], [80.32915337895462, 29.50565398515424], [80.4092394693281, 29.597530812066505], [80.37382716037926, 29.714509761778825], [80.46429123839685, 29.800925218567485], [80.56624581094403, 29.878158654301323], [80.67533077992354, 29.957299044925527], [80.75813929471562, 30.045765139949047], [80.85708091600324, 30.12155901891495], [80.97090086981106, 30.18672932659444], [80.90735870797047, 30.29751125159885], [80.79022150399047, 30.3394072281631], [80.69421354236724, 30.41284191849426], [80.58257940973293, 30.467448688393972], [80.45226208707342, 30.497060839821877], [80.33215397388746, 30.538228474035073], [80.2126039471566, 30.584186140897344], [80.23330429606746, 30.709122307654074], [80.15847122648877, 30.806918055493636], [80.04179040709728, 30.839251250990184], [79.91068907887524, 30.91330015216386], [79.80753230445805, 30.980195966209436], [79.67383204950772, 30.982396580305245], [79.55526375831322, 30.955864971699352], [79.45285362313601, 31.031173196951457], [79.3632548446209, 31.1187381634007], [79.28611322603456, 31.225000337392174], [79.2333076080955, 31.333854981710488], [79.13875464234805, 31.425945364108678], [79.01696749525108, 31.424447185311717], [78.92467317709722, 31.328344404096775], [78.79156028379882, 31.304561371249182], [78.7825415432993, 31.428168969563277], [78.7613167579256, 31.5490620103252], [78.79853598854258, 31.67044844793374], [78.71962543534652, 31.761290171398752], [78.7410119605905, 31.885228315822744], [78.76591406875005, 32.002781163435166], [78.67513781539148, 32.087739449045], [78.60608405090494, 32.19325714771581], [78.47976813443964, 32.2417125884959], [78.49880447196598, 32.361736160969095], [78.4618542813867, 32.47808617860409], [78.51350407118582, 32.58927173188374], [78.63759536554534, 32.60948675403688], [78.74082094193017, 32.67347886919089], [78.77533241222733, 32.558134650456566], [78.8257763754541, 32.438489310827435], [78.94269246721183, 32.37243036362463], [79.06953948384273, 32.39046696143225], [79.1815261135979, 32.48090874801625], [79.29359239337606, 32.54989114197491], [79.411682204121, 32.52757883850444], [79.51420229578395, 32.60790376198406], [79.59935021491702, 32.707472593254806], [79.54050919746959, 32.8219676709673], [79.4625097722286, 32.919832059674775], [79.35922987202355, 32.99507158348001], [79.39191427593221, 33.12418940270612], [79.45170813640158, 33.24222416817287], [79.33146690816181, 33.27316703970263], [79.20707764172414, 33.292088583990505], [79.07684328566756, 33.30362693364043], [78.97038823888681, 33.36837041112682], [78.93456146972386, 33.48868216327651], [78.91559758940997, 33.62211038962454], [79.03949743930798, 33.62568842145873], [79.03992998081213, 33.74645685123676], [78.96022867840077, 33.87068294012772], [78.906720903998, 33.97991958351491], [79.01328630072646, 34.049962894593705], [79.13430671506711, 34.026909575896525], [79.26214051486801, 34.04665877248573], [79.3972235492302, 34.02675007010521], [79.48570454235914, 34.12592802681053], [79.57082473409264, 34.22253130560074], [79.56063218028265, 34.363106873360664], [79.50611664255644, 34.47190418555823], [79.62767484322347, 34.48928843242925], [79.76589626150661, 34.479705707988956], [79.77718106788734, 34.61481743008261], [79.87631331976309, 34.691037067656], [80.04286049733184, 34.70401188453536], [80.07152084582293, 34.82805157669344], [80.14931831541509, 34.94736294225163], [80.1842289161761, 35.062823368899444], [80.21326677358053, 35.20337929902081], [80.269264908818, 35.34381345078498], [80.29977047775111, 35.46209693650002], [80.29895201550931, 35.58767987447442], [80.18788249918396, 35.65676673915118], [80.08653815939573, 35.72472817772734], [80.01595269099289, 35.82350317522804], [79.88095348831149, 35.79000377711458], [79.7568282466172, 35.79875441298577], [79.64274457169643, 35.83891161625314], [79.51680708581597, 35.88304172302577], [79.40158918544114, 35.918313457567024], [79.28866052748168, 35.98923381285198], [79.19630251607941, 35.898085211092905], [79.08016916056482, 35.84374293168429], [78.96231635683284, 35.89206558408557], [78.82228122471975, 35.85534867659459], [78.70184187304409, 35.859053422509305], [78.5885142642839, 35.81087233606803], [78.46331869789498, 35.773716052494365], [78.34878483676124, 35.72359870784919], [78.25367090186478, 35.645155329269755], [78.15023847580943, 35.57768978308724], [78.02296791879337, 35.58743577444659], [77.96372644676546, 35.478664146812434], [77.83852097645052, 35.49951690669144], [77.6853427227727, 35.47722507696642], [77.55925455618149, 35.48576627617706], [77.42898022150166, 35.463580700814305], [77.31952136920916, 35.53209787195601], [77.438933102997, 35.51757484543276], [77.43661409939608, 35.64059761466689], [77.33703553035133, 35.71903442413998], [77.21585434003254, 35.728192481981125], [77.11441028185789, 35.79726917215572], [76.9664943510299, 35.782646742872885], [76.83018351730362, 35.835777099797326], [76.73374976052389, 35.94235159068927], [76.80063375313796, 36.04732174618687], [76.7058788137752, 36.12202885663976], [76.579786877853, 36.167637718655726], [76.45595558468256, 36.23993136973053], [76.3788078809086, 36.33902323550717], [76.25360852901889, 36.347223921787645], [76.12396739971484, 36.43687845039443], [76.00090979765076, 36.48600889720433], [75.84796369379535, 36.54372796410985], [75.73229401179952, 36.606517698118466], [75.65097874314802, 36.721673458653356], [75.51290894701015, 36.79144936180262], [75.43678415844334, 36.89082373637183], [75.35094989858555, 36.9803697632542], [75.25088514424078, 37.04823385857742], [75.15006786130118, 36.966456844516586], [75.01774262881014, 36.97572748435334], [74.91390500596776, 36.907807739681516], [74.84114624339827, 37.01628366810775], [74.71885028423617, 37.043991937459964], [74.5808969654546, 37.04278410888929], [74.46791989189472, 36.99177397094098], [74.34972634459905, 36.94255157564049], [74.24320366186402, 36.88696089879329], [74.13336577531902, 36.83415137512833], [74.01061596212247, 36.826921295662714], [73.89232089531822, 36.885926720731675], [73.76681651328744, 36.90399612821005], [73.82006564295699, 36.7921767582788], [73.72424673088699, 36.70935770912257], [73.60250979332619, 36.7181746921903], [73.48170542560791, 36.73323007374438], [73.36005245537336, 36.71480191293068], [73.23363026551516, 36.69888958120322], [73.10208420834533, 36.68700724558414], [73.0838242263286, 36.565166125157475], [72.98962308755881, 36.47981680578903], [72.87673133418787, 36.4374612687032], [72.80765426740288, 36.333089876263045], [72.69169199064424, 36.27501936636031], [72.57736066187778, 36.22231302863463], [72.53310888561754, 36.1026902892379], [72.55392702612005, 35.97892458202119], [72.61936504733347, 35.87071068346029], [72.74905343341135, 35.855783102911744], [72.86767222339961, 35.877346547962816], [72.98646434781347, 35.85905199844541], [73.10764798065134, 35.868134037853906], [73.13207092384505, 35.73788483827025], [73.24117111028562, 35.651685351133096], [73.36666132049447, 35.60492161754041], [73.48483943832679, 35.57611132071861], [73.61483755453145, 35.5625627032677], [73.73423198946199, 35.536093698823436], [73.72405221778018, 35.40355557938966], [73.72447029281523, 35.28262683560121], [73.84597171995614, 35.22907094100924], [73.95836018769751, 35.17390143789862], [74.0795385671878, 35.15419377038734], [74.09686931480667, 35.03367662602335], [74.04303330767704, 34.92135628794762], [73.9541696349321, 34.834950793150824], [73.83266923007375, 34.80315887998722], [73.70577157091867, 34.72487306654989], [73.6593894857761, 34.609954000024516], [73.53471450746719, 34.57719189292686], [73.43672585316898, 34.503973287051], [73.40848175792934, 34.3863442110204], [73.47856158531988, 34.282933946160256], [73.49138828790211, 34.15613173606704], [73.51417555706684, 34.02291175196132], [73.57387146074598, 33.911913087558844], [73.55759834103361, 33.78317668733507], [73.5675718083221, 33.647951918255785], [73.63018515168483, 33.53751351395812], [73.58358285173688, 33.426406332884426], [73.58897287729059, 33.30488304055774], [73.65568913827127, 33.19428383835566], [73.70194698461324, 33.082000432868654], [73.78790034490828, 32.998120789598715], [73.91502969215162, 32.99356274782042], [74.03253057188772, 32.92915653105308], [74.15329738284066, 32.888844768311], [74.26364682939726, 32.82986236225929], [74.36991527004233, 32.758684604977304], [74.49735720674983, 32.76618017196023], [74.6220101377067, 32.759682472866075], [74.69513493231358, 32.66059097732108], [74.6696998815438, 32.54026282372075], [74.78442735926558, 32.47831857393999], [74.90600948835686, 32.472479376017645], [75.02686557927257, 32.49648507965941], [75.12890004079463, 32.431979080932365], [75.24488169511221, 32.38444184446263], [75.35021790098627, 32.290056333749604], [75.3139324556324, 32.172231515156845], [75.20305378908407, 32.12021502969315], [75.09103595634751, 32.071863174515514], [74.97168824638831, 32.04256654877933], [74.84832834955316, 32.02045048841534], [74.74298822792272, 31.93972082107782], [74.63660310690207, 31.88403082549267], [74.55554531697062, 31.791370133094095], [74.52961572207728, 31.66944298219355], [74.6016336907445, 31.572707643987247], [74.6521524108709, 31.457236509980216], [74.567558327365, 31.371987809184496], [74.53198031158558, 31.252341005531058], [74.5102838522972, 31.1320126179825], [74.63084212923833, 31.132743471157283], [74.54796015291728, 31.03249018955358], [74.45155641693606, 30.95578337947464], [74.36091095468957, 30.8736588787874], [74.28970763581417, 30.7750919871759], [74.20534595365879, 30.67598664553102], [74.09592383976663, 30.611405259024334], [74.0109313875682, 30.521059426995826], [73.94924354969665, 30.417284804832036], [73.95647940564837, 30.2760508762376], [73.9078642739995, 30.14910347809572], [73.8062347532446, 30.067678359211545], [73.59705445755637, 30.018904976515735], [73.39699061661265, 29.945880838385424], [73.33603885558998, 29.741636492645707], [73.28416688098021, 29.581035933423554], [73.18086081285098, 29.397174705446545], [73.08450577633793, 29.23584349152885], [72.94523685505989, 29.02773503166105], [72.73245143598186, 28.947638095423425], [72.47932680435444, 28.81222421389238], [72.35445551540995, 28.73313721514812], [72.28012150129408, 28.60687706754098], [72.23420401134173, 28.478521526281423], [72.13220294918193, 28.31290597113663], [72.01636681205886, 28.22755032922408], [71.92773446088935, 28.12161360385348], [71.8982659735955, 27.9615331595678], [71.66597639954401, 27.877770605240695], [71.53838294848899, 27.87618930577344], [71.38259685230386, 27.8724974899032], [71.20512550600849, 27.83534678454248], [71.0615950668541, 27.774095183682668], [70.90584839952342, 27.709506103847616], [70.75906258705197, 27.721209107323165], [70.68398201544281, 27.828182411522413], [70.59829463103216, 27.993096390370994], [70.4391200464762, 28.020191828050724], [70.29584602243652, 27.93587496391909], [70.1974011677044, 27.866718466017947], [70.06846109891934, 27.655145915975357], [69.96594967599889, 27.52351485367689], [69.87583295763703, 27.41526228480243], [69.75998776010604, 27.321069719842658], [69.64457223216529, 27.225169754263142], [69.5131019981954, 27.010006601795624], [69.49746964048698, 26.866940103118107], [69.51008650560189, 26.74357252253747], [69.71951790556489, 26.654808070382735], [69.82226906727509, 26.58921779884752], [70.05602328510854, 26.60058496530485], [70.17402977980582, 26.551401439766384], [70.17674744135677, 26.424021871997365], [70.16338511199827, 26.29495612992012], [70.14090045650656, 26.156021532439528], [70.09951715995022, 25.938344584969506], [70.1741067842903, 25.828460149794672], [70.26256854538734, 25.720286572464794], [70.38674341630613, 25.67391934614868], [70.52986171828962, 25.6835526810012], [70.64696516807281, 25.712751917773673], [70.66914959761343, 25.593059552065537], [70.67112657216148, 25.46113116361655], [70.73650197990129, 25.332594916194402], [70.84185512710333, 25.190819578538996], [70.90208668810149, 25.07270096071894], [70.93737446270421, 24.938815389319483], [71.01781732348435, 24.819411548768002], [71.0965508717385, 24.68942178343348], [70.98631194850456, 24.59529164919167], [70.99609728252143, 24.474551650643562], [71.12557327452689, 24.42021903859558], [71.02001600493946, 24.3477755856999], [70.87841957570971, 24.301701892864774], [70.77503860874705, 24.220123078378762], [70.644145253988, 24.224689264976664], [70.56178985481516, 24.353687285596266], [70.43972519477073, 24.383373062819047], [70.3163085001551, 24.349722487141623], [70.16606822524173, 24.303181571876603], [70.06704200690884, 24.199069762476885], [69.73152158965, 24.170900891002937], [69.59415155057573, 24.292823060170402], [69.47008968322812, 24.270830892056676], [69.31296887648203, 24.281301806388107], [69.19383047667901, 24.23621478235229], [69.03429009274944, 24.23941753682452], [68.90691854982413, 24.279844443313188], [68.76463391047547, 24.295891749585902], [68.76241029627963, 24.1141690750031], [68.75294813567781, 23.97116594366066], [68.39706760462533, 23.970027324709203], [68.28012114262457, 23.93064986120628], [68.19786402363538, 23.83557932029821], [68.1797540279317, 23.716304375252378], [68.14191159018804, 23.60126988023763], [68.26426721275638, 23.585736866169366], [68.40970058371981, 23.485748103285836], [68.45858652957907, 23.367202748315155], [68.5808683483603, 23.370890468335574], [68.540140789622, 23.248295722634953], [68.63228744360775, 23.170311028994487], [68.75947485795098, 23.07959025845978], [68.86742276190174, 23.0269263269813], [68.97384456113545, 22.963457187773855], [69.08232854371516, 22.912006287333973], [69.18676296231658, 22.851811069035886], [69.30579430539562, 22.836480565720304], [69.44374349102851, 22.77990338474654], [69.56033364166173, 22.810955857313555], [69.68245087650648, 22.799786139462423], [69.79490559679662, 22.848235759590267], [69.91372118340905, 22.882762250716898], [70.04598410785364, 22.91749740002387], [70.1330091178583, 23.010853342121564], [70.20897382753978, 23.108263812872604], [70.30886708900512, 23.181331189611875], [70.42464379269067, 23.21651690660558], [70.5824651586959, 23.17761911355198], [70.70146371596202, 23.215492519806872], [70.66277288770448, 23.097640607324404], [70.56140058515814, 23.029366813066773], [70.4453213657158, 22.966870143137044], [70.46611030647999, 22.844899740142324], [70.34048594456148, 22.85647431984904], [70.2659134250427, 22.757462392266152], [70.2066758894323, 22.65275119178235], [70.12819583137828, 22.5556021422234], [70.00506245821674, 22.54648480606292], [69.8911887779684, 22.496283373912213], [69.79401860926824, 22.42354130859641], [69.67354381096983, 22.39414824939001], [69.54794482376315, 22.372358100445613], [69.43620967647347, 22.32180961807054], [69.31697761203067, 22.28934393141924], [69.22037583166528, 22.214444852220563], [69.16503287100227, 22.32315566822522], [69.06089179456194, 22.38313833524434], [68.94991961429082, 22.33155962650425], [68.99155389384934, 22.216833551820066], [69.09022513121961, 22.096846444472575], [69.18964171964572, 21.986656937127183], [69.27548503631833, 21.902474232347508], [69.37179841076515, 21.82987291036118], [69.47747125220712, 21.73428910671201], [69.56625594237745, 21.651321478807557], [69.67454703330947, 21.562826566919036], [69.75936067135902, 21.47654229400405], [69.92361087920406, 21.290290709075304], [70.03621448986266, 21.17061104955854], [70.13435435038618, 21.07946023261918], [70.23797628054233, 20.993292650078157], [70.34743414917943, 20.914797861547743], [70.44749443260892, 20.848259706530325], [70.56757877457581, 20.809422463898105], [70.67576579568215, 20.756990516170248], [70.78859504697047, 20.711062955551267], [70.9101821356604, 20.736694927168966], [71.04120350394068, 20.735733514995484], [71.15813301563036, 20.77980669369881], [71.27288344351116, 20.823399997401815], [71.38133795146807, 20.875194757683648], [71.49512893281135, 20.917400637496545], [71.61164451788609, 20.96715152250221], [71.72357169623744, 21.021651310429824], [71.83720779185604, 21.0745838403677], [71.950386613554, 21.120464306379752], [72.0623882730222, 21.17389978901557], [72.11153492434994, 21.292825680713406], [72.18110502519045, 21.396623595020074], [72.25312614335103, 21.497988712178564], [72.30472747892188, 21.609688950152474], [72.23157483384628, 21.706889513406217], [72.16227887367768, 21.807345328844065], [72.20608255679956, 21.92269811577894], [72.23734250485718, 22.039101772885928], [72.307750489516, 22.145562215680734], [72.36251853827868, 22.271482275223928], [72.50034268740717, 22.277740967372864], [72.64875093902843, 22.28480790902702], [72.76376884387834, 22.233952573493188], [72.87686264362792, 22.281857072121866], [72.77743884801828, 22.19825290733686], [72.65644325592548, 22.212886592448413], [72.55039441473987, 22.14943423571658], [72.51684401423599, 21.999528191525823], [72.55824663624905, 21.878889519414702], [72.65604248423955, 21.961694762064173], [72.6209305341925, 21.829349531900657], [72.54287958338338, 21.733562655000643], [72.6589700685977, 21.679999566637186], [72.78987865788562, 21.663147188063604], [72.6749217531351, 21.62732485372869], [72.67035890707481, 21.483145495800084], [72.65167918274994, 21.353284222318166], [72.63050778425357, 21.234244080109892], [72.61875443368866, 21.11411673655228], [72.74561464657111, 21.06060291516067], [72.75708156032452, 20.932314209890283], [72.82876608334142, 20.810102735382763], [72.86732265927806, 20.6805350210946], [72.88718935723223, 20.545774881492562], [72.82774189252643, 20.431666591152663], [72.77459177516748, 20.309333501190437], [72.74153823554224, 20.184541851273064], [72.71078022833613, 20.05602619819344], [72.7712843103437, 19.950985648060897], [72.68058451888717, 19.866253519505367], [72.69130906399144, 19.73864282808875], [72.75255395337621, 19.62826904212945], [72.7591630673306, 19.50825421609042], [72.75854573518589, 19.383658645439198], [72.78543282996752, 19.26477972050642], [72.78822357036515, 19.135846923705156], [72.83214687943848, 19.023183879851654], [72.80358829389928, 18.902985507397098], [72.868382638974, 18.79963494309449], [72.86302356667002, 18.67270897384899], [72.92197088715487, 18.555772916445537], [72.90710740917622, 18.43478983769872], [72.9567069245949, 18.324929129986817], [73.07680623698599, 18.31226810179199], [73.07740170234008, 18.188780169294997], [72.96938166816356, 18.243335545777285], [72.97535651493352, 18.122546643311097], [73.01683498889254, 18.00707946584623], [73.06358120703382, 17.891412955727528], [73.1134639010745, 17.775942342125546], [73.13250495745099, 17.654802391578713], [73.1549512899144, 17.529071825919335], [73.1843696000114, 17.41154029009059], [73.24668554711613, 17.308051700934833], [73.25928041608302, 17.173918397508597], [73.28755908747802, 17.0531155186954], [73.28662790283762, 16.93161182683633], [73.30292917395438, 16.81000901884716], [73.32553880486506, 16.690427945536605], [73.33264735516798, 16.562547781611727], [73.3518747796266, 16.44362831218325], [73.47293406137474, 16.428537903265838], [73.36821584161888, 16.36393732463772], [73.41589993595106, 16.24779084503601], [73.45661721167431, 16.12877752887425], [73.49105660205132, 16.00931409159366], [73.567797104897, 15.916322214884064], [73.6393032413631, 15.819561676501413], [73.69403507903665, 15.70606076800851], [73.73193634385501, 15.590568885573765], [73.81002541377487, 15.495810231424983], [73.90760950549671, 15.417865429588158], [73.78407924586288, 15.413955922119184], [73.89488934310727, 15.331785793219813], [73.9495973350016, 15.144836668913408], [73.98973058631425, 15.03067762253489], [74.04403020318209, 14.917524702832466], [74.12638045680504, 14.813743635632516], [74.20450217509556, 14.718587358425344], [74.27816130380313, 14.619210063861301], [74.34009153678275, 14.51398325666818], [74.39797865299285, 14.407429870642016], [74.42290422065602, 14.288663258530898], [74.47926006503958, 14.14372125444957], [74.50117653970734, 14.023273665284188], [74.57911071941096, 13.926517629699006], [74.62960175974852, 13.779858055901842], [74.66375161322802, 13.652441561792962], [74.68946337834305, 13.464558139336027], [74.69967513543875, 13.342912572337974], [74.73887010542026, 13.220738930834374], [74.77195125296915, 13.089287240322145], [74.81221515884998, 12.90011832602952], [74.85549779934415, 12.784147170825637], [74.91635568552135, 12.643307576681801], [74.96385472870166, 12.529501056826991], [75.01470919865707, 12.418626346263569], [75.09289555073234, 12.272557946726307], [75.14267231902791, 12.155108146472255], [75.2020890559611, 12.009836801968229], [75.30516554075486, 11.947494493663749], [75.38625347275735, 11.85638338080758], [75.46839153802195, 11.764844491889702], [75.5608795814601, 11.643808342020293], [75.61855597176917, 11.487497315618233], [75.71282579303062, 11.394232253398755], [75.76241636392403, 11.281059758125627], [75.80160836856679, 11.16636428173462], [75.84881025084775, 11.049732193044512], [75.88756847610782, 10.898047746529155], [75.92249834932488, 10.761303007987955], [76.00017939366293, 10.593020932776206], [76.06711712170049, 10.4560159094787], [76.1166660224428, 10.333945722066261], [76.15349415263621, 10.209086240409198], [76.19324938479245, 10.085346699253625], [76.24102052407906, 9.967886710491314], [76.26951362512898, 9.834494719752383], [76.29632733384013, 9.62813747277935], [76.32027159356504, 9.48272775911375], [76.3584033903398, 9.368737546132772], [76.4378793979729, 9.1905124513973], [76.48974280984136, 9.080100935676423], [76.53439141238691, 8.951548292286096], [76.6315380317519, 8.8368342337326], [76.70410447849393, 8.734607683234328], [76.78729707337561, 8.633819792750478], [76.89189219159819, 8.501807785929604], [76.97284009331594, 8.398228834406972], [77.0779027505079, 8.307168187927859], [77.17288781489017, 8.233598895575117], [77.27443499876105, 8.163167278544053], [77.38681630064139, 8.111887995527315], [77.5261585765489, 8.081155355874241], [77.63513555545484, 8.152570476530942], [77.75796443297273, 8.145306632942306], [77.84108011859135, 8.251660829583424], [77.94913075567462, 8.311583545041724], [78.05633099810265, 8.370206765808181], [78.12582564045925, 8.474698741592972], [78.14470092802144, 8.598022916658392], [78.16360938767212, 8.72391016628957], [78.16830413426389, 8.846123230126754], [78.21920279594144, 8.964498404753522], [78.34583038648779, 9.060395538162643], [78.45542945142296, 9.1250379113218], [78.57846525137495, 9.130437321947527], [78.68540172238438, 9.195317946612823], [78.80486005178595, 9.236059112918507], [78.92588984902983, 9.267124923968982], [79.0513652253585, 9.262732561152703], [79.1903956852511, 9.281653876071553], [79.33915656155399, 9.22515985353993], [79.2209036787372, 9.291165786229373], [79.06650321501321, 9.298000072856583], [78.93357155682335, 9.412048820099505], [78.91884803995926, 9.539188762789871], [78.97090199258432, 9.655786804995197], [79.03858941143885, 9.764254961385022], [79.12385863457635, 9.865195155725178], [79.19836857385913, 9.973366383050603], [79.22852714515761, 10.090271897864758], [79.26968180071124, 10.206551135107064], [79.36658650377022, 10.293957341453263], [79.48478411055262, 10.315464041803503], [79.63629498865501, 10.294621387880715], [79.76845831957898, 10.271864587511248], [79.88217250215199, 10.32316649119898], [79.86623275442807, 10.443502125812289], [79.85339419498253, 10.626713712483044], [79.85090419167737, 10.753348699347487], [79.8534715354369, 10.877207052636676], [79.85575417613342, 11.001509760137738], [79.85835111399165, 11.129319521729386], [79.84056016933418, 11.274005806828706], [79.81138041584401, 11.432210487308456], [79.75741877123717, 11.555670146394288], [79.77654856229913, 11.698754568868864], [79.80487924345411, 11.827555263887763], [79.83863298570738, 11.948808828879432], [79.99668949472137, 12.237178316331647], [80.08059578312998, 12.350953311122302], [80.15639359750976, 12.460106810949474], [80.18447081541409, 12.578932485038273], [80.22711235074786, 12.707885640024628], [80.247878315302, 12.83072046857686], [80.27218998867306, 12.998029823173095], [80.30240289457153, 13.114841061103206], [80.33372201465694, 13.234326563374651], [80.33978918757684, 13.36105543740149], [80.29871377600772, 13.48365668788167], [80.24279481378788, 13.615799194618049], [80.24284376478434, 13.746308306759897], [80.21916530846715, 13.8784716080474], [80.15647700788053, 14.01971491528862], [80.12719956709475, 14.150182032434703], [80.14036686951013, 14.270869779454252], [80.18082452762467, 14.515133909585222], [80.15172725025738, 14.669200037419488], [80.09720816149088, 14.780590680082335], [80.0791141405279, 14.903481708303778], [80.04893407164634, 15.067780712332768], [80.08370967538308, 15.190950101563711], [80.1063746748546, 15.320724548620557], [80.1812133445308, 15.438507717542493], [80.22772236072468, 15.551244732870694], [80.2695989608311, 15.665974591582154], [80.38309447909089, 15.777696451342118], [80.49679481233716, 15.836210377010442], [80.63537353013464, 15.87551394375394], [80.76741277766673, 15.865121550266977], [80.8158197588845, 15.740963677491038], [80.93629997761732, 15.71659493984118], [81.0008980839216, 15.832426031153222], [81.10825471675234, 15.944376336951501], [81.17668007915489, 16.072275609695964], [81.21017469338132, 16.19314601632222], [81.30529853310193, 16.303904893360734], [81.4279915404331, 16.34751978121452], [81.62725492945805, 16.33834631034555], [81.74831388691433, 16.324283758279645], [81.86701107108075, 16.379496167571723], [81.9920413600339, 16.420409003699735], [82.11117609381228, 16.480130242753212], [82.23304005315426, 16.541740960680944], [82.32995248711455, 16.612804924470954], [82.34418885748157, 16.747778756402244], [82.36620429684923, 16.87850502307234], [82.2482424421334, 16.90476192286523], [82.3035656721995, 17.038686570103973], [82.422118153045, 17.156063155987002], [82.54905095249734, 17.253857570511364], [82.6800386285646, 17.331194139561674], [82.81871218330325, 17.394627957252904], [82.94214521198568, 17.45141498423532], [83.05553366723329, 17.522199805109896], [83.17192978715504, 17.566781957002693], [83.26090175719747, 17.647507457797715], [83.34429942667875, 17.737789873742784], [83.41733047400088, 17.834372429412205], [83.49564535253542, 17.927888929352022], [83.60554743358892, 18.037023471508153], [83.7497032385216, 18.128911165120506], [83.87235324439844, 18.18247684475991], [84.01299745763036, 18.250219754133266], [84.1284979428408, 18.313395944599954], [84.23115471856411, 18.45375525949924], [84.35468481200965, 18.55499387529996], [84.43980545379908, 18.659574858706588], [84.51240747741963, 18.75852327763814], [84.58648154155017, 18.866731483252444], [84.67095030019247, 18.952556937928385], [84.74627279888742, 19.048198023591965], [84.816611962714, 19.16498131877616], [84.93326322034612, 19.278863074165628], [85.03655836765643, 19.350610348956135], [85.1323895192722, 19.437034739512157], [85.3072929064621, 19.561521571994135], [85.44890688158598, 19.636602081151214], [85.61347131113423, 19.715501169236376], [85.74994399612174, 19.76915971051173], [85.88563418651304, 19.81274964548573], [86.05085315552678, 19.848826416972145], [86.22811416309501, 19.901386813737453], [86.35503883638732, 19.94800341561099], [86.43338549372335, 20.046685014629276], [86.5125979374487, 20.158816048564557], [86.6564405276896, 20.254310142232935], [86.76071227307112, 20.314166336157843], [86.80796814499898, 20.43992372037719], [86.87514068995685, 20.59609956953035], [86.99602614679921, 20.673849512785644], [86.91939858643923, 20.766859976980093], [86.96715224720539, 20.87877183594264], [86.90276868194717, 20.996594669509225], [86.84257621024027, 21.13619349326736], [86.89066858347924, 21.255323762404725], [86.95499587197982, 21.365299474135814], [87.06297058435362, 21.441569256496148], [87.20223515239577, 21.531247899284423], [87.32634974007081, 21.540907251199975], [87.4451023071711, 21.587962196922618], [87.55754770654187, 21.634078567335266], [87.69442375305827, 21.65817268063996], [87.80639282074961, 21.708851789486644], [87.87034161758001, 21.811046170081568], [87.98163267103087, 21.863604949766376], [88.03377966666152, 21.97942551484875], [88.14015974094691, 22.062288179933955], [88.13617826567386, 22.18538679377671], [88.01475647418272, 22.20262339545869], [88.17654577784965, 22.19146198896467], [88.22230194564834, 22.07272965770927], [88.14757100194102, 21.96139243700739], [88.19175073331556, 21.84785754974403], [88.21012121440049, 21.724959787467235], [88.22009667325396, 21.603989127430438], [88.27574568813766, 21.72143964597961], [88.30369050874214, 21.84186626359805], [88.26753089669832, 21.958126937316845], [88.35367878357475, 21.866856297794303], [88.40259725743043, 21.98819991668607], [88.50523259575782, 21.925448127113324], [88.55406242835288, 22.0514289141264], [88.5255555489431, 21.932789861664634], [88.61714903924153, 22.01378973186507], [88.64118489927768, 22.14058844751948], [88.65146716244507, 22.013719408323087], [88.72170617220233, 22.11374934147892], [88.74973345365832, 21.99648458968351], [88.85299515040239, 21.92243958413287], [88.90187473618943, 22.04068013681966], [88.95791175230895, 21.929314089931157], [89.07246821236036, 22.00173615036651], [89.07015747954826, 22.130389542989573], [89.03320787107727, 22.259309784880546], [88.98552688491597, 22.37048251758911], [88.9743460190035, 22.497484749465155], [88.95623081127457, 22.616869166884534], [88.91831817827631, 22.731648124190585], [88.96950296504991, 22.843997793805286], [88.88795291900398, 22.933151624447973], [88.87324356318203, 23.066013965578616], [88.9346420905315, 23.171582571215286], [88.83666374170619, 23.24269386261375], [88.71400425141658, 23.275156180917186], [88.76254560353284, 23.38651582153569], [88.78717491939175, 23.504784894300933], [88.67398380155419, 23.548837813625664], [88.5936465098879, 23.639967157868664], [88.58052206609473, 23.76020563495205], [88.61642504742818, 23.87605069645543], [88.73301230279125, 23.911063892203316], [88.7427599030746, 24.03515273196317], [88.74038468110659, 24.1636122013453], [88.72605206793497, 24.29630018599786], [88.60642014808789, 24.315012447609025], [88.48547959487426, 24.341653139240954], [88.36403194178439, 24.41002930495981], [88.24304227677585, 24.461103760885052], [88.12393321954323, 24.516967246242263], [88.07737979962486, 24.631198669205343], [88.06460695194232, 24.75122353397011], [88.14633840467502, 24.843475096830048], [88.20029181981553, 24.95706854294504], [88.29809894974773, 24.88545498671955], [88.40086276422872, 24.951221962542835], [88.44413350923192, 25.06919780564632], [88.44302924708407, 25.194507755936357], [88.5687158218276, 25.17564884588151], [88.68735369742231, 25.208739700762248], [88.80624319831466, 25.169658843977697], [88.92923764342422, 25.173400400215602], [89.00602276289509, 25.26828172420116], [88.90605999428466, 25.336655362201473], [88.83208399384381, 25.436111692495835], [88.72800222507685, 25.50342408675041], [88.60680991990316, 25.50940061712783], [88.49397756942712, 25.558031777457], [88.43930739480962, 25.667530636892053], [88.3375664371454, 25.73532612920177], [88.23998324463714, 25.81052208116244], [88.11511260966618, 25.798789850786946], [88.08688447299754, 25.916641044275373], [88.15558597392517, 26.020809340145263], [88.17950122435462, 26.139436631024083], [88.28507670279285, 26.19976124161906], [88.3621763565807, 26.294849513567556], [88.45537280426537, 26.372443476619406], [88.40287187510775, 26.486943070370796], [88.38884912681027, 26.606499164817524], [88.48110164186237, 26.529470281003235], [88.57784086446622, 26.455524628234272], [88.68607514414303, 26.403550970106075], [88.70602973416291, 26.28518906186206], [88.82331484844937, 26.253402146813563], [88.95283098526654, 26.241900546014502], [88.95850681881103, 26.361931057813035], [89.07481178398594, 26.396169144864803], [89.10274795111931, 26.2782893359705], [89.1534178271653, 26.164099215933355], [89.25246886594948, 26.093300533100784], [89.34559595560938, 26.014495304617277], [89.47586618498845, 25.998036773541553], [89.58915479339055, 26.038934243690452], [89.5964752149465, 26.16106213262743], [89.71668723176977, 26.167483053932152], [89.79665494754502, 26.076672119665815], [89.86720886082679, 25.979532386774146], [89.8357181499457, 25.859215626730876], [89.82776153611567, 25.72964023858897], [89.88230965483886, 25.617300616932976], [89.85406365157752, 25.49872339413574], [89.8140203907951, 25.36994708057437], [89.92081843141928, 25.304123990396494], [90.0598581969599, 25.256033199078598], [90.18780123189929, 25.216272616951645], [90.30897629660605, 25.18720287474919], [90.42505860715129, 25.14756975207454], [90.59661204549268, 25.173722032152096], [90.72068041484631, 25.164826310541432], [90.8547976075644, 25.159658855180986], [91.00865684351625, 25.18105045966425], [91.13472048520195, 25.19295979639254], [91.26464437720807, 25.20678734229268], [91.38308486149384, 25.167764064286427], [91.50025576846664, 25.137199301573308], [91.62398686534688, 25.14361566369321], [91.74395672601398, 25.148634774400264], [91.87162655003779, 25.17510010506503], [92.00210579851887, 25.187649641035975], [92.12238034617074, 25.16591046527913], [92.22932325720244, 25.09715539784598], [92.34239363248267, 25.055702583225457], [92.42218522186838, 24.96478472555098], [92.32868967292332, 24.888282513844082], [92.28477172409728, 24.77658018916775], [92.2515381117834, 24.660017606149943], [92.22289330594326, 24.529466724529467], [92.16325749865837, 24.418687609245623], [92.04397051481237, 24.378661454979603], [91.92973157417963, 24.341921099825818], [91.92611919240234, 24.213218692762236], [91.80317059820315, 24.220433944314408], [91.69622795217445, 24.162157780792604], [91.5908588742492, 24.09648129523628], [91.46574043721046, 24.0967807250792], [91.37329060181628, 24.00229235098987], [91.25737951106255, 23.94298088621616], [91.23765098208392, 23.813176378221698], [91.14968521948279, 23.713263691878645], [91.16592119475649, 23.591898127327713], [91.2382245599861, 23.492852747352384], [91.29259790338595, 23.38103753441681], [91.31795561909132, 23.253096291361434], [91.33703336446067, 23.13118972979437], [91.40026145012513, 23.235103993292334], [91.49432503436705, 23.15243997077307], [91.55025753419821, 23.038527545427172], [91.61894604009696, 22.939183734373383], [91.72650969507482, 22.998993051888135], [91.81723376979014, 23.07857887037556], [91.78936052335423, 23.203759124373704], [91.78310724016869, 23.32465858505439], [91.83995789008544, 23.432510818073975], [91.85898816128865, 23.437752658184454]]], [[[72.6491616460814, 10.575579833392387], [72.6491616460814, 10.575579833392387]]], [[[73.67872005749057, 10.81713820554357], [73.67872005749057, 10.81713820554357]]], [[[72.16823564814072, 10.812770923925017], [72.16823564814072, 10.812770923925017]]], [[[72.20404205788618, 10.871893646750797], [72.20404205788618, 10.871893646750797]]], [[[72.29179769286428, 10.946152669521245], [72.29179769286428, 10.946152669521245]]], [[[72.31535153847851, 10.943883368695793], [72.31535153847851, 10.943883368695793]]], [[[72.33096362570254, 10.951742174931397], [72.33096362570254, 10.951742174931397]]], [[[72.3335245006937, 10.95421140953073], [72.3335245006937, 10.95421140953073]]], [[[72.71663863637724, 11.121686081643448], [72.71663863637724, 11.121686081643448]]], [[[72.76337197806728, 11.188443000251485], [72.76337197806728, 11.188443000251485]]], [[[73.00803381676161, 11.472018541286415], [73.00803381676161, 11.472018541286415]]], [[[72.18636308104237, 11.599885637754069], [72.18636308104237, 11.599885637754069]]], [[[72.70934803709211, 11.687550443112249], [72.70934803709211, 11.687550443112249]]], [[[72.73685380071157, 19.465849870993967], [72.73685380071157, 19.465849870993967]]], [[[71.15196463312064, 20.763022393302606], [71.15196463312064, 20.763022393302606]]], [[[71.53120908258008, 20.902347131440205], [71.53120908258008, 20.902347131440205]]], [[[71.51926946903596, 20.90793286133856], [71.51926946903596, 20.90793286133856]]], [[[72.35480376709278, 22.028080992366693], [72.2998224888244, 21.882728512679893], [72.42727754003681, 21.915740224133202], [72.36883670228559, 22.029132285719157], [72.35480376709278, 22.028080992366693]]], [[[69.3301958632957, 22.374346476172956], [69.3301958632957, 22.374346476172956]]], [[[69.65124964592907, 22.430256469687915], [69.65124964592907, 22.430256469687915]]], [[[69.14996995984401, 22.467977504034298], [69.14996995984401, 22.467977504034298]]], [[[69.81739996577153, 22.484003447443488], [69.81739996577153, 22.484003447443488]]], [[[70.00072227936256, 22.549443742201845], [70.00072227936256, 22.549443742201845]]], [[[69.97198115166604, 22.574794845172047], [69.97198115166604, 22.574794845172047]]], [[[70.0245270271306, 22.593352113740863], [70.0245270271306, 22.593352113740863]]], [[[68.5292592127178, 23.312416382669518], [68.5292592127178, 23.312416382669518]]], [[[77.30618451158055, 8.128904033232491], [77.30618451158055, 8.128904033232491]]], [[[77.24507268155402, 8.171537242663025], [77.24507268155402, 8.171537242663025]]], [[[78.20743344907628, 8.832065239467786], [78.20743344907628, 8.832065239467786]]], [[[78.20966790773417, 8.84014307709712], [78.20966790773417, 8.84014307709712]]], [[[78.22703627230558, 8.866639130349983], [78.22703627230558, 8.866639130349983]]], [[[78.21851698162932, 8.879910338702135], [78.21851698162932, 8.879910338702135]]], [[[78.26912391092675, 8.940717562213624], [78.26912391092675, 8.940717562213624]]], [[[78.25586735100646, 8.949772744763804], [78.25586735100646, 8.949772744763804]]], [[[78.48954960749742, 9.093380010375784], [78.48954960749742, 9.093380010375784]]], [[[78.53836362884513, 9.10564406069293], [78.53836362884513, 9.10564406069293]]], [[[78.58720904990534, 9.110644244007952], [78.58720904990534, 9.110644244007952]]], [[[79.47985318609287, 9.130189263465015], [79.47985318609287, 9.130189263465015]]], [[[79.46972990137452, 9.139197039549355], [79.46972990137452, 9.139197039549355]]], [[[79.46803353806338, 9.1409650648751], [79.46803353806338, 9.1409650648751]]], [[[79.45003024784242, 9.14805738725685], [79.45003024784242, 9.14805738725685]]], [[[79.44548209911848, 9.15268745388321], [79.44548209911848, 9.15268745388321]]], [[[78.6965765273636, 9.155755337516874], [78.6965765273636, 9.155755337516874]]], [[[78.75380818603001, 9.154196395367569], [78.75380818603001, 9.154196395367569]]], [[[78.72801418284567, 9.152723666879412], [78.72801418284567, 9.152723666879412]]], [[[79.44471416531468, 9.157389038315808], [79.44471416531468, 9.157389038315808]]], [[[78.75092810009254, 9.156832353763487], [78.75092810009254, 9.156832353763487]]], [[[78.81936789393016, 9.161871167780374], [78.81936789393016, 9.161871167780374]]], [[[78.82699034166103, 9.170202928874543], [78.82699034166103, 9.170202928874543]]], [[[78.92384214293294, 9.183224738417664], [78.92384214293294, 9.183224738417664]]], [[[78.96743090412312, 9.18264014944814], [78.96743090412312, 9.18264014944814]]], [[[79.08665984332703, 9.197463470922665], [79.08665984332703, 9.197463470922665]]], [[[79.1390423700386, 9.212940076575222], [79.1390423700386, 9.212940076575222]]], [[[79.12593263615821, 9.214849866186078], [79.12593263615821, 9.214849866186078]]], [[[79.1656962585792, 9.212132789515254], [79.1656962585792, 9.212132789515254]]], [[[79.14815956589322, 9.233719795613855], [79.14815956589322, 9.233719795613855]]], [[[79.14070977166503, 9.23812281751325], [79.14070977166503, 9.23812281751325]]], [[[79.1609564300349, 9.238275300606674], [79.1609564300349, 9.238275300606674]]], [[[79.14495479647272, 9.242265366390901], [79.14495479647272, 9.242265366390901]]], [[[79.22523491576106, 9.248813873957431], [79.22523491576106, 9.248813873957431]]], [[[79.24068882493494, 9.240200577743941], [79.24068882493494, 9.240200577743941]]], [[[79.13687546379172, 9.255772019896426], [79.13687546379172, 9.255772019896426]]], [[[79.49485368949169, 9.125492388752244], [79.49485368949169, 9.125492388752244]]], [[[79.48859700977606, 9.128222063412663], [79.48859700977606, 9.128222063412663]]], [[[79.48149621642561, 9.133217641275536], [79.48149621642561, 9.133217641275536]]], [[[80.93055500254205, 15.718193808586074], [80.93055500254205, 15.718193808586074]]], [[[80.81106216256218, 15.732748855855117], [80.81106216256218, 15.732748855855117]]], [[[80.79280647269584, 15.768960958775457], [80.79280647269584, 15.768960958775457]]], [[[81.00723681306033, 15.79527494895074], [81.00723681306033, 15.79527494895074]]], [[[81.0189190404109, 15.793487105349659], [81.0189190404109, 15.793487105349659]]], [[[80.78993142091723, 15.830872256603902], [80.78993142091723, 15.830872256603902]]], [[[80.78738031600311, 15.840419426026683], [80.78738031600311, 15.840419426026683]]], [[[80.78738399819747, 15.853263241532067], [80.78738399819747, 15.853263241532067]]], [[[80.78001824855059, 15.861165452690047], [80.78001824855059, 15.861165452690047]]], [[[82.31876061594157, 16.569461399390477], [82.31876061594157, 16.569461399390477]]], [[[82.3401103722427, 16.596486704296158], [82.3401103722427, 16.596486704296158]]], [[[82.33521872122886, 16.604546568742574], [82.33521872122886, 16.604546568742574]]], [[[88.04574802449808, 21.513010654409268], [88.04574802449808, 21.513010654409268]]], [[[88.0600038676455, 21.507942348601173], [88.0600038676455, 21.507942348601173]]], [[[88.0546052470112, 21.550456214261022], [88.0546052470112, 21.550456214261022]]], [[[88.0782664907092, 21.572889740819267], [88.0782664907092, 21.572889740819267]]], [[[88.08621871267584, 21.590898953258947], [88.08621871267584, 21.590898953258947]]], [[[88.07630413714072, 21.609537944317147], [88.07630413714072, 21.609537944317147]]], [[[87.9764755525792, 21.67057882723672], [87.9764755525792, 21.67057882723672]]], [[[87.90964139580232, 21.6962345872657], [87.90964139580232, 21.6962345872657]]], [[[87.97542140025455, 21.691853236311253], [87.97542140025455, 21.691853236311253]]], [[[88.11827627756918, 21.623728388923606], [88.12792454664, 21.7473939112779], [88.03248276798752, 21.67107314180042], [88.11827627756918, 21.623728388923606]]], [[[87.9304220235569, 21.692811282305343], [87.9304220235569, 21.692811282305343]]], [[[87.94727370771957, 21.704315525653744], [87.94727370771957, 21.704315525653744]]], [[[87.98645056047846, 21.730196786533064], [87.98645056047846, 21.730196786533064]]], [[[87.94986598960969, 21.73504464370519], [87.94986598960969, 21.73504464370519]]], [[[87.95782986362387, 21.759150608828666], [87.95782986362387, 21.759150608828666]]], [[[87.88750084986167, 21.751007121374478], [87.88750084986167, 21.751007121374478]]], [[[88.15868594049473, 21.83110798860974], [88.1395851254906, 21.70969269929132], [88.15868594049473, 21.83110798860974]]], [[[88.16907294632597, 21.862154801708353], [88.16907294632597, 21.862154801708353]]], [[[88.10322336286343, 21.885092498929893], [88.10322336286343, 21.885092498929893]]], [[[88.09512788206685, 21.905706671850478], [88.09512788206685, 21.905706671850478]]], [[[88.11719729760671, 21.931236809788036], [88.11719729760671, 21.931236809788036]]], [[[88.11942011140361, 22.015191065240526], [88.11942011140361, 22.015191065240526]]], [[[88.20420313756321, 21.512548153718928], [88.20420313756321, 21.512548153718928]]], [[[88.34159640617243, 21.559880183445493], [88.34159640617243, 21.559880183445493]]], [[[88.58589303299136, 21.563447182262372], [88.58589303299136, 21.563447182262372]]], [[[88.54552693386553, 21.538141722892306], [88.54552693386553, 21.538141722892306]]], [[[88.16506201439647, 21.579566545627586], [88.16506201439647, 21.579566545627586]]], [[[88.88465653310261, 21.58292347472286], [88.88465653310261, 21.58292347472286]]], [[[88.3533506200183, 21.5877667737376], [88.3533506200183, 21.5877667737376]]], [[[88.60117691443814, 21.578946042747024], [88.60117691443814, 21.578946042747024]]], [[[88.54092065066799, 21.588338435616045], [88.54092065066799, 21.588338435616045]]], [[[88.78985015620678, 21.59548501762436], [88.78985015620678, 21.59548501762436]]], [[[88.35028249153905, 21.621972140050268], [88.35028249153905, 21.621972140050268]]], [[[88.97651593640326, 21.61968741935153], [88.97651593640326, 21.61968741935153]]], [[[88.57046151881754, 21.683668986350323], [88.57046151881754, 21.683668986350323]]], [[[88.21300490976877, 21.596903291275986], [88.21300490976877, 21.596903291275986]]], [[[88.31090893019085, 21.706124489951193], [88.31090893019085, 21.706124489951193]]], [[[88.64160346030116, 21.67116986503051], [88.64160346030116, 21.67116986503051]]], [[[88.41022704709215, 21.65138135204728], [88.41022704709215, 21.65138135204728]]], [[[88.55747735504083, 21.659700042599038], [88.55747735504083, 21.659700042599038]]], [[[88.70965512534215, 21.654738816723995], [88.70965512534215, 21.654738816723995]]], [[[88.97485371176779, 21.712904228293326], [89.02009208075523, 21.59920564375609], [88.97485371176779, 21.712904228293326]]], [[[88.87668027221898, 21.690667907304547], [88.87668027221898, 21.690667907304547]]], [[[88.83913675786928, 21.692929937582917], [88.83913675786928, 21.692929937582917]]], [[[88.45326119920571, 21.739185963577643], [88.43823198565036, 21.61851384308728], [88.45326119920571, 21.739185963577643]]], [[[88.19116592647235, 21.702847101166125], [88.19116592647235, 21.702847101166125]]], [[[88.3684893283253, 21.691411932444787], [88.3684893283253, 21.691411932444787]]], [[[88.57357465289256, 21.725260669450446], [88.57357465289256, 21.725260669450446]]], [[[88.20400793724524, 21.734147648985637], [88.20400793724524, 21.734147648985637]]], [[[88.29184597558265, 21.772350619944632], [88.29184597558265, 21.772350619944632]]], [[[88.61347487403395, 21.710634145885972], [88.61347487403395, 21.710634145885972]]], [[[88.5721641927936, 21.770837498536395], [88.5721641927936, 21.770837498536395]]], [[[88.38471828865492, 21.752221297315707], [88.38471828865492, 21.752221297315707]]], [[[88.33809381828577, 21.74900223780116], [88.33809381828577, 21.74900223780116]]], [[[88.42025404409011, 21.76884338934577], [88.42025404409011, 21.76884338934577]]], [[[88.76517062272684, 21.66600219946283], [88.76030444254455, 21.79229734356707], [88.71590692540914, 21.90450646582454], [88.70890097977966, 21.78029319689456], [88.74639197502461, 21.662127071599464], [88.76517062272684, 21.66600219946283]]], [[[88.27791652541224, 21.786962621880605], [88.27791652541224, 21.786962621880605]]], [[[88.80303241467331, 21.793766111642075], [88.80303241467331, 21.793766111642075]]], [[[88.18260677215704, 21.780610664191506], [88.18260677215704, 21.780610664191506]]], [[[88.90632228168639, 21.736222768912114], [88.87161629648585, 21.851925452194845], [88.90632228168639, 21.736222768912114]]], [[[88.46151852228046, 21.815930200878405], [88.46151852228046, 21.815930200878405]]], [[[88.33815631767332, 21.801613780900887], [88.33815631767332, 21.801613780900887]]], [[[88.58860509534314, 21.848742676936972], [88.58860509534314, 21.848742676936972]]], [[[88.5021696945752, 21.850614210597882], [88.5021696945752, 21.850614210597882]]], [[[88.64958899988335, 21.84790901900873], [88.64958899988335, 21.84790901900873]]], [[[88.18085417969898, 21.851178918137656], [88.18085417969898, 21.851178918137656]]], [[[88.93854242278154, 21.917718834181272], [88.88652928690802, 21.806303591267206], [88.96815096371638, 21.89723181060762], [88.93854242278154, 21.917718834181272]]], [[[88.54267486368681, 21.8506039634661], [88.54267486368681, 21.8506039634661]]], [[[88.46530212564586, 21.83066653480362], [88.46530212564586, 21.83066653480362]]], [[[88.56268406678437, 21.855207804859862], [88.56268406678437, 21.855207804859862]]], [[[88.81719768518221, 21.89835082259154], [88.81719768518221, 21.89835082259154]]], [[[88.57304961096514, 21.88484088109918], [88.57304961096514, 21.88484088109918]]], [[[88.66347252548147, 21.898446045668056], [88.66347252548147, 21.898446045668056]]], [[[88.48318963290815, 21.90481716887295], [88.48318963290815, 21.90481716887295]]], [[[88.79935151030445, 21.914121538815778], [88.79935151030445, 21.914121538815778]]], [[[88.51418335534989, 21.918353996108287], [88.51418335534989, 21.918353996108287]]], [[[88.78487741517054, 21.927185894965948], [88.78487741517054, 21.927185894965948]]], [[[88.97288128359342, 26.198373445467933], [88.97288128359342, 26.198373445467933]]], [[[88.96181945972748, 26.203336876087207], [88.96181945972748, 26.203336876087207]]], [[[88.95500759870839, 26.21424014798979], [88.95500759870839, 26.21424014798979]]], [[[88.93291810492363, 26.371750651826375], [88.93291810492363, 26.371750651826375]]], [[[88.98146308623365, 26.407977263820715], [88.98146308623365, 26.407977263820715]]], [[[88.96686296465191, 26.413594031074272], [88.96686296465191, 26.413594031074272]]], [[[88.95454310323119, 26.40819524898476], [88.95454310323119, 26.40819524898476]]], [[[88.96712282480571, 26.41748187664219], [88.96712282480571, 26.41748187664219]]], [[[88.96945381911904, 26.43218952961743], [88.96945381911904, 26.43218952961743]]], [[[88.97677846994334, 26.4447672257085], [88.97677846994334, 26.4447672257085]]], [[[92.46019786161227, 10.53908620417654], [92.5502805724524, 10.637914622761292], [92.58282226730014, 10.759511365795332], [92.53672001814834, 10.883892830969355], [92.43319238324926, 10.822387169736597], [92.38076552557669, 10.708141043890127], [92.40979862460519, 10.583331160386626], [92.46019786161227, 10.53908620417654]]], [[[92.60424606634022, 10.93701896697125], [92.60424606634022, 10.93701896697125]]], [[[92.2235970793745, 10.978363286023459], [92.2235970793745, 10.978363286023459]]], [[[92.66056798584705, 10.99216048490829], [92.66056798584705, 10.99216048490829]]], [[[92.55505876355092, 11.391632462839006], [92.55505876355092, 11.391632462839006]]], [[[92.54970467599848, 11.39736165536029], [92.54970467599848, 11.39736165536029]]], [[[92.61072943951105, 11.456817099943787], [92.61072943951105, 11.456817099943787]]], [[[92.61092405772072, 11.509194421061805], [92.61092405772072, 11.509194421061805]]], [[[92.56410945443012, 11.529552871948052], [92.56410945443012, 11.529552871948052]]], [[[92.60439880239642, 11.532737098121565], [92.60439880239642, 11.532737098121565]]], [[[92.62736985878354, 11.544164955620104], [92.62736985878354, 11.544164955620104]]], [[[92.61645591917295, 11.559743997888646], [92.61645591917295, 11.559743997888646]]], [[[92.59507610973401, 11.562400358392374], [92.59507610973401, 11.562400358392374]]], [[[92.21531507598557, 11.592936923550218], [92.21531507598557, 11.592936923550218]]], [[[92.57350331342596, 11.562817602342923], [92.57350331342596, 11.562817602342923]]], [[[92.56607529166527, 11.570836692083803], [92.56607529166527, 11.570836692083803]]], [[[92.61753579026417, 11.574692399565384], [92.61753579026417, 11.574692399565384]]], [[[92.54529690341073, 11.599395085205002], [92.54529690341073, 11.599395085205002]]], [[[92.57771741642496, 11.585147664634482], [92.57771741642496, 11.585147664634482]]], [[[92.75577223826033, 12.026583188465056], [92.75169823561471, 12.148106321121942], [92.6302491389322, 12.122967586912027], [92.61237532738473, 12.000259013269984], [92.61251132603054, 11.879736131345126], [92.55517899496688, 11.773687131006225], [92.5978824188338, 11.657000468147581], [92.65367457127488, 11.550463984913149], [92.74975068089222, 11.628998713600236], [92.76461848425895, 11.752419382254486], [92.78671714265623, 11.872781847006319], [92.70371094011116, 11.962051544022465], [92.75577223826033, 12.026583188465056]]], [[[92.5957987055654, 11.910071291806018], [92.5957987055654, 11.910071291806018]]], [[[92.60421853836667, 11.933257245601109], [92.60421853836667, 11.933257245601109]]], [[[92.59963633810355, 11.969875061723798], [92.59963633810355, 11.969875061723798]]], [[[92.5809027463027, 11.977360525814921], [92.5809027463027, 11.977360525814921]]], [[[92.6548409752808, 12.772180452596292], [92.6548409752808, 12.772180452596292]]], [[[92.66808045643094, 12.950764522888763], [92.66808045643094, 12.950764522888763]]], [[[89.13698963487867, 21.588364201268845], [89.13698963487867, 21.588364201268845]]], [[[88.97446757273956, 21.72124300729426], [88.97446757273956, 21.72124300729426]]], [[[89.0158976589458, 21.775429722535776], [89.0214421426261, 21.650558983287635], [89.0158976589458, 21.775429722535776]]], [[[89.01995244303423, 21.852106307704044], [89.01995244303423, 21.852106307704044]]], [[[89.4964204849021, 25.935274869766218], [89.4964204849021, 25.935274869766218]]], [[[89.58816229783373, 25.9381920604818], [89.58816229783373, 25.9381920604818]]], [[[89.50861023254048, 25.94724660247208], [89.50861023254048, 25.94724660247208]]], [[[89.61585609411352, 26.122884800426643], [89.61585609411352, 26.122884800426643]]], [[[89.61132960107615, 26.13014856268992], [89.61132960107615, 26.13014856268992]]], [[[89.62468204716987, 26.149443539592156], [89.62468204716987, 26.149443539592156]]], [[[89.66415165818489, 26.165871094469505], [89.66415165818489, 26.165871094469505]]], [[[89.08469648604627, 26.24758795152873], [89.08469648604627, 26.24758795152873]]], [[[89.07353391073134, 26.28137301359718], [89.07353391073134, 26.28137301359718]]], [[[89.07558024779576, 26.29603801180557], [89.07558024779576, 26.29603801180557]]], [[[89.05956060840202, 26.296871798459385], [89.05956060840202, 26.296871798459385]]], [[[89.07005937094283, 26.3053406958493], [89.07005937094283, 26.3053406958493]]], [[[89.04838482066592, 26.30583349384717], [89.04838482066592, 26.30583349384717]]], [[[89.064757294947, 26.309132589889035], [89.064757294947, 26.309132589889035]]], [[[89.0171034819247, 26.3117954779911], [89.0171034819247, 26.3117954779911]]], [[[89.03075663546656, 26.31934728803461], [89.03075663546656, 26.31934728803461]]], [[[89.07974220359252, 26.320603016775614], [89.07974220359252, 26.320603016775614]]], [[[89.0010879092043, 26.319267924157764], [89.0010879092043, 26.319267924157764]]], [[[89.00895885160404, 26.32785063460932], [89.00895885160404, 26.32785063460932]]], [[[89.01533320972354, 26.33220150609794], [89.01533320972354, 26.33220150609794]]], [[[88.99755007861242, 26.34154024222346], [88.99755007861242, 26.34154024222346]]], [[[88.98180382800071, 26.35656109889491], [88.98180382800071, 26.35656109889491]]], [[[89.07447283705285, 26.366862862622785], [89.07447283705285, 26.366862862622785]]], [[[89.05180656466855, 26.368228748765244], [89.05180656466855, 26.368228748765244]]], [[[89.04744295236185, 26.373601149975457], [89.04744295236185, 26.373601149975457]]], [[[89.05492349053235, 26.373190733576447], [89.05492349053235, 26.373190733576447]]], [[[88.98564913035474, 26.392761110109355], [88.98564913035474, 26.392761110109355]]], [[[89.01476342540684, 26.409114618839666], [89.01476342540684, 26.409114618839666]]], [[[88.99113024328166, 26.4131856724254], [88.99113024328166, 26.4131856724254]]], [[[92.80854627862053, 9.222901022594362], [92.72349319642863, 9.133584621960601], [92.8171592824455, 9.211092804535687], [92.80854627862053, 9.222901022594362]]], [[[92.72437977252862, 11.142268714731708], [92.72437977252862, 11.142268714731708]]], [[[92.72678310996838, 11.143538917044792], [92.72678310996838, 11.143538917044792]]], [[[92.6758249411915, 11.177675421859139], [92.6758249411915, 11.177675421859139]]], [[[92.68638149325281, 11.244027611636588], [92.68638149325281, 11.244027611636588]]], [[[92.715655313828, 11.314360339807902], [92.715655313828, 11.314360339807902]]], [[[92.6994615216434, 11.659260408135761], [92.6994615216434, 11.659260408135761]]], [[[92.76048920737558, 11.67501986761024], [92.76048920737558, 11.67501986761024]]], [[[92.72227902360915, 11.68660575695813], [92.72227902360915, 11.68660575695813]]], [[[92.72285561985068, 11.928056816632955], [92.72285561985068, 11.928056816632955]]], [[[92.7245086699921, 11.941831198886975], [92.7245086699921, 11.941831198886975]]], [[[92.72201456497937, 11.95156712265203], [92.72201456497937, 11.95156712265203]]], [[[92.76417937427337, 11.961957015853853], [92.76417937427337, 11.961957015853853]]], [[[92.74015777050079, 11.965453069372405], [92.74015777050079, 11.965453069372405]]], [[[92.72418519923471, 11.985233587829311], [92.72418519923471, 11.985233587829311]]], [[[92.77289517770619, 12.012926269170503], [92.77289517770619, 12.012926269170503]]], [[[92.73994422119482, 12.111147865218545], [92.73994422119482, 12.111147865218545]]], [[[92.75635593119259, 12.149378352759877], [92.75635593119259, 12.149378352759877]]], [[[92.75888007856335, 12.165668796568497], [92.75888007856335, 12.165668796568497]]], [[[92.73004096263564, 12.188737840687494], [92.73004096263564, 12.188737840687494]]], [[[92.86040654548718, 12.197781913340368], [92.80976433665359, 12.313495785545685], [92.7691941870076, 12.200095635181588], [92.73817719191179, 12.082909053969649], [92.82967729425162, 12.166750532638286], [92.86040654548718, 12.197781913340368]]], [[[92.72944593476115, 12.22779310105765], [92.72944593476115, 12.22779310105765]]], [[[92.68077680448219, 12.223431895295947], [92.68077680448219, 12.223431895295947]]], [[[92.69632996941013, 12.25036598350087], [92.69632996941013, 12.25036598350087]]], [[[92.72358407539267, 12.255812396317474], [92.72358407539267, 12.255812396317474]]], [[[92.71900701079805, 12.295367435154484], [92.71900701079805, 12.295367435154484]]], [[[92.73418775127715, 12.27023590233082], [92.73418775127715, 12.27023590233082]]], [[[92.76273600439397, 12.266375376996367], [92.76273600439397, 12.266375376996367]]], [[[92.73465141671107, 12.291131102608542], [92.73465141671107, 12.291131102608542]]], [[[92.76696477598325, 12.291506298880387], [92.76696477598325, 12.291506298880387]]], [[[92.7511663449316, 12.293272100262136], [92.7511663449316, 12.293272100262136]]], [[[92.76455941733407, 12.299664032270307], [92.76455941733407, 12.299664032270307]]], [[[92.6815308386536, 12.540059600310054], [92.6815308386536, 12.540059600310054]]], [[[92.7215079079726, 12.619744030081504], [92.7215079079726, 12.619744030081504]]], [[[92.70149941993401, 12.640968785984539], [92.70149941993401, 12.640968785984539]]], [[[92.72489306179712, 12.655614553861385], [92.72489306179712, 12.655614553861385]]], [[[92.71382108068028, 12.687866834135828], [92.71382108068028, 12.687866834135828]]], [[[92.71865786798647, 12.689189472994942], [92.71865786798647, 12.689189472994942]]], [[[92.7274296238851, 12.732999249061704], [92.7274296238851, 12.732999249061704]]], [[[92.71128857987567, 12.829675645405182], [92.71128857987567, 12.829675645405182]]], [[[92.72194821361586, 12.772130826581042], [92.72194821361586, 12.772130826581042]]], [[[92.72380536548143, 12.834896860777073], [92.72380536548143, 12.834896860777073]]], [[[92.78377387101831, 12.829932430343922], [92.78377387101831, 12.829932430343922]]], [[[92.76195127029771, 12.841735468504895], [92.76195127029771, 12.841735468504895]]], [[[92.72765037767967, 12.860334005591122], [92.72765037767967, 12.860334005591122]]], [[[92.72810497282411, 12.855611273461674], [92.72810497282411, 12.855611273461674]]], [[[92.76173948528299, 12.856675571573064], [92.76173948528299, 12.856675571573064]]], [[[92.72051989860233, 12.891207978167278], [92.66711213723337, 12.783153209899554], [92.72051989860233, 12.891207978167278]]], [[[92.78067208895358, 12.885860314348191], [92.78067208895358, 12.885860314348191]]], [[[92.75083467075905, 12.896146509877216], [92.75083467075905, 12.896146509877216]]], [[[92.7541177427296, 12.898316780616378], [92.7541177427296, 12.898316780616378]]], [[[92.79561777445879, 12.90898742783342], [92.79561777445879, 12.90898742783342]]], [[[92.7661435307606, 12.917024913993007], [92.7661435307606, 12.917024913993007]]], [[[92.76478401501974, 12.925461673670705], [92.76478401501974, 12.925461673670705]]], [[[92.77410460562437, 12.92456936205928], [92.77410460562437, 12.92456936205928]]], [[[92.75972245575473, 12.93028205965758], [92.75972245575473, 12.93028205965758]]], [[[92.67296015625827, 12.948907686545335], [92.67296015625827, 12.948907686545335]]], [[[92.6719326578464, 12.94943627021016], [92.6719326578464, 12.94943627021016]]], [[[92.67063774175423, 12.950195390420648], [92.67063774175423, 12.950195390420648]]], [[[92.66774613671986, 12.952775659758348], [92.66774613671986, 12.952775659758348]]], [[[92.71616355546291, 13.093602027225248], [92.71616355546291, 13.093602027225248]]], [[[92.73075646357293, 13.094819768486662], [92.73075646357293, 13.094819768486662]]], [[[92.79249986763469, 13.169954355068871], [92.79249986763469, 13.169954355068871]]], [[[92.81365772941808, 13.418266459363295], [92.81365772941808, 13.418266459363295]]], [[[93.03430908278814, 8.442865591373485], [93.03430908278814, 8.442865591373485]]], [[[93.02468863543997, 11.840954238061727], [93.02468863543997, 11.840954238061727]]], [[[92.97166605369854, 12.04688849850379], [93.00661404862986, 11.925273434499372], [92.98162461703818, 12.043666672885827], [92.97166605369854, 12.04688849850379]]], [[[93.00429098015228, 12.098257594031372], [93.00429098015228, 12.098257594031372]]], [[[92.94826846823136, 12.099470308034292], [92.94826846823136, 12.099470308034292]]], [[[93.02367309270623, 12.143178123615163], [93.02367309270623, 12.143178123615163]]], [[[93.05711431197044, 12.116535807611022], [93.05711431197044, 12.116535807611022]]], [[[92.99242449755715, 12.156377030639536], [92.99242449755715, 12.156377030639536]]], [[[92.93641931413804, 12.22223092642696], [92.93641931413804, 12.22223092642696]]], [[[92.8996955214682, 12.255505885210962], [92.8996955214682, 12.255505885210962]]], [[[92.88043598493314, 12.2395675123413], [92.88043598493314, 12.2395675123413]]], [[[92.86047274952696, 12.24434943707424], [92.86047274952696, 12.24434943707424]]], [[[92.88060159474564, 12.249524613517893], [92.88060159474564, 12.249524613517893]]], [[[92.89839032505594, 12.262086023585294], [92.89839032505594, 12.262086023585294]]], [[[92.93526297126326, 12.298162451458156], [92.93526297126326, 12.298162451458156]]], [[[93.02603821401718, 12.279871021821211], [93.02603821401718, 12.279871021821211]]], [[[92.87705016096545, 12.297538128751762], [92.87705016096545, 12.297538128751762]]], [[[92.863378887506, 12.30313713790128], [92.863378887506, 12.30313713790128]]], [[[92.86125879157025, 12.336480043442911], [92.86125879157025, 12.336480043442911]]], [[[92.9048489909632, 12.340623075583176], [92.9048489909632, 12.340623075583176]]], [[[92.9154722968333, 12.348100282841347], [92.9154722968333, 12.348100282841347]]], [[[92.89085050705984, 12.400409142749153], [92.89085050705984, 12.400409142749153]]], [[[92.95437030713806, 12.429652087659383], [92.95437030713806, 12.429652087659383]]], [[[92.89637386775455, 12.410762719888746], [92.89637386775455, 12.410762719888746]]], [[[92.84296159774117, 12.41785932271732], [92.84296159774117, 12.41785932271732]]], [[[92.85801015651612, 12.415177443912208], [92.85801015651612, 12.415177443912208]]], [[[92.8372278426238, 12.424982761742957], [92.8372278426238, 12.424982761742957]]], [[[92.89875432959559, 12.421694085344546], [92.89875432959559, 12.421694085344546]]], [[[92.83836120659359, 12.401351285192122], [92.944777181151, 12.459507791115204], [92.96021124474358, 12.583926579894717], [92.96385505857268, 12.708404391592637], [92.94336938006528, 12.832094245360711], [92.83488388023105, 12.886440592083899], [92.78334172567111, 12.775942247898517], [92.79335863548677, 12.65380237739744], [92.70429140629494, 12.569423657744105], [92.70545348581108, 12.449326760689493], [92.69909998387753, 12.328070170780022], [92.82578818465443, 12.30724872054411], [92.83836120659359, 12.401351285192122]]], [[[92.89275186322389, 12.898861667356464], [92.89275186322389, 12.898861667356464]]], [[[92.91037950763744, 12.914534963471842], [92.91037950763744, 12.914534963471842]]], [[[92.93231492058806, 12.914520919851803], [92.93231492058806, 12.914520919851803]]], [[[92.86572847964064, 12.929678213479564], [92.86572847964064, 12.929678213479564]]], [[[92.88833782578537, 12.937054366306482], [92.88833782578537, 12.937054366306482]]], [[[92.96919682932426, 12.94557577431505], [92.96919682932426, 12.94557577431505]]], [[[93.00039812188541, 12.991038222178119], [93.00039812188541, 12.991038222178119]]], [[[92.9880827295832, 13.000652320823328], [92.9880827295832, 13.000652320823328]]], [[[92.93429643522154, 13.025340468650509], [92.93429643522154, 13.025340468650509]]], [[[92.91625921922557, 13.047880186617064], [92.91625921922557, 13.047880186617064]]], [[[92.93203668719171, 13.052652262349751], [92.93203668719171, 13.052652262349751]]], [[[92.91525862894972, 13.063153099849496], [92.91525862894972, 13.063153099849496]]], [[[92.9138432514729, 13.065017408226845], [92.9138432514729, 13.065017408226845]]], [[[93.05824724744384, 13.224628163420153], [93.05824724744384, 13.224628163420153]]], [[[93.06001399016426, 13.224890734915009], [93.06001399016426, 13.224890734915009]]], [[[92.924610277907, 13.53723210659879], [92.87663007190767, 13.426023986480487], [92.83011166472579, 13.314770196009867], [92.86360333966458, 13.196256598171535], [92.80444541724623, 13.08741787771652], [92.79540669731651, 12.967631345568822], [92.91602772247853, 12.95836504391124], [92.85986414990515, 13.065736717479027], [92.97072468216288, 13.012837316698239], [93.0310086391966, 13.12296919468723], [93.05404951085099, 13.244458862524024], [92.96421044377716, 13.32858547773313], [93.0673974761481, 13.397217825215579], [93.04123965707032, 13.521373374997621], [92.924610277907, 13.53723210659879]]], [[[93.0126587421081, 13.303495716093746], [93.0126587421081, 13.303495716093746]]], [[[93.0209373660349, 13.324451936537992], [93.0209373660349, 13.324451936537992]]], [[[92.96575514002737, 13.334017870160949], [92.96575514002737, 13.334017870160949]]], [[[93.01692126519926, 13.336860728038888], [93.01692126519926, 13.336860728038888]]], [[[93.05927583461381, 13.36863913010683], [93.05927583461381, 13.36863913010683]]], [[[93.06120058111127, 13.38616163673531], [93.06120058111127, 13.38616163673531]]], [[[92.84492014335117, 13.431312517181066], [92.84492014335117, 13.431312517181066]]], [[[92.87180397814663, 13.509540679488257], [92.87180397814663, 13.509540679488257]]], [[[92.91712653724248, 13.509582849251636], [92.91712653724248, 13.509582849251636]]], [[[92.90446627541449, 13.53452258262532], [92.90446627541449, 13.53452258262532]]], [[[92.87532626698577, 13.536675056186487], [92.87532626698577, 13.536675056186487]]], [[[93.05560905535451, 13.565876536319124], [93.05560905535451, 13.565876536319124]]], [[[93.00220430334174, 13.571187292089071], [93.00220430334174, 13.571187292089071]]], [[[92.90244120237121, 13.597001621315064], [92.90244120237121, 13.597001621315064]]], [[[93.0587933827124, 13.64742837325318], [93.0587933827124, 13.64742837325318]]], [[[93.02100320176544, 13.666002711349394], [93.02100320176544, 13.666002711349394]]], [[[93.88796421562081, 6.903333311200917], [93.92989694785608, 7.01961723230631], [93.8801031007903, 7.128968228691708], [93.8370837322514, 7.245243809988986], [93.72694392912591, 7.19263782141778], [93.6471590025447, 7.100995159685352], [93.69965363720712, 6.992112126339154], [93.77011397208744, 6.891077028930517], [93.80467057374442, 6.773492026955407], [93.88694138575347, 6.866314437648584], [93.88796421562081, 6.903333311200917]]], [[[93.70862848153025, 7.215506123888202], [93.70862848153025, 7.215506123888202]]], [[[93.83606350480343, 7.291079846955347], [93.83606350480343, 7.291079846955347]]], [[[93.62173353410398, 7.327080004749695], [93.62173353410398, 7.327080004749695]]], [[[93.68151997359068, 7.391719473123579], [93.62269444848867, 7.284943094452025], [93.72869892996724, 7.348182689351514], [93.68151997359068, 7.391719473123579]]], [[[93.758695087659, 7.399896533386532], [93.758695087659, 7.399896533386532]]], [[[93.67517290988275, 7.400280831694984], [93.67517290988275, 7.400280831694984]]], [[[93.64029270361937, 7.474046157685985], [93.64029270361937, 7.474046157685985]]], [[[93.619393332059, 7.482786228504589], [93.619393332059, 7.482786228504589]]], [[[93.53406598702436, 7.522928181729201], [93.53406598702436, 7.522928181729201]]], [[[93.309264318227, 7.941117932193826], [93.43216218456206, 7.899843242490381], [93.38877557575184, 8.017684201583975], [93.309264318227, 7.941117932193826]]], [[[93.54568830842359, 8.027000537286922], [93.54568830842359, 8.027000537286922]]], [[[93.49296482973917, 8.04888548925908], [93.49296482973917, 8.04888548925908]]], [[[93.5777572549716, 8.11465207602012], [93.5777572549716, 8.11465207602012]]], [[[93.57967372618862, 8.096939503183865], [93.57967372618862, 8.096939503183865]]], [[[93.49963649248852, 8.016231762029813], [93.50007434662933, 8.136897582268213], [93.47684453771114, 8.019059227166187], [93.49963649248852, 8.016231762029813]]], [[[93.2323276358997, 8.254714151258629], [93.2323276358997, 8.254714151258629]]], [[[93.11983513696025, 8.351945685139716], [93.10646683919504, 8.230279268108411], [93.13240365205164, 8.34853017177217], [93.11983513696025, 8.351945685139716]]], [[[93.64611701161235, 8.391543920361759], [93.64611701161235, 8.391543920361759]]], [[[93.61232432649321, 8.539353904781297], [93.61232432649321, 8.539353904781297]]], [[[93.59824764783761, 8.580796096802974], [93.59824764783761, 8.580796096802974]]], [[[93.07763406806815, 11.784746497947202], [93.07763406806815, 11.784746497947202]]], [[[93.09778679859194, 12.135661344980836], [93.09778679859194, 12.135661344980836]]], [[[93.11869421546398, 12.14462698199321], [93.11869421546398, 12.14462698199321]]], [[[93.07318003044666, 12.085213711867793], [93.07294864509072, 12.205503638247336], [93.07318003044666, 12.085213711867793]]], [[[93.0933416102743, 12.221511337739397], [93.0933416102743, 12.221511337739397]]], [[[93.09243120995467, 12.224815793610016], [93.09243120995467, 12.224815793610016]]], [[[93.0828365819844, 12.225831029207447], [93.0828365819844, 12.225831029207447]]], [[[93.09974971720072, 12.233767975102303], [93.09974971720072, 12.233767975102303]]], [[[93.07094546309257, 12.325864444499976], [93.07094546309257, 12.325864444499976]]], [[[93.0705965394699, 13.298354572221141], [93.0705965394699, 13.298354572221141]]], [[[93.07630463241456, 13.364277503519132], [93.07630463241456, 13.364277503519132]]], [[[93.08872200326444, 13.41896965200806], [93.08872200326444, 13.41896965200806]]], [[[93.09428087346402, 13.417189799768218], [93.09428087346402, 13.417189799768218]]], [[[93.06915615648883, 13.417994168700499], [93.06915615648883, 13.417994168700499]]], [[[93.10129212634018, 13.434481965361766], [93.10129212634018, 13.434481965361766]]]]}}]}