{"type": "FeatureCollection", "features": [{"type": "Feature", "properties": {"code": "IRL", "name": "Ireland", "tier": "country"}, "geometry": {"type": "MultiPolygon", "coordinates": [[[[-9.471458399999964, 51.452871300000034], [-9.502402400000019, 51.4422781], [-9.528116100000037, 51.4271703], [-9.503764099999977, 51.42982879999996], [-9.479288, 51.433975699999976], [-9.460752600000031, 51.44860401922409], [-9.471458399999964, 51.452871300000034]]], [[[-9.408090599999984, 51.49056750000001], [-9.418599599999975, 51.472705], [-9.43829, 51.46228], [-9.41573739383421, 51.46069629311732], [-9.40012280000002, 51.47333680000004], [-9.408090599999984, 51.49056750000001]]], [[[-9.424699700000037, 51.50038010000003], [-9.4449393, 51.49511189999996], [-9.423520099999958, 51.498241], [-9.424699700000037, 51.50038010000003]]], [[[-9.54008, 51.50094], [-9.561426799999982, 51.4990476], [-9.584601599999985, 51.49117430000004], [-9.56463, 51.49339], [-9.54008, 51.50094]]], [[[-9.35656640000002, 51.51441440000003], [-9.37632, 51.50849], [-9.386792700000022, 51.48980770000003], [-9.36671219999998, 51.49375619999997], [-9.35656640000002, 51.51441440000003]]], [[[-9.338848399999964, 51.525391600000034], [-9.3682377, 51.51926039999997], [-9.340648200000022, 51.52149480000002], [-9.338848399999964, 51.525391600000034]]], [[[-10.164865400000032, 51.61238769999997], [-10.185763799999979, 51.60917919999997], [-10.204190599999972, 51.601393], [-10.224865900000022, 51.593125599999965], [-10.199145100000038, 51.59066629999996], [-10.1796647, 51.5957259], [-10.160304300000032, 51.60316879999996], [-10.164865400000032, 51.61238769999997]]], [[[-9.782689300000012, 51.646727], [-9.8084219, 51.64289009999999], [-9.83007910000002, 51.6321128], [-9.850993200000023, 51.641536399999985], [-9.8790379, 51.641627], [-9.901630100000023, 51.63876440000004], [-9.919276700000033, 51.6238065], [-9.895881900000035, 51.61582059999997], [-9.86963, 51.617777699999984], [-9.848454400000016, 51.6226652], [-9.818957599999976, 51.62612760000003], [-9.7970585, 51.63176789999998], [-9.782689300000012, 51.646727]]], [[[-9.47870629999996, 51.70510069999997], [-9.503244399999964, 51.69779010000003], [-9.523461300000012, 51.6862093], [-9.494329599999983, 51.6793297], [-9.480366500000013, 51.697739900000045], [-9.47870629999996, 51.70510069999997]]], [[[-10.24538, 51.73646], [-10.263921300000021, 51.72570559999997], [-10.243214600000037, 51.730085], [-10.24538, 51.73646]]], [[[-9.78757910000003, 51.8319026], [-9.8087364, 51.82794090000003], [-9.78715529999996, 51.830739], [-9.78757910000003, 51.8319026]]], [[[-8.3188406, 51.88761439999997], [-8.327606, 51.854720599999965], [-8.293739100000018, 51.85020010000004], [-8.273442500000037, 51.85249749999997], [-8.228538199999978, 51.858327399999965], [-8.205719400000032, 51.871799099999954], [-8.232655799999964, 51.87936880000002], [-8.26358920000003, 51.878224400000015], [-8.292454, 51.881822], [-8.31388460000002, 51.88414409999998], [-8.3188406, 51.88761439999997]]], [[[-10.349939300000031, 51.9360242], [-10.36564, 51.91951], [-10.385711900000015, 51.91298979999997], [-10.409801600000044, 51.911373], [-10.42347160000001, 51.895781299999975], [-10.401523100000041, 51.88988279999998], [-10.38122, 51.88704], [-10.359528600000043, 51.89255], [-10.307307100000028, 51.906031], [-10.286166400000017, 51.927243900000036], [-10.316244800000039, 51.92394339999998], [-10.3380396, 51.9318109], [-10.349939300000031, 51.9360242]]], [[[-10.304412299999964, 51.94153350000002], [-10.304412299999964, 51.94153350000002]]], [[[-10.516805699999974, 52.11099249999998], [-10.534845199999985, 52.0975134], [-10.561504099999961, 52.089728200000046], [-10.5803779, 52.072425], [-10.560480299999984, 52.08198310000004], [-10.53760082071311, 52.086815495901604], [-10.51596240000001, 52.09544779999998], [-10.516805699999974, 52.11099249999998]]], [[[-9.111353300000012, 52.6279255], [-9.111353300000012, 52.6279255]]], [[[-8.943056500000022, 52.7082024], [-8.943056500000022, 52.7082024]]], [[[-9.0271591, 52.721136], [-9.054062699999974, 52.7110364], [-9.02175580000004, 52.71226140000001], [-9.0271591, 52.721136]]], [[[-9.5244585, 53.06842250000004], [-9.546664599999975, 53.0624709], [-9.53150429999998, 53.045153699999986], [-9.5060434, 53.055288], [-9.5244585, 53.06842250000004]]], [[[-9.5786495, 53.1024965], [-9.600676100000037, 53.094986900000016], [-9.616940099999958, 53.0792854], [-9.578489399999988, 53.07161350000001], [-9.562186599999965, 53.08567849999997], [-9.5786495, 53.1024965]]], [[[-9.790129899999965, 53.1525764], [-9.815511500000039, 53.149308499999975], [-9.8015174, 53.13309570000003], [-9.778811499999971, 53.12945049999996], [-9.75917469999996, 53.125218700000026], [-9.740147500000027, 53.116430799999975], [-9.717310099999963, 53.11325959999996], [-9.69646970000002, 53.1083749], [-9.672391499999964, 53.09869829999997], [-9.653440799999967, 53.08859450000001], [-9.6364291, 53.10086530000003], [-9.65669210000004, 53.10943409999998], [-9.653336699999969, 53.13163079999997], [-9.675093499999974, 53.134507499999955], [-9.697408299999964, 53.138546900000044], [-9.737603400000026, 53.13765059999996], [-9.76035110000004, 53.149555399999976], [-9.781631, 53.15216140000004], [-9.790129899999965, 53.1525764]]], [[[-9.01893870000001, 53.22490629999997], [-9.03890610000002, 53.22068869999997], [-9.017759499999965, 53.213282700000036], [-9.01893870000001, 53.22490629999997]]], [[[-9.7315403, 53.249976], [-9.74585649999997, 53.235080100000026], [-9.722696500000037, 53.22882], [-9.7315403, 53.249976]]], [[[-9.748046499999983, 53.26299029999998], [-9.748046499999983, 53.26299029999998]]], [[[-9.715076499999984, 53.28446049999998], [-9.715076499999984, 53.28446049999998]]], [[[-9.659947600000017, 53.284503], [-9.681686499999962, 53.28158039999998], [-9.700296500000015, 53.2694303], [-9.723954, 53.2633673], [-9.7033901, 53.25238070000001], [-9.712946499999962, 53.23349010000001], [-9.6928583, 53.227990900000016], [-9.670526500000019, 53.22387], [-9.650116499999982, 53.22874], [-9.643146499999975, 53.26258029999998], [-9.662116200000035, 53.27642540000004], [-9.659947600000017, 53.284503]]], [[[-9.684276500000031, 53.30988060000004], [-9.7047265, 53.30476059999999], [-9.690386500000024, 53.29075050000004], [-9.7104565, 53.28961050000004], [-9.690206499999963, 53.27948040000004], [-9.6693465, 53.285240500000036], [-9.648876499999968, 53.2881705], [-9.629339300000026, 53.2971543], [-9.649096499999963, 53.3027706], [-9.669686499999973, 53.30688059999998], [-9.684276500000031, 53.30988060000004]]], [[[-9.854450099999966, 53.31386710000002], [-9.8745584, 53.304237200000024], [-9.850643799999979, 53.30021930000002], [-9.854450099999966, 53.31386710000002]]], [[[-9.6346246, 53.320320299999985], [-9.6346246, 53.320320299999985]]], [[[-9.899405199999965, 53.41582670000001], [-9.906918399999974, 53.393876800000015], [-9.896248399999983, 53.37538660000001], [-9.88615840000002, 53.395056800000035], [-9.9058184, 53.402856799999974], [-9.899405199999965, 53.41582670000001]]], [[[-6.0269886, 53.49876759999997], [-6.00978519999997, 53.482858], [-6.027497900000031, 53.49672560000003], [-6.0269886, 53.49876759999997]]], [[[-10.16086020000002, 53.53855509999997], [-10.181203400000037, 53.53676659999996], [-10.160269, 53.52367240000003], [-10.16086020000002, 53.53855509999997]]], [[[-10.2868972, 53.618503899999986], [-10.301111339450262, 53.60380529113252], [-10.2757334, 53.60573709999997], [-10.2868972, 53.618503899999986]]], [[[-10.199840099999989, 53.63709110000002], [-10.22507769999996, 53.63195509999997], [-10.243198, 53.622408700000044], [-10.218587799999977, 53.612816100000025], [-10.197363399999968, 53.6067971], [-10.175636699999966, 53.61752269999998], [-10.190886900000027, 53.6322818], [-10.199840099999989, 53.63709110000002]]], [[[-10.090841200000032, 53.715423100000024], [-10.1183234, 53.71310770000002], [-10.135490799999978, 53.702579300000025], [-10.11563340000001, 53.6927676], [-10.090619299999968, 53.69645840000002], [-10.090841200000032, 53.715423100000024]]], [[[-9.982179800000022, 53.828607800000015], [-10.015684799999967, 53.81053989999996], [-10.036303799999978, 53.808047], [-10.053263399999988, 53.7881182], [-10.031893400000012, 53.7895115], [-10.006573399999972, 53.789418200000014], [-9.9849534, 53.7902382], [-9.957813400000013, 53.795198199999966], [-9.9410599, 53.8071655], [-9.962312500000035, 53.81294850000003], [-9.982179800000022, 53.828607800000015]]], [[[-9.964852599999972, 53.87347510000003], [-9.94898780000004, 53.85787709999997], [-9.964852599999972, 53.87347510000003]]], [[[-9.8621836, 53.9957655], [-9.866298400000016, 53.976074], [-9.8621836, 53.9957655]]], [[[-9.885248, 54.00154130000004], [-9.914169699999984, 54.000642900000045], [-9.894556, 53.98816309999997], [-9.885248, 54.00154130000004]]], [[[-9.962923300000035, 54.0208995], [-9.983732399999965, 54.019647599999985], [-10.01151769999997, 54.0144899], [-10.0418226, 54.023753], [-10.072155400000014, 54.023435], [-10.09020079999998, 54.01055089999996], [-10.11048449999996, 54.0003719], [-10.1329546, 53.99922150000003], [-10.154955, 54.009475], [-10.177074800000028, 54.00861630000003], [-10.201939300000038, 53.99135210000004], [-10.234202700000015, 53.98144070000002], [-10.255632100000021, 53.97712479999997], [-10.2356517, 53.9730277], [-10.215570199999966, 53.96896390000002], [-10.194312599999964, 53.960306500000016], [-10.174498899999971, 53.967662800000014], [-10.150773299999958, 53.96787829999999], [-10.131172, 53.973355], [-10.111621499999977, 53.962066599999986], [-10.085627500000037, 53.969500700000026], [-10.049508399999983, 53.96356220000001], [-10.051208300000035, 53.9435485], [-10.0569777, 53.922825099999955], [-10.037238400000035, 53.914107500000036], [-10.017690800000032, 53.9195848], [-10.002122400000022, 53.906986399999965], [-9.990899600000034, 53.88874080000004], [-9.9621778, 53.87436170000002], [-9.9438111, 53.88249559999996], [-9.941652, 53.9089159], [-9.928019099999961, 53.92565870000002], [-9.925295600000037, 53.95053309999996], [-9.941506700000023, 53.965890600000016], [-9.9577671, 53.94859889999997], [-9.950822, 53.97232620000004], [-9.9357743, 53.990658], [-9.949585600000031, 54.01569069999997], [-9.962923300000035, 54.0208995]]], [[[-10.209563, 54.1255835], [-10.232783, 54.11458340000004], [-10.206373, 54.11331340000004], [-10.209563, 54.1255835]]], [[[-10.192393, 54.14291370000002], [-10.208693, 54.1258435], [-10.184813, 54.1296735], [-10.192393, 54.14291370000002]]], [[[-9.1893986, 54.222427799999956], [-9.160472400000018, 54.21113280000004], [-9.139296799999961, 54.20045], [-9.1893986, 54.222427799999956]]], [[[-8.591661299999974, 54.30572230000004], [-8.591661299999974, 54.30572230000004]]], [[[-7.443589600000021, 54.87652830000003], [-7.469793600000017, 54.84993919999997], [-7.4450257, 54.86903760000002], [-7.443589600000021, 54.87652830000003]]], [[[-8.44166549999996, 54.96228689999999], [-8.44166549999996, 54.96228689999999]]], [[[-8.463362199999967, 54.98321139999996], [-8.44722, 54.96997], [-8.463362199999967, 54.98321139999996]]], [[[-8.540489, 55.022019], [-8.563045199999973, 55.01409589999998], [-8.562542600000043, 54.988946899999966], [-8.52822, 54.97339], [-8.50196, 54.97175], [-8.49636, 54.99247], [-8.51134889999998, 55.007270699999964], [-8.5289119, 55.01701689999999], [-8.540489, 55.022019]]], [[[-8.42734, 55.05286], [-8.42854, 55.03097], [-8.41496, 55.0149], [-8.417920400000021, 55.0414852], [-8.42734, 55.05286]]], [[[-8.448797599999967, 55.0617144], [-8.448797599999967, 55.0617144]]], [[[-8.3650182, 55.095721], [-8.348146299999957, 55.0840564], [-8.3650182, 55.095721]]], [[[-8.17888889999998, 55.18474169999999], [-8.164431599999975, 55.16958849999996], [-8.17888889999998, 55.18474169999999]]], [[[-8.24790019999999, 55.276054], [-8.232810399999966, 55.261334100000035], [-8.213385800000015, 55.25363669999997], [-8.191747400000036, 55.25755369999997], [-8.212839400000014, 55.26518269999997], [-8.238336400000044, 55.27030050000002], [-8.24790019999999, 55.276054]]], [[[-7.373494599999962, 55.3828956], [-7.398165899999974, 55.37702310000002], [-7.37833, 55.3641], [-7.35823, 55.36101], [-7.35004, 55.34156], [-7.332851699999974, 55.3247876], [-7.295864699999964, 55.30207040000002], [-7.27354, 55.29222], [-7.252227, 55.29491939999996], [-7.26927, 55.27692], [-7.289877700000023, 55.275065], [-7.313336900000021, 55.28491839999999], [-7.33373, 55.28576], [-7.30683, 55.29038], [-7.32472, 55.30267], [-7.35023, 55.31531], [-7.378238900000021, 55.315453400000045], [-7.38314, 55.29264509999999], [-7.404175600000016, 55.29339060000003], [-7.426929099999978, 55.28803630000004], [-7.447291399999976, 55.28196670000001], [-7.46818, 55.29649], [-7.485749700000042, 55.28370710000004], [-7.507295199999973, 55.2894699], [-7.525757499999973, 55.28025040000003], [-7.50887, 55.26497], [-7.534143299999972, 55.24692539999997], [-7.54043, 55.21771], [-7.552486100000031, 55.1993665], [-7.528872100000015, 55.189020199999966], [-7.51242, 55.17588], [-7.496284200000012, 55.1605805], [-7.475921, 55.1453665], [-7.4650949, 55.12618950000002], [-7.473990900000025, 55.10549819999998], [-7.483220799999966, 55.087319399999984], [-7.457721899999957, 55.0787921], [-7.4793514, 55.0738971], [-7.5150073, 55.08453660000004], [-7.533147800000027, 55.072178800000025], [-7.508486400000034, 55.05648690000001], [-7.4734839, 55.05135390000003], [-7.45110219999998, 55.0523883], [-7.47626990000003, 55.04294389999998], [-7.508718300000037, 55.04096060000002], [-7.515334399999983, 55.0199282], [-7.538852399999961, 55.023943], [-7.557199099999988, 55.01077669999997], [-7.582688700000027, 54.99782190000003], [-7.610520399999963, 54.976346], [-7.6255127, 54.9622045], [-7.63999759999998, 54.947048500000015], [-7.626275300000039, 54.9646198], [-7.655940200000042, 54.96204289999996], [-7.6776396, 54.957955299999966], [-7.65783, 54.97023], [-7.643976699999964, 54.98562239999996], [-7.6196484, 55.004550400000035], [-7.598409899999979, 55.01062940000004], [-7.582269599999989, 55.02343909999997], [-7.559384399999967, 55.03496269999997], [-7.5677888, 55.053404399999955], [-7.58786, 55.0482], [-7.6074153, 55.04283649999998], [-7.6307371, 55.0421155], [-7.65198330000003, 55.03702579999997], [-7.63225, 55.04819], [-7.61032, 55.05665], [-7.5970865, 55.073853], [-7.577448, 55.08305879999998], [-7.547983499999987, 55.09276770000003], [-7.5242314, 55.103421], [-7.51796, 55.12293], [-7.52793669999998, 55.1410833], [-7.548, 55.15121], [-7.565351599999957, 55.1623088], [-7.583172099999967, 55.183819499999984], [-7.605417299999971, 55.18776060000002], [-7.625285899999977, 55.204494], [-7.607327, 55.216954699999974], [-7.615055600000041, 55.2366604], [-7.6196291, 55.256158199999966], [-7.636809900000017, 55.27161140000004], [-7.660283499999963, 55.2781354], [-7.678236900000044, 55.2627593], [-7.702551, 55.2476891], [-7.727373, 55.247274299999965], [-7.7553177, 55.256046], [-7.7564351, 55.23508180000004], [-7.7783, 55.22571], [-7.798883, 55.215612700000044], [-7.779975100000012, 55.20435879999997], [-7.7623983, 55.190341], [-7.73753, 55.19699], [-7.726640299999985, 55.17830260000004], [-7.704351600000024, 55.18121409999997], [-7.721926799999988, 55.19950740000002], [-7.720626200000023, 55.2217169], [-7.700831800000028, 55.22537870000002], [-7.696721899999968, 55.2027597], [-7.716161099999972, 55.196225800000015], [-7.6951496, 55.192991700000036], [-7.6794559, 55.17385359999999], [-7.664644700000032, 55.158562299999986], [-7.674592500000042, 55.14010590000003], [-7.688428100000031, 55.118121400000014], [-7.695339100000041, 55.09881450000003], [-7.715416600000012, 55.099459799999956], [-7.70384, 55.11762], [-7.69467, 55.13820529999998], [-7.707165499999967, 55.15735659999997], [-7.725583500000031, 55.174921300000044], [-7.745813800000033, 55.180343], [-7.764784900000031, 55.188549500000015], [-7.785095700000031, 55.184465], [-7.8066932, 55.1783557], [-7.81357269999998, 55.19840639999996], [-7.8068832, 55.217318], [-7.791865900000026, 55.23191510000004], [-7.7811118, 55.25229670000003], [-7.80224, 55.24912], [-7.8192203, 55.238480699999975], [-7.84577, 55.232], [-7.866369099999957, 55.22994970000004], [-7.869601, 55.2090062], [-7.851575800000042, 55.193711], [-7.8296469, 55.189578499999975], [-7.8265746, 55.16933959999997], [-7.8512832, 55.1552003], [-7.859788800000043, 55.13574660000003], [-7.847448100000019, 55.1183413], [-7.86576, 55.1282], [-7.8866524, 55.136885600000035], [-7.907233200000039, 55.13353110000004], [-7.87944, 55.1503494], [-7.853675300000027, 55.162404], [-7.8733427, 55.16642189999997], [-7.902396100000029, 55.15692490000004], [-7.882905899999979, 55.168966800000035], [-7.902269600000043, 55.17759930000002], [-7.92729529999998, 55.18340140000003], [-7.956371, 55.1878226], [-7.980546, 55.184171300000045], [-7.961505099999975, 55.19044569999996], [-7.941599899999961, 55.20095259999996], [-7.96223440000001, 55.2127461], [-7.9807116, 55.22433110000003], [-8.00035, 55.21543], [-8.021953199999963, 55.20742420000003], [-8.0263268, 55.18686750000002], [-8.045784500000018, 55.171109699999974], [-8.066942899999983, 55.16492390000001], [-8.114950200000013, 55.15956479999998], [-8.1214252, 55.1361648], [-8.135321699999974, 55.120996], [-8.1562682, 55.12421570000004], [-8.171037699999982, 55.14275129999998], [-8.15009, 55.14652], [-8.12977, 55.1556], [-8.154583400000035, 55.149403200000044], [-8.196804500000042, 55.14959950000003], [-8.2174582, 55.14867369999999], [-8.23854, 55.15159], [-8.269657500000037, 55.15517830000004], [-8.2904188, 55.15275960000002], [-8.293887300000023, 55.130906], [-8.311680399999986, 55.115531], [-8.315017400000045, 55.09240070000004], [-8.3170284, 55.06812030000004], [-8.315351399999969, 55.04655350000004], [-8.286993, 55.04322120000001], [-8.3118404, 55.04200649999996], [-8.323735, 55.02559940000001], [-8.336740700000032, 55.04601660000002], [-8.3209175, 55.06085969999997], [-8.341598599999987, 55.06491710000004], [-8.3490443, 55.037960300000016], [-8.36934560000002, 55.039833], [-8.3919459, 55.04323269999998], [-8.39569360000003, 55.0230744], [-8.39931, 55.00292], [-8.421311600000035, 55.007341500000045], [-8.450641300000015, 55.00635289999996], [-8.438318799999987, 54.989519], [-8.42536, 54.97282], [-8.41133, 54.95828], [-8.366082799999973, 54.95078489999999], [-8.38789820000003, 54.9447253], [-8.4071642, 54.93683350000001], [-8.42766, 54.93646], [-8.4487079, 54.93678430000003], [-8.4584849, 54.91837870000001], [-8.44347810000001, 54.90447870000002], [-8.410556600000028, 54.89811620000001], [-8.389051100000032, 54.888377299999966], [-8.368261799999964, 54.90456169999996], [-8.34717, 54.90737], [-8.3353973, 54.888457], [-8.3153797, 54.888731200000024], [-8.335294, 54.87587890000004], [-8.35511, 54.88359], [-8.38005, 54.8795], [-8.38418, 54.85659], [-8.35514, 54.85374], [-8.3276214, 54.8424865], [-8.309024, 54.85001920000002], [-8.275444599999958, 54.86287490000002], [-8.251860800000042, 54.878193], [-8.223307199999972, 54.894096], [-8.206461499999971, 54.9055015], [-8.2282959, 54.89125710000003], [-8.2476277, 54.879807700000036], [-8.2662092, 54.86624609999998], [-8.284124300000027, 54.854378600000025], [-8.316950400000021, 54.842133800000035], [-8.357895499999966, 54.83682159999997], [-8.378866499999969, 54.83560309999996], [-8.399965800000018, 54.84425930000004], [-8.42091210000002, 54.8478376], [-8.4455261, 54.84101989999997], [-8.467807499999978, 54.84339930000002], [-8.4939108, 54.84786309999997], [-8.51248, 54.83694], [-8.532281199999979, 54.832467599999966], [-8.5538, 54.833], [-8.5354202, 54.8227124], [-8.514053799999964, 54.81406549999997], [-8.496040100000045, 54.803621], [-8.475927800000036, 54.802902500000044], [-8.45488, 54.79892], [-8.438743300000027, 54.78255], [-8.41619, 54.7762], [-8.437817800000012, 54.76529730000004], [-8.45934050000001, 54.776083], [-8.482171299999973, 54.7918657], [-8.50599, 54.78774], [-8.52946, 54.79001], [-8.55262470000002, 54.786760099999974], [-8.52937, 54.77785], [-8.50427269999998, 54.77498559999999], [-8.4839032, 54.77146510000002], [-8.458751599999957, 54.759393200000034], [-8.433795099999973, 54.75750439999999], [-8.471054400000043, 54.7558956], [-8.494203200000026, 54.760036], [-8.5154669, 54.759876699999985], [-8.53951880000001, 54.76539360000002], [-8.559664300000012, 54.7734314], [-8.584784, 54.776681399999966], [-8.6094627, 54.77603639999998], [-8.6370526, 54.77131319999998], [-8.66746, 54.77011], [-8.687381, 54.76326859999997], [-8.705070399999968, 54.75120590000003], [-8.725891, 54.743195], [-8.745973299999974, 54.739056899999966], [-8.751633300000037, 54.719282899999975], [-8.732474599999971, 54.712952799999975], [-8.754104799999983, 54.709610800000036], [-8.77888659999999, 54.702347199999984], [-8.802387599999982, 54.7032555], [-8.782537199999972, 54.68917909999998], [-8.79419, 54.67076260000004], [-8.773769399999985, 54.6646724], [-8.754443799999965, 54.65320459999999], [-8.733751899999962, 54.6495431], [-8.71126830000004, 54.6453363], [-8.6910987, 54.64216660000002], [-8.679921499999963, 54.622581], [-8.65846160000001, 54.622568099999974], [-8.636505899999978, 54.62257459999998], [-8.6442598, 54.644132100000014], [-8.632007899999959, 54.62815290000003], [-8.603157600000031, 54.62678], [-8.583996, 54.61675830000004], [-8.5612432, 54.615675299999964], [-8.5411998, 54.61931869999997], [-8.520059699999958, 54.625299099999985], [-8.491033, 54.63303419999997], [-8.479355499999961, 54.61458919999998], [-8.458925799999982, 54.61009], [-8.441103, 54.62345269999998], [-8.43276, 54.6428309], [-8.437851799999983, 54.621238199999986], [-8.415625500000033, 54.624092], [-8.3967441, 54.6352898], [-8.379076600000033, 54.62393620000002], [-8.401073099999977, 54.601353900000014], [-8.438082100000031, 54.59074850000004], [-8.45479123039463, 54.57648065592094], [-8.434727600000034, 54.577199200000024], [-8.39323, 54.59295], [-8.353533099999975, 54.61451069999997], [-8.337573600000024, 54.630216900000015], [-8.31616450000001, 54.6361668], [-8.293668500000038, 54.645172], [-8.273856199999983, 54.65791789999997], [-8.27170389999998, 54.63579490000004], [-8.2906323, 54.622696799999964], [-8.2986585, 54.60132009999997], [-8.2720767, 54.6067907], [-8.2467003, 54.61785320000004], [-8.214692899999985, 54.629725], [-8.187323, 54.6403953], [-8.164132900000041, 54.64770590000004], [-8.14547769999998, 54.63946370000002], [-8.130202199999957, 54.652845799999966], [-8.108740500000032, 54.65501510000004], [-8.124421400000024, 54.63559329999997], [-8.143823599999987, 54.6305099], [-8.122186700000043, 54.6306569], [-8.106268, 54.6163693], [-8.1267, 54.61899], [-8.144960099999963, 54.6037444], [-8.157083699999966, 54.621822500000015], [-8.16603, 54.59493], [-8.194607299999966, 54.582802899999955], [-8.212379, 54.57244050000001], [-8.212321, 54.54790170000004], [-8.240673, 54.53683769999996], [-8.26395869999996, 54.528662399999966], [-8.249222, 54.510927400000014], [-8.212163799999981, 54.5063103], [-8.23882, 54.50013], [-8.2606969, 54.50460710000003], [-8.2831729, 54.487654599999985], [-8.311614300000024, 54.47882270000002], [-8.33520049999996, 54.47023520000003], [-8.3576597, 54.46748160000002], [-8.3829073, 54.46506660000004], [-8.416006700000043, 54.45648779999997], [-8.438474099999958, 54.4550325], [-8.4542951, 54.47299610000003], [-8.4709402, 54.459159100000015], [-8.476987, 54.43265550000001], [-8.4980234, 54.415851], [-8.519607500000024, 54.410826], [-8.543582100000034, 54.39792249999998], [-8.563771600000035, 54.40123040000003], [-8.54205680000004, 54.40649890000003], [-8.51405700815122, 54.41795131916956], [-8.5357584, 54.409403], [-8.5620514, 54.40524520000004], [-8.5817161, 54.391067], [-8.616547, 54.3802043], [-8.63696250000001, 54.36945649999996], [-8.6601308, 54.36561789999997], [-8.680903600000043, 54.35639330000002], [-8.6605473, 54.3443553], [-8.643006, 54.321280600000016], [-8.619710300000037, 54.33478419999998], [-8.595894099999988, 54.34282549999999], [-8.571273399999988, 54.34201689999996], [-8.5489296, 54.337770200000044], [-8.515305, 54.328044899999966], [-8.5601419, 54.32382250000001], [-8.577143500000027, 54.30657460000004], [-8.549427499999982, 54.3059138], [-8.526468100000038, 54.30335569999998], [-8.491607899999963, 54.29207970000004], [-8.4753734, 54.27868639999996], [-8.49531139999997, 54.285759300000045], [-8.517119100000013, 54.276419100000034], [-8.5450395, 54.28032320000003], [-8.567802599999961, 54.2756017], [-8.590817, 54.28059079999997], [-8.6112628, 54.28438119999997], [-8.62266960000002, 54.26097769999996], [-8.59869439999996, 54.255310500000014], [-8.5807016, 54.24637290000001], [-8.564466499999977, 54.2310245], [-8.544454199999983, 54.23015970000003], [-8.518417499999973, 54.22059], [-8.54716750000004, 54.218282], [-8.577147700000019, 54.21687179999997], [-8.604366200000023, 54.22281559999998], [-8.6280011, 54.23783949999997], [-8.6467652, 54.248073], [-8.653636600000024, 54.26899429999997], [-8.686676, 54.27280020000001], [-8.711605400000042, 54.2665773], [-8.740834300000031, 54.2674511], [-8.761109, 54.27938759999998], [-8.780328, 54.2723922], [-8.8053323, 54.2572071], [-8.8268045, 54.25290830000003], [-8.853712399999967, 54.26187040000002], [-8.8745002, 54.27019530000004], [-8.908474200000025, 54.28458], [-8.932535899999959, 54.29086159999997], [-8.956564299999979, 54.29272959999999], [-8.989254, 54.29467989999997], [-9.0100622, 54.292678], [-9.037158500000018, 54.293506], [-9.053922700000026, 54.2822014], [-9.064455600000041, 54.261744], [-9.0840811, 54.23558089999997], [-9.094824899999974, 54.21434450000003], [-9.1294816, 54.20889560000003], [-9.109661, 54.203997899999976], [-9.124907499999988, 54.19071680000003], [-9.13193529999998, 54.171931300000026], [-9.137540799999975, 54.149982600000044], [-9.141993100000033, 54.120916800000046], [-9.14040029999996, 54.144892699999986], [-9.1422665, 54.165087200000045], [-9.1466891, 54.18572930000001], [-9.16600439999997, 54.19119960000001], [-9.182329599999981, 54.208342900000034], [-9.206605100000019, 54.21207039999999], [-9.2051996, 54.23205860000003], [-9.228572799999977, 54.234677], [-9.251900800000044, 54.230055600000036], [-9.231947599999966, 54.237454099999965], [-9.213662299999957, 54.254069099999974], [-9.2066983, 54.27555050000002], [-9.2257371, 54.282786700000024], [-9.245558099999982, 54.280100199999964], [-9.2537295, 54.30346670000002], [-9.273056499999964, 54.30997720000002], [-9.304414199999965, 54.3160977], [-9.328492500000028, 54.3184101], [-9.34701, 54.32695], [-9.35979, 54.30796], [-9.376680800000024, 54.29583980000002], [-9.3940823, 54.308736], [-9.4148728, 54.31054610000002], [-9.438848099999973, 54.308437199999965], [-9.460521900000039, 54.3105835], [-9.480054300000027, 54.318496], [-9.504885799999972, 54.31824810000002], [-9.525544, 54.31004549999999], [-9.54518, 54.317], [-9.56498, 54.32331], [-9.58686, 54.3209], [-9.612411, 54.32334180000003], [-9.63315, 54.3228078], [-9.657953499999959, 54.31693889999996], [-9.680421500000012, 54.317027], [-9.7034415, 54.320637199999986], [-9.724204800000045, 54.328049299999975], [-9.746437, 54.33213540000002], [-9.769199600000043, 54.3352019], [-9.786731100000033, 54.345419799999966], [-9.807902199999983, 54.3424488], [-9.827567200000018, 54.33395439999998], [-9.849016780396845, 54.3241471616446], [-9.856824799999984, 54.30548920000003], [-9.818364899999963, 54.29073010000001], [-9.790789600000014, 54.29725519999998], [-9.7738858, 54.285576700000036], [-9.796186100000035, 54.294279399999965], [-9.785803799999957, 54.2702851], [-9.756772, 54.260344499999974], [-9.7325901, 54.26184680000002], [-9.716345299999983, 54.24868760000004], [-9.73400750000004, 54.2595664], [-9.754166900000037, 54.25452370000002], [-9.77890250000004, 54.26438770000002], [-9.8037094, 54.269675099999986], [-9.8320464, 54.280125099999985], [-9.866466446950415, 54.27370332363002], [-9.879715, 54.25687250000003], [-9.866813600000011, 54.2350682], [-9.847341799999974, 54.2231734], [-9.86863750000002, 54.22755259999997], [-9.889479800000032, 54.23192320000002], [-9.898528900000024, 54.21326], [-9.945057199999983, 54.212425], [-9.9881446, 54.2255445], [-9.966898300000036, 54.2216436], [-9.977452699999965, 54.24433790000003], [-9.961314699999988, 54.22960590000004], [-9.9351613, 54.225037], [-9.914265199999981, 54.227914900000016], [-9.89784349999998, 54.24475970000003], [-9.889321399999982, 54.26353990000004], [-9.91334, 54.26317], [-9.930770599999981, 54.2503015], [-9.930350599999958, 54.27054170000002], [-9.951633099999977, 54.27005240000003], [-9.969811500000024, 54.2804463], [-9.988294699999976, 54.28937509999999], [-10.006726899999972, 54.30392320000004], [-10.023022899999965, 54.290467100000015], [-10.0474046, 54.28513880000004], [-10.07030209999997, 54.27646620000002], [-10.083234349027979, 54.26034108697509], [-10.069491, 54.237118199999976], [-10.089456400000028, 54.24322929999997], [-10.1103582, 54.2416226], [-10.0832106, 54.23318250000003], [-10.062611600000036, 54.2294003], [-10.063044100000027, 54.20888490000003], [-10.08323160000004, 54.20938769999997], [-10.08686009999997, 54.18778], [-10.092483500000025, 54.167358699999966], [-10.106384600000016, 54.148917899999965], [-10.1237088, 54.134136699999985], [-10.12245, 54.11134650000001], [-10.094030500000038, 54.087674], [-10.070253400000027, 54.090188800000014], [-10.074235399999985, 54.11155920000002], [-10.091242099999985, 54.12278880000004], [-10.066522599999981, 54.12421039999998], [-10.056951599999973, 54.14399519999998], [-10.08928360000003, 54.153801099999974], [-10.0709433, 54.1627797], [-10.049440799999985, 54.1707825], [-10.048611400000016, 54.1917361], [-10.0261053, 54.191042], [-10.0066876, 54.18593819999998], [-10.0245368, 54.21113759999999], [-10.003473, 54.215982799999956], [-9.972872399999975, 54.2082245], [-9.952004100000032, 54.194995799999965], [-9.9319075, 54.194080800000016], [-9.942073899999968, 54.175056300000044], [-9.966759900000042, 54.177757499999984], [-9.944423300000025, 54.16359790000001], [-9.921725599999974, 54.154464499999975], [-9.942382199999987, 54.151251599999966], [-9.93211996231431, 54.125306705003915], [-9.910907800000011, 54.12935270000002], [-9.929278200000045, 54.11977330000003], [-9.954833800000038, 54.107014499999956], [-9.97479179999998, 54.10501530000001], [-9.966624899999974, 54.08314639999997], [-9.9704176, 54.062253400000024], [-9.947926, 54.06687690000003], [-9.926126400000033, 54.06279980000002], [-9.906787713104624, 54.06869885724129], [-9.891048, 54.08410670000002], [-9.874650471308264, 54.097423819850974], [-9.877130700000023, 54.118034799999975], [-9.85534076581067, 54.11244903921149], [-9.8341817, 54.11303039999998], [-9.818253299999967, 54.13063990000003], [-9.83425, 54.11682], [-9.86137659660442, 54.10635222290555], [-9.8374642, 54.09456049999997], [-9.855935500000033, 54.08600409999998], [-9.877300799999976, 54.070857], [-9.855766399999986, 54.072409799999974], [-9.834759899999977, 54.066788900000034], [-9.8565664, 54.06943729999996], [-9.867855100000032, 54.05271109999999], [-9.886944799999984, 54.07036059999997], [-9.892080099999976, 54.050068199999984], [-9.894615904626967, 54.01678082191191], [-9.873195400000021, 54.020946], [-9.856076399999967, 54.00170970000003], [-9.8259053, 53.9903695], [-9.848281600000018, 53.99532639999998], [-9.846515, 53.97356639999998], [-9.827955299999978, 53.9656553], [-9.806925808077736, 53.96527332794815], [-9.794909800000038, 53.947227800000036], [-9.790483299999984, 53.9271312], [-9.81488579999996, 53.927415199999956], [-9.796443700000033, 53.93876719999998], [-9.816252, 53.947441], [-9.834922899999963, 53.95818909999997], [-9.864404, 53.95769920000003], [-9.890169199999963, 53.95316649999998], [-9.9116999, 53.94080469999999], [-9.915568800000017, 53.91756539999997], [-9.927258900000034, 53.8960968], [-9.934718799999985, 53.87586460000003], [-9.911360100000042, 53.8662515], [-9.890839199999977, 53.86658829999998], [-9.856001399999979, 53.868081199999956], [-9.833115, 53.872383300000024], [-9.810551900000018, 53.880317799999986], [-9.793513399999963, 53.89588980000003], [-9.774551099999982, 53.90546419999996], [-9.754616400000014, 53.89760940000002], [-9.732226600000036, 53.89328560000003], [-9.711677, 53.89991960000003], [-9.6904174, 53.9002917], [-9.664121899999987, 53.8976639], [-9.64471809999998, 53.892142699999965], [-9.61999849999997, 53.89316120000004], [-9.599347, 53.8936718], [-9.577464800000033, 53.8971777], [-9.5545354, 53.8909054], [-9.57660910000002, 53.88471320000004], [-9.558448, 53.87529939999998], [-9.583011699999975, 53.87086689999997], [-9.56287569999996, 53.871786], [-9.5826212, 53.86781490000004], [-9.561997400000031, 53.866743500000034], [-9.590949799999969, 53.85891040000002], [-9.562052399999963, 53.85754620000004], [-9.586209499999974, 53.851436100000036], [-9.56347, 53.847080900000016], [-9.589565800000031, 53.84575039999998], [-9.610117200000044, 53.84684370000002], [-9.618753800000011, 53.828273399999965], [-9.597649399999984, 53.815030900000025], [-9.620624199999959, 53.81775689999998], [-9.596748300000034, 53.8099338], [-9.5698278, 53.80387819999997], [-9.54924069999996, 53.80550439999997], [-9.568487400000024, 53.79636350000002], [-9.582228900000043, 53.78035860000004], [-9.6023643, 53.781767], [-9.6292049, 53.7784958], [-9.657753400000011, 53.781708199999976], [-9.648383300000017, 53.800595399999956], [-9.667856299999976, 53.78846410000003], [-9.687438700000016, 53.783086399999966], [-9.706791100000032, 53.777657600000026], [-9.73284529999998, 53.77585870000004], [-9.76257659999997, 53.7743542], [-9.803033400000015, 53.77852810000002], [-9.8253856, 53.76950050000003], [-9.863373400000029, 53.768628099999965], [-9.89199260000002, 53.764888299999974], [-9.90972339999998, 53.752018], [-9.893475100000025, 53.7354525], [-9.911852, 53.71157380000003], [-9.919603399999975, 53.68968759999998], [-9.902235700000038, 53.670349], [-9.914713600000045, 53.65278180000002], [-9.88809060000002, 53.649594], [-9.8740787, 53.6335861], [-9.8401243, 53.6236995], [-9.8138451, 53.6155885], [-9.784193400000028, 53.602657], [-9.76344050000004, 53.60375469999999], [-9.74207579999997, 53.60223779999998], [-9.7155458, 53.604854899999985], [-9.682104800000022, 53.6096019], [-9.702811700000023, 53.59483990000001], [-9.73074170000001, 53.600435299999965], [-9.78408319999997, 53.5959443], [-9.803818300000032, 53.600572300000024], [-9.830139100000011, 53.61089470000003], [-9.8596331, 53.620076], [-9.879869200000034, 53.6248481], [-9.8597921, 53.61914540000004], [-9.879389400000036, 53.61325210000004], [-9.9034085, 53.61338390000002], [-9.9185839, 53.598051], [-9.947326499999985, 53.6008275], [-9.976066799999959, 53.60347840000004], [-9.996805700000031, 53.61099650000001], [-10.018566800000038, 53.6064159], [-10.040673400000031, 53.611077100000024], [-10.035941700000038, 53.588638], [-9.99770129999997, 53.573185], [-9.974263399999959, 53.57090679999997], [-9.99072970000001, 53.55860939999997], [-9.967097299999981, 53.55832719999999], [-9.991242081326089, 53.55105594989689], [-10.0206273, 53.559995700000016], [-10.04511467337825, 53.572510878752375], [-10.065267100000018, 53.567834799999986], [-10.084112794678155, 53.57508542018761], [-10.10863959999999, 53.5756894], [-10.130224355393256, 53.57461072834045], [-10.104433400000044, 53.5615768], [-10.124445799999958, 53.5615134], [-10.1452122, 53.5628757], [-10.165527899999958, 53.56173539999998], [-10.1903434, 53.556146799999965], [-10.1792687, 53.53915890000001], [-10.153803400000026, 53.54151669999997], [-10.135012700000033, 53.527072900000014], [-10.101589, 53.52029029999997], [-10.08054880000002, 53.512919600000025], [-10.05839274320439, 53.509856466396464], [-10.085642400000026, 53.5071206], [-10.11575040000001, 53.52015790000003], [-10.136513400000034, 53.522326499999956], [-10.104750199999966, 53.512492500000036], [-10.128133399999982, 53.51434649999996], [-10.110865799999978, 53.50172650000001], [-10.091271099999986, 53.496691], [-10.0695134, 53.4906763], [-10.04995660000003, 53.484994199999974], [-10.026442600000028, 53.48749869999999], [-10.045611200000025, 53.48168730000001], [-10.026563399999986, 53.472856200000024], [-10.005952500000024, 53.47968020000003], [-10.02229790000002, 53.467584], [-10.051007600000037, 53.474803], [-10.07585340000001, 53.48625630000004], [-10.1002034, 53.48116629999998], [-10.079753, 53.4729332], [-10.0584934, 53.46181619999997], [-10.034236199999967, 53.46152570000001], [-10.057973399999963, 53.458236099999965], [-10.071723399999975, 53.441976], [-10.0915934, 53.44743609999996], [-10.12176339999997, 53.451896100000035], [-10.140049400000038, 53.4426456], [-10.166406700000017, 53.4315268], [-10.185586799999989, 53.41284429999998], [-10.161878199999961, 53.41612809999999], [-10.140342300000025, 53.414784], [-10.1193044, 53.40103209999999], [-10.101629799999976, 53.41137579999998], [-10.0778908, 53.412453], [-10.056477800000028, 53.4149591], [-10.03590759999997, 53.4094256], [-10.035945800000022, 53.38927769999998], [-10.0104071, 53.37993840000004], [-9.988591400000011, 53.3791328], [-9.9657245, 53.382290300000044], [-9.945282, 53.37986569999998], [-9.9195403, 53.3854919], [-9.91958949999998, 53.406048], [-9.904288499999979, 53.420318200000025], [-9.880334100000042, 53.4168893], [-9.861190100000037, 53.42584], [-9.837898300000035, 53.43000559999998], [-9.858555600000017, 53.418963500000025], [-9.885734, 53.412818], [-9.87422280000003, 53.39249110000002], [-9.8557344, 53.4042462], [-9.83399789999999, 53.40860939999997], [-9.812290900000018, 53.41639260000002], [-9.7899575, 53.40820960000002], [-9.781186700000031, 53.39022549999997], [-9.807381599999985, 53.3862305], [-9.834199100000028, 53.380369700000024], [-9.856366399999981, 53.3741907], [-9.876416399999986, 53.37033070000002], [-9.8952062, 53.355056], [-9.8745499, 53.3528944], [-9.8927996, 53.34192720000002], [-9.908703399999961, 53.32780910000002], [-9.890147899999977, 53.318910699999975], [-9.8707391, 53.311955200000014], [-9.8652613, 53.3316584], [-9.838384600000037, 53.3239401], [-9.82332109999997, 53.30778539999997], [-9.792400299999969, 53.3039019], [-9.7731162, 53.291819400000016], [-9.758751799999963, 53.30662130000002], [-9.734370599999973, 53.30810219999998], [-9.721204799999981, 53.3272882], [-9.70533010000003, 53.340748], [-9.713812500000028, 53.359161700000044], [-9.692951299999962, 53.35881529999998], [-9.674170900000021, 53.36657849999998], [-9.654791900000024, 53.38292719999998], [-9.633042700000026, 53.38835979999997], [-9.647521300000015, 53.37197159999999], [-9.62784, 53.38069], [-9.642708, 53.35433], [-9.6631914, 53.34215729999997], [-9.644749900000036, 53.33316350000002], [-9.622889900000018, 53.33071349999999], [-9.596425699999987, 53.33495769999997], [-9.614974699999966, 53.34677879999999], [-9.60272750000004, 53.36391519999997], [-9.586749900000012, 53.37982369999997], [-9.568491, 53.395139799999974], [-9.54842809999996, 53.401261799999986], [-9.57243919999997, 53.392939], [-9.554229900000031, 53.38305369999997], [-9.57387989999998, 53.37848370000003], [-9.594809899999966, 53.374153699999965], [-9.584659900000013, 53.35217359999996], [-9.561919900000014, 53.34766360000001], [-9.5637971, 53.32650309999996], [-9.555825599999988, 53.3055058], [-9.566522199999959, 53.3236835], [-9.5683099, 53.34661349999999], [-9.582932, 53.32864320000002], [-9.605228799999963, 53.32816970000001], [-9.625208800000038, 53.319369700000024], [-9.612899, 53.3030938], [-9.6021151, 53.28441680000001], [-9.620079, 53.26751890000004], [-9.631888199999981, 53.25050479999996], [-9.615706699999958, 53.23425], [-9.595959699999977, 53.23877009999998], [-9.576993300000012, 53.246807400000016], [-9.581500299999977, 53.26850630000003], [-9.563465, 53.28220389999996], [-9.543168499999986, 53.28476470000002], [-9.55492440000003, 53.2684705], [-9.550588700000027, 53.24587560000001], [-9.5321024, 53.229541], [-9.5094922, 53.2211249], [-9.489227399999976, 53.224443100000016], [-9.46530820000002, 53.22633570000002], [-9.44378, 53.23242], [-9.42244, 53.23416], [-9.40151, 53.2327], [-9.37337, 53.23727], [-9.35184, 53.24131], [-9.329777899999979, 53.23989150000004], [-9.308937699999962, 53.24030580000004], [-9.28842, 53.24225], [-9.26212860000004, 53.243237200000024], [-9.229880399999988, 53.2470166], [-9.2095343, 53.2472013], [-9.178382599999988, 53.24531359999996], [-9.1489283, 53.24878810000003], [-9.128032299999987, 53.25121219999996], [-9.1094843, 53.2586945], [-9.082658499999983, 53.258132300000014], [-9.049378600000011, 53.26477229999998], [-9.032202500000029, 53.2807926], [-9.016712, 53.26643370000004], [-8.995881200000031, 53.269158800000014], [-8.972198600000024, 53.2617497], [-8.953448899999959, 53.27251870000001], [-8.931278, 53.270885], [-8.953182, 53.25653710000001], [-8.977026299999967, 53.25634850000004], [-8.963665900000038, 53.24060960000004], [-9.00685209999996, 53.23286], [-8.9842629, 53.237105], [-8.9611204, 53.24065760000001], [-8.984284500000015, 53.23253309999996], [-9.003731400000035, 53.22184960000001], [-8.977918200000044, 53.22550849999997], [-8.998407015914765, 53.213554134659944], [-8.97284, 53.21326], [-8.951849581315184, 53.208763343843266], [-8.929533200000026, 53.21434640000003], [-8.91042839999998, 53.221484], [-8.890419199999975, 53.224707899999984], [-8.911569499999981, 53.214330500000045], [-8.887440199999961, 53.209874], [-8.913656299999982, 53.20875990000001], [-8.937217199999957, 53.198536], [-8.951437100000035, 53.1815713], [-8.939016399999964, 53.16461030000004], [-8.933620399999985, 53.144475699999965], [-8.953522, 53.15277], [-8.976527099999963, 53.15847789999997], [-8.996230299999961, 53.162500099999974], [-8.9744321, 53.166046600000044], [-9.0032811, 53.16864860000004], [-9.039108, 53.16892369999998], [-9.0668681, 53.16890620000004], [-9.0875182, 53.16404579999997], [-9.05526609999998, 53.16228180000003], [-9.0209877, 53.1580166], [-8.997568099999985, 53.15557509999996], [-9.0169279, 53.142404900000045], [-9.041844100000016, 53.1502943], [-9.07176, 53.15585], [-9.1018745, 53.15921390000003], [-9.121944699999982, 53.151009700000046], [-9.100623599999967, 53.14354560000002], [-9.080247200000045, 53.14149169999998], [-9.071663500000014, 53.1218487], [-9.087408, 53.1378658], [-9.109360300000045, 53.13974910000004], [-9.131844600000026, 53.130488], [-9.151789599999958, 53.11690829999996], [-9.1785533, 53.12807090000003], [-9.204278199999958, 53.13876660000002], [-9.238934200000013, 53.14862459999997], [-9.263328700000038, 53.15448650000004], [-9.28274950000003, 53.14468849999999], [-9.29050210000004, 53.12128760000002], [-9.3011675, 53.103750800000036], [-9.317210799999962, 53.08761880000002], [-9.3584608, 53.072618300000016], [-9.3649026, 53.05108739999996], [-9.387467199999964, 53.03532269999996], [-9.409253800000037, 53.0188316], [-9.392201900000028, 53.00782070000004], [-9.410284400000045, 52.9984544], [-9.4297, 52.98512670000002], [-9.43844349999998, 52.964168500000014], [-9.471759, 52.94845909999997], [-9.455273600000023, 52.93323749999997], [-9.432739800000032, 52.936288099999956], [-9.40031959999996, 52.93261110000001], [-9.379227399999966, 52.940771900000044], [-9.358014899999965, 52.9438156], [-9.3527832, 52.921002499999986], [-9.3714432, 52.91065739999997], [-9.389605499999963, 52.89973580000003], [-9.418781500000016, 52.8898403], [-9.4369902, 52.87785230000002], [-9.437899099999967, 52.855222], [-9.43283159999999, 52.83547509999998], [-9.455408, 52.83392939999999], [-9.471989500000031, 52.810415900000024], [-9.4928194, 52.80910080000002], [-9.502186600000016, 52.7871786], [-9.481342400000024, 52.77746860000004], [-9.505333200000042, 52.769431400000016], [-9.49670069999997, 52.75027929999997], [-9.528168799999957, 52.74598679999998], [-9.549883500000032, 52.74677530000003], [-9.5697881, 52.75213119999998], [-9.593007100000015, 52.7470175], [-9.609503499999981, 52.73554470000002], [-9.634886199999968, 52.72859720000001], [-9.6172369, 52.71744190000001], [-9.651826399999972, 52.704974100000044], [-9.650498200000033, 52.682916800000044], [-9.673268, 52.680335200000044], [-9.696984299999965, 52.67076630000003], [-9.717397, 52.656870599999955], [-9.738485299999986, 52.64513809999998], [-9.758806599999968, 52.638368799999974], [-9.777782900000041, 52.63185949999998], [-9.798312799999962, 52.62230439999996], [-9.821689499999973, 52.599480799999974], [-9.851148900000027, 52.59510219999997], [-9.879413100000043, 52.59106030000003], [-9.902005800000023, 52.577597], [-9.921818400000014, 52.566679499999985], [-9.890201100000027, 52.5575638], [-9.869287499999977, 52.56064119999998], [-9.836808, 52.57204769999998], [-9.816115700000026, 52.565428200000014], [-9.789677899999958, 52.570311699999955], [-9.7562467, 52.577431800000035], [-9.732311699999972, 52.58665639999998], [-9.7124273, 52.579720699999974], [-9.701338800000013, 52.597457399999975], [-9.682461, 52.61576770000001], [-9.645257600000033, 52.6158653], [-9.619601900000017, 52.617231], [-9.591378, 52.6217809], [-9.572996, 52.63288869999997], [-9.550246, 52.639737299999965], [-9.564584899999982, 52.65493879999999], [-9.5884608, 52.658786899999974], [-9.606989, 52.66874319999997], [-9.58342479999996, 52.66648449999996], [-9.5580016, 52.66499770000004], [-9.537367399999972, 52.662859400000045], [-9.5430903, 52.64337190000004], [-9.511139300000025, 52.631728199999955], [-9.492480700000037, 52.624323899999986], [-9.4711603, 52.61726950000001], [-9.442869199999969, 52.614766], [-9.410255799999987, 52.60345220000003], [-9.3827132, 52.61142079999997], [-9.362553200000033, 52.61610080000004], [-9.34149430000004, 52.62256439999998], [-9.310873199999968, 52.629570799999975], [-9.293886899999968, 52.640412400000045], [-9.267077, 52.640025600000016], [-9.2887432, 52.625910800000014], [-9.324326699999961, 52.611087099999985], [-9.312927600000041, 52.587295700000034], [-9.290396199999982, 52.58933320000004], [-9.26145349999996, 52.60265370000004], [-9.249289299999973, 52.6210489], [-9.221912099999983, 52.622360499999985], [-9.201420500000033, 52.61951640000003], [-9.178613199999972, 52.6208708], [-9.15236069999996, 52.62413440000003], [-9.133517499999975, 52.64179890000001], [-9.113244399999985, 52.64855450000004], [-9.10173369999998, 52.66879369999998], [-9.08131879999998, 52.6714208], [-9.0629706, 52.69323680000003], [-9.039849600000014, 52.720487799999965], [-9.034498800000044, 52.74471640000003], [-9.054256700000039, 52.73908410000004], [-9.0356511, 52.748349], [-9.018177800000025, 52.76045550000004], [-8.9882024, 52.7628905], [-8.96083759999997, 52.7705378], [-8.947488700000015, 52.7857788], [-8.965326300000019, 52.79623809999997], [-8.959752399999974, 52.815925299999975], [-8.957489300000042, 52.79265680000003], [-8.94113810000001, 52.78096270000004], [-8.963609900000023, 52.76152670000003], [-8.9473875, 52.74285309999996], [-8.952073700000039, 52.72247540000002], [-8.93337319999996, 52.71284790000004], [-8.9515623, 52.7005736], [-8.965963199999958, 52.683651], [-8.943613199999987, 52.68863109999998], [-8.921285800000021, 52.68154179999996], [-8.900243900000014, 52.692072], [-8.881316299999973, 52.69928130000002], [-8.856710799999988, 52.69848480000002], [-8.838524700000015, 52.6899764], [-8.808674899999989, 52.69189270000002], [-8.78907879999997, 52.67821869999999], [-8.7644917, 52.68052610000003], [-8.710553699999977, 52.6739765], [-8.696251, 52.654176599999985], [-8.65508370000003, 52.658733099999964], [-8.634607400000014, 52.66288629999996], [-8.665796600000018, 52.655523300000034], [-8.695029100000038, 52.651679499999965], [-8.707619799999964, 52.667603099999965], [-8.748223, 52.67437840000003], [-8.783568, 52.665029800000035], [-8.8027325, 52.65832610000004], [-8.827445700000023, 52.67074939999997], [-8.8536322, 52.67021279999998], [-8.874093199999987, 52.668981], [-8.897919299999966, 52.65923730000002], [-8.926744, 52.65796730000002], [-8.949756199999957, 52.66118179999997], [-8.971306600000027, 52.654097], [-8.990423199999984, 52.637790900000034], [-8.980001899999966, 52.61293080000003], [-8.9975832, 52.62536079999998], [-9.02032319999999, 52.620370800000025], [-9.041373200000045, 52.6236908], [-9.057813199999963, 52.637140899999984], [-9.076313199999973, 52.62214080000001], [-9.06660320000001, 52.60254070000002], [-9.089326799999984, 52.616410399999985], [-9.110039400000012, 52.61359410000002], [-9.139224099999986, 52.6113525], [-9.190551600000017, 52.6017493], [-9.209653199999977, 52.59571069999996], [-9.230673200000037, 52.59389070000001], [-9.251663200000014, 52.585770699999976], [-9.2806678, 52.57482010000004], [-9.30460690000001, 52.57082880000002], [-9.335478799999962, 52.5720298], [-9.365973200000031, 52.57227060000003], [-9.374070400000043, 52.5913421], [-9.404303199999962, 52.579200600000014], [-9.428333200000026, 52.584110700000025], [-9.4514432, 52.58159059999997], [-9.4798832, 52.5666206], [-9.5005193, 52.57004720000001], [-9.53282689999999, 52.56666419999996], [-9.5556573, 52.56676490000004], [-9.60334570000003, 52.57684], [-9.633037699999967, 52.57322639999998], [-9.66271319999996, 52.561762700000045], [-9.676733200000019, 52.543752599999976], [-9.6823032, 52.52348249999997], [-9.6797762, 52.497534500000015], [-9.65438129999998, 52.48992119999998], [-9.63487119999997, 52.478906], [-9.623523200000015, 52.46156039999997], [-9.607615800000023, 52.43893610000004], [-9.5921375, 52.422856099999976], [-9.571807800000041, 52.42413119999996], [-9.592423599999965, 52.42233090000004], [-9.60972320000004, 52.43880009999998], [-9.628528299999981, 52.4552994], [-9.63651860000003, 52.474685], [-9.659823200000027, 52.48133239999998], [-9.682127300000019, 52.48306990000003], [-9.709343199999985, 52.48130239999998], [-9.729805186495131, 52.47440406066262], [-9.747726663231713, 52.46501526295391], [-9.770044300000034, 52.4486363], [-9.791106899999978, 52.44691309999997], [-9.811754, 52.43905930000002], [-9.8347569, 52.43313490000002], [-9.857942199999979, 52.429282500000035], [-9.8796445, 52.43130209999998], [-9.900797100000023, 52.43112120000003], [-9.9250226, 52.42745760000003], [-9.943637700000039, 52.42007980000004], [-9.9314138, 52.40158840000003], [-9.911190599999962, 52.397672500000034], [-9.8836775, 52.39482980000002], [-9.8543797, 52.3923102], [-9.832033800000016, 52.37616240000001], [-9.836111800000012, 52.336925099999974], [-9.847224799999974, 52.318747], [-9.82686, 52.32312210000001], [-9.8445736, 52.312967799999974], [-9.864775, 52.30340539999997], [-9.843445199999977, 52.299616099999966], [-9.8607871, 52.283686299999985], [-9.87589449999997, 52.29943489999998], [-9.8752401, 52.27411610000004], [-9.850998700000034, 52.28034210000004], [-9.830999599999977, 52.27554580000003], [-9.803581299999962, 52.27178389999999], [-9.775682200000045, 52.27505390000001], [-9.753499499999972, 52.2681441], [-9.735464599999986, 52.25800929999998], [-9.758972800000041, 52.257339], [-9.782201599999983, 52.2526261], [-9.805005500000028, 52.24404879999996], [-9.827148800000039, 52.24590040000004], [-9.80976, 52.25649], [-9.835166200000021, 52.25824859999997], [-9.8536947, 52.2397706], [-9.902211399999981, 52.228771], [-9.923433100000032, 52.2340264], [-9.956491200000038, 52.23272309999999], [-9.97534820000001, 52.24265009999996], [-9.996377200000016, 52.24901330000003], [-10.02667890000004, 52.270705], [-10.017667699999986, 52.291405299999965], [-10.004780300000025, 52.30952219999999], [-10.028821200000014, 52.30417319999999], [-10.052005600000012, 52.30877770000003], [-10.032387500000038, 52.29468909999998], [-10.040435599999984, 52.274117], [-10.071022900000013, 52.25448709999996], [-10.102214500000038, 52.2441438], [-10.1336222, 52.24358140000001], [-10.1565587, 52.237711099999956], [-10.177159099999987, 52.230094600000015], [-10.160081499999983, 52.24687759999998], [-10.145923300000035, 52.26200430000004], [-10.15973750000003, 52.279049], [-10.17811, 52.2908], [-10.20672, 52.28244], [-10.24203, 52.27515], [-10.26635, 52.26375], [-10.294108, 52.25775259999997], [-10.306013800000045, 52.23934580000003], [-10.32712210000004, 52.23585710000003], [-10.34983, 52.23451], [-10.370620200000012, 52.2248979], [-10.379668600000034, 52.19698879999997], [-10.367377700000045, 52.17852109999997], [-10.38914510000004, 52.17848259999998], [-10.4103701, 52.18103880000001], [-10.403861800000012, 52.203946700000046], [-10.43221380000001, 52.19913779999997], [-10.4729512, 52.18029129999998], [-10.453052, 52.17715679999998], [-10.46559710000001, 52.15760440000002], [-10.469816399999974, 52.13217579999996], [-10.479888100000021, 52.10857279999997], [-10.459869200000014, 52.10786950000004], [-10.43601, 52.09844], [-10.4122206, 52.10158359999998], [-10.390485099999978, 52.1055096], [-10.3677003, 52.105346800000035], [-10.347420900000024, 52.108765], [-10.372910399999967, 52.11444909999999], [-10.362429199999966, 52.13286770000001], [-10.3380805, 52.1254488], [-10.31829019999999, 52.1155464], [-10.298002300000018, 52.11296119999998], [-10.277352600000043, 52.11262450000001], [-10.3006245, 52.12734209999997], [-10.279060799999982, 52.13930980000004], [-10.261149600000017, 52.12795380000004], [-10.2370256, 52.1195654], [-10.213624900000038, 52.12615340000003], [-10.19298, 52.11281], [-10.165243599999972, 52.116629099999976], [-10.140789900000023, 52.118803600000035], [-10.119126099999985, 52.11833389999999], [-10.095656700000031, 52.122960900000024], [-10.0698796, 52.12901579999998], [-10.050168599999985, 52.136374299999986], [-10.00172, 52.14033], [-9.981298700000039, 52.14158049999998], [-9.9591743, 52.114376800000045], [-9.935507, 52.106217100000016], [-9.94335, 52.12737], [-9.961761800000033, 52.135768200000015], [-9.9228757, 52.148058499999955], [-9.89976870000002, 52.15379639999998], [-9.870368200000044, 52.155365], [-9.840231299999978, 52.157114499999985], [-9.81716, 52.15919], [-9.797196300000042, 52.161326599999974], [-9.7603796, 52.1597597], [-9.781611199999983, 52.14873909999996], [-9.798274399999983, 52.1373074], [-9.770451599999983, 52.125590399999986], [-9.781391500000012, 52.1053947], [-9.7675642, 52.12048240000003], [-9.795486599999979, 52.1309997], [-9.815864600000033, 52.13015769999996], [-9.836015300000021, 52.1260672], [-9.853158400000027, 52.11550929999996], [-9.87997, 52.11172], [-9.890438799999977, 52.13316329999996], [-9.9093962, 52.10195870000001], [-9.9355176, 52.084657499999985], [-9.915812800000044, 52.0691185], [-9.935989100000018, 52.07363050000003], [-9.956290699999968, 52.0647752], [-9.974742499999987, 52.05559059999999], [-9.9700474, 52.081561], [-9.9749885, 52.057189700000045], [-10.01741250000001, 52.04198380000001], [-10.045109, 52.037093], [-10.066240800000024, 52.04000990000002], [-10.0867691, 52.03275110000001], [-10.1063222, 52.02559909999996], [-10.130236199999974, 52.024813], [-10.15193, 52.02199], [-10.17078, 52.01207], [-10.20191, 52.00356], [-10.22358620000001, 51.993099200000046], [-10.246245800000018, 51.9921541], [-10.263773, 51.98234229999997], [-10.2842114, 51.96802330000004], [-10.308109199999958, 51.96236009999998], [-10.281616100000022, 51.950885799999966], [-10.263395600000045, 51.94232629999998], [-10.244002699999964, 51.94839869999997], [-10.219357399999971, 51.954172799999974], [-10.199789100000032, 51.96200789999997], [-10.226302200000024, 51.94881570000001], [-10.24684, 51.93967], [-10.2696158, 51.933782], [-10.253317700000018, 51.92209570000004], [-10.248970200000016, 51.90099729999998], [-10.265708199999988, 51.91376770000003], [-10.285393600000024, 51.905065499999964], [-10.309443799999983, 51.89810830000004], [-10.331666, 51.890764], [-10.3634773, 51.88647610000002], [-10.385336200000015, 51.88320589999998], [-10.392799200000045, 51.8628052], [-10.390272, 51.841157599999974], [-10.355939800000023, 51.84747340000003], [-10.33543849999998, 51.84549730000004], [-10.3371455, 51.82465940000004], [-10.33851, 51.80169], [-10.315346300000037, 51.79164689999998], [-10.298534900000032, 51.80265370000004], [-10.277374800000015, 51.80557430000002], [-10.267784, 51.8265396], [-10.24801690000001, 51.84094839999998], [-10.21034850000002, 51.84487], [-10.190305200000036, 51.857225], [-10.207331699999987, 51.844708300000036], [-10.1805674, 51.83234840000002], [-10.178833100000027, 51.80924729999999], [-10.18058930000003, 51.788022599999955], [-10.201967200000038, 51.7813216], [-10.22356270000002, 51.78307290000004], [-10.201715099999962, 51.7784888], [-10.179283099999957, 51.76590629999996], [-10.158933300000015, 51.7641366], [-10.13451, 51.75988], [-10.1127059, 51.763793], [-10.1330178, 51.748486], [-10.111589399999986, 51.748365], [-10.0933581, 51.757496500000016], [-10.067274799999957, 51.75847980000002], [-10.051301600000027, 51.77370770000001], [-10.021107, 51.77370460000002], [-9.996082499999968, 51.77939649999997], [-9.977695499999982, 51.78775129999998], [-9.9494586, 51.80101860000002], [-9.9282558, 51.80520329999997], [-9.9081016, 51.80419], [-9.9091396, 51.8258322], [-9.89169980000004, 51.814679], [-9.869416, 51.813447100000026], [-9.84537, 51.80959], [-9.826272700000025, 51.8211605], [-9.8459886, 51.812418099999974], [-9.82929440000002, 51.82564270000004], [-9.807131, 51.83229280000004], [-9.777762200000016, 51.8373654], [-9.752289500000042, 51.84550739999999], [-9.730844900000022, 51.8528951], [-9.7027943, 51.8576398], [-9.6807734, 51.86365279999997], [-9.661166399999964, 51.86838970000004], [-9.639263799999974, 51.869804], [-9.61636130000003, 51.86809059999998], [-9.5964763, 51.87298759999997], [-9.570795599999958, 51.87730360000003], [-9.54868059999998, 51.88524610000003], [-9.566888, 51.87493220000002], [-9.586908100000045, 51.8699587], [-9.6107413, 51.861045399999966], [-9.633087900000035, 51.85137020000004], [-9.6623895, 51.842795], [-9.686806099999988, 51.8412158], [-9.71098539999997, 51.8385354], [-9.731828799999985, 51.833338699999985], [-9.762924200000043, 51.816063300000046], [-9.779954, 51.80299639999998], [-9.805286700000025, 51.794091], [-9.824940700000038, 51.7841952], [-9.804050699999987, 51.778372499999975], [-9.780660600000022, 51.7718279], [-9.804499, 51.7608883], [-9.845816399999972, 51.76552270000002], [-9.861432099999988, 51.74904369999998], [-9.881639100000015, 51.740769200000045], [-9.869924800000039, 51.75724029999996], [-9.902581799999986, 51.754726599999984], [-9.931376899999965, 51.74363119999997], [-9.955185, 51.73788729999998], [-9.9811061, 51.732776299999955], [-10.0014887, 51.720374], [-9.983461099999989, 51.7107506], [-9.96172, 51.71299], [-9.972282700000033, 51.69524639999997], [-9.991743300000032, 51.68507209999996], [-10.0092263, 51.673306299999986], [-10.030638199999984, 51.67839170000002], [-10.056111099999974, 51.6679274], [-10.0774044, 51.67113119999996], [-10.100448, 51.6677461], [-10.08184540000001, 51.656865], [-10.0576088, 51.654064200000036], [-10.069668599999957, 51.63428890000002], [-10.090262899999967, 51.62433490000003], [-10.111649299999968, 51.616102500000025], [-10.132676800000027, 51.61512670000002], [-10.158165800000017, 51.61349549999997], [-10.142767300000031, 51.59662130000001], [-10.1607751, 51.58632730000004], [-10.141537200000037, 51.59482279999997], [-10.120813200000043, 51.60237430000004], [-10.098509, 51.59910450000003], [-10.073018500000018, 51.6045679], [-10.052230200000032, 51.60187840000004], [-10.028540699999986, 51.59548460000001], [-10.004561300000024, 51.59945569999996], [-9.9848954, 51.61253980000003], [-9.965273399999973, 51.621368], [-9.939217399999965, 51.61674220000002], [-9.923986099999958, 51.630305500000034], [-9.9098729, 51.64527130000001], [-9.880577700000035, 51.649387399999966], [-9.861206499999973, 51.6555623], [-9.837345, 51.658794099999966], [-9.813302599999972, 51.65438080000003], [-9.790216600000033, 51.65908480000004], [-9.76270720000003, 51.662198], [-9.74425, 51.67062], [-9.7239338, 51.67350279999999], [-9.703112899999986, 51.6791364], [-9.68314, 51.67663], [-9.650028499999983, 51.6753107], [-9.624070900000035, 51.68062110000001], [-9.59679, 51.6926], [-9.58068, 51.70588], [-9.5591, 51.7129], [-9.548261699999959, 51.73503340000001], [-9.53848640000001, 51.75264619999998], [-9.52595, 51.7351], [-9.50644, 51.72544], [-9.489650199999964, 51.71413020000003], [-9.469434099999983, 51.721048600000024], [-9.449199299999965, 51.73605670000004], [-9.460762100000018, 51.71826630000003], [-9.43953949999998, 51.7233464], [-9.45593, 51.70822], [-9.440747900000044, 51.69466019999996], [-9.4595392, 51.68541220000003], [-9.48631350000002, 51.678732399999966], [-9.508053, 51.66926129999997], [-9.547602200000014, 51.656638100000016], [-9.57319, 51.65236], [-9.59406, 51.64213], [-9.640168300000028, 51.628564500000046], [-9.66095, 51.62499], [-9.682300200000025, 51.61683389999997], [-9.702910799999962, 51.61175139999999], [-9.741024700000043, 51.595708], [-9.761938799999957, 51.587831], [-9.7845516, 51.579659199999966], [-9.806466799999967, 51.56364720000003], [-9.82889219999996, 51.5530917], [-9.850120899999968, 51.5425299], [-9.823405, 51.54351379999996], [-9.793856700000035, 51.55093379999998], [-9.763797299999986, 51.5556733], [-9.743547599999978, 51.56307449999998], [-9.719423125795188, 51.569678084510926], [-9.6971898, 51.572733], [-9.675989699999963, 51.58284490000003], [-9.654446400000037, 51.583415], [-9.63462, 51.59669], [-9.61493, 51.60116], [-9.5842884, 51.6115422], [-9.55908, 51.61066], [-9.535685199999964, 51.62009509999997], [-9.55362, 51.60171], [-9.57541, 51.60033], [-9.60233, 51.58174], [-9.62027, 51.57076], [-9.64118, 51.56576], [-9.66267, 51.54528], [-9.686877699999961, 51.53182380000004], [-9.710111, 51.52558639999999], [-9.731564599999974, 51.525038799999976], [-9.75914679999996, 51.518777499999985], [-9.7766166, 51.50842589999996], [-9.79687280000001, 51.494729799999966], [-9.82313, 51.48584], [-9.815456600000026, 51.467059300000045], [-9.80404, 51.45035], [-9.780578299999963, 51.46392269999996], [-9.7638479, 51.48032370000003], [-9.774910399999957, 51.45229629999997], [-9.75052030000003, 51.458962599999985], [-9.72997, 51.4616], [-9.69975, 51.47075], [-9.7427, 51.46269320000002], [-9.714286800000014, 51.4781154], [-9.69843641823904, 51.49522782671806], [-9.676023561652112, 51.503361644258625], [-9.656133600000015, 51.510404], [-9.633184600000043, 51.51224969999998], [-9.6179347, 51.49820630000002], [-9.585261100000018, 51.49744159999999], [-9.611560800000028, 51.4991356], [-9.590799599999976, 51.504903800000044], [-9.5472349, 51.50882820000003], [-9.54039510000002, 51.52899669999998], [-9.518146900000033, 51.51817770000001], [-9.48852280000003, 51.5241751], [-9.46771, 51.53096], [-9.447341309717537, 51.52878467041063], [-9.44222, 51.54965], [-9.4581717, 51.5632466], [-9.4334, 51.55173], [-9.415640900000042, 51.542378], [-9.393295, 51.551868100000014], [-9.40563, 51.52595], [-9.42441, 51.51371], [-9.41234, 51.49607], [-9.385070099999957, 51.50966550000003], [-9.368095, 51.52762210000002], [-9.345436800000016, 51.528765], [-9.325598300000014, 51.53455970000001], [-9.299264400000016, 51.550895800000035], [-9.32031, 51.54467], [-9.334677, 51.528374], [-9.351547599999986, 51.513566200000014], [-9.356084400000018, 51.49336019999998], [-9.375231800000037, 51.4837133], [-9.35034670000001, 51.47151260000001], [-9.325692199999967, 51.47816849999996], [-9.302972100000016, 51.48578850000001], [-9.28508, 51.49824], [-9.265182, 51.50261050000001], [-9.240257800000016, 51.492462400000036], [-9.221171199999965, 51.48633380000001], [-9.2091253, 51.50417929999996], [-9.18823, 51.50792], [-9.17354, 51.5257337], [-9.16865, 51.54523], [-9.176427300000032, 51.5181325], [-9.15521, 51.52066], [-9.134427400000032, 51.52712320000004], [-9.1100456, 51.53734069999999], [-9.123760300000015, 51.558664599999965], [-9.14734530000003, 51.57160680000002], [-9.12534, 51.56272], [-9.104692950032554, 51.553216417521206], [-9.08482, 51.54725], [-9.062127, 51.551591400000035], [-9.042843600000026, 51.558003200000044], [-9.02194, 51.5606], [-9.002033200000035, 51.567157500000036], [-8.97918, 51.55855], [-8.956692, 51.551962], [-8.957491, 51.53088330000003], [-8.940094199999969, 51.54602310000001], [-8.92042930000003, 51.541346500000046], [-8.89781, 51.5466], [-8.895003300000013, 51.56778090000001], [-8.871850499999965, 51.57511639999997], [-8.879429700000017, 51.593903400000016], [-8.851329299999964, 51.600652], [-8.871865400000043, 51.6039927], [-8.886261799999982, 51.62178139999996], [-8.867456600000033, 51.6127337], [-8.847428399999966, 51.60479380000003], [-8.82776, 51.59264], [-8.80705770000003, 51.59558829999998], [-8.78582, 51.5877], [-8.762566899999989, 51.58590889999997], [-8.7505915, 51.569535100000024], [-8.72895880000004, 51.5749944], [-8.70691449999996, 51.57181170000001], [-8.704497299999979, 51.59429469999997], [-8.67641449999996, 51.608651], [-8.69801510000001, 51.613992499999966], [-8.682599, 51.63634890000002], [-8.7104337, 51.63591420000003], [-8.731867099999977, 51.63565359999996], [-8.755964899999967, 51.6431725], [-8.734418400000042, 51.6460268], [-8.7115673, 51.63922890000002], [-8.680510799999961, 51.64403930000004], [-8.676619, 51.6640287], [-8.66537380000003, 51.64520280000003], [-8.64393, 51.63567], [-8.61096, 51.63851], [-8.582834299999973, 51.643500799999984], [-8.56357390000002, 51.63287229999996], [-8.547599800000015, 51.61868870000004], [-8.533369599999972, 51.6038649], [-8.52809, 51.62744], [-8.54589, 51.63879], [-8.52964, 51.6564], [-8.523681, 51.6771893], [-8.50259, 51.68458440000002], [-8.532105, 51.689671099999984], [-8.550890300000045, 51.69980270000001], [-8.575330400000023, 51.68942490000004], [-8.598974200000018, 51.69411389999997], [-8.61646, 51.71976], [-8.632580399999988, 51.7328134], [-8.609624299999961, 51.718419199999985], [-8.5895234, 51.7166386], [-8.582936900000025, 51.69664050000003], [-8.5626547, 51.701521799999966], [-8.538742099999961, 51.69956179999998], [-8.518181820234137, 51.69859435607927], [-8.4970034, 51.69513550000003], [-8.493798799999961, 51.674475199999975], [-8.4726383, 51.680247600000015], [-8.453677499999966, 51.6893535], [-8.473587799999958, 51.7107442], [-8.49380380000002, 51.71759320000003], [-8.51655179999997, 51.72186010000002], [-8.493674, 51.7177656], [-8.47293409999996, 51.71467149999996], [-8.453943200000012, 51.697148400000046], [-8.44401, 51.7167277], [-8.443814599999964, 51.69606439999997], [-8.423137300000015, 51.69296], [-8.40289110000003, 51.70377189999998], [-8.3858025, 51.714337500000035], [-8.358426400000017, 51.716512499999965], [-8.3374167, 51.71843780000001], [-8.320408499999974, 51.73424709999997], [-8.300004399999981, 51.74445320000004], [-8.29723, 51.76568], [-8.31706249999997, 51.76960559999998], [-8.33930610000002, 51.76490880000003], [-8.318941700000025, 51.76932449999999], [-8.29327970000002, 51.77932310000003], [-8.279919, 51.79504040000001], [-8.297933200000028, 51.80469860000004], [-8.32186060000004, 51.80556749999999], [-8.350709300000013, 51.80986959999996], [-8.373091900000016, 51.81242750000004], [-8.3457488, 51.8130958], [-8.3198797, 51.80842780000004], [-8.296849200000043, 51.8073516], [-8.314126100000017, 51.81897669999996], [-8.298629199999972, 51.83522689999998], [-8.322674599999978, 51.83637319999997], [-8.350498299999963, 51.83645379999998], [-8.331311200000034, 51.8495932], [-8.3359363, 51.87266], [-8.380917, 51.8777218], [-8.40761379999999, 51.876826900000026], [-8.428072100000026, 51.880411499999965], [-8.4041048, 51.882578700000046], [-8.4413633, 51.901750300000025], [-8.410771499999957, 51.900271], [-8.3879741, 51.901851], [-8.369117, 51.89137489999998], [-8.34614830000002, 51.89056559999999], [-8.321263600000027, 51.8986446], [-8.34443969999996, 51.910157700000035], [-8.3208102, 51.91056770000003], [-8.296599199999964, 51.90666189999998], [-8.2768963, 51.90197209999999], [-8.299796600000018, 51.904202699999985], [-8.3188361, 51.896367299999966], [-8.289601200000039, 51.89021840000004], [-8.268242099999988, 51.89142260000002], [-8.249239, 51.8837073], [-8.2218574, 51.88346019999997], [-8.19932, 51.88409], [-8.183307900000035, 51.89693680000001], [-8.199028, 51.87902159999998], [-8.209650200000016, 51.86020939999999], [-8.184489099999979, 51.85859760000003], [-8.198886299999984, 51.84354030000003], [-8.222621199999967, 51.84242419999997], [-8.243377, 51.83453769999998], [-8.2641868, 51.815644899999974], [-8.2519525, 51.79445159999997], [-8.230738899999988, 51.79257470000001], [-8.2088234, 51.79224660000004], [-8.1805282, 51.79565680000003], [-8.156605500000012, 51.7889687], [-8.134719299999958, 51.804581799999966], [-8.112148500000014, 51.80857050000004], [-8.08767290000003, 51.8096982], [-8.060766600000012, 51.80884850000003], [-8.038748200000033, 51.81504770000004], [-8.014305700000033, 51.8235157], [-8.03097, 51.83734], [-7.997165099999968, 51.86052890000004], [-7.963819200000042, 51.86975869999998], [-7.9349707, 51.870436199999986], [-7.91267809999998, 51.8741547], [-7.89012, 51.87864], [-7.8696898, 51.88088260000004], [-7.886229399999987, 51.892158], [-7.907762499999958, 51.899899199999986], [-7.932114, 51.90859570000002], [-7.909162, 51.9124438], [-7.886193899999981, 51.9114883], [-7.864815600000028, 51.9309533], [-7.841602200000029, 51.9404201], [-7.855024500000017, 51.97464989999997], [-7.87622, 51.97115], [-7.858026399999972, 51.980526199999986], [-7.8352587, 51.97552369999997], [-7.812124599999979, 51.971601], [-7.831728899999966, 51.955388], [-7.8140023, 51.938757500000015], [-7.795001, 51.9459474], [-7.773790100000031, 51.952370399999964], [-7.75509, 51.9407], [-7.73153, 51.9379], [-7.70759, 51.94135], [-7.719595800000032, 51.958535800000014], [-7.7011096, 51.972859300000046], [-7.66327, 51.97494], [-7.63831, 51.97683], [-7.61537, 51.98054], [-7.59726, 51.98929], [-7.57837, 52.00239], [-7.58252, 52.02217], [-7.567578900000036, 52.0383102], [-7.5467845, 52.04473359999998], [-7.566360300000017, 52.05049459999996], [-7.588535700000019, 52.0513915], [-7.610878099999983, 52.0852159], [-7.605229499999975, 52.06333439999998], [-7.633072799999983, 52.063892], [-7.631665, 52.084455400000046], [-7.641153400000043, 52.10371339999998], [-7.617934799999968, 52.1015271], [-7.5967258, 52.0917853], [-7.582028899999969, 52.10703650000004], [-7.570217, 52.088305099999985], [-7.553165500000024, 52.07760369999997], [-7.539529300000012, 52.09877969999997], [-7.5189725, 52.1059787], [-7.498, 52.10236], [-7.47936, 52.11212], [-7.4592232, 52.12167280000003], [-7.435472200000024, 52.12700590000004], [-7.402713700000028, 52.13177009999997], [-7.381355200000026, 52.132749299999986], [-7.35143863178531, 52.137061576319574], [-7.327538800000031, 52.137204099999984], [-7.307598599999963, 52.13250950000004], [-7.279257599999987, 52.13867569999998], [-7.247849900000023, 52.135224], [-7.22465, 52.13252], [-7.20044, 52.13381], [-7.175305499999982, 52.138133599999975], [-7.152032600000033, 52.158089700000026], [-7.12646520000004, 52.1551857], [-7.1070878, 52.15018219999999], [-7.130641099999965, 52.158389], [-7.106560100000034, 52.1701978], [-7.083447700000042, 52.161628199999974], [-7.063078800000031, 52.16031380000002], [-7.090945600000029, 52.1477049], [-7.107853700000041, 52.1341472], [-7.082396899999963, 52.134681100000044], [-7.05583, 52.13664], [-7.03392, 52.13256], [-7.0137, 52.13774], [-6.9895898, 52.14563960000001], [-6.976653, 52.161477799999965], [-6.962253, 52.17569770000004], [-6.982613, 52.186427700000024], [-6.970583, 52.20799770000003], [-6.969931399999971, 52.239246], [-6.942685199999985, 52.2336034], [-6.920794199999977, 52.218214], [-6.902996, 52.19597290000003], [-6.898423900000014, 52.1742707], [-6.912839, 52.15124440000004], [-6.935257899999978, 52.130415200000044], [-6.914815, 52.12880109999998], [-6.902651300000026, 52.14657], [-6.881704199999958, 52.158940100000045], [-6.8532475, 52.1678364], [-6.8344352, 52.174856399999975], [-6.819716599999956, 52.191749399999985], [-6.843011200000013, 52.1865701], [-6.8226574, 52.2048607], [-6.8446018, 52.20949310000003], [-6.829105900000029, 52.22258370000002], [-6.809147599999974, 52.234360500000015], [-6.7883465, 52.24213880000002], [-6.7623926, 52.25506430000003], [-6.7795055, 52.23203460000004], [-6.795487, 52.213834200000036], [-6.818032100000024, 52.21561229999999], [-6.796581, 52.21070810000002], [-6.766854499999961, 52.2068048], [-6.740357399999961, 52.21167450000004], [-6.716606499999986, 52.21604520000001], [-6.692953500000029, 52.2176648], [-6.669795399999987, 52.21472649999997], [-6.651489400000041, 52.223004], [-6.629193700000033, 52.20593570000003], [-6.657193500000022, 52.2107722], [-6.677837100000025, 52.21402840000003], [-6.7000112, 52.2164711], [-6.650529500000022, 52.20368890000003], [-6.6193711, 52.19113290000004], [-6.5951918, 52.1758948], [-6.573673899999963, 52.17608310000004], [-6.538807700000013, 52.185389], [-6.514338700000041, 52.18685270000002], [-6.492534, 52.19064369999998], [-6.419895200000034, 52.187522], [-6.387898800000033, 52.1776198], [-6.36798, 52.17545], [-6.349994599999984, 52.188218499999955], [-6.341716, 52.21470389999997], [-6.323162100000032, 52.2338975], [-6.334717, 52.25552250000001], [-6.363186299999987, 52.25134710000004], [-6.381680400000042, 52.26663639999996], [-6.390575199999968, 52.29499240000003], [-6.415551299999975, 52.29347939999998], [-6.43083, 52.30703], [-6.448585300000029, 52.31755110000003], [-6.458163899999955, 52.339170600000045], [-6.477357499999978, 52.3478618], [-6.505767399999971, 52.350071100000015], [-6.542117599999961, 52.35379869999997], [-6.557779100000036, 52.368374], [-6.5675212, 52.38751540000003], [-6.5510115, 52.407722], [-6.565729, 52.42320929999998], [-6.559134299999989, 52.44555539999998], [-6.563284900000041, 52.472056200000026], [-6.557778100000042, 52.44549250000002], [-6.564990699999959, 52.425607], [-6.546715399999978, 52.41002919999996], [-6.564030199999979, 52.38787559999999], [-6.5545604, 52.367688099999974], [-6.525349100000041, 52.3521523], [-6.4986841, 52.36014809999997], [-6.477810200000042, 52.372950900000035], [-6.470223099999958, 52.35345619999997], [-6.443353699999974, 52.3535628], [-6.385452200000016, 52.35540359999998], [-6.364235899999968, 52.343671], [-6.364586799999958, 52.37326909999998], [-6.352607, 52.40912759999997], [-6.322101699999958, 52.43466189999997], [-6.293156900000027, 52.46571090000001], [-6.251001699999967, 52.49794209999999], [-6.237893699999961, 52.514654], [-6.213476500000012, 52.532409], [-6.193225399999977, 52.56334189999997], [-6.203311200000036, 52.581817700000016], [-6.209284299999982, 52.6019577], [-6.224638899999976, 52.61789030000004], [-6.2242141, 52.64105349999998], [-6.209222799999956, 52.66637929999996], [-6.196499100000039, 52.688120800000036], [-6.1591597, 52.715246800000024], [-6.140693500000036, 52.73367109999999], [-6.141455600000032, 52.7546573], [-6.135982200000043, 52.77751050000004], [-6.153487800000021, 52.798970299999986], [-6.126991, 52.81243539999996], [-6.112194400000035, 52.829391300000026], [-6.0911469, 52.8464675], [-6.0569369, 52.858442400000044], [-6.0511382, 52.8916406], [-6.0370072, 52.91142069999997], [-6.0203107, 52.924967699999975], [-6.017044700000038, 52.944783499999964], [-6.002398200000012, 52.96040989999998], [-6.020869100000012, 52.97281369999998], [-6.041085099999985, 52.980732], [-6.057609799999983, 52.99702910000002], [-6.040832300000029, 52.981223900000046], [-6.050254499999983, 53.005145500000026], [-6.047795099999973, 53.033949], [-6.034810200000027, 53.0692743], [-6.042628699999983, 53.12084650000003], [-6.057752399999969, 53.14147549999998], [-6.073159300000028, 53.15767680000004], [-6.0768935, 53.18432090000003], [-6.092597599999958, 53.19677749999997], [-6.112211799999964, 53.240591499999965], [-6.11117110000001, 53.26085170000004], [-6.0914764, 53.27030819999999], [-6.104925499999989, 53.2853775], [-6.129227, 53.292298500000044], [-6.15068190000003, 53.29551860000002], [-6.1896361, 53.30736430000003], [-6.2064957, 53.32529610000002], [-6.182725500000028, 53.33753690000003], [-6.151254100000034, 53.34218580000002], [-6.186677199999965, 53.3408224], [-6.210537, 53.35373149999999], [-6.181828699999989, 53.3604826], [-6.1649949, 53.372575200000014], [-6.151160899999961, 53.34545519999999], [-6.149129600000022, 53.36552940000004], [-6.118584400000013, 53.37959030000002], [-6.146161700000039, 53.37525270000004], [-6.119203099999956, 53.38867390000002], [-6.098587400000041, 53.37407419999996], [-6.081779, 53.36099969999997], [-6.061253899999961, 53.363146499999964], [-6.044271099999984, 53.37661179999996], [-6.0625779, 53.386416], [-6.085259100000015, 53.3922921], [-6.114917099999981, 53.3964764], [-6.13527250000003, 53.4072133], [-6.116396399999988, 53.39796140000002], [-6.118016700000026, 53.41975389999996], [-6.124191499999962, 53.44417150000003], [-6.152153500000021, 53.452451199999956], [-6.175073299999975, 53.454413699999975], [-6.203055500000018, 53.46479330000001], [-6.182130700000019, 53.46612919999996], [-6.15467429999996, 53.46902610000002], [-6.133415699999964, 53.468159], [-6.110676500000031, 53.4829399], [-6.114103800000012, 53.50819650000003], [-6.144402, 53.50099870000001], [-6.169611300000041, 53.501404], [-6.148916100000032, 53.502269], [-6.122281, 53.51417450000003], [-6.093219800000013, 53.51803719999997], [-6.083798799999982, 53.53804140000001], [-6.083805600000011, 53.560382500000046], [-6.104821800000024, 53.580541199999985], [-6.13454660000001, 53.5865355], [-6.160624, 53.5981428], [-6.178515899999979, 53.61096819999998], [-6.1877, 53.63021], [-6.2129129, 53.63370350000004], [-6.221889400000033, 53.65401469999998], [-6.236065, 53.675485500000036], [-6.2438925, 53.700137400000045], [-6.24415050000002, 53.72074779999996], [-6.266929300000032, 53.727400099999976], [-6.291867199999987, 53.721019599999984], [-6.318562100000011, 53.719536700000035], [-6.351243600000031, 53.712891299999974], [-6.377677200000018, 53.7159348], [-6.402649599999985, 53.7185379], [-6.376632700000015, 53.71672540000004], [-6.3502, 53.71335], [-6.322293700000034, 53.7200484], [-6.29601220000002, 53.721474100000016], [-6.2756315, 53.73006710000002], [-6.24928, 53.72401], [-6.248393299999974, 53.758927399999976], [-6.2363494, 53.786112], [-6.21624, 53.79564], [-6.237625499999974, 53.79924179999996], [-6.260058299999957, 53.80690839999996], [-6.258923, 53.8311517], [-6.249201499999965, 53.85172419999998], [-6.268286399999965, 53.8709725], [-6.289640200000021, 53.871430100000026], [-6.319512899999988, 53.87543850000004], [-6.345011399999964, 53.88509559999997], [-6.368172, 53.902306399999986], [-6.373384500000021, 53.931872900000016], [-6.3787804, 53.95403719999999], [-6.360780300000044, 53.968377], [-6.346, 53.98872], [-6.363241799999961, 54.007069], [-6.3854959, 54.00768279999998], [-6.355931300000026, 54.01349620000003], [-6.37118759999997, 54.0294764], [-6.348363799999965, 54.014059199999984], [-6.320241200000029, 54.0140906], [-6.29836, 54.00931], [-6.27896, 53.99991], [-6.255340100000015, 53.99211090000003], [-6.2285917, 53.98676429999996], [-6.205321500000013, 53.98235469999997], [-6.175164399999963, 53.9803315], [-6.149226400000038, 53.98164570000002], [-6.103731799999987, 53.999781], [-6.126215099999974, 54.0168322], [-6.1484938, 54.02727239999999], [-6.1666106, 54.03606550000003], [-6.186671, 54.04242150000003], [-6.202080399999985, 54.061018199999964], [-6.228073600000037, 54.06942759999996], [-6.2566754, 54.0892504], [-6.2798813, 54.109883600000025], [-6.309002599999977, 54.10668990000001], [-6.336291300000016, 54.0947239], [-6.3458372, 54.11370380000001], [-6.366201499999977, 54.1137422], [-6.363696500000013, 54.090152699999955], [-6.36730909999996, 54.0701806], [-6.391053, 54.0588524], [-6.4119835, 54.063058500000025], [-6.433414499999965, 54.0609801], [-6.456066599999974, 54.0725238], [-6.4777947, 54.0770873], [-6.496530900000017, 54.05928120000004], [-6.515773800000033, 54.052495600000015], [-6.545420899999985, 54.05151059999996], [-6.569490200000014, 54.050919], [-6.595707499999956, 54.05195350000001], [-6.616180300000038, 54.04253970000004], [-6.640881, 54.048362], [-6.660892099999979, 54.062732799999985], [-6.658690900000017, 54.08395479999997], [-6.645318299999967, 54.10058889999996], [-6.6612681, 54.1226628], [-6.6419673, 54.130213900000044], [-6.629684, 54.153531], [-6.642530499999963, 54.17556759999998], [-6.6653943, 54.19316], [-6.687801399999979, 54.19487220000004], [-6.7100629, 54.198033600000045], [-6.72739449999997, 54.18241919999996], [-6.756174400000023, 54.199258399999955], [-6.7857058, 54.2067151], [-6.8004186, 54.2211026], [-6.819804, 54.232598], [-6.827742899999964, 54.26148720000002], [-6.851809400000028, 54.26493530000003], [-6.87152540000002, 54.27572689999996], [-6.851479700000016, 54.29159579999997], [-6.856468599999974, 54.313515899999985], [-6.866359199999958, 54.3318162], [-6.88537950000003, 54.3474576], [-6.906436799999979, 54.350421199999985], [-6.912377299999981, 54.37178470000004], [-6.9326882, 54.377862500000035], [-6.948669699999985, 54.3901306], [-6.966966699999985, 54.4013449], [-6.989141600000035, 54.40947250000004], [-7.010149499999982, 54.4156991], [-7.040512600000024, 54.41772270000001], [-7.063709199999965, 54.39928469999998], [-7.09137, 54.3748639], [-7.103811, 54.35578509999997], [-7.128272600000016, 54.34536629999998], [-7.153438700000023, 54.33501279999998], [-7.181502299999963, 54.339817200000034], [-7.1780151, 54.316648600000015], [-7.197889699999969, 54.311058], [-7.188342599999984, 54.2902479], [-7.176639799999982, 54.270533599999965], [-7.1523445, 54.266684199999965], [-7.1589271, 54.24395609999998], [-7.147249799999986, 54.22553540000004], [-7.171036099999959, 54.21759910000002], [-7.198598900000029, 54.2157848], [-7.220849699999963, 54.215807600000026], [-7.238994, 54.20683809999996], [-7.259420800000036, 54.19225170000002], [-7.251362100000012, 54.17272], [-7.258230799999986, 54.15374329999999], [-7.2691523, 54.1353101], [-7.291946899999989, 54.11911220000004], [-7.308911100000024, 54.1321133], [-7.2855117, 54.136258200000015], [-7.285888, 54.157737499999975], [-7.310238900000019, 54.1672991], [-7.32595330000003, 54.15162089999997], [-7.312064800000016, 54.13170710000004], [-7.334349900000035, 54.12023429999998], [-7.3631985, 54.13160040000001], [-7.387699799999979, 54.12284860000001], [-7.373542, 54.13769560000002], [-7.399959699999979, 54.1408954], [-7.420065299999965, 54.13675850000002], [-7.409589200000031, 54.156458], [-7.431168600000014, 54.1521441], [-7.451923900000022, 54.14761679999996], [-7.4669336, 54.1341776], [-7.491957, 54.12316269999998], [-7.519504, 54.129707399999965], [-7.546772599999983, 54.1291626], [-7.569239400000026, 54.1328906], [-7.59195990000001, 54.1399314], [-7.611317700000029, 54.14704279999999], [-7.625290700000019, 54.16543079999997], [-7.645683699999982, 54.17597439999998], [-7.6644521, 54.18800510000002], [-7.685305599999957, 54.19344259999997], [-7.701935100000011, 54.20777510000004], [-7.73159470000002, 54.2048365], [-7.7548411, 54.2097906], [-7.780504, 54.20871970000004], [-7.803485299999966, 54.20699340000002], [-7.860169099999979, 54.21727979999998], [-7.858905699999983, 54.24309040000002], [-7.872706700000041, 54.26645970000004], [-7.870630600000037, 54.28830430000003], [-7.888284400000021, 54.300504399999966], [-7.911190099999963, 54.296054099999985], [-7.930578899999972, 54.30332090000004], [-7.961595199999969, 54.312469], [-7.972558, 54.331084400000016], [-7.99945789999996, 54.347194100000046], [-8.0170726, 54.35690980000004], [-8.03694749999999, 54.359252], [-8.0573261, 54.36572260000002], [-8.073574200000031, 54.38470379999996], [-8.08955120000001, 54.399665100000014], [-8.160257099999988, 54.440277200000025], [-8.14291429999998, 54.4509245], [-8.167735, 54.45947639999998], [-8.1146731, 54.46903439999998], [-8.091484600000019, 54.47652640000001], [-8.06525480000002, 54.48662389999997], [-8.042647199999962, 54.48763079999997], [-8.029158800000012, 54.520868600000014], [-8.011711699999989, 54.533633], [-7.991303900000045, 54.54297120000003], [-7.970298899999982, 54.54704930000003], [-7.95348419999997, 54.5342738], [-7.9216212, 54.53632320000002], [-7.895158099999964, 54.53499919999999], [-7.868730600000038, 54.53445010000003], [-7.844306, 54.53737369999999], [-7.824018299999967, 54.54426690000003], [-7.811674599999961, 54.56414449999998], [-7.795501, 54.578238200000015], [-7.766855400000015, 54.586106099999974], [-7.745929600000022, 54.60010980000001], [-7.708305100000022, 54.60666279999998], [-7.703436499999981, 54.6274364], [-7.724861499999978, 54.6276124], [-7.754308100000038, 54.61849979999998], [-7.783482499999959, 54.6331118], [-7.804709700000021, 54.634560599999965], [-7.828283800000023, 54.633048800000026], [-7.852128300000015, 54.630775599999964], [-7.85669219999998, 54.6505747], [-7.877422599999971, 54.655709], [-7.903911600000011, 54.662586], [-7.898532099999976, 54.6849585], [-7.920890400000012, 54.695964099999955], [-7.895067700000034, 54.7005224], [-7.855095, 54.726756100000046], [-7.836645499999982, 54.73642159999997], [-7.816959499999985, 54.72905889999998], [-7.788752700000011, 54.719644200000026], [-7.759569100000039, 54.706659600000016], [-7.7396743, 54.7129392], [-7.711598500000026, 54.72611390000002], [-7.687681100000042, 54.7300339], [-7.6676812, 54.73781770000002], [-7.636568300000011, 54.751510099999976], [-7.616777599999967, 54.743446199999966], [-7.5885923, 54.743706], [-7.5576586, 54.7452276], [-7.534693400000013, 54.7470212], [-7.545895, 54.76835550000004], [-7.5492235, 54.78937089999999], [-7.527500400000029, 54.802813499999964], [-7.5008474, 54.8175405], [-7.481091, 54.83129779999999], [-7.468864399999962, 54.847464700000046], [-7.459101399999966, 54.8649957], [-7.445640199999957, 54.88270820000004], [-7.4539107, 54.90235440000003], [-7.45323, 54.92412], [-7.426473500000029, 54.946664699999964], [-7.4060776, 54.9443551], [-7.402062599999979, 54.9674204], [-7.3994372, 54.9908957], [-7.39640419999996, 55.01645910000002], [-7.376404300000015, 55.02878010000001], [-7.356125700000014, 55.04573909999998], [-7.333302200000034, 55.0501255], [-7.299466299999978, 55.05610270000002], [-7.2772385, 55.0543635], [-7.256548399999961, 55.06659690000003], [-7.222283500000025, 55.096803], [-7.203551299999987, 55.119260799999964], [-7.186712, 55.131315799999975], [-7.159303, 55.1488734], [-7.118871400000024, 55.15868019999997], [-7.09904, 55.1677], [-7.07955, 55.17252], [-7.060695700000028, 55.181241], [-7.035801799999983, 55.188789599999986], [-7.00679, 55.19594], [-6.9838867, 55.20316680000002], [-6.9628, 55.20674], [-6.942391554668734, 55.21649123023643], [-6.9279684, 55.23117340000004], [-6.95638, 55.25351], [-6.9801, 55.25404], [-7.00827, 55.25591], [-7.02777209999996, 55.2664369], [-7.04724, 55.27537], [-7.070177700000044, 55.27176409999997], [-7.09272, 55.28121], [-7.11534, 55.28681], [-7.13715, 55.29073], [-7.157920500000034, 55.296468], [-7.1650016, 55.315693], [-7.17052, 55.33619], [-7.19604, 55.3481], [-7.23227, 55.35208], [-7.25672, 55.35832], [-7.27749, 55.36682], [-7.30268, 55.36666], [-7.32744239999996, 55.369181600000026], [-7.3526, 55.37746], [-7.373494599999962, 55.3828956]]]]}}]}