{"type": "FeatureCollection", "features": [{"type": "Feature", "properties": {"code": "IRN", "name": "Islamic Republic of Iran", "tier": "country"}, "geometry": {"type": "MultiPolygon", "coordinates": [[[[44.806992829255705, 39.63990171239419], [44.72572432541733, 39.68533070924491], [44.64650435399278, 39.719540507088766], [44.60583500198379, 39.76315541578987], [44.459487345164916, 39.69845652315007], [44.45762699409056, 39.63871856700831], [44.418559610737475, 39.57432973273103], [44.417422729175655, 39.51748565733726], [44.4052270912573, 39.452476705435686], [44.36874353028975, 39.40359080007539], [44.31696374508084, 39.38529734319786], [44.200433390388696, 39.409481912560295], [44.12224694863784, 39.40043853780833], [44.0613721109342, 39.40028350817744], [44.014863322384485, 39.37408355721044], [44.05176029540138, 39.32803985665413], [44.06922692907955, 39.279567362443856], [44.08348962364727, 39.22683156372574], [44.14808516439888, 39.166447652437284], [44.194800659422924, 39.12053314219082], [44.16989261874943, 39.074360250425286], [44.16953088444279, 39.02304555320978], [44.1519608970778, 38.96462534578313], [44.17816084804474, 38.92070037871957], [44.20575606299195, 38.87566436761654], [44.275002481879085, 38.84357330326537], [44.252678263591065, 38.74182240797779], [44.26048140489297, 38.67924224883075], [44.297016642703966, 38.62232065907119], [44.292159058094114, 38.56204010057024], [44.30135746157765, 38.511190491348145], [44.28750817905927, 38.45372629833008], [44.286578003072464, 38.39099110955209], [44.36336918174237, 38.36461029143186], [44.42465742969665, 38.37703847244762], [44.45876387565238, 38.33833282519976], [44.40057621222246, 38.27466746043501], [44.3767017012226, 38.20154530886896], [44.360578653781886, 38.14785349574231], [44.333810262034035, 38.100879618299814], [44.286578003072464, 38.06630808525], [44.24539188622663, 38.008378805137795], [44.21965702325309, 37.95608225509204], [44.20208703588804, 37.89717112214964], [44.25443526187786, 37.87084197997348], [44.31923750820448, 37.87686228456681], [44.36714156073447, 37.86022247318863], [44.40440026895732, 37.80973459917249], [44.43643965556572, 37.76779917439245], [44.50646122260741, 37.77934885716405], [44.55937788937814, 37.75201202463529], [44.596119832764145, 37.71638112438944], [44.55353845193804, 37.67181020127981], [44.5609798580341, 37.614656068422846], [44.578343139824085, 37.56390981108899], [44.56991988089783, 37.5144037881044], [44.56594079633072, 37.447172749922515], [44.62278487172449, 37.421902974942384], [44.661645548603246, 37.37565256791174], [44.71301192266213, 37.356790670253304], [44.778951049651255, 37.31379587827723], [44.798484740878166, 37.26031077072554], [44.753526245040234, 37.215326435566624], [44.77233646675461, 37.16124705061094], [44.752544393109304, 37.11313629160662], [44.78835616140776, 37.07024485331738], [44.84060103371081, 37.0471971646175], [44.88736820467898, 37.01593292256638], [44.8691781005889, 36.96735707556866], [44.88881514460331, 36.91092641222417], [44.834141480445, 36.83403188076676], [44.85119470207388, 36.78121856678348], [44.90824548304266, 36.777859598941404], [44.954754271592435, 36.75233144244214], [45.01097823116049, 36.72556304979497], [45.045911499416206, 36.66804718083279], [45.024879191421576, 36.61316680930088], [45.01325199428419, 36.557924702563014], [45.02534427941504, 36.50521474226662], [45.062086222800986, 36.45534698497545], [45.11081709763101, 36.40253367099217], [45.195979858383794, 36.42242909742498], [45.24961999556638, 36.377935689580454], [45.257009724819, 36.3116865033295], [45.26419274939593, 36.25019154890089], [45.302019898399635, 36.20755849213077], [45.30460371898647, 36.140379129893006], [45.34832197957576, 36.08751413996566], [45.319589884865366, 36.03103179977779], [45.338090047317905, 35.97930369141227], [45.40216882323267, 35.994238180447724], [45.453121785242274, 36.01165313728251], [45.539989868337784, 35.99397979802933], [45.58985762562895, 35.959614970554526], [45.64685672975435, 35.9332083131132], [45.69321048957249, 35.87987823519245], [45.71873864787034, 35.82830515555855], [45.78674483240815, 35.820243632737515], [45.85407922337748, 35.818331603920456], [45.90911462364102, 35.83130238909405], [46.004922729600366, 35.837968648834135], [46.06042321785725, 35.857243957642595], [46.11504520697076, 35.846443583704456], [46.14336389143051, 35.80453399644682], [46.227441446565535, 35.80572255485208], [46.281391642110634, 35.82830515555855], [46.327073608360365, 35.803500468571826], [46.29751468955135, 35.759885558971405], [46.25348636880091, 35.72774281867618], [46.177728718905314, 35.715392151126935], [46.12760258009507, 35.69368804956389], [46.037065470794914, 35.69156931607114], [45.99587935394908, 35.658393046102276], [46.002028849751696, 35.58594268810464], [45.98456221517415, 35.53106231657273], [45.97701745629064, 35.46532989515856], [46.0409928794179, 35.38156239838605], [46.09628666209983, 35.341151428795456], [46.12739587362074, 35.28906158432471], [46.101454305072195, 35.23428456558031], [46.15416426626791, 35.22663645480861], [46.143828979423915, 35.159612122201736], [46.14310550991138, 35.09951243085408], [46.09452966291366, 35.08581817616795], [46.039752645068575, 35.075534566167335], [45.979239542570895, 35.07155548160023], [45.92017338089687, 35.089642232902804], [45.893094929887184, 35.04437367780304], [45.856818073595264, 35.00804514556705], [45.866326538139276, 34.94954742467394], [45.83501062014403, 34.890171203738134], [45.77826989843709, 34.91089345337025], [45.7504679770156, 34.86536651675141], [45.717705119096024, 34.82511057589244], [45.6667521561871, 34.80692047180236], [45.635022827041894, 34.736950583402745], [45.666855509873926, 34.68997670506093], [45.69445072392182, 34.598561096617345], [45.60484379060853, 34.56114735966298], [45.539628133131885, 34.58223134360168], [45.50484989540638, 34.52378529865268], [45.479270060265094, 34.46725128162143], [45.42676680464439, 34.457510274879326], [45.44795414226991, 34.36208974344697], [45.499217164440665, 34.34240102168985], [45.557559854803515, 34.311963602838034], [45.54768965685224, 34.21649139456224], [45.53146325662402, 34.16791554756452], [45.493946166882154, 34.10068450938263], [45.44361332159758, 34.0476644898244], [45.419945516172675, 33.994256898437186], [45.42371789516477, 33.93878224680327], [45.479270060265094, 33.94118520113619], [45.57476810696261, 33.80393259681193], [45.616729370164364, 33.768689270193704], [45.6351261798294, 33.714170633867695], [45.6739868567081, 33.669031270876474], [45.72111576378154, 33.64076426236085], [45.727730346678186, 33.590095520292095], [45.79754520634623, 33.61931854231693], [45.864362833378095, 33.6264240534274], [45.89970951368315, 33.58516042131646], [45.915625854649534, 33.53580942796276], [45.86818689011295, 33.511573181757], [45.92968184544088, 33.47950795492824], [46.00802331502405, 33.4556592805514], [46.03107100462324, 33.382511290563684], [46.06972497592693, 33.3408600884224], [46.109515828792496, 33.293705342927296], [46.15530114782979, 33.26021901459592], [46.157678263740934, 33.20567454074751], [46.15344079585611, 33.1542564907445], [46.10538171369518, 33.11839304740124], [46.05039799027509, 33.11511159302563], [46.087191609605156, 33.07922231036139], [46.11948938043059, 33.031008198569566], [46.0757194420986, 32.99449880007961], [46.155559529348864, 32.948351745836476], [46.2734334720771, 32.959488016558794], [46.37962853992525, 32.931763611301676], [46.479312377664144, 32.8917918903835], [46.604421020913435, 32.82068512042201], [46.6503613686823, 32.789369202426826], [46.71588708542072, 32.75601206530462], [46.75733158378563, 32.71619537401733], [47.05839847860693, 32.49447764093043], [47.12103031459742, 32.46104298944243], [47.187796264785845, 32.45838165269117], [47.25125492397564, 32.48546010370086], [47.32194828278705, 32.468226013120045], [47.36732019067432, 32.43076060022156], [47.41083174658786, 32.39528472960666], [47.399979695806394, 32.34577870842071], [47.43687666792391, 32.29368886305065], [47.4791479903875, 32.25206349843177], [47.507673380422204, 32.1998444627518], [47.491343628305856, 32.1486331183238], [47.54364017655297, 32.11457834921151], [47.595006552410496, 32.08543284155246], [47.633143757978075, 32.026935119760026], [47.67794722508444, 31.994689025777973], [47.71840987241774, 31.92234202056784], [47.75654707888464, 31.889165750598977], [47.82078088443035, 31.823588358815755], [47.831322875950036, 31.76183502196875], [47.67892907701537, 31.407851461275982], [47.6729346108437, 30.994698385222364], [48.00154504376883, 30.994646708378923], [48.012035359344395, 30.49452219644229], [48.11941898559775, 30.450803934953683], [48.170475301294175, 30.406672261415792], [48.18768355255395, 30.340836487214176], [48.23507084114647, 30.31851226802678], [48.29635909000007, 30.31975250237616], [48.358164102791136, 30.251797994681738], [48.40358768842111, 30.2125239057537], [48.3832788490397, 30.15645497671585], [48.41552494302175, 30.095631815855654], [48.44218998198215, 30.03393015585209], [48.47815677901218, 29.979618225101035], [48.53101647193267, 29.961330470824635], [48.61085045728282, 29.95701731959366], [48.658702019082966, 29.983628648343483], [48.640635613143104, 30.038072006917616], [48.701996289796966, 30.03192780182667], [48.77198326891278, 30.032375392610334], [48.876719596832004, 30.02448151241191], [48.928558790355964, 30.060003973304788], [48.928558790355964, 30.110052801895336], [48.94166100425201, 30.165106512355692], [48.92953535157528, 30.23265208482593], [48.88453209737844, 30.279364325203517], [48.873708529924784, 30.33665599228027], [48.93482506582416, 30.418646551896927], [49.00049889370905, 30.415187893306666], [48.97266686298542, 30.469468491677617], [49.017344596775786, 30.511135157661442], [49.06934654960361, 30.513820705061562], [49.128103061207355, 30.501125393022505], [49.18384850410524, 30.48704661700782], [49.22828209714112, 30.454413152644918], [49.22771243598021, 30.38922760626906], [49.1764429054158, 30.37274811433406], [49.12338300901871, 30.385077216140644], [49.06202233236479, 30.408107815023698], [49.0107528000018, 30.395941473420294], [48.94857832143242, 30.401068426566667], [48.97950279961458, 30.361761785777844], [49.00367272171877, 30.30939362181823], [49.08350670706892, 30.26483795840511], [49.13477623763333, 30.246323959882886], [49.19288170662554, 30.23773834814631], [49.23707115980625, 30.206366278281166], [49.245127800207854, 30.1564802098938], [49.32927493588966, 30.172267971189967], [49.3839624361176, 30.16168854359148], [49.449880404756925, 30.167181707869588], [49.493418816225415, 30.1374372418353], [49.501638216830315, 30.07489655213425], [49.532237174605996, 30.022935289132363], [49.60075931099345, 30.03009674706726], [49.91456139379335, 30.203924871635593], [49.98829186297917, 30.219916082960935], [50.05884850415521, 30.204575914247073], [50.09791100418954, 30.148504950043446], [50.121836784639925, 30.09454987207897], [50.14478600387105, 30.037909246714435], [50.14966881626293, 29.985174871623087], [50.18384850390538, 29.903143622180494], [50.243825716583615, 29.866848049198154], [50.31332441508971, 29.763983465864328], [50.367035352299695, 29.704087631938705], [50.396983269262535, 29.65473053578563], [50.45606530037338, 29.634100652822895], [50.504567904785006, 29.58608632992025], [50.5727645189674, 29.518011786115096], [50.60694420660991, 29.46963125208066], [50.65528404991903, 29.449123440394487], [50.66822350361184, 29.38226959766388], [50.661468945735294, 29.318793035670126], [50.682627800033, 29.24306875242104], [50.6357528003515, 29.2077090517314], [50.64380944075316, 29.143459376748865], [50.69369550914047, 29.123439845672408], [50.81641686334763, 29.14419179901239], [50.850840690845246, 29.105454820283796], [50.90170332135125, 29.064886785896476], [50.92896569091397, 29.00967031523294], [50.893402540195154, 28.96503327036919], [50.84278405044364, 28.990668036101056], [50.79883873801742, 28.961127020095944], [50.86003665536742, 28.86245351761579], [50.896006707043966, 28.82733795768064], [50.97868899819878, 28.81663645970491], [51.03638756623326, 28.772528387075454], [51.071543815994346, 28.692694402624625], [51.07252037901236, 28.56525299712814], [51.1418563164159, 28.400783596385907], [51.1823836600779, 28.35976797121498], [51.2176212903903, 28.31142812700648], [51.264821811377544, 28.270453191661545], [51.286875847242584, 28.21430084780593], [51.264821811377544, 28.16054922076995], [51.30752983383479, 28.107132147830384], [51.3452216348706, 28.052668550013607], [51.38027113780282, 27.991418381153437], [51.399875502252655, 27.931713146844288], [51.45207725206359, 27.947514573338935], [51.496423785329455, 27.893040839263392], [51.57032311302129, 27.87763092722554], [51.683442877886534, 27.830580872709163], [51.78529543703485, 27.83545350387618], [51.859629754209834, 27.845892645329343], [51.963715040416844, 27.83844635591464], [52.052582227387916, 27.81736888216824], [52.20720462279513, 27.698228256928587], [52.423106316103656, 27.646633205058436], [52.4925236340585, 27.60944244960939], [52.567637566320684, 27.540716864092076], [52.59839928519892, 27.4858259138349], [52.65414472719743, 27.460882879641247], [52.60523522182808, 27.412054754823146], [52.601328971554835, 27.352932032986985], [52.732188346714906, 27.301336981116833], [52.84831790504734, 27.21527741102375], [52.91472415519564, 27.19196198066095], [52.99219811265283, 27.146958725564787], [53.02865644583835, 27.104071355808458], [53.4121199882469, 26.993557033030697], [53.46111087326824, 26.957098699845176], [53.47144616011224, 26.889634507026926], [53.588633660215294, 26.78876373865569], [53.66382897212941, 26.749090886735075], [53.71607506571178, 26.708563543972446], [53.77613365984058, 26.71426015827973], [53.842784049844056, 26.702093816676324], [53.92937259217143, 26.718003648349736], [53.99512779970826, 26.745591539218196], [54.053721550209445, 26.731634832681436], [54.15040123772701, 26.70819733284071], [54.24756920675355, 26.71084219041478], [54.30811608239134, 26.714992579643877], [54.3566186859037, 26.662827866612815], [54.38941490957046, 26.605129298578333], [54.516612175211776, 26.592515367090584], [54.590586785152084, 26.559963283278933], [54.61996504005458, 26.508246161031536], [54.749685091993456, 26.508937892569747], [54.8015242846181, 26.49823639459396], [54.930674675396006, 26.57265859621731], [55.02686608230391, 26.642645575333063], [55.10328209709115, 26.70132070458692], [55.16211998834683, 26.719142970671612], [55.215586784802326, 26.739488023053866], [55.270843946191235, 26.792547918551634], [55.397308789569024, 26.762152410805186], [55.48406009209964, 26.76752350470605], [55.55445397217312, 26.810532944839565], [55.58041425921073, 26.859116928903177], [55.58236738434738, 26.913560289276006], [55.6196395194483, 26.961371161250156], [55.66586347741759, 26.99542877761604], [55.7263289716048, 26.99616119987951], [55.78728274820031, 27.00771718959669], [55.84245852993729, 27.009751695284535], [55.92839602965307, 27.02342357034155], [55.98731529966142, 27.066351629923815], [56.05453535172518, 27.10260651218084], [56.09555097689611, 27.13613515811113], [56.1501570965728, 27.165350652810446], [56.215179883644794, 27.167873440007327], [56.25961347668067, 27.1912295592968], [56.353037957435845, 27.201605535966735], [56.436534049606735, 27.17885976766422], [56.52857506638628, 27.17072174671131], [56.582855664757176, 27.153143622280368], [56.71607506601157, 27.153143622280368], [56.78443444129647, 27.125311590657418], [56.831390820629906, 27.096136785784097], [56.88461347723023, 27.078070379844178], [56.84408613356828, 27.04022858268297], [56.8908797535978, 27.017035222697416], [56.9425561860192, 26.991115627284444], [56.96648196736896, 26.927232164332963], [57.01124108171058, 26.868882553686944], [57.0900171225922, 26.61880117363529], [57.07634524843451, 26.447455144639264], [57.107106967312745, 26.382269598263406], [57.13103274776313, 26.29661692912805], [57.19922936284485, 26.198187567402385], [57.2019962898969, 26.1462263044005], [57.16456139369342, 26.094916083110775], [57.18051191519277, 26.046861070382135], [57.198578321132686, 25.995021876858175], [57.2436629567801, 25.967027085031987], [57.27442467475896, 25.899400132010555], [57.29867597741446, 25.84870026170779], [57.3115340496567, 25.784125067218156], [57.459971550146975, 25.769029039258783], [57.520681185987996, 25.743557032830836], [57.58716881578829, 25.748521225774027], [57.68718509241813, 25.746405341333514], [57.75562584735502, 25.742743230915437], [57.78305097712098, 25.699774480607857], [57.77173912905761, 25.635565497249956], [57.843516472207455, 25.672837632350877], [57.925303581794935, 25.701320704786724], [57.99431399789273, 25.65916575729392], [58.024180535203584, 25.601874091116485], [58.07309003967367, 25.56362539299755], [58.13786868599112, 25.549790756838036], [58.20728600394597, 25.54930247622832], [58.26075280040146, 25.565741278337384], [58.321055535284756, 25.580796617370027], [58.38965905042488, 25.610296941750505], [58.48414147205136, 25.58466217691796], [58.54639733207125, 25.593654689612265], [58.72803795718602, 25.56362539299755], [58.81373131614737, 25.56362539299755], [58.84961998817198, 25.528794663642884], [58.92351321666166, 25.51337311437777], [58.99431399769287, 25.419623114115495], [59.04395592532575, 25.39960358303898], [59.09408613356828, 25.406398829842146], [59.195323113071254, 25.422919011603142], [59.39728810256395, 25.451845653054477], [59.453901756361006, 25.46160749259178], [59.53798983266472, 25.399749989070813], [59.61399704262948, 25.38377665986502], [59.77487302586951, 25.38986858286887], [59.861696243586834, 25.34305680282921], [59.940822838403335, 25.354911352177226], [59.994423416207724, 25.356849768002462], [60.04532534259056, 25.36385832320309], [60.09791100398968, 25.35814036708433], [60.1508895189362, 25.335272528404516], [60.20920954998081, 25.319688555282653], [60.20150800868771, 25.37116120042913], [60.27125084704903, 25.379584051962468], [60.319223345181285, 25.32985143129855], [60.382823113396, 25.32025788009713], [60.45564507575972, 25.292790075701475], [60.4248152997863, 25.3363711609004], [60.39527428468057, 25.377875066681042], [60.42847741020438, 25.419623114115495], [60.51417076916573, 25.4473330753612], [60.565196159874915, 25.438625393247378], [60.604746941418284, 25.39716217729267], [60.60499108217277, 25.341050523263107], [60.632334832286745, 25.29608795799294], [60.727712436379875, 25.264390366822], [60.86670983159348, 25.234605210062455], [61.03060957117481, 25.209784247145365], [61.17026860930895, 25.164440118416792], [61.24353001459855, 25.111885811880768], [61.41171650311418, 25.059408165354625], [61.475108268931535, 25.111639716000127], [61.51880944060326, 25.163519597551442], [61.558360222146575, 25.200506902971256], [61.554453971873386, 25.254095769803996], [61.58822675855811, 25.202093816976117], [61.620041951375015, 25.28548614536936], [61.643192992862396, 25.613321431938573], [61.67347538298259, 25.658279927776505], [61.665310505575405, 25.73238393217281], [61.68143355301612, 25.795480855257324], [61.739311157184204, 25.80328399655923], [61.80990116410749, 26.167447815364426], [61.83294885280736, 26.22537709457731], [61.977746216015134, 26.273177795219112], [62.03226485234114, 26.302891744558394], [62.09417321791972, 26.314829000058353], [62.123835490415615, 26.373998515419203], [62.205897664845395, 26.355343323335774], [62.265118856150366, 26.36097605430149], [62.24899580870965, 26.41652821940187], [62.28754642722589, 26.45662913062995], [62.29829512521991, 26.508770650145436], [62.347594441730166, 26.53331695561309], [62.402474813262074, 26.543807271188655], [62.59533125863072, 26.58070424420555], [62.64059981283117, 26.605147196885696], [62.701939737628834, 26.60401031532382], [62.74271244332465, 26.641320698591414], [62.990449259325885, 26.63889190673615], [63.068894082595875, 26.632535706257897], [63.13126753796655, 26.62581776967437], [63.17431400588674, 26.68503896097934], [63.18227217592022, 26.830249735337077], [63.24666101109682, 26.85955027262702], [63.24397383592384, 26.9224404910359], [63.22991784693113, 27.05406036439433], [63.26092370656386, 27.115606994767063], [63.31962813303198, 27.117312317109793], [63.28557336391964, 27.184646708079185], [63.22681726060813, 27.22696970558752], [63.17710453294791, 27.258440654112974], [63.112302286621286, 27.243196105815684], [63.05618168163937, 27.243196105815684], [63.003781778806115, 27.228778381617076], [62.91960087088353, 27.214877421355936], [62.86084476757202, 27.219631653178283], [62.808548218425585, 27.22536773693156], [62.74235070811875, 27.26681223619579], [62.78064294421654, 27.316059875862607], [62.808599894369706, 27.45336415613093], [62.78028120901064, 27.82972361285448], [62.73568444837866, 27.994984843275972], [62.766380248749556, 28.211483257446446], [62.73930179863913, 28.258327941881078], [62.57564253777298, 28.22902740459108], [62.492288452150376, 28.300702616232797], [62.4642798260532, 28.349821065589765], [62.41074304165812, 28.380697734013268], [62.362787313184015, 28.418886617323608], [62.23070235183212, 28.442451070860272], [62.147503295840465, 28.475265604723916], [62.04911136929434, 28.48632436108045], [61.97113163221911, 28.518983866212523], [61.91129032418917, 28.53373748809463], [61.861164183580286, 28.574768575309577], [61.797705526189134, 28.626574198940204], [61.7561576741374, 28.673961486633345], [61.65301151576887, 28.75633372032496], [61.59534061717579, 28.84268503858374], [61.56133752490689, 28.885938212078884], [61.51090132683481, 29.007377828224264], [61.46800988764625, 29.041742655699068], [61.460878539912756, 29.093884176113875], [61.437727498425375, 29.139617818307727], [61.39276900258744, 29.17046864830951], [61.37416548644808, 29.223850403073698], [61.33282434087067, 29.274906717870806], [61.34470992042657, 29.329528706984263], [61.319801879753015, 29.38539093044716], [60.84437870291487, 29.85817860985503], [60.978427368128564, 29.99439768540492], [61.27215620964142, 30.29830678323151], [61.46170536311206, 30.49452219644229], [61.785199829008945, 30.831400858662732], [61.802356404324655, 30.878529764836856], [61.804526814660846, 30.949739887585793], [61.826437621798846, 31.014955545961755], [61.809281045583816, 31.08714752244026], [61.78768029770765, 31.15861602940629], [61.75243697108942, 31.21912913010533], [61.74923303197892, 31.30237986294037], [61.70654829926468, 31.35984405505917], [61.66117639137741, 31.381909891828116], [61.29479048719128, 31.42764353492123], [60.85502404812138, 31.48273061112883], [60.80996219859662, 31.588357239095387], [60.794976033617104, 31.636674703674714], [60.80531131956178, 31.733981426401783], [60.79146203614408, 31.826533916407186], [60.796733031903955, 31.936759745665768], [60.784020630048076, 31.98926300038721], [60.782677042911246, 32.042541402363895], [60.814819783206474, 32.08786163340773], [60.82825565637347, 32.167443339138856], [60.83032271302284, 32.24888539684366], [60.75229130090287, 32.49458099371793], [60.57752160683674, 32.99434377044872], [60.56294885300724, 33.05826751763186], [60.56150191218353, 33.1373066210038], [60.757045532725215, 33.366336568078225], [60.81864383994133, 33.404887186594465], [60.82928918424852, 33.47012868159345], [60.897295369685594, 33.49702626455053], [60.879622030432415, 33.54870269787125], [60.80737837711047, 33.55815948557188], [60.733894490338514, 33.55485219367387], [60.65555301895671, 33.55989064543701], [60.57483443166376, 33.58779591874668], [60.51178918542263, 33.6383871464497], [60.48688114474908, 33.71138010680653], [60.52584517441534, 33.80214976010342], [60.499386841029946, 33.994256898437186], [60.48677779106225, 34.094276632060996], [60.52088423701798, 34.186131490076264], [60.58744348163145, 34.25026194283447], [60.63498579895554, 34.27121673556394], [60.89047408031462, 34.31891408341829], [60.80489790841182, 34.41748687801709], [60.76727746588239, 34.46415069619775], [60.72531620268069, 34.50427744584749], [60.794045857630294, 34.55411936471694], [60.883859497417916, 34.61370229122781], [60.935845988201834, 34.63566477520925], [60.9586869713267, 34.69958852059381], [61.0096399333363, 34.76098012313423], [61.034754679584864, 34.80624867823394], [61.07340865088861, 34.84769317659885], [61.071548298914934, 34.92055694574651], [61.09531945802661, 34.98101837230007], [61.115886678027834, 35.0598766076194], [61.147305948810526, 35.10209625234023], [61.10152062977329, 35.18322825168252], [61.101623982560795, 35.235318095253945], [61.12270796739881, 35.28766632124376], [61.18709680167609, 35.30037872309964], [61.1904040935741, 35.36957346604265], [61.22182336435685, 35.42424713199961], [61.24704146339286, 35.4850702928598], [61.28383508272293, 35.52728993758063], [61.277013794251275, 35.609197082379524], [61.245387817893516, 35.64929799540619], [61.22916141766535, 35.698597311017124], [61.24972863766658, 35.74577789313531], [61.25613651498821, 35.80913320043692], [61.24735152175538, 35.87620920808854], [61.22182336435685, 35.92452667266787], [61.16807987438676, 35.96235382077225], [61.17459110539528, 36.015838928323944], [61.198155558032624, 36.06079742416182], [61.22275354034366, 36.11753814766746], [61.205493611341126, 36.221097717185955], [61.185443156176746, 36.28398793559478], [61.160948527552534, 36.328636373070196], [61.15247359178289, 36.406306050883586], [61.17397098777093, 36.48681793260158], [61.1822392170663, 36.54164662729005], [61.17397098777093, 36.602314759418675], [61.07547570843724, 36.647790019194076], [60.64108361791472, 36.64148549465989], [60.342290487116315, 36.637144673987564], [60.28865034993373, 36.681069641051124], [60.259608195062185, 36.742409566748165], [60.132587524794474, 36.87340932158298], [60.0863887937079, 36.93002085387934], [60.04887170396603, 36.99402211542832], [59.98158898894076, 37.038825583434004], [59.89952681541024, 37.050556131560256], [59.79720747934175, 37.11220611561981], [59.65323693843402, 37.14967152941762], [59.60497115069808, 37.12388498960064], [59.57985640444957, 37.16780995756352], [59.54120243314583, 37.19984934507124], [59.478157186005376, 37.204138488900185], [59.444670857674, 37.26418650340446], [59.38203902168357, 37.305682678612754], [59.350723103688324, 37.388364969767565], [59.36198856741851, 37.43921457988898], [59.35165327967519, 37.49383656810318], [59.31227583795959, 37.53034596659313], [59.2331075442778, 37.51471384736624], [59.07828495258855, 37.59274525858689], [59.0345666911, 37.62452626457548], [58.97813602685619, 37.639512431353694], [58.86103723138319, 37.668089498231836], [58.80109256966642, 37.69465118440468], [58.75902795457648, 37.65615224273188], [58.70425093583208, 37.6446283965833], [58.61588423686811, 37.65951121057395], [58.56565474437099, 37.69485788997969], [58.51428837121142, 37.69147308371589], [58.47966516131817, 37.644111634444414], [58.371764770228026, 37.6303657029149], [58.31884810435656, 37.65305165640888], [58.24092004412478, 37.66232757605684], [58.19926883928554, 37.722194723407824], [58.18118208798302, 37.77485300686084], [58.10687137891108, 37.79343068457848], [58.04093225102264, 37.80570383776194], [57.884145954572205, 37.865338440216874], [57.80001672259374, 37.86763804176229], [57.75474816929261, 37.901021016406844], [57.69118615731537, 37.9202704876929], [57.61232792199604, 37.91660146058899], [57.561374959087175, 37.928228658625756], [57.49626265439804, 37.92231170681987], [57.35239546717713, 37.967528585076195], [57.346814412155425, 38.046929423654035], [57.322939901155564, 38.105117086184634], [57.27860152204266, 38.162943014408654], [57.24883589675926, 38.211518861406375], [57.22113732902454, 38.25859608983774], [57.163983195268315, 38.27647613556525], [57.11468387875806, 38.232111918030625], [57.07044885243266, 38.20505930634198], [57.018048949599404, 38.18981475894401], [56.827879679403736, 38.224954732774734], [56.77816695174346, 38.244488424001645], [56.729384399170726, 38.271050110174485], [56.6013302001287, 38.23686614985297], [56.54520959514673, 38.254100240433786], [56.43648238085723, 38.25508209236472], [56.36640913877079, 38.22552317355564], [56.30336389163034, 38.17942779615589], [56.32899540181637, 38.12377227826806], [56.29974654136987, 38.0802348839328], [56.21406701667951, 38.06884023079209], [56.16187382032058, 38.082379455847274], [55.97842248580912, 38.06589467409998], [55.921888468777865, 38.08144927986041], [55.85408898891575, 38.085996806107744], [55.80034549984498, 38.107804259558975], [55.738437134266405, 38.11860463529575], [55.5109574790045, 38.085841775577535], [55.44739546702726, 38.08367136703998], [55.34879683400675, 38.03049631785086], [55.296086873710294, 38.00755198193849], [55.22880415868502, 37.985796204431324], [55.149635864103914, 37.95747751907231], [55.10354048670416, 37.91879770934685], [55.05351770068137, 37.884407042551004], [55.00680220565732, 37.84309173629464], [54.85663049300291, 37.761132914652364], [54.81363570192616, 37.71862904909142], [54.78728072132827, 37.651863098003616], [54.80939823404134, 37.6033389287486], [54.79141483642559, 37.53993194640225], [54.75834191924423, 37.500554504686704], [54.710799601020824, 37.47569814085659], [54.653955525627055, 37.438904520627204], [54.55597701023089, 37.44360707740475], [54.36415409363656, 37.36268178363747], [54.30637984225598, 37.35322499593684], [54.24302453585369, 37.34495676664153], [54.18659387340858, 37.32374359059429], [53.913747591977824, 37.342759507045685], [53.92318769635517, 37.25800202037698], [53.95801842481052, 37.17853424705788], [53.98031660232937, 37.094061590969716], [54.02003014407592, 37.02773672137266], [53.99439537924343, 36.97915273640973], [54.033050977420714, 36.8457705749521], [53.8891707689159, 36.79360586102172], [53.70101972667908, 36.81659577007878], [53.63599694140578, 36.85700104426286], [53.71900475386633, 36.870672919319816], [53.77711022195922, 36.88373444159129], [53.83073978041659, 36.880275783001025], [53.94760175921385, 36.898749090797935], [54.00424238367913, 36.91461823084671], [53.885915561254194, 36.90582916908096], [53.49236087275614, 36.887884832618965], [53.11573326877539, 36.82225169456012], [52.779307488050165, 36.74038320532071], [52.60865319059235, 36.71238841439384], [52.4305119147931, 36.68512604393186], [52.258555534810114, 36.65094635628935], [52.09408613406788, 36.60252513242898], [51.9090275401889, 36.58270905228102], [51.730967644041584, 36.6242536478876], [51.54607181126511, 36.65094635628935], [51.36784915491461, 36.69257233334656], [51.08863365981563, 36.73700592728176], [51.004730664888314, 36.76764557488343], [50.86085045728282, 36.8495547548481], [50.703135612618496, 36.91844310056871], [50.65870201868324, 36.954331772593264], [50.51343834710207, 37.02326080903913], [50.42945397162356, 37.08295319203626], [50.357188346964676, 37.12653229423006], [50.29224694134331, 37.1928164731018], [50.26872806095133, 37.24689362234284], [50.23210696666325, 37.31541575693171], [50.22730553482262, 37.36542389479695], [50.148773633796225, 37.40387604384438], [50.01872806055161, 37.42772044464283], [49.93531334713333, 37.45355866130325], [49.86744225425667, 37.458563544072376], [49.44174238380401, 37.49485911705466], [49.366872592296374, 37.514960027783104], [49.20557701866454, 37.581691799237205], [49.13249759209026, 37.62335846612035], [49.06519616037457, 37.67885976826375], [49.014496290071804, 37.73916250224772], [48.9831649100326, 37.81598541889201], [48.95215905039993, 37.888006902796405], [48.941172721843714, 37.94773997561941], [48.907725457363995, 38.08348216407069], [48.89372806100124, 38.20579661732006], [48.87289472711001, 38.29555898585858], [48.8772078792403, 38.34617747561009], [48.87427819108569, 38.434068101361845], [48.809712768629424, 38.44463124583535], [48.755349161934305, 38.43522613587754], [48.710287313308925, 38.407114156093485], [48.65912764482499, 38.392644755051435], [48.60786462355361, 38.39597788537117], [48.54864343224864, 38.456258443872116], [48.49593347195224, 38.5103119913054], [48.446634155441984, 38.55640736960447], [48.41526656060336, 38.61810902960809], [48.34105920431887, 38.59958302873383], [48.29222497580207, 38.613561503360756], [48.22804284709974, 38.6621890263026], [48.22297855601562, 38.72146189355158], [48.07797448723284, 38.78094146727494], [48.01296553533126, 38.82155914333987], [47.99074466983069, 38.891218974276285], [48.05244632983431, 38.92790924081885], [48.24318404171021, 38.97387542790875], [48.29367191572641, 39.00459706670131], [48.30147505702831, 39.05803049740956], [48.271296020594946, 39.10831166585075], [48.1991040450157, 39.13823232076504], [48.14215661593511, 39.18120127431939], [48.10432946783072, 39.234841410602655], [48.124586628570114, 39.29760243780231], [48.187218464560544, 39.332587382002146], [48.249850300550975, 39.34235422806523], [48.30245690895924, 39.369897766169004], [48.288607626440864, 39.44503529933962], [48.22008467616695, 39.494024556588045], [48.05203291868429, 39.65008738262668], [47.99074466983069, 39.694270732108635], [47.93524418157375, 39.68651926675079], [47.846877481710465, 39.68527903240147], [47.745281616053774, 39.62378407797286], [47.606995483854575, 39.56358103473701], [47.55407881708379, 39.52198150674121], [47.448762246580486, 39.49469635015646], [47.3742448328328, 39.45557729085931], [47.32453210427326, 39.405967915986594], [47.24970463036448, 39.36126780256711], [47.15007246856965, 39.33114044207781], [47.102220092883044, 39.30840281174045], [47.05292077637279, 39.24494415255066], [47.030906616447226, 39.19959808398443], [46.95375370257136, 39.16065989184057], [46.898718302307884, 39.17174448661882], [46.85096927940879, 39.155492248868256], [46.806010782671535, 39.10239471494418], [46.76162072761451, 39.07058787143319], [46.72839278170159, 39.0279548137637], [46.67041182474594, 39.00490712506382], [46.61067386860418, 38.934007059778025], [46.5698494869643, 38.89773020438548], [46.51403894034485, 38.882175598625054], [46.39187585468699, 38.92235402421892], [46.304542683598015, 38.91625620525974], [46.219948365424784, 38.877162984384256], [46.12605228558459, 38.86266774492054], [46.06796797674076, 38.874114074904696], [46.001822143277366, 38.89747182196709], [45.79108565308047, 38.932095031860285], [45.71687829589666, 38.95478098625358], [45.62778812742022, 38.95550445576606], [45.57084069833962, 38.966382344969304], [45.51027591989782, 38.97865549725344], [45.459839721825745, 38.99312489829549], [45.432296183721974, 39.04247589164913], [45.39131677155183, 39.08174997967785], [45.351939330735604, 39.12831044507101], [45.320933472002196, 39.172597148239845], [45.17892663585559, 39.219829407201416], [45.13582849109207, 39.27848215772548], [45.09603763822645, 39.34111399371591], [45.05717696134775, 39.38173166978078], [45.006379028069716, 39.417956848329936], [44.957028035615394, 39.434493306920615], [44.92839929189387, 39.488236795991384], [44.898426961035454, 39.58435496031319], [44.8492309973127, 39.62559275310315], [44.806992829255705, 39.63990171239419]]], [[[54.526377799995544, 26.30963776157347], [54.49219811325236, 26.265570379669327], [54.547373894090015, 26.29043203331173], [54.526377799995544, 26.30963776157347]]], [[[54.03687584714271, 26.488430079984255], [54.035817905372085, 26.544012761779584], [53.98170006630505, 26.558905340609044], [53.92758222723808, 26.56012604438149], [53.923106315803864, 26.50653717664943], [54.03687584714271, 26.488430079984255]]], [[[53.3171492851115, 26.799994207966392], [53.367523634108466, 26.79962799683466], [53.2624617848835, 26.83364492427387], [53.17807050934658, 26.8568789731861], [53.205251498357995, 26.806219793608648], [53.27979576855995, 26.79067617396629], [53.3171492851115, 26.799994207966392]]], [[[56.322276237658286, 26.83441803636333], [56.37916100377737, 26.838690496868992], [56.4041447268977, 26.893052475791194], [56.341156446412924, 26.879339910908186], [56.322276237658286, 26.83441803636333]]], [[[56.21241295659274, 27.002997137407988], [56.04102623777072, 26.975653387294017], [55.93555748758803, 26.914780992149133], [55.757985872949746, 26.954046942212642], [55.78101647183274, 26.889634507026926], [55.78207441540201, 26.826157945033174], [55.74683678508961, 26.7832705752769], [55.64039147188896, 26.760565496800268], [55.574229363394466, 26.720689194850536], [55.40479576880972, 26.674017645198205], [55.35189863441451, 26.647447007173696], [55.28467858235075, 26.660223699764003], [55.28736412885149, 26.602280991874352], [55.29053795686127, 26.54848867411306], [55.33961022243386, 26.568996485799232], [55.397308789569024, 26.57782623918962], [55.50294029995496, 26.594875393184907], [55.55445397217312, 26.625637111163826], [55.61036217527425, 26.646918035838723], [55.664235872687414, 26.681545315164215], [55.75131269562445, 26.688544011996612], [55.80982506557439, 26.712062893287964], [55.87663821668042, 26.742905991818134], [55.924001497870904, 26.705023504830933], [55.976410351656455, 26.711574610879666], [56.02564537923092, 26.754095770403524], [56.080821160068524, 26.78534576989142], [56.13721764377931, 26.844671941756758], [56.17139733232108, 26.90680573139946], [56.255218945797765, 26.938788153150824], [56.23210696726278, 26.99876536672832], [56.21241295659274, 27.002997137407988]]], [[[56.47299238369163, 27.10602448094511], [56.43458092536946, 27.05483633003263], [56.49529056121048, 27.052313543735124], [56.47299238369163, 27.10602448094511]]], [[[50.30581748528874, 29.271275467688724], [50.30662970709534, 29.21544575022125], [50.3346506206297, 29.258660858112137], [50.30581748528874, 29.271275467688724]]], [[[54.54656009217456, 25.926499742269357], [54.54656009217456, 25.926499742269357]]], [[[55.894297721662554, 26.67942942892506], [55.85547936328203, 26.644110418960736], [55.902028841657796, 26.668850002225895], [55.894297721662554, 26.67942942892506]]], [[[53.639414910170046, 26.6887881527511], [53.639414910170046, 26.6887881527511]]], [[[55.04867597741446, 25.885768946779535], [55.04867597741446, 25.885768946779535]]]]}}]}