{"type": "FeatureCollection", "features": [{"type": "Feature", "properties": {"code": "IRQ", "name": "Republic of Iraq", "tier": "country"}, "geometry": {"type": "Polygon", "coordinates": [[[44.76613529500793, 37.141920064959095], [44.62893436662779, 37.17902374265168], [44.57823978703658, 37.166414693583306], [44.5034123131278, 37.11662445065792], [44.454423054980055, 37.07634267227655], [44.34311202010372, 37.042442932795154], [44.315878540362405, 36.99397043858494], [44.24327315273388, 36.97776987767776], [44.18746260611442, 37.066937561419365], [44.18921960440127, 37.129207662203896], [44.240120889567436, 37.15796559713465], [44.24353153515227, 37.21382781969817], [44.20689294455383, 37.26751963282487], [44.0880371498946, 37.31116037994764], [44.03558557111728, 37.318240051737064], [43.953781779105896, 37.28746673610107], [43.893630411814115, 37.2249124135771], [43.83999027643017, 37.21710927317446], [43.78056237775161, 37.220364889128405], [43.72082442340849, 37.23261220299082], [43.61829838086561, 37.22697947202505], [43.568895711567905, 37.237702331597404], [43.51711592635894, 37.25230092384862], [43.4632690836014, 37.248683573588096], [43.41676029505163, 37.27917266838398], [43.33614506144551, 37.32022959402059], [43.27862919068468, 37.30774973616144], [43.131971476402555, 37.36725514740721], [43.04350142375176, 37.360252990882884], [42.97962935431133, 37.33183095363563], [42.89674035668219, 37.32490631057783], [42.81405806462806, 37.346817118615206], [42.771580036589455, 37.37490325997754], [42.72217736819107, 37.358909403746054], [42.576966593833276, 37.17923044912595], [42.45914432794842, 37.1293110149914], [42.40188684140463, 37.11414398195927], [42.37718550630615, 37.06223500644046], [42.28158410682113, 36.99397043858494], [41.84378137341173, 36.617869364279784], [41.78993452975482, 36.58929229740164], [41.479772583338104, 36.53611724911178], [41.41486698422398, 36.52738393182307], [41.365360962138766, 36.49415598591008], [41.27699426227542, 36.35478464809307], [41.236583292684884, 36.07702382439004], [41.266245565180725, 35.99428985639179], [41.34365686057572, 35.857657369691935], [41.35926314317959, 35.79275177057781], [41.36350061016509, 35.655240783835154], [41.342209920651385, 35.59369415256316], [41.261077921309095, 35.494165343555835], [41.243094522794024, 35.36652455656309], [41.201339966066655, 35.243017883768346], [41.19152144405945, 35.182143046064766], [41.198032674168644, 34.994040833417785], [41.206507609038965, 34.81932281529572], [41.19565555825744, 34.76847320607368], [41.023986451413634, 34.494329732631115], [40.98801965258497, 34.4285197959519], [40.93603316270037, 34.38606760723434], [40.69046675613595, 34.331497294064945], [40.2120463457623, 34.09179616336229], [39.76969608520619, 33.870233459906274], [39.32744917833696, 33.64872243239438], [38.77451135241705, 33.371685079103145], [38.897191202911756, 32.99434377044872], [39.05718143757332, 32.49659637442318], [38.97821984856722, 32.47496978812529], [39.028759399426804, 32.328337911365566], [39.235775186575665, 32.3528583784115], [39.27112186688072, 32.311956482405776], [39.291999145244404, 32.244518737749615], [39.14616825326232, 32.125843811143], [39.5532751872002, 32.063728739989415], [40.02900842330013, 31.994482320202962], [40.37027958213707, 31.938465068008554], [40.42412642399535, 31.920533345437605], [40.84590946544955, 31.70633453371181], [41.284539022058254, 31.482833963916335], [41.63542199732734, 31.304033508439716], [42.07539514197225, 31.079861145075824], [42.47971154794965, 30.778639222422214], [42.858706502103416, 30.49467722607318], [43.05290653460895, 30.357786356954875], [43.43174646003115, 30.09056752567085], [43.89006473839703, 29.767383118136422], [44.32895267742418, 29.457789613399996], [44.69182458503661, 29.201836243148136], [45.2299829506527, 29.152459412272094], [45.742406453295246, 29.111867574628945], [46.3574593503688, 29.063136698899598], [46.53243575000988, 29.09574452718823], [46.71185632311085, 29.271392720397785], [46.77448815910134, 29.363531799253167], [46.838566935016104, 29.424975077737713], [46.883112019704015, 29.512514954401695], [46.95783614082529, 29.620441183014236], [46.983674356586334, 29.698291727980916], [47.02542891421308, 29.77213734995877], [47.110488322178355, 29.96091135707354], [47.14469812002227, 30.003337707369326], [47.19709802285553, 30.03424021421455], [47.35822513817965, 30.09211781838269], [47.41579268398522, 30.098215637341866], [47.67417484519302, 30.098215637341866], [47.731432332636075, 30.088552144965547], [47.948008659572054, 29.994045314839468], [47.94849694108103, 30.062323308673797], [47.969004753666525, 30.004055080377725], [48.03825931141813, 30.03685130404449], [48.119151237639585, 30.044989324997402], [48.20923912928242, 30.02448151241191], [48.26465904997525, 29.99396393428816], [48.33545983190578, 29.961411851375885], [48.41187584669302, 29.938421942318826], [48.52051842488544, 29.928900458289547], [48.49303959120425, 29.971763407855065], [48.4442570404301, 30.020907694734376], [48.42394820194801, 30.08364288441163], [48.38307214256537, 30.138419901357395], [48.410615681568515, 30.19154327460251], [48.358164102791136, 30.251797994681738], [48.30571252491313, 30.312827861116943], [48.23507084114647, 30.31851226802678], [48.18768355255395, 30.340836487214176], [48.170475301294175, 30.406672261415792], [48.130581095641105, 30.447496643055672], [48.013585652955555, 30.46387807201546], [48.01544600402991, 30.97624989871389], [47.6729346108437, 30.994698385222364], [47.67892907701537, 31.407851461275982], [47.831322875950036, 31.76183502196875], [47.82078088443035, 31.823588358815755], [47.76528039527409, 31.864102682093176], [47.72523116088939, 31.914332173690923], [47.68264978006334, 31.97691233373729], [47.633143757978075, 32.026935119760026], [47.595006552410496, 32.08543284155246], [47.54364017655297, 32.11457834921151], [47.49816491677757, 32.14413726802053], [47.507673380422204, 32.1998444627518], [47.4791479903875, 32.25206349843177], [47.43687666792391, 32.29368886305065], [47.39579390476496, 32.3370195518109], [47.41641280071025, 32.3879725138205], [47.36732019067432, 32.43076060022156], [47.32194828278705, 32.468226013120045], [47.26531091296829, 32.48468495734494], [47.205469604938344, 32.464040222078665], [47.15255293816762, 32.45517771358067], [47.0905928957456, 32.47455637607595], [46.75733158378563, 32.71619537401733], [46.71588708542072, 32.75601206530462], [46.6503613686823, 32.789369202426826], [46.604421020913435, 32.82068512042201], [46.507321004660696, 32.86802073217109], [46.37962853992525, 32.931763611301676], [46.2734334720771, 32.959488016558794], [46.155559529348864, 32.948351745836476], [46.097010131612365, 32.95432037358643], [46.08801843280446, 33.006720276419685], [46.12615563927136, 33.047983907631306], [46.043266643440916, 33.08345977824621], [46.08915531436634, 33.11568003380654], [46.15344079585611, 33.1542564907445], [46.157678263740934, 33.20567454074751], [46.15530114782979, 33.26021901459592], [46.109515828792496, 33.293705342927296], [46.06972497592693, 33.3408600884224], [46.03107100462324, 33.382511290563684], [46.01939213064236, 33.438399353347506], [45.974433634804484, 33.490799255281445], [45.899399454421314, 33.47630401671705], [45.8525806084084, 33.49436492959785], [45.915625854649534, 33.53580942796276], [45.89970951368315, 33.58516042131646], [45.864362833378095, 33.6264240534274], [45.79754520634623, 33.61931854231693], [45.752018269727444, 33.586762389972364], [45.72111576378154, 33.64076426236085], [45.6739868567081, 33.669031270876474], [45.6351261798294, 33.714170633867695], [45.616729370164364, 33.768689270193704], [45.57476810696261, 33.80393259681193], [45.48578129037429, 33.9386530555941], [45.42371789516477, 33.93878224680327], [45.38036136888212, 33.973560486327415], [45.435190063570644, 34.02213633242587], [45.45487878442839, 34.06985951780257], [45.53435713737207, 34.12820220996406], [45.52665734885761, 34.17931020160455], [45.561022176332415, 34.26460215266724], [45.54221195461804, 34.331600646852394], [45.479270060265094, 34.329146016575464], [45.417051635424684, 34.44435862255244], [45.479270060265094, 34.46725128162143], [45.50484989540638, 34.52378529865268], [45.50066410256636, 34.59168813130225], [45.573941284662624, 34.56729685456622], [45.673573445558134, 34.55665151025903], [45.68762943455084, 34.65323476167498], [45.659517455666105, 34.69721140558198], [45.662824747564116, 34.76325388625787], [45.67657067909363, 34.818289287420725], [45.74540368683074, 34.84097524001538], [45.755118856050444, 34.90996327738338], [45.80803552282117, 34.897870992252535], [45.857851603268955, 34.93130564374053], [45.859711955242574, 34.994247538093475], [45.893094929887184, 35.04437367780304], [45.92017338089687, 35.089642232902804], [45.979239542570895, 35.07155548160023], [46.039752645068575, 35.075534566167335], [46.09452966291366, 35.08581817616795], [46.14310550991138, 35.09951243085408], [46.143828979423915, 35.159612122201736], [46.169253784034936, 35.216249492020495], [46.11540694217672, 35.2263263964461], [46.12739587362074, 35.28906158432471], [46.09628666209983, 35.341151428795456], [46.0409928794179, 35.38156239838605], [45.97701745629064, 35.46532989515856], [45.97133304758211, 35.518039856354335], [45.959344116138084, 35.578707987583584], [45.99231367963267, 35.62438995383337], [46.00378584803849, 35.67425771112454], [46.107035360093846, 35.68981231688497], [46.177728718905314, 35.715392151126935], [46.237880086197094, 35.715547180757824], [46.29751468955135, 35.759885558971405], [46.327073608360365, 35.803500468571826], [46.281391642110634, 35.82830515555855], [46.227441446565535, 35.80572255485208], [46.163517700281716, 35.797506002400155], [46.11985111473723, 35.84287790938805], [46.06042321785725, 35.857243957642595], [46.004922729600366, 35.837968648834135], [45.941257364835565, 35.84034576474528], [45.88849572769573, 35.834868063410454], [45.83475223772564, 35.81052846261849], [45.74902103709127, 35.8109935506119], [45.69321048957249, 35.87987823519245], [45.64685672975435, 35.9332083131132], [45.58985762562895, 35.959614970554526], [45.539989868337784, 35.99397979802933], [45.479270060265094, 36.01201487158909], [45.419945516172675, 35.998268941858214], [45.35958744330594, 35.976874898657684], [45.31369877058182, 36.01041290293318], [45.34418786627708, 36.06746368480128], [45.30460371898647, 36.140379129893006], [45.302019898399635, 36.20755849213077], [45.26419274939593, 36.25019154890089], [45.257009724819, 36.3116865033295], [45.24961999556638, 36.377935689580454], [45.221301310207366, 36.420930481556525], [45.139962606189385, 36.404394022965846], [45.08373864841997, 36.41281728099278], [45.03909021004523, 36.47984161359966], [45.00591394007631, 36.51870229137768], [45.01418216937168, 36.57900868740103], [45.04430952986098, 36.64934031190592], [45.01097823116049, 36.72556304979497], [44.96643314557326, 36.749334208906646], [44.92271488408471, 36.77589589507954], [44.85119470207388, 36.78121856678348], [44.834141480445, 36.83403188076676], [44.883440796055936, 36.88684519474998], [44.87486250839811, 36.9496578978937], [44.88571455917963, 37.005080871784855], [44.84757735181341, 37.044044900551796], [44.797296183372225, 37.04848907491095], [44.760657592773725, 37.085644429446916], [44.76613529500793, 37.141920064959095]]]}}]}