{"type": "FeatureCollection", "features": [{"type": "Feature", "properties": {"code": "ISL", "name": "Iceland", "tier": "country"}, "geometry": {"type": "MultiPolygon", "coordinates": [[[[-20.60155649999996, 63.29596602100008], [-20.60155649999996, 63.29596602100008]]], [[[-20.31996, 63.387002521000056], [-20.31996, 63.387002521000056]]], [[[-20.363647499999956, 63.39589402100006], [-20.363647499999956, 63.39589402100006]]], [[[-20.18954149999996, 63.44511852100004], [-20.18954149999996, 63.44511852100004]]], [[[-20.242756499999928, 63.45233052100008], [-20.30722549999996, 63.44720552100006], [-20.290036, 63.39730802100007], [-20.23773549999993, 63.42659002100004], [-20.242756499999928, 63.45233052100008]]], [[[-20.174135, 63.46155702100003], [-20.174135, 63.46155702100003]]], [[[-21.837378499999943, 64.15527352000004], [-21.837378499999943, 64.15527352000004]]], [[[-21.907389, 64.16519852000005], [-21.907389, 64.16519852000005]]], [[[-21.785888499999942, 64.17897752000005], [-21.785888499999942, 64.17897752000005]]], [[[-15.184822, 64.24135601900008], [-15.184822, 64.24135601900008]]], [[[-15.402503499999966, 64.24347001900003], [-15.402503499999966, 64.24347001900003]]], [[[-15.183003, 64.24586151900007], [-15.183003, 64.24586151900007]]], [[[-15.397367, 64.24845451900006], [-15.397367, 64.24845451900006]]], [[[-15.380894499999954, 64.24727351900003], [-15.380894499999954, 64.24727351900003]]], [[[-15.398654, 64.25542151900004], [-15.398654, 64.25542151900004]]], [[[-15.380076, 64.25562901900008], [-15.380076, 64.25562901900008]]], [[[-21.544493, 64.37332601900005], [-21.544493, 64.37332601900005]]], [[[-22.20071749999994, 64.47467851900007], [-22.20071749999994, 64.47467851900007]]], [[[-22.213037, 64.48700851900003], [-22.213037, 64.48700851900003]]], [[[-22.29202, 64.50239001900007], [-22.29202, 64.50239001900007]]], [[[-22.049762, 64.51121951900006], [-22.049762, 64.51121951900006]]], [[[-22.275006, 64.51431901900008], [-22.275006, 64.51431901900008]]], [[[-22.252075499999933, 64.52262201900004], [-22.252075499999933, 64.52262201900004]]], [[[-22.23472449999997, 64.52968201900006], [-22.23472449999997, 64.52968201900006]]], [[[-22.337053, 64.53377851900007], [-22.337053, 64.53377851900007]]], [[[-22.289488, 64.53798401900008], [-22.289488, 64.53798401900008]]], [[[-22.350220499999978, 64.55648651900003], [-22.350220499999978, 64.55648651900003]]], [[[-22.375706, 64.56133651900006], [-22.375706, 64.56133651900006]]], [[[-14.534188, 64.56909251900004], [-14.534188, 64.56909251900004]]], [[[-14.55376949999993, 64.56912001900008], [-14.55376949999993, 64.56912001900008]]], [[[-14.15868949999998, 64.59720901900005], [-14.15868949999998, 64.59720901900005]]], [[[-22.371655, 64.60478751900007], [-22.371655, 64.60478751900007]]], [[[-14.331984, 64.62365451900007], [-14.331984, 64.62365451900007]]], [[[-22.39775949999995, 64.72937251900004], [-22.45869449999998, 64.76145651900003], [-22.412122, 64.73028551900006], [-22.39775949999995, 64.72937251900004]]], [[[-22.480862499999944, 64.77214001900006], [-22.480862499999944, 64.77214001900006]]], [[[-22.52531149999993, 64.77921351900005], [-22.52531149999993, 64.77921351900005]]], [[[-22.509505, 64.77994401900008], [-22.509505, 64.77994401900008]]], [[[-13.694271, 64.89063151800008], [-13.694271, 64.89063151800008]]], [[[-13.622987499999965, 64.89765751800007], [-13.622987499999965, 64.89765751800007]]], [[[-13.51746849999995, 64.97251801800007], [-13.51746849999995, 64.97251801800007]]], [[[-22.857330499999932, 65.00756851800003], [-22.857330499999932, 65.00756851800003]]], [[[-23.01743149999993, 65.01322001800008], [-23.01743149999993, 65.01322001800008]]], [[[-22.87267849999995, 65.02097901800005], [-22.87267849999995, 65.02097901800005]]], [[[-22.473562, 65.04861501800008], [-22.473562, 65.04861501800008]]], [[[-22.460350499999947, 65.05344651800004], [-22.460350499999947, 65.05344651800004]]], [[[-22.557749499999943, 65.06206251800006], [-22.557749499999943, 65.06206251800006]]], [[[-22.516799499999934, 65.05907101800005], [-22.516799499999934, 65.05907101800005]]], [[[-22.44164, 65.07180501800008], [-22.44164, 65.07180501800008]]], [[[-22.519956499999978, 65.07017051800005], [-22.519956499999978, 65.07017051800005]]], [[[-22.684228, 65.07264451800006], [-22.684228, 65.07264451800006]]], [[[-22.74341549999997, 65.07485101800006], [-22.74341549999997, 65.07485101800006]]], [[[-22.449270499999955, 65.08555251800004], [-22.501942, 65.08260851800003], [-22.452458499999977, 65.07366351800005], [-22.449270499999955, 65.08555251800004]]], [[[-22.48564, 65.08440951800003], [-22.48564, 65.08440951800003]]], [[[-22.450209, 65.09111701800003], [-22.450209, 65.09111701800003]]], [[[-22.48762, 65.09204551800008], [-22.48762, 65.09204551800008]]], [[[-22.450696, 65.09428701800005], [-22.450696, 65.09428701800005]]], [[[-22.444579499999975, 65.10766551800003], [-22.444579499999975, 65.10766551800003]]], [[[-22.589234, 65.10663201800003], [-22.589234, 65.10663201800003]]], [[[-22.424227499999972, 65.10413901800007], [-22.424227499999972, 65.10413901800007]]], [[[-22.442992499999946, 65.11035551800006], [-22.442992499999946, 65.11035551800006]]], [[[-22.48802, 65.10662951800003], [-22.48802, 65.10662951800003]]], [[[-22.459641499999975, 65.11745251800005], [-22.459641499999975, 65.11745251800005]]], [[[-22.586518499999954, 65.11938251800007], [-22.586518499999954, 65.11938251800007]]], [[[-22.70088949999996, 65.12479751800004], [-22.70088949999996, 65.12479751800004]]], [[[-22.578247499999975, 65.12685351800008], [-22.578247499999975, 65.12685351800008]]], [[[-22.553737499999954, 65.12983851800004], [-22.553737499999954, 65.12983851800004]]], [[[-22.586691499999972, 65.13489351800007], [-22.586691499999972, 65.13489351800007]]], [[[-22.745647, 65.13602801800005], [-22.745647, 65.13602801800005]]], [[[-22.639677, 65.13826301800003], [-22.639677, 65.13826301800003]]], [[[-22.42316, 65.14219101800006], [-22.42316, 65.14219101800006]]], [[[-22.532791, 65.14339251800004], [-22.532791, 65.14339251800004]]], [[[-22.802432, 65.14455551800006], [-22.802432, 65.14455551800006]]], [[[-22.52519149999995, 65.14403251800007], [-22.52519149999995, 65.14403251800007]]], [[[-22.653677499999958, 65.15177551800008], [-22.653677499999958, 65.15177551800008]]], [[[-22.490246, 65.15653201800006], [-22.490246, 65.15653201800006]]], [[[-22.606976499999973, 65.18232801800008], [-22.666906499999982, 65.16302901800003], [-22.604281, 65.17954251800006], [-22.606976499999973, 65.18232801800008]]], [[[-22.56751049999997, 65.18793451800008], [-22.56751049999997, 65.18793451800008]]], [[[-22.43079, 65.25782601800006], [-22.43079, 65.25782601800006]]], [[[-22.861604, 65.26826451800008], [-22.861604, 65.26826451800008]]], [[[-22.358153, 65.29225101800006], [-22.358153, 65.29225101800006]]], [[[-22.25066, 65.36249401800006], [-22.25066, 65.36249401800006]]], [[[-22.2322, 65.37264401800007], [-22.2322, 65.37264401800007]]], [[[-22.90750849999995, 65.37799151800004], [-22.90750849999995, 65.37799151800004]]], [[[-22.817025, 65.36960101800008], [-22.817025, 65.36960101800008]]], [[[-22.123246, 65.42146551700006], [-22.123246, 65.42146551700006]]], [[[-23.013966, 65.43149701700008], [-23.013966, 65.43149701700008]]], [[[-21.989106499999934, 65.42815451700005], [-21.989106499999934, 65.42815451700005]]], [[[-22.624976, 65.44707001700004], [-22.624976, 65.44707001700004]]], [[[-22.09841549999993, 65.45947051700006], [-22.09841549999993, 65.45947051700006]]], [[[-22.845564, 65.52445501700004], [-22.845564, 65.52445501700004]]], [[[-22.835243, 65.53212351700006], [-22.835243, 65.53212351700006]]], [[[-21.404834499999936, 65.67940951700007], [-21.404834499999936, 65.67940951700007]]], [[[-14.309773, 65.78246351700005], [-14.309773, 65.78246351700005]]], [[[-19.686342499999967, 65.94283301700005], [-19.686342499999967, 65.94283301700005]]], [[[-22.444361499999957, 65.96690451700005], [-22.444361499999957, 65.96690451700005]]], [[[-18.411635, 66.02766801600006], [-18.384429499999953, 65.98256851700006], [-18.40754849999996, 66.02779051600004], [-18.411635, 66.02766801600006]]], [[[-19.524232499999982, 65.99744001700003], [-19.524232499999982, 65.99744001700003]]], [[[-22.827079499999968, 66.04842001600008], [-22.827079499999968, 66.04842001600008]]], [[[-22.658248499999956, 66.09042251600005], [-22.658248499999956, 66.09042251600005]]], [[[-17.37096749999995, 66.11322601600006], [-17.37096749999995, 66.11322601600006]]], [[[-17.837825, 66.17233701600003], [-17.837825, 66.17233701600003]]], [[[-16.094360499999937, 66.52990101600005], [-16.094360499999937, 66.52990101600005]]], [[[-16.186103499999945, 66.52988701600003], [-16.23178649999994, 66.50232601600004], [-16.28812, 66.48803801600008], [-16.337465, 66.49757801600003], [-16.39152749999994, 66.50917851600008], [-16.477278499999954, 66.51388851600007], [-16.54283049999998, 66.50915851600007], [-16.54042, 66.45598001600007], [-16.499090499999966, 66.41775051600007], [-16.510179499999936, 66.36164951600006], [-16.473675499999956, 66.32655001600006], [-16.435091, 66.29386251600005], [-16.429384, 66.23814951600008], [-16.49728349999998, 66.19722051600007], [-16.56832049999997, 66.17720451600007], [-16.711841, 66.15019251600006], [-16.813861499999973, 66.12817801600005], [-16.879783499999974, 66.12259951600004], [-16.931227, 66.12425601600006], [-16.97921249999996, 66.15798451600006], [-17.018808499999977, 66.19836401600003], [-17.098325, 66.20322401600004], [-17.154549, 66.18697751600007], [-17.22354649999994, 66.18958801600007], [-17.268615499999953, 66.16604151600006], [-17.264389, 66.11538401600006], [-17.321961, 66.09333151600003], [-17.362920499999973, 66.05188601600008], [-17.390278, 66.00229201700006], [-17.4624, 65.98700301700006], [-17.515712, 65.98412401700006], [-17.591032499999926, 65.98508001700003], [-17.663267, 65.99926051700004], [-17.703055499999948, 66.04534651600005], [-17.74717049999998, 66.07402601600006], [-17.80729249999996, 66.09266301600007], [-17.864436499999954, 66.10601801600006], [-17.914099499999963, 66.13803551600006], [-17.975959, 66.15311301600008], [-18.031763499999954, 66.14779051600004], [-18.082183, 66.14980901600006], [-18.13608849999997, 66.15143901600004], [-18.196725499999957, 66.16953101600006], [-18.25164049999995, 66.17286801600005], [-18.310499, 66.15598251600005], [-18.307838, 66.10245901600007], [-18.286392, 66.04738701600007], [-18.261167499999942, 65.99551651700006], [-18.181907, 65.95283351700004], [-18.157622499999945, 65.90872351700006], [-18.10577049999995, 65.89192851700005], [-18.065297, 65.85203501700005], [-18.058483499999966, 65.80027851700004], [-18.089697, 65.75368051700008], [-18.047541, 65.67742501700008], [-18.105001499999958, 65.69657401700005], [-18.149887, 65.72813051700007], [-18.159332499999948, 65.78125801700003], [-18.191552, 65.83759701700006], [-18.239390499999956, 65.86524751700006], [-18.27702949999997, 65.90140251700007], [-18.325129499999946, 65.94408401700008], [-18.386237, 65.95054251700003], [-18.439462, 65.95422801700005], [-18.49449149999998, 65.96362501700008], [-18.517249, 66.00973351700003], [-18.527093, 66.06015351600007], [-18.571382, 66.09505951600005], [-18.62582649999996, 66.07962101600003], [-18.629506499999934, 66.13688051600008], [-18.680403499999954, 66.16190301600005], [-18.740865, 66.15301901600003], [-18.791480499999977, 66.13190401600008], [-18.758267, 66.17283701600007], [-18.82460549999996, 66.19851001600006], [-18.893586, 66.14260901600005], [-18.925004499999943, 66.18711651600006], [-18.978193, 66.17925651600007], [-19.05041149999994, 66.15808751600008], [-19.08533049999994, 66.11619451600006], [-19.133744, 66.08859851600005], [-19.186719, 66.08053801600005], [-19.257106499999963, 66.07644051600005], [-19.32234449999993, 66.07640251600003], [-19.374078, 66.06727851600004], [-19.434468, 66.04901801600005], [-19.404795499999977, 65.99328351700007], [-19.466431499999942, 65.97264651700004], [-19.445366, 65.92538451700005], [-19.400632499999972, 65.89147451700006], [-19.363749499999926, 65.83845501700006], [-19.374104, 65.78386451700004], [-19.445541499999933, 65.74079551700004], [-19.50659749999994, 65.74950201700005], [-19.563118, 65.74757401700003], [-19.61725, 65.74408051700004], [-19.664301499999965, 65.76775701700006], [-19.687567, 65.83611251700006], [-19.731570499999975, 65.87537451700007], [-19.804598, 65.89449251700006], [-19.857073, 65.89616551700004], [-19.894530499999973, 65.93708301700008], [-19.928038499999957, 65.97446401700006], [-19.986586, 66.01470101700005], [-20.026694499999962, 66.05899151600005], [-20.077282499999967, 66.09545301600008], [-20.131089, 66.11483151600004], [-20.189722, 66.11622801600004], [-20.248708499999964, 66.10044751600003], [-20.307796, 66.10554301600007], [-20.357393499999944, 66.08587801600004], [-20.41381549999994, 66.08750851600007], [-20.418568, 66.03757051600007], [-20.389385499999946, 65.98854601700003], [-20.370720499999948, 65.93978901700007], [-20.34612549999997, 65.89496451700006], [-20.308895, 65.86099251700006], [-20.29652249999998, 65.80173751700005], [-20.265892, 65.74183251700003], [-20.293343, 65.69743051700004], [-20.323245499999928, 65.62597601700003], [-20.405964499999982, 65.60537651700008], [-20.48266049999995, 65.59647401700005], [-20.539974, 65.59362801700007], [-20.591147499999977, 65.59504301700008], [-20.628834, 65.63775851700007], [-20.658105, 65.68398001700007], [-20.727312499999982, 65.67224601700008], [-20.798955, 65.63537551700006], [-20.853313, 65.61819051700007], [-20.900522, 65.60043051700006], [-20.937933, 65.56648851700004], [-20.97724, 65.51155801700003], [-20.976698, 65.44963101700006], [-20.948342499999967, 65.39464751800006], [-20.912004499999966, 65.35779251800005], [-20.96828449999998, 65.35580651800007], [-21.004588, 65.39322801800006], [-21.04097, 65.44072351700004], [-21.095010499999944, 65.44725701700008], [-21.082503499999973, 65.38039851800005], [-21.068314, 65.32388851800005], [-21.104489, 65.27613701800004], [-21.076613, 65.21815301800007], [-21.063785, 65.16209751800005], [-21.094104, 65.21000551800006], [-21.13724449999995, 65.24357101800007], [-21.174535499999934, 65.28600101800004], [-21.179292, 65.33625901800008], [-21.18690449999997, 65.39566501800005], [-21.217890499999953, 65.43863501700008], [-21.269469499999957, 65.45919551700007], [-21.340517, 65.47240051700004], [-21.410174499999982, 65.45524801700003], [-21.46036449999997, 65.44170651700006], [-21.385014, 65.47807401700004], [-21.31038049999995, 65.52247201700004], [-21.29708949999997, 65.59377601700004], [-21.357375499999932, 65.59676451700005], [-21.412128499999938, 65.57534551700007], [-21.464816, 65.55566751700007], [-21.421337499999936, 65.60061551700005], [-21.458103, 65.63985351700006], [-21.518258499999945, 65.63840151700003], [-21.57940149999996, 65.63988451700004], [-21.632146, 65.64346051700005], [-21.670718499999964, 65.68494901700006], [-21.682402499999966, 65.73956051700003], [-21.730466499999977, 65.75423401700004], [-21.782532499999945, 65.76451351700007], [-21.729886, 65.77004301700003], [-21.674654, 65.76191701700003], [-21.626127, 65.72252751700006], [-21.58182549999998, 65.69288251700004], [-21.520104, 65.69044251700006], [-21.465720499999975, 65.68746051700003], [-21.410472, 65.70375701700004], [-21.365443, 65.72596201700003], [-21.40465949999998, 65.76418601700004], [-21.46257, 65.76231701700004], [-21.408892, 65.78012401700005], [-21.33212949999995, 65.79947101700003], [-21.28864049999993, 65.83212451700007], [-21.322088, 65.87410901700008], [-21.277519, 65.89824651700008], [-21.32263249999994, 65.94100951700005], [-21.374891, 65.93535501700006], [-21.448858, 65.93007001700005], [-21.400025, 65.94521601700006], [-21.47292249999998, 65.95271551700006], [-21.540709, 65.94893601700005], [-21.59695949999997, 65.94390801700007], [-21.53817449999997, 65.96933001700006], [-21.482375, 65.97204551700008], [-21.412077499999953, 65.98588501700004], [-21.351579499999957, 65.98726751700008], [-21.39168849999993, 66.02759001600003], [-21.44581249999993, 66.02154551700005], [-21.49732649999993, 66.01230451700008], [-21.547261499999934, 66.03013801600008], [-21.49916449999995, 66.04744951600003], [-21.542331, 66.08708901600005], [-21.602638, 66.08411201600006], [-21.615288499999963, 66.02861851600005], [-21.667259, 66.01549901700008], [-21.628678, 66.04803751600008], [-21.68356549999993, 66.05340751600005], [-21.73148, 66.06771801600007], [-21.760761499999944, 66.11713551600008], [-21.71976849999993, 66.15160901600007], [-21.762629, 66.18047851600005], [-21.834844499999974, 66.18776251600008], [-21.886981, 66.20134651600006], [-21.941004499999963, 66.21205301600008], [-21.99234249999995, 66.19998001600004], [-21.932258, 66.22275451600007], [-21.964336499999945, 66.26960451600007], [-22.015799, 66.25719401600003], [-22.077731, 66.25606201600004], [-22.13126049999994, 66.25679651600007], [-22.207437, 66.26007601600003], [-22.230476499999952, 66.30610851600005], [-22.192225, 66.34003601600006], [-22.247816499999942, 66.34012551600006], [-22.288128, 66.37813101600005], [-22.340579499999933, 66.38677501600006], [-22.386936, 66.41371951600007], [-22.419978499999957, 66.45904351600007], [-22.470858, 66.46538201600004], [-22.518753499999946, 66.43175501600007], [-22.57319, 66.46468951600008], [-22.630657499999927, 66.43760251600008], [-22.68186849999995, 66.41424501600005], [-22.730111499999964, 66.43431801600008], [-22.794684, 66.44521001600003], [-22.855956, 66.46193551600004], [-22.916061499999955, 66.46691701600008], [-22.976959499999964, 66.43362701600006], [-23.036899, 66.43134051600003], [-23.098025, 66.43582151600003], [-23.064562, 66.39045751600008], [-23.02220749999998, 66.36349751600005], [-23.085092499999973, 66.34251351600005], [-23.182207499999947, 66.35937901600005], [-23.141732, 66.32563501600004], [-23.083496, 66.31357051600008], [-23.027195, 66.29639851600007], [-22.973748, 66.29865101600006], [-22.919053, 66.30742451600008], [-22.867798, 66.33912001600004], [-22.805565, 66.35200601600008], [-22.834938, 66.31067001600007], [-22.753654499999982, 66.31921351600005], [-22.705649, 66.34055801600005], [-22.652578, 66.36119351600007], [-22.68167049999994, 66.32050551600008], [-22.623381499999937, 66.28688001600005], [-22.526171, 66.30463501600008], [-22.477771, 66.32772201600005], [-22.51773, 66.28670351600005], [-22.568205499999976, 66.26985151600007], [-22.482226499999967, 66.26383501600003], [-22.405821499999945, 66.27401851600007], [-22.462386, 66.25185401600004], [-22.515519499999982, 66.24896001600007], [-22.561423499999933, 66.21872901600005], [-22.611355499999945, 66.24396351600006], [-22.670802, 66.24113351600005], [-22.745798499999978, 66.26071551600006], [-22.810016, 66.26177801600005], [-22.86817149999996, 66.25405751600005], [-22.93130949999994, 66.23952751600007], [-22.933413499999972, 66.18274101600008], [-22.880712, 66.16112151600004], [-22.80360849999994, 66.14671701600008], [-22.747792, 66.13581251600004], [-22.694704499999943, 66.12307401600003], [-22.641092, 66.11417451600005], [-22.590367499999957, 66.10629001600006], [-22.527075, 66.08337701600004], [-22.463108499999976, 66.07546351600007], [-22.476343499999928, 66.02180401700008], [-22.420866, 66.00312301700006], [-22.381818, 65.95779401700008], [-22.338919, 65.90949851700003], [-22.409982, 65.86093351700003], [-22.463990499999966, 65.82695601700004], [-22.514078, 65.79728301700004], [-22.56256149999996, 65.78490701700008], [-22.518219, 65.80884201700007], [-22.468471499999964, 65.84046251700005], [-22.42666449999996, 65.87749351700006], [-22.421783, 65.92809251700004], [-22.466370499999982, 65.95171151700004], [-22.514131, 65.98143651700008], [-22.542070499999966, 65.93246901700007], [-22.583950499999958, 65.89458101700006], [-22.611889, 65.84464351700007], [-22.662685499999952, 65.82412451700003], [-22.630868499999963, 65.87080501700007], [-22.58824249999998, 65.91091251700004], [-22.56932949999998, 65.97747751700007], [-22.61847549999993, 66.00582101700007], [-22.667279, 66.02015901700008], [-22.716696, 66.04687901600005], [-22.770807, 66.04905451600007], [-22.780447, 65.99605851700005], [-22.798720499999945, 65.92891501700007], [-22.84066249999995, 65.89156601700006], [-22.822261, 65.94363751700007], [-22.815210499999978, 65.99341501700007], [-22.87302, 65.96093551700005], [-22.928187, 65.93876751700003], [-22.97604, 65.90926801700004], [-22.910656, 65.95589951700003], [-22.86845949999997, 65.99610051700006], [-22.924147, 65.99086751700008], [-22.94287849999995, 66.04737801600004], [-23.015267499999936, 65.98874301700005], [-23.06644749999998, 65.96484851700006], [-23.007448499999953, 66.01209951700008], [-22.98702, 66.07070951600008], [-23.036415, 66.09930501600007], [-23.105165, 66.06700101600006], [-23.156238, 66.04502151600008], [-23.113269, 66.07365701600008], [-23.148597, 66.13896551600004], [-23.200782, 66.15194451600007], [-23.2514, 66.16985701600004], [-23.308465, 66.18395551600008], [-23.37303849999995, 66.19012351600003], [-23.425167, 66.19676001600004], [-23.481014, 66.19214751600003], [-23.536153499999955, 66.17934001600008], [-23.601372, 66.15221101600008], [-23.544339, 66.14286751600008], [-23.48951949999997, 66.13528051600008], [-23.43708349999997, 66.10962951600004], [-23.387063499999954, 66.09480551600006], [-23.458921, 66.11161801600008], [-23.526513, 66.13096801600005], [-23.575938, 66.12184701600006], [-23.62747849999994, 66.11903151600006], [-23.588890499999934, 66.08236401600004], [-23.52044849999993, 66.05560651600007], [-23.450002, 66.03972201600004], [-23.40274349999993, 66.00920551700005], [-23.51907549999993, 66.02997651600003], [-23.577777, 66.03745651600008], [-23.647946, 66.05566851600008], [-23.706856499999958, 66.05885701600005], [-23.761118, 66.07053601600006], [-23.805382, 66.04342051600008], [-23.757986, 65.98169851700004], [-23.69584649999996, 65.95482851700007], [-23.643597, 65.93502201700005], [-23.568088, 65.90510301700004], [-23.50663549999996, 65.89627501700005], [-23.446715499999982, 65.88828351700005], [-23.3995, 65.86845301700004], [-23.333881, 65.86744751700007], [-23.273568, 65.85427951700007], [-23.20531649999998, 65.84350151700005], [-23.272117, 65.84168401700003], [-23.343815, 65.85607451700008], [-23.410812499999963, 65.85815551700006], [-23.472995, 65.86649951700008], [-23.528506, 65.88085751700004], [-23.58667749999995, 65.87262951700006], [-23.640005, 65.89691601700008], [-23.73120549999993, 65.91237051700006], [-23.806864, 65.92324201700006], [-23.86035149999998, 65.89184101700005], [-23.835258, 65.84348501700003], [-23.78062549999993, 65.81252201700005], [-23.735994, 65.78913101700005], [-23.67683, 65.77758501700004], [-23.598807, 65.76322201700003], [-23.52644349999997, 65.75451651700007], [-23.465965, 65.75690851700006], [-23.409825, 65.75650401700005], [-23.343101, 65.76349751700008], [-23.286246499999947, 65.76307651700006], [-23.228419499999973, 65.78083801700006], [-23.172515499999975, 65.77577451700006], [-23.221461, 65.76261901700008], [-23.297072, 65.73948501700005], [-23.37100849999996, 65.72926151700005], [-23.43052849999998, 65.72641451700008], [-23.4833, 65.72714451700006], [-23.533031499999936, 65.71994151700005], [-23.48555149999993, 65.69256001700006], [-23.381728, 65.67103051700008], [-23.326581, 65.67739851700003], [-23.265468, 65.67990801700006], [-23.33865049999997, 65.66582601700003], [-23.40305, 65.65598801700008], [-23.459371499999975, 65.64093101700007], [-23.521051, 65.61971651700003], [-23.554055499999947, 65.66158351700005], [-23.609739499999932, 65.67584551700003], [-23.66373649999997, 65.71079401700007], [-23.722528, 65.72271451700004], [-23.789141, 65.73767251700008], [-23.85920049999993, 65.75856401700008], [-23.911400499999957, 65.76261801700008], [-23.959679, 65.78543201700006], [-24.015127, 65.79722151700008], [-24.07351, 65.80662301700005], [-24.119357, 65.78492151700004], [-24.09408949999994, 65.73111001700005], [-24.034904, 65.68479551700005], [-23.95776749999993, 65.66808451700007], [-23.895168499999954, 65.64786651700007], [-23.850300499999946, 65.62160301700004], [-23.80096149999997, 65.61228501700003], [-23.860521499999948, 65.61804701700004], [-23.92876949999993, 65.63643251700006], [-24.038802499999974, 65.64667501700006], [-24.01115249999998, 65.60119851700006], [-23.960575499999948, 65.58047001700004], [-23.893580499999928, 65.55277701700004], [-23.843764, 65.53744501700004], [-23.788103, 65.53644501700006], [-23.84225349999997, 65.51428351700008], [-23.905825, 65.52598401700004], [-24.012315, 65.56006851700005], [-24.065496499999938, 65.57563751700008], [-24.122897499999965, 65.58571051700005], [-24.200478, 65.61612951700005], [-24.264840499999934, 65.63076451700005], [-24.323258, 65.63937301700008], [-24.369313499999976, 65.59722401700003], [-24.403892, 65.54401501700005], [-24.46369549999997, 65.53538201700007], [-24.508962, 65.51158701700007], [-24.436152499999935, 65.49117301700005], [-24.361126, 65.49739501700003], [-24.282697499999983, 65.49751301700007], [-24.184091499999965, 65.50116001700007], [-24.094193, 65.48270351700006], [-24.009879, 65.45898051700004], [-23.96078749999998, 65.46983401700004], [-23.95115949999996, 65.41419351700006], [-23.890267, 65.40953951700004], [-23.78376049999997, 65.41498351700005], [-23.729083499999945, 65.41561201700006], [-23.683314, 65.44478851700006], [-23.620636499999932, 65.46875001700005], [-23.563800499999957, 65.47331951700005], [-23.496341, 65.48079051700006], [-23.435771, 65.49391551700006], [-23.38437149999993, 65.49907051700006], [-23.317488, 65.48942801700008], [-23.239981499999942, 65.48368751700008], [-23.187023, 65.50459751700004], [-23.191307499999937, 65.55719551700008], [-23.142037499999958, 65.58736701700008], [-23.09171649999996, 65.54663901700008], [-23.000235, 65.54215701700008], [-22.96305549999994, 65.57876601700008], [-22.9105, 65.57736551700003], [-22.85549649999996, 65.58849551700007], [-22.801883, 65.60846101700008], [-22.837687, 65.56550451700008], [-22.785092, 65.53068501700005], [-22.739074, 65.50429701700006], [-22.737042, 65.57414451700004], [-22.769987, 65.62261901700003], [-22.71959549999997, 65.61408301700004], [-22.67150749999996, 65.63641701700004], [-22.706483, 65.59522851700007], [-22.686093, 65.54944851700003], [-22.63515949999993, 65.52119651700008], [-22.608812499999942, 65.57648651700003], [-22.568163, 65.53236601700007], [-22.532875499999932, 65.57324251700004], [-22.551246499999934, 65.62356901700008], [-22.500328, 65.59105601700003], [-22.479588499999977, 65.54460801700003], [-22.419129, 65.51863251700007], [-22.356908499999975, 65.54020151700007], [-22.30383349999994, 65.56047901700003], [-22.246168499999953, 65.53015951700007], [-22.194692, 65.55210601700003], [-22.14960549999995, 65.58831351700007], [-22.096622, 65.60372651700004], [-22.150680499999964, 65.56486001700006], [-22.196861499999955, 65.52673651700007], [-22.26113449999997, 65.51643551700005], [-22.317654, 65.51268051700004], [-22.37760849999995, 65.49519551700007], [-22.331785, 65.46818251700006], [-22.273823, 65.45133851700007], [-22.224232, 65.43350601700007], [-22.175273499999946, 65.44437801700008], [-22.13124449999998, 65.47820851700004], [-22.11519949999996, 65.53059551700005], [-22.057811499999957, 65.50056951700003], [-21.980114499999956, 65.50327851700007], [-21.931302, 65.46872001700007], [-21.879855, 65.45477701700008], [-21.818286, 65.44830001700007], [-21.76424149999997, 65.44044201700007], [-21.700337, 65.45785351700005], [-21.745937499999968, 65.42781351700006], [-21.838961, 65.41620401700004], [-21.900245499999983, 65.42110801700005], [-21.94497549999994, 65.39783251800003], [-22.006880499999966, 65.38053551800004], [-22.075475, 65.35843401800008], [-22.12246749999997, 65.34022001800008], [-22.222714499999938, 65.31285601800005], [-22.287069499999973, 65.30235801800006], [-22.345177499999977, 65.29282851800008], [-22.394606, 65.26810151800004], [-22.444545, 65.24137701800004], [-22.493078499999967, 65.22100001800004], [-22.5352, 65.19228851800005], [-22.470223499999975, 65.19307551800006], [-22.52540349999998, 65.17794651800006], [-22.474141, 65.16047051800007], [-22.423948499999938, 65.15919951800004], [-22.364225499999975, 65.15474651800008], [-22.31209149999995, 65.14142951800005], [-22.259209, 65.12985201800007], [-22.19164749999993, 65.12395501800006], [-22.133209499999964, 65.11946701800008], [-22.07366, 65.11000151800005], [-22.011176499999976, 65.11220251800006], [-21.948597, 65.12890101800008], [-21.880356499999948, 65.15432551800006], [-21.828239, 65.16972351800007], [-21.782533, 65.20727851800007], [-21.721388, 65.19565151800003], [-21.733674, 65.14452401800008], [-21.77236249999993, 65.11095051800004], [-21.818916499999943, 65.07982901800005], [-21.77629049999996, 65.04464301800004], [-21.82572849999997, 65.02784801800004], [-21.884267499999964, 65.02896801800006], [-21.961173499999973, 65.02997801800007], [-22.035084499999982, 65.03269251800003], [-22.087669499999947, 65.03699301800003], [-22.137542, 65.02734251800007], [-22.199476, 65.02889101800008], [-22.254231499999946, 65.04616301800007], [-22.306961, 65.05772201800005], [-22.359377, 65.05605751800005], [-22.42355249999997, 65.05023651800008], [-22.483151499999963, 65.04454601800006], [-22.548697, 65.04736001800006], [-22.601268, 65.02686701800008], [-22.572691, 64.97438351800008], [-22.628686, 64.99273951800006], [-22.676474, 65.01038851800007], [-22.739326499999947, 65.01660951800005], [-22.693944, 65.04249451800007], [-22.746118499999966, 65.05579501800008], [-22.814938499999982, 65.03906501800003], [-22.865008, 65.03453801800003], [-22.807818, 65.02744851800003], [-22.851527, 65.00283901800003], [-22.906529, 64.99765101800006], [-22.961667, 65.00511401800003], [-23.01717, 65.00323751800005], [-23.057172, 64.96779951800005], [-23.002182, 64.95812351800004], [-23.063109, 64.95925501800008], [-23.087116, 64.91319051800008], [-23.144383499999947, 64.94122901800006], [-23.107626, 64.99534951800007], [-23.176275499999974, 65.01104701800006], [-23.228978, 64.99462601800008], [-23.202516, 64.94808101800004], [-23.250778, 64.92172701800007], [-23.307152, 64.92484651800004], [-23.357251, 64.97175451800007], [-23.417628, 64.94797201800003], [-23.47069849999997, 64.95149701800005], [-23.526280499999928, 64.91930401800005], [-23.577436499999976, 64.91513901800005], [-23.632870499999967, 64.88993401800008], [-23.689092, 64.89151601800006], [-23.764573499999983, 64.90320551800005], [-23.81564149999997, 64.92516401800003], [-23.884090499999957, 64.91950101800006], [-23.935830499999952, 64.90792351800008], [-23.986417, 64.88169751800007], [-24.041084, 64.88642901800006], [-24.01643349999995, 64.83623751800008], [-23.967165499999965, 64.80357351800006], [-23.921149499999956, 64.76283051900003], [-23.87064849999996, 64.74379501900006], [-23.820257, 64.73532901900006], [-23.756918, 64.73697701900005], [-23.703211, 64.74237001900008], [-23.642710499999964, 64.74000651900008], [-23.620215499999972, 64.78814101900008], [-23.549765, 64.80527201800004], [-23.493952, 64.80423151800005], [-23.436095, 64.79099751900003], [-23.384797499999934, 64.80732501800003], [-23.330371, 64.82870251800006], [-23.263721, 64.82630151800004], [-23.14222849999993, 64.80964951800007], [-23.05197549999997, 64.80315501800004], [-22.990125499999976, 64.80694801800007], [-22.937315, 64.79717701800007], [-22.876031, 64.79844601800005], [-22.824851499999966, 64.79776251800007], [-22.76182, 64.79193101900006], [-22.700012499999957, 64.77323201900003], [-22.756517, 64.79461601800006], [-22.701825499999927, 64.80873151800006], [-22.656204, 64.78662401900004], [-22.606576, 64.77772551900006], [-22.553328, 64.77737901900008], [-22.50622649999997, 64.80016951800008], [-22.454775, 64.80569251800006], [-22.405007, 64.80079551800003], [-22.455183499999976, 64.78253601900008], [-22.40188749999993, 64.76933851900003], [-22.348571, 64.76850351900003], [-22.346387, 64.71678551900004], [-22.391693499999974, 64.68937251900007], [-22.337587499999927, 64.69282201900006], [-22.368102, 64.64431101900004], [-22.439569499999948, 64.65881601900003], [-22.384042499999964, 64.64153651900006], [-22.349186, 64.60548751900006], [-22.325995499999976, 64.55879051900007], [-22.26799049999994, 64.57367101900007], [-22.217112499999928, 64.55133401900008], [-22.22989249999995, 64.50069101900004], [-22.18405, 64.47557051900003], [-22.13366, 64.47126901900003], [-22.082879, 64.47296451900007], [-22.052831499999968, 64.51594751900006], [-22.001832499999978, 64.52577451900004], [-21.95206449999995, 64.55072601900008], [-21.89839749999993, 64.54958951900005], [-21.852094, 64.57004301900008], [-21.79428749999994, 64.58121951900006], [-21.814749499999948, 64.53141101900007], [-21.876463499999943, 64.52619201900006], [-21.93051, 64.51217501900004], [-21.981095, 64.47976151900008], [-22.008437499999957, 64.43471351900007], [-21.98209849999995, 64.37707201900008], [-21.936579, 64.39995301900007], [-21.883725, 64.38985151900005], [-21.946245499999975, 64.36997851900003], [-22.004452499999957, 64.35750601900003], [-22.048887, 64.33293301900005], [-22.09854249999995, 64.31788501900007], [-22.043587, 64.31262651900005], [-21.990783, 64.29893751900005], [-21.936943, 64.30520051900004], [-21.862057, 64.32192251900005], [-21.804097499999955, 64.33963851900006], [-21.750622499999963, 64.36368301900006], [-21.697141, 64.38946851900005], [-21.64215, 64.40292251900007], [-21.575665, 64.39767051900003], [-21.514778499999977, 64.39518701900005], [-21.442932499999927, 64.39708201900004], [-21.370735499999967, 64.38802001900007], [-21.41733849999997, 64.36657451900004], [-21.47325849999993, 64.35513751900004], [-21.535415499999942, 64.36020601900003], [-21.58541649999995, 64.37593801900005], [-21.637095, 64.36179051900007], [-21.68501649999996, 64.33737601900003], [-21.755188, 64.32683101900005], [-21.814651, 64.29395401900007], [-21.86249749999996, 64.26484401900007], [-21.903242, 64.23508101900006], [-21.836319499999945, 64.23864501900005], [-21.762509, 64.20288401900007], [-21.709347, 64.20295201900007], [-21.768544, 64.19514701900005], [-21.716323, 64.18402302000004], [-21.76853, 64.15651552000003], [-21.823235499999953, 64.17292402000004], [-21.792972, 64.13055352000003], [-21.844346, 64.12653002000008], [-21.894477, 64.14799052000006], [-21.946057499999938, 64.16050802000007], [-22.01524749999993, 64.16268652000008], [-21.966956, 64.14115102000005], [-21.906716, 64.12027402000007], [-21.95248349999997, 64.09320302000003], [-22.005159, 64.09938952000005], [-21.959453, 64.06831002000007], [-22.015251, 64.04968852000007], [-22.066178, 64.04817052000004], [-22.125507, 64.04059902000006], [-22.178519499999936, 64.01792952000005], [-22.23342649999995, 64.02463102000007], [-22.31794, 64.01181202000004], [-22.373266, 64.00548752000003], [-22.415782499999978, 63.97352452000007], [-22.465841499999954, 63.97510702000005], [-22.525373499999944, 63.97617302000003], [-22.559881, 64.02092502000005], [-22.605415, 64.05086952000005], [-22.66219849999993, 64.07916602000006], [-22.709433, 64.06163902000003], [-22.709876, 64.00474202000004], [-22.753011, 63.97329552000008], [-22.704996499999936, 63.949965020000036], [-22.65399149999996, 63.94750502000005], [-22.700137, 63.919788020000055], [-22.740584499999954, 63.88804452000005], [-22.697395, 63.85798452000006], [-22.737891, 63.81845352000005], [-22.688835, 63.80125652000004], [-22.626952, 63.82077902000003], [-22.566092499999968, 63.81147752000004], [-22.510853, 63.819062520000045], [-22.45974, 63.83133202000005], [-22.409495, 63.82551152000008], [-22.346723, 63.85532302000007], [-22.296690499999954, 63.84337652000005], [-22.232575, 63.83392302000004], [-22.172464499999933, 63.83007502000004], [-22.114314, 63.83425052000007], [-22.035689, 63.83181852000007], [-21.97135049999997, 63.83377202000008], [-21.917116499999963, 63.836939020000045], [-21.82855749999993, 63.85200952000008], [-21.773909, 63.86587902000008], [-21.722784, 63.85134252000006], [-21.67729849999995, 63.82403652000005], [-21.60716249999996, 63.82626852000004], [-21.495646, 63.839250520000064], [-21.408097, 63.84268102000004], [-21.358662, 63.87428502000006], [-21.28639549999997, 63.88232352000006], [-21.211706, 63.876204020000046], [-21.12520849999993, 63.85433702000006], [-21.058202499999936, 63.833022020000044], [-20.997677, 63.82695002000008], [-20.891622, 63.79907602000003], [-20.815061, 63.77596502000006], [-20.734723499999973, 63.755245020000075], [-20.590257, 63.702955520000046], [-20.456959499999982, 63.64811302000004], [-20.33642549999996, 63.593021520000036], [-20.268971, 63.564184021000074], [-20.18721549999998, 63.53600802100004], [-20.079944, 63.52864852100004], [-20.023773499999947, 63.535718521000035], [-19.922456, 63.53692752100005], [-19.80524349999996, 63.53008502100005], [-19.737886, 63.52272202100005], [-19.620844499999976, 63.50540152100007], [-19.55497349999996, 63.49233502100003], [-19.411866499999974, 63.45942302100008], [-19.321644, 63.44732452100004], [-19.166332, 63.41003452100006], [-19.104635, 63.40281402100004], [-19.034206, 63.401610521000066], [-18.977472499999976, 63.41578802100008], [-18.912664, 63.41163052100006], [-18.844092, 63.40537752100005], [-18.742894499999977, 63.39451802100007], [-18.687437, 63.39658952100007], [-18.492907499999944, 63.42604802100004], [-18.359406499999977, 63.440309521000074], [-18.299194, 63.448377521000054], [-18.190292, 63.45896152100005], [-18.108433499999933, 63.47907752100008], [-18.001472, 63.50694952100008], [-17.941799499999945, 63.53006052100005], [-17.887209499999926, 63.564206521000074], [-17.79679049999993, 63.65633452000003], [-17.728546499999936, 63.696625020000056], [-17.646935, 63.72363152000008], [-17.563831, 63.74141802000008], [-17.507465499999967, 63.74963752000008], [-17.450421499999948, 63.76021952000008], [-17.351257, 63.772566520000055], [-17.195535, 63.781212020000055], [-17.124136499999963, 63.78004602000004], [-17.052031, 63.776690020000046], [-16.925299499999937, 63.78205052000004], [-16.737188499999945, 63.79036952000007], [-16.639990499999953, 63.799224020000054], [-16.590221, 63.84067852000004], [-16.544919499999935, 63.86999702000003], [-16.443105499999945, 63.91467852000005], [-16.31989, 63.98422202000006], [-16.270325, 64.00933752000003], [-16.151494499999956, 64.05344402000003], [-15.99007, 64.12362002000003], [-15.88612, 64.15246752000007], [-15.835871, 64.16091402000006], [-15.762618, 64.17277552000007], [-15.699629, 64.19584251900005], [-15.600303, 64.21753501900008], [-15.478466, 64.22785601900006], [-15.417965, 64.23658701900007], [-15.302890499999933, 64.23714801900007], [-15.206853499999966, 64.23260151900007], [-15.346397, 64.24223201900003], [-15.40034449999996, 64.24074901900008], [-15.366780499999948, 64.29066551900007], [-15.307833, 64.29192051900003], [-15.253141, 64.27735301900003], [-15.197322, 64.29599651900003], [-15.210711499999945, 64.24130801900003], [-15.173425, 64.27650951900006], [-15.120174499999962, 64.27897151900004], [-15.051787499999932, 64.28166351900006], [-15.133468, 64.24470801900003], [-15.190868, 64.23578001900006], [-15.135708, 64.23976001900007], [-15.030317, 64.23965651900005], [-14.978468499999963, 64.23827801900006], [-14.931014, 64.27720601900006], [-14.906797499999982, 64.32278001900005], [-14.855254, 64.34749851900006], [-14.773965499999974, 64.36980351900007], [-14.731566, 64.39715001900004], [-14.684720499999969, 64.42459651900003], [-14.629253499999948, 64.42749451900005], [-14.573167, 64.41158051900004], [-14.658642499999928, 64.39829851900004], [-14.71454, 64.38954351900003], [-14.764585499999953, 64.37153801900007], [-14.670975, 64.39423301900007], [-14.568314499999929, 64.40399201900004], [-14.5173, 64.43086151900008], [-14.48329949999993, 64.48683101900008], [-14.452190499999972, 64.54255701900007], [-14.408259, 64.56992301900004], [-14.361085499999945, 64.59022401900006], [-14.409404, 64.57366501900003], [-14.456218499999977, 64.54365201900004], [-14.514655, 64.53724801900006], [-14.56888749999996, 64.53665851900007], [-14.561488, 64.59274751900006], [-14.511098499999946, 64.59380051900007], [-14.460110499999928, 64.59263251900006], [-14.405494499999975, 64.60076851900004], [-14.443954499999961, 64.63358951900005], [-14.497051499999941, 64.64666851900006], [-14.420477499999947, 64.65925151900007], [-14.354543499999977, 64.64854851900003], [-14.298928499999931, 64.63575001900006], [-14.247925499999951, 64.63696501900006], [-14.293407499999944, 64.66174801900007], [-14.346439, 64.68049651900003], [-14.3938, 64.70528201900004], [-14.425308499999971, 64.74480251900007], [-14.478293, 64.76025951900004], [-14.412239499999941, 64.76735501900004], [-14.37045349999994, 64.73323851900005], [-14.323624, 64.70433751900003], [-14.272499, 64.69378451900008], [-14.210881, 64.69314851900003], [-14.135539499999936, 64.70060601900008], [-14.083025499999962, 64.70016651900005], [-14.028544, 64.71803801900006], [-14.049302499999953, 64.76729701900007], [-13.992189499999938, 64.79610001800006], [-13.938839499999972, 64.79184851900004], [-13.885157, 64.79762351800008], [-13.83292149999994, 64.80488251800006], [-13.901594, 64.82217701800005], [-13.951971499999956, 64.83239451800006], [-13.896833, 64.83699801800003], [-13.842264499999942, 64.82517501800004], [-13.787464, 64.84219751800003], [-13.818843, 64.88476651800005], [-13.922942499999976, 64.90450601800006], [-14.027015, 64.91723051800005], [-13.964956499999971, 64.91873401800007], [-13.898083499999927, 64.91937301800004], [-13.827417499999967, 64.91379651800008], [-13.770048, 64.91149101800005], [-13.709515499999952, 64.90889151800008], [-13.757198, 64.93706951800004], [-13.804527, 64.95340201800008], [-13.855953499999941, 64.96947251800003], [-13.913459, 65.00121801800003], [-13.976796, 65.00473651800007], [-14.040998, 65.01405001800003], [-14.136972499999956, 65.01289601800005], [-14.203463, 65.01802201800007], [-14.150541, 65.02573851800008], [-14.080087499999934, 65.03690101800004], [-14.026672499999961, 65.03947601800007], [-13.962260499999957, 65.05124151800004], [-13.909756499999958, 65.04532601800008], [-13.843083, 65.02314501800004], [-13.79385149999996, 64.99173651800004], [-13.717290499999933, 64.98623451800006], [-13.66023249999995, 64.98576701800005], [-13.602705499999956, 64.99934351800005], [-13.548631499999942, 65.04316501800008], [-13.495468499999959, 65.07543601800006], [-13.543088499999953, 65.09491751800005], [-13.516664499999933, 65.15298501800004], [-13.565710499999966, 65.14194301800006], [-13.599344, 65.10362051800007], [-13.673365499999932, 65.10636351800008], [-13.728202, 65.13261051800004], [-13.67789849999997, 65.14641351800003], [-13.626162, 65.17141451800006], [-13.684312, 65.18874551800008], [-13.792045, 65.18545301800003], [-13.881086, 65.19765001800005], [-14.006193499999938, 65.18664401800004], [-13.932774, 65.19835451800003], [-13.883231, 65.20643751800003], [-13.818910499999959, 65.20468601800007], [-13.748996499999976, 65.20501751800003], [-13.673349, 65.21256701800007], [-13.620082, 65.23500001800005], [-13.57500349999998, 65.26802701800005], [-13.63078, 65.28371701800006], [-13.699199, 65.29780601800007], [-13.762814499999934, 65.28438101800003], [-13.829369499999927, 65.29355751800006], [-13.882385499999941, 65.28754651800006], [-13.941567499999962, 65.27988201800008], [-13.995075499999928, 65.26456351800005], [-13.918373499999973, 65.29176301800004], [-13.86771, 65.30862001800006], [-13.798986499999955, 65.30813301800004], [-13.725677, 65.32671001800003], [-13.815188, 65.34681501800003], [-13.751924499999973, 65.36254701800004], [-13.69918249999995, 65.36825051800008], [-13.650465499999939, 65.38695501800004], [-13.648533499999928, 65.43742501700007], [-13.617956499999934, 65.48164101700007], [-13.64581949999996, 65.52764001700007], [-13.693717, 65.55288351700005], [-13.757493499999953, 65.53837601700008], [-13.81224949999995, 65.52625751700003], [-13.878929, 65.57128651700003], [-13.913118499999939, 65.61353151700007], [-13.964976, 65.60184501700007], [-14.076012, 65.61271401700003], [-14.185616, 65.63919201700003], [-14.261686, 65.66406501700004], [-14.315052, 65.68273301700003], [-14.378035, 65.71149951700005], [-14.349354, 65.76120101700008], [-14.398722, 65.78268601700006], [-14.45222949999993, 65.77913451700005], [-14.551718499999936, 65.75683601700007], [-14.63305349999996, 65.75630251700005], [-14.698040499999934, 65.74967051700008], [-14.773513, 65.73190801700008], [-14.82239, 65.72037401700004], [-14.790759, 65.76922601700005], [-14.884239, 65.74749001700008], [-14.831367499999942, 65.77211701700003], [-14.802124, 65.81940051700008], [-14.738551499999971, 65.84416951700007], [-14.667620499999941, 65.88051901700004], [-14.618835, 65.92258001700003], [-14.614136, 65.99201151700004], [-14.658076499999936, 66.01592001700004], [-14.694811499999958, 66.04991501600006], [-14.754093499999954, 66.05494601600003], [-14.80545049999995, 66.03780951600004], [-14.85524049999998, 66.01137201700004], [-14.901344, 66.03303001600005], [-14.961696, 66.03254451600003], [-15.01514, 66.04235701600004], [-15.084647, 66.03833901600007], [-15.058933499999966, 66.09513401600003], [-15.120435, 66.08996251600007], [-15.179870499999936, 66.10284001600007], [-15.113363499999934, 66.13283801600005], [-15.035596, 66.14949051600007], [-14.964422, 66.17566901600003], [-14.92581, 66.21146351600004], [-14.991003, 66.25963101600007], [-14.918171499999971, 66.29181901600003], [-14.859662499999956, 66.29882651600008], [-14.80052749999993, 66.31851401600005], [-14.724029, 66.33733851600005], [-14.622022499999957, 66.35295451600007], [-14.569549, 66.36215401600003], [-14.675585, 66.36102851600003], [-14.767322499999977, 66.36153201600007], [-14.830236, 66.38578751600005], [-14.882150499999966, 66.37792201600007], [-14.949037, 66.36316951600003], [-15.000368, 66.34936251600004], [-15.037138499999969, 66.31347501600004], [-15.087268499999936, 66.28932801600007], [-15.142762499999947, 66.26465851600005], [-15.229454, 66.25447501600007], [-15.281965, 66.25295551600004], [-15.336693, 66.25771051600003], [-15.340561, 66.20259401600003], [-15.390509, 66.15956101600005], [-15.449326, 66.18227951600005], [-15.50722049999996, 66.19679651600006], [-15.574123, 66.21750401600008], [-15.624187499999948, 66.22025751600006], [-15.682584499999962, 66.22489551600006], [-15.723034, 66.25880101600006], [-15.707017, 66.31046451600008], [-15.692117499999938, 66.36453201600006], [-15.731483, 66.39650351600005], [-15.80402, 66.40540601600003], [-15.855726, 66.41632901600008], [-15.919183, 66.41815801600006], [-15.937977499999931, 66.46689751600007], [-15.956218, 66.51388551600007], [-16.009525, 66.52781451600003], [-16.061043, 66.52701801600006], [-16.119563, 66.53323201600006], [-16.171283, 66.53294801600003], [-16.186103499999945, 66.52988701600003]]], [[[-17.97942349999994, 66.53965201600005], [-17.97942349999994, 66.53965201600005]]]]}}]}