{"type": "FeatureCollection", "features": [{"type": "Feature", "properties": {"code": "ISR", "name": "Israel", "tier": "country"}, "geometry": {"type": "Polygon", "coordinates": [[[35.773335200000034, 33.335631700000036], [35.74406129999996, 33.326148], [35.722240199999966, 33.315546799999986], [35.6974374, 33.30166960000002], [35.67931829999998, 33.2928219], [35.660062, 33.27479690000003], [35.62194630000004, 33.27255780000004], [35.62387009999997, 33.2525406], [35.598532200000044, 33.2541894], [35.585552700000015, 33.27337580000004], [35.56894110000002, 33.290340700000044], [35.55716579999997, 33.2647104], [35.548042, 33.24383019999996], [35.539089899999965, 33.22451029999997], [35.54221650000002, 33.1986661], [35.537290400000025, 33.178210199999974], [35.5281121, 33.14630120000001], [35.5255069, 33.124528899999966], [35.5052068, 33.11577819999997], [35.503509499999986, 33.089483], [35.483011, 33.09245470000001], [35.445865099999985, 33.0906489], [35.4314413, 33.06543740000004], [35.41137350000003, 33.063332499999966], [35.39128060000003, 33.058675700000045], [35.370274, 33.05419209999997], [35.348386, 33.0597809], [35.33406589999997, 33.0763045], [35.324098600000035, 33.09660160000002], [35.30057160000002, 33.10047030000002], [35.280572, 33.10095560000003], [35.25616119999997, 33.0957179], [35.231973, 33.09339039999998], [35.21224, 33.099865], [35.19266920000002, 33.08459190000003], [35.1730741, 33.091875599999966], [35.14888980000004, 33.08736509999998], [35.10358770000002, 33.094210900000014], [35.10184809999997, 33.05054229999997], [35.081175300000034, 32.987578800000044], [35.074598499999965, 32.9588474], [35.07209529999997, 32.93418310000004], [35.08058409999997, 32.9136], [35.067659200000016, 32.86193630000002], [35.05217780000001, 32.834620100000016], [35.026717, 32.81583180000004], [35.0068855, 32.8223816], [34.98855829999999, 32.83224260000003], [34.96445819999998, 32.830959], [34.95433539999997, 32.81364910000001], [34.94662230000003, 32.72760719999998], [34.937959600000035, 32.7060515], [34.926287199999976, 32.6856826], [34.9271323, 32.66234459999998], [34.9209738, 32.64230839999997], [34.9203664, 32.62220650000002], [34.9163506, 32.59909960000004], [34.90828529999997, 32.560506700000026], [34.90071920000002, 32.53909360000004], [34.89761810000003, 32.517265], [34.887949600000034, 32.4970836], [34.88418, 32.4730673], [34.87832280000003, 32.44903530000004], [34.87222689999996, 32.418382], [34.86530070000003, 32.39569330000004], [34.82947230000004, 32.261256], [34.816605199999984, 32.220794400000024], [34.804589899999975, 32.19132309999996], [34.79949480000002, 32.17182179999997], [34.78312490000004, 32.122609900000015], [34.775854200000026, 32.102515399999966], [34.7598121, 32.0622109], [34.74492910000002, 32.046961], [34.73573959999996, 32.0109268], [34.707983499999976, 31.942515], [34.69295580000003, 31.922835799999984], [34.673234300000026, 31.879028700000024], [34.664526700000046, 31.85605270000004], [34.65267320000001, 31.8386924], [34.642997400000034, 31.8203418], [34.637354499999965, 31.844424199999967], [34.635396100000015, 31.82242660000002], [34.6323785, 31.800880300000024], [34.60749119999998, 31.756503299999984], [34.5620178, 31.68714629999997], [34.53040710000002, 31.645726099999973], [34.4912485, 31.59498729999998], [34.56668020000002, 31.54146440000002], [34.55378370000002, 31.52124649999998], [34.531372, 31.507077600000034], [34.48654270000002, 31.480879399999985], [34.464726800000015, 31.46113949999997], [34.44701549999998, 31.445070500000018], [34.4236027, 31.4233727], [34.40419979999998, 31.411641699999983], [34.3802664, 31.38957349999997], [34.37183389999996, 31.370221399999977], [34.373288, 31.30617379999997], [34.3421974, 31.278251900000033], [34.325808699999975, 31.257973599999968], [34.2919106, 31.2412003], [34.26749940000003, 31.220128899999956], [34.332024, 31.04069519999998], [34.3475013, 31.004519899999984], [34.403429, 30.858308], [34.49640049999996, 30.6808507], [34.5155257, 30.6070024], [34.517461200000014, 30.585916800000014], [34.516476299999965, 30.5650724], [34.5155749, 30.53363020000003], [34.53117690000003, 30.514918800000025], [34.553724700000025, 30.49791420000002], [34.5462359, 30.47845260000003], [34.54357520000002, 30.45287569999996], [34.5358504, 30.431022200000037], [34.54762, 30.409622700000018], [34.568194700000014, 30.3939008], [34.61390790000003, 30.36807380000003], [34.61890790000002, 30.3450188], [34.638034, 30.299775899999982], [34.6859341, 30.1717024], [34.69948770000002, 30.13720569999997], [34.72779690000003, 30.078073100000026], [34.74790480000003, 30.01982430000002], [34.78122250000002, 29.924765], [34.80134430000002, 29.872431099999964], [34.81782339999997, 29.83278429999997], [34.82601010000002, 29.808599599999987], [34.83812630000003, 29.79116930000002], [34.847669400000036, 29.762590099999965], [34.85819110000001, 29.6858537], [34.87034739999997, 29.6605481], [34.878150399999974, 29.6278958], [34.86641439999998, 29.597609], [34.878553400000015, 29.54332259999998], [34.89522120000004, 29.51264480000001], [34.9036183, 29.493529], [34.92634719999997, 29.512995900000018], [34.9396639, 29.5291404], [34.95426229999996, 29.549228599999967], [34.977364199999975, 29.542924800000016], [34.978293699999966, 29.57729309999998], [35.00067089999997, 29.621793099999984], [35.0146046, 29.6390908], [35.02108479999997, 29.67252490000002], [35.01194380000001, 29.696796299999985], [35.02998970000002, 29.77192230000002], [35.04393720000003, 29.788087799999964], [35.0507179, 29.810879100000033], [35.058614300000016, 29.8406638], [35.0690213, 29.863201200000024], [35.084535100000025, 29.885547400000036], [35.081724199999975, 29.922191099999974], [35.08361249999999, 29.94705280000002], [35.09200239999997, 29.9696219], [35.09889030000002, 29.991479700000014], [35.11676460000004, 30.001254600000017], [35.11270910000004, 30.039193099999974], [35.13071209999996, 30.0615556], [35.15156890000002, 30.082613199999976], [35.157491200000024, 30.114209900000034], [35.16092449999997, 30.1344398], [35.15495919999996, 30.1549996], [35.14654779999997, 30.184161799999977], [35.15109680000004, 30.214539299999966], [35.14523890000003, 30.24138529999997], [35.1460114, 30.282048200000013], [35.154680299999974, 30.306726900000015], [35.192038100000026, 30.346085], [35.165731, 30.40066], [35.1619544, 30.441312400000044], [35.18150240000004, 30.47142519999998], [35.19315389999998, 30.49890339999998], [35.19508509999998, 30.53400719999996], [35.20403290000003, 30.581956399999978], [35.218946, 30.607962799999967], [35.2638594, 30.66018509999996], [35.27080920000003, 30.6801089], [35.27668860000004, 30.70147649999996], [35.2936616, 30.712250799999964], [35.29454139999997, 30.734884], [35.2958074, 30.762010899999982], [35.315655700000015, 30.7901625], [35.3369014, 30.798742299999983], [35.337392399999956, 30.81896919999997], [35.32986070000002, 30.841466699999977], [35.333056, 30.867222], [35.35427950000001, 30.908301600000033], [35.37116669999998, 30.926784], [35.39408350000004, 30.92658150000004], [35.41646639999998, 30.950939599999984], [35.418208300000046, 31.004103900000025], [35.42595019999997, 31.04481509999998], [35.44268549999998, 31.0727294], [35.454737899999955, 31.104449300000038], [35.456197, 31.128294], [35.44925330000002, 31.15737719999997], [35.42281740000002, 31.19950579999996], [35.400106600000036, 31.239216], [35.40137689999998, 31.266519], [35.45419709999997, 31.357843299999967], [35.46755240000002, 31.39375769999996], [35.472178599999985, 31.419565699999964], [35.476916500000044, 31.484248500000035], [35.42014809999996, 31.4963395], [35.394722, 31.491667], [35.37995589999996, 31.477918], [35.293624400000034, 31.42187809999998], [35.27225170000001, 31.406778], [35.230744500000014, 31.37446420000002], [35.206407200000015, 31.371625200000043], [35.1778597, 31.36473929999998], [35.13430450000001, 31.354938499999964], [35.0668335, 31.35805359999996], [35.008472300000015, 31.357748899999972], [34.97081040000003, 31.349916899999965], [34.947422900000014, 31.349604], [34.926443899999974, 31.3416904], [34.91001970000003, 31.355540699999963], [34.89042170000003, 31.371172], [34.881384500000046, 31.391674099999957], [34.89981660000004, 31.4371041], [34.925026400000014, 31.464386899999987], [34.9371197, 31.4861449], [34.94413390000002, 31.51039269999997], [34.941169, 31.548420899999975], [34.94741829999999, 31.582219599999974], [34.975463, 31.6180002], [34.996497900000016, 31.644879299999985], [35.029281, 31.659871600000024], [35.06897919999999, 31.684008], [35.085724500000026, 31.6959553], [35.106398300000045, 31.7147826], [35.126137700000015, 31.728450400000042], [35.15086810000003, 31.7366682], [35.17976310000002, 31.720545300000026], [35.20575819999996, 31.723609299999968], [35.22852849999998, 31.71756020000004], [35.2497885, 31.7255021], [35.263365, 31.7485727], [35.2517454, 31.77018319999997], [35.26299579999996, 31.789966], [35.25723889999997, 31.810775500000034], [35.25109630000003, 31.830389], [35.233369500000045, 31.841954], [35.22794210000004, 31.863696600000026], [35.220211, 31.88266550000002], [35.2064768, 31.8653537], [35.216213899999985, 31.8390209], [35.21497939999998, 31.818877800000024], [35.194737, 31.82658110000004], [35.1780755, 31.807878699999982], [35.1368011, 31.815087799999965], [35.107180900000046, 31.823854799999975], [35.0858583, 31.8504231], [35.05852909999998, 31.85615], [35.03058460000004, 31.83387950000004], [34.9863494, 31.830649200000018], [34.995607300000046, 31.852893799999972], [35.0155763, 31.856640900000034], [35.038225899999986, 31.8772658], [35.03885880000004, 31.90684170000001], [35.02753, 31.925436300000033], [35.00316889999997, 31.934839899999957], [34.99463379999997, 31.9555742], [34.99915419999997, 31.993552200000032], [34.999550199999966, 32.0174887], [34.99945569999996, 32.053064300000024], [34.9863064, 32.089783], [34.99309850000003, 32.110375199999964], [34.98569519999997, 32.13013920000002], [34.974514099999965, 32.152134899999986], [34.96452449999996, 32.173277], [34.96007790000002, 32.193425900000044], [34.977818800000016, 32.203010700000036], [35.005098899999965, 32.22388280000003], [35.01922989999997, 32.242458], [35.02857280000003, 32.26036530000004], [35.020121400000015, 32.27926980000004], [35.014905800000044, 32.30273669999996], [35.0162096, 32.33845809999997], [35.04089439999998, 32.34650330000003], [35.050736799999974, 32.36404670000003], [35.0538973, 32.4029022], [35.05660949999996, 32.423333], [35.0657924, 32.4430599], [35.075134099999964, 32.46185540000003], [35.092482, 32.476158499999976], [35.11356010000002, 32.47963539999998], [35.139939400000046, 32.493407], [35.160661300000044, 32.504194300000016], [35.177223300000016, 32.5182285], [35.20185570000001, 32.539364499999984], [35.224570399999955, 32.552147900000044], [35.2521737, 32.523260599999986], [35.28859, 32.51072090000002], [35.33271889999998, 32.51534220000002], [35.356305, 32.518756], [35.381491199999985, 32.5088046], [35.402968400000034, 32.501159800000025], [35.4203042, 32.45887130000004], [35.41111880000001, 32.435995099999964], [35.4189432, 32.417187199999965], [35.4410057, 32.40594189999998], [35.460696400000025, 32.4118634], [35.48213530000002, 32.40936480000004], [35.5276194, 32.39367520000004], [35.5549603, 32.38901730000003], [35.558076600000014, 32.4105634], [35.555533900000036, 32.430904500000025], [35.5664236, 32.452943], [35.5645246, 32.4742792], [35.580175, 32.4874065], [35.564410100000025, 32.5016167], [35.55540510000004, 32.52129350000003], [35.5634953, 32.540179299999984], [35.57688490000004, 32.55718149999997], [35.5780007, 32.580328199999954], [35.5663604, 32.603244399999966], [35.564432199999985, 32.624811800000025], [35.56126380000002, 32.645902200000045], [35.581311900000046, 32.6475312], [35.60534449999997, 32.65172279999999], [35.60551619999997, 32.67498959999996], [35.62542889999998, 32.678601899999975], [35.655935299999975, 32.68519580000004], [35.6766629, 32.6989957], [35.70036439999998, 32.71254239999998], [35.718715, 32.722113199999974], [35.737454199999966, 32.73266319999998], [35.755628700000045, 32.744949300000016], [35.78255639999997, 32.77432560000003], [35.81670690000003, 32.80607119999998], [35.8376774, 32.828165899999966], [35.8456682, 32.85309809999998], [35.85111669999996, 32.889808799999955], [35.86145519999997, 32.907827], [35.87980809999998, 32.926547899999974], [35.8950234, 32.94487729999999], [35.871323499999974, 32.981418599999984], [35.850451, 33.102351], [35.816977, 33.11299149999997], [35.84444290000004, 33.167612], [35.8376806, 33.1930585], [35.81715680000004, 33.203110600000024], [35.8150621, 33.24496059999996], [35.7839877, 33.26588410000004], [35.788114799999974, 33.29118139999997], [35.813197, 33.31696019999996], [35.773335200000034, 33.335631700000036]]]}}]}