{"type": "FeatureCollection", "features": [{"type": "Feature", "properties": {"code": "ITA", "name": "Nord-Ovest", "tier": "country"}, "geometry": {"type": "MultiPolygon", "coordinates": [[[[8.411122413661996, 38.862962007019014], [8.411122413661996, 38.862962007019014]]], [[[8.813147048586078, 38.890833658604016], [8.813147048586078, 38.890833658604016]]], [[[8.718027986616667, 38.91489015716048], [8.718027986616667, 38.91489015716048]]], [[[8.448063102919937, 38.93598116389215], [8.448063102919937, 38.93598116389215]]], [[[9.031353648138637, 39.00358721104102], [9.031353648138637, 39.00358721104102]]], [[[8.308963214199471, 39.18569149591012], [8.256375427451092, 39.168907152477104], [8.257075620654717, 39.116770008480586], [8.305941798509263, 39.10005847427013], [8.305936524099836, 39.160263950792014], [8.308963214199471, 39.18569149591012]]], [[[8.321398902307081, 39.19362881741186], [8.321398902307081, 39.19362881741186]]], [[[8.399360080001212, 39.33436021400315], [8.399360080001212, 39.33436021400315]]], [[[8.312413069078284, 39.994338619816375], [8.312413069078284, 39.994338619816375]]], [[[8.36430883246074, 39.03293394651449], [8.394673772804836, 38.98932208299454], [8.444898227903298, 38.96916253446625], [8.45273819389479, 39.02473109314042], [8.49492299915367, 39.06283012195398], [8.548541513225528, 39.04443637987573], [8.56727836093011, 38.99452115459509], [8.606678008195091, 38.96192717840943], [8.610378668355617, 38.90974592309134], [8.648034368753503, 38.87650526993466], [8.693385711849539, 38.91863084444881], [8.758373521592638, 38.91979271459867], [8.798500807424395, 38.889108393441234], [8.847827519649694, 38.877702498490116], [8.894390672246718, 38.89948951302771], [8.936712152454866, 38.93485949298738], [8.990119285746426, 38.974914798905345], [9.02685856969537, 39.01594728601049], [9.035269135639238, 39.06540650579788], [9.008574862505247, 39.12334412335016], [9.047966370941653, 39.15738721795244], [9.073831375656157, 39.200781444707964], [9.123853434372224, 39.205416922148466], [9.181824465642487, 39.21666443688541], [9.237474574702768, 39.225018061949804], [9.29748500873143, 39.21325167138345], [9.341245291060865, 39.18643341306428], [9.385530850752001, 39.16041578018382], [9.431212638944343, 39.13319453118647], [9.48441399013365, 39.13567085230016], [9.523785211061131, 39.094671609822235], [9.553593882249912, 39.13519159942686], [9.577857135435503, 39.18439973055748], [9.571736761541429, 39.2347781460687], [9.604015572052893, 39.292167044538694], [9.598725276319676, 39.34630582068603], [9.614275084168721, 39.3998570242661], [9.63985727200768, 39.44350238271087], [9.637748664058599, 39.49355236618096], [9.644176829302738, 39.546758065375926], [9.657757435261102, 39.59851590554987], [9.647192466538275, 39.65169940800737], [9.663839355624463, 39.70065655927009], [9.674692933634297, 39.75154578565754], [9.672397797988369, 39.80359164228334], [9.696199343501139, 39.85052789689867], [9.68226712080033, 39.902315717603905], [9.685056934969776, 39.95952228111374], [9.701693622599805, 40.01214714931799], [9.724091444451762, 40.05711118164473], [9.696343507660181, 40.10588747946105], [9.654319567510171, 40.14300814173192], [9.629246167749189, 40.190284181650426], [9.623524015614361, 40.25074050546884], [9.654358630915212, 40.3009857643202], [9.711902674319022, 40.361930383076036], [9.757246910787538, 40.3849633465685], [9.777126137976623, 40.431176929914976], [9.811509994414497, 40.48020571836325], [9.828420166045603, 40.528378286567175], [9.790181759165428, 40.57188267591435], [9.750701845495913, 40.61226167894301], [9.74864530379201, 40.663101653216174], [9.71544192204568, 40.708823386793895], [9.70075461410152, 40.757730468064835], [9.67369295991877, 40.80446177014822], [9.720037938726739, 40.8350298144128], [9.676010389034595, 40.8613572752142], [9.62955266668597, 40.88511831747915], [9.577383642931315, 40.90314433390278], [9.528440810780932, 40.914522202896265], [9.575258269184726, 40.93394847219849], [9.582306869744832, 40.98366858394597], [9.633553193906403, 40.98866807790687], [9.594772202811061, 41.02285322289347], [9.544733268956785, 41.031753959223195], [9.533587092042902, 41.08167791779976], [9.545791585774147, 41.13368668059782], [9.496365011505082, 41.143967582521974], [9.455093894924987, 41.11389390492657], [9.425453325726808, 41.15483109659001], [9.381293499879026, 41.18773837352886], [9.330318376235766, 41.194994041005216], [9.285672888088158, 41.217750120935676], [9.244235523046108, 41.2458585826557], [9.192097298302949, 41.23319446239567], [9.14387665277255, 41.24673933918352], [9.15622924036265, 41.1915728466256], [9.120249384013913, 41.15518472393528], [9.075071552902726, 41.12771613176949], [9.01325284665078, 41.12542140249105], [8.979241213971168, 41.0884694669549], [8.936580593027129, 41.05191719326017], [8.89193863328542, 41.02582915605651], [8.836548400955511, 40.95721505408237], [8.79089728433853, 40.92272075325531], [8.738523151015247, 40.91759627567717], [8.683359786799102, 40.903012081536666], [8.632996565400411, 40.8823249835174], [8.565490475435379, 40.832872146747526], [8.486345424581252, 40.819753867903216], [8.43093030301423, 40.829792669507746], [8.37929423947943, 40.83887482216609], [8.328084889994736, 40.84542748810799], [8.2791686517938, 40.86578820423736], [8.234344614727295, 40.90850465803029], [8.219370281190946, 40.95921475639893], [8.176790215085552, 40.93262837239134], [8.216663697020566, 40.90153968013948], [8.207064141841531, 40.84937942377449], [8.17762390243239, 40.80777113269181], [8.16094762489968, 40.76031210246618], [8.16900103957115, 40.70913936330415], [8.193979376632408, 40.66472203270428], [8.152564802288198, 40.625641323291156], [8.159356193221566, 40.57314014848723], [8.189122536802383, 40.615776987913314], [8.216210973575155, 40.571088418373805], [8.265280123689292, 40.58119665473565], [8.317293551025571, 40.57225705777407], [8.332026448989684, 40.523901848129576], [8.37393716032453, 40.49082741634938], [8.395234468916298, 40.43838274685382], [8.3947732185023, 40.38723620094466], [8.38253873166228, 40.338738702479176], [8.432643140000778, 40.333454705768176], [8.470833110188536, 40.29723864783782], [8.473926917712335, 40.24325132959727], [8.465942556857271, 40.19348666120129], [8.471682973519162, 40.1304347144853], [8.489199609775246, 40.0796276126236], [8.443574097347657, 40.04772068689368], [8.390326586528715, 40.04226321493485], [8.40792921231179, 39.99527924817693], [8.402657637458606, 39.94418639081228], [8.423220139633045, 39.89426823894536], [8.480145505228375, 39.904799575696565], [8.531730078854608, 39.89742406494545], [8.57045798588188, 39.8638500289524], [8.545365739603945, 39.7951887105647], [8.513106481965982, 39.75336733793063], [8.461239836198335, 39.76445591108665], [8.447456783499693, 39.71560164631119], [8.455917920188, 39.663247650550026], [8.466934789314625, 39.613129831285164], [8.45491666203919, 39.56356250021119], [8.430425364164961, 39.519222205109735], [8.39685408412727, 39.48111903582493], [8.412716089589598, 39.426903033410724], [8.382847357874283, 39.38483018142858], [8.415820076281804, 39.33614587962039], [8.434178952970898, 39.28400145950857], [8.395144667545079, 39.24969045437499], [8.375331344063298, 39.20366670935241], [8.40678837044717, 39.158696641495546], [8.44018622550108, 39.11733250487805], [8.485484612224605, 39.08822266725035], [8.43152223948907, 39.09591979861997], [8.378506893771316, 39.1009589910176], [8.361168875348486, 39.0520490471862], [8.36430883246074, 39.03293394651449]]], [[[8.455864519833503, 40.21033338177657], [8.455864519833503, 40.21033338177657]]], [[[8.152766355233549, 40.57118666780033], [8.152766355233549, 40.57118666780033]]], [[[8.143966860853018, 40.60521393302241], [8.143966860853018, 40.60521393302241]]], [[[8.212005096954751, 40.87991524363511], [8.212005096954751, 40.87991524363511]]], [[[8.20672665125887, 40.97003275862919], [8.20672665125887, 40.97003275862919]]], [[[8.217664217907124, 40.98242944121172], [8.217664217907124, 40.98242944121172]]], [[[8.864009890408813, 41.01470494285979], [8.864009890408813, 41.01470494285979]]], [[[8.252638400353947, 41.02797651001192], [8.252638400353947, 41.02797651001192]]], [[[8.319330085824818, 41.120174101150624], [8.271808443452949, 41.099502020109256], [8.253805998198466, 41.05256465568549], [8.22205902414873, 41.01204277142657], [8.262257198003162, 41.04342191082745], [8.324339677577203, 41.05604337082281], [8.322000374358506, 41.106519222307305], [8.319330085824818, 41.120174101150624]]], [[[8.22755484195385, 44.024635538480254], [8.22755484195385, 44.024635538480254]]], [[[8.444158373040763, 44.234235903784864], [8.444158373040763, 44.234235903784864]]], [[[8.884067814319597, 44.402635572692475], [8.9403442267206, 44.388584742190965], [8.884067814319597, 44.402635572692475]]], [[[8.84327491285314, 44.4084518455027], [8.84327491285314, 44.4084518455027]]], [[[8.807603501430545, 44.42141085173474], [8.807603501430545, 44.42141085173474]]], [[[9.848703126824036, 44.109565080841016], [9.894731429220599, 44.082918738222354], [9.939678586529503, 44.05410860083115], [9.991541789712116, 44.04698865892066], [10.041423552229123, 44.02668011610677], [10.136885394839505, 43.98096475409328], [10.175515969541774, 43.947767962223224], [10.238263217870758, 43.8728033860807], [10.257884745380963, 43.81569534736784], [10.277599435348332, 43.73751589976743], [10.28259701734071, 43.68641969425186], [10.290675958682026, 43.60080304474604], [10.295407201413237, 43.551017665912035], [10.320127347876552, 43.49767456923341], [10.355243786800626, 43.46066503699318], [10.396713670971593, 43.42768017278381], [10.429901930173267, 43.38928339903032], [10.45587741312058, 43.34187227713236], [10.50050152770923, 43.291821119392885], [10.528791756082251, 43.23176973130292], [10.537333381263483, 43.1800010138583], [10.538792533097741, 43.10921670214688], [10.521595148158918, 43.019338990164684], [10.484122911486915, 42.98599112256046], [10.499061040007025, 42.935954545486474], [10.55129955396943, 42.930327131027894], [10.600735281181475, 42.95383321311241], [10.660570724671604, 42.95181124148545], [10.712290513244275, 42.940009161733656], [10.772766366957029, 42.90990819086027], [10.77370965643544, 42.85841946508122], [10.759440045181412, 42.80945466285565], [10.798301731963864, 42.77629995895183], [10.858932830891085, 42.76662590351609], [10.91181191531513, 42.753440650190704], [10.973364505676182, 42.7226143873375], [11.00429106291946, 42.67625418658618], [11.062590142399287, 42.639026672474856], [11.102062037415164, 42.601794910302196], [11.12750095444825, 42.556909516345826], [11.177947055150787, 42.53974756257569], [11.19031004939509, 42.48460933141228], [11.167426712628593, 42.43876191459333], [11.115518785785493, 42.43974111507524], [11.09607083491891, 42.39291934568968], [11.151408941259092, 42.3704248782486], [11.200190292748712, 42.38189909837614], [11.244017695551976, 42.418596913500586], [11.295235934346177, 42.408336154459576], [11.350466213324784, 42.401036585909864], [11.403459312932233, 42.39045017950427], [11.501868664707224, 42.36044087025336], [11.556419466737145, 42.33838987907486], [11.60191213697943, 42.31011370765662], [11.665353738983947, 42.26759074197482], [11.707580158526138, 42.21755681730284], [11.739571597254308, 42.170912576150776], [11.768016984534407, 42.12016997800021], [11.80676544302284, 42.08041070160893], [11.832502899952463, 42.037371838348584], [11.884786591922673, 42.03775867536712], [11.942875124676299, 42.02336302670084], [11.991967933110642, 41.995027358098504], [12.043084248397166, 41.96191636532449], [12.091775177888525, 41.93578728062146], [12.14073837744092, 41.91624217085949], [12.192358931654976, 41.85084855605297], [12.22422106835617, 41.781894623661756], [12.247507531948743, 41.73682361644056], [12.351954666246554, 41.69695016200396], [12.435808944938058, 41.64208137267554], [12.484512424205754, 41.599540501066556], [12.552777790347422, 41.53404235190976], [12.588986746332184, 41.486751419694535], [12.622330957580555, 41.4443033839516], [12.672967106013084, 41.45579828803928], [12.737201159060747, 41.4268815381273], [12.791917664060977, 41.41769932052126], [12.847921424461777, 41.41303572623335], [12.909839734584375, 41.38727352492775], [12.962916691845736, 41.35240487448326], [13.024100460031745, 41.27458791768474], [13.045546957771078, 41.22678571118905], [13.09599776484955, 41.224247937159895], [13.143000785840911, 41.263281928488524], [13.201357917897072, 41.28101491822733], [13.260807885167639, 41.28241636728433], [13.323018554405776, 41.293653369948245], [13.37380737303469, 41.28155608951482], [13.426273766610441, 41.26059891646402], [13.470269268088403, 41.23673719310876], [13.519197590960214, 41.224828907399136], [13.570003077359202, 41.20782548414767], [13.599630793155454, 41.249969209247155], [13.6491111877643, 41.25832656462939], [13.698156020458784, 41.248383198965016], [13.782201918013506, 41.20918413789735], [13.831715939389072, 41.16738571922426], [13.888601202334451, 41.09918296369665], [13.918523206687196, 41.03962332759668], [13.974092685872959, 40.97659680125219], [14.02457963681071, 40.91507709031937], [14.044821927182642, 40.8648393350014], [14.045962244682904, 40.81419324050211], [14.084903617413378, 40.78278001940615], [14.107691054054902, 40.83158041999295], [14.156050422033598, 40.818097532129826], [14.207766802289543, 40.80109050334567], [14.251429083703599, 40.829399413864486], [14.304114097512356, 40.83177118889223], [14.34560711162056, 40.79982701439643], [14.385518852838054, 40.769550101895234], [14.436968458308153, 40.75495244982123], [14.477968370895047, 40.71458655090681], [14.438621151704819, 40.681383278826836], [14.404046483980483, 40.64402675392293], [14.35128254776116, 40.63453390386648], [14.320442579758392, 40.58780684798744], [14.371492769354655, 40.58780053494218], [14.419090531922862, 40.61041830924583], [14.474627963006197, 40.6240952385207], [14.522837011560988, 40.610326216493604], [14.572873955608795, 40.613286599212174], [14.618448134855674, 40.64191880068277], [14.670494269500917, 40.63743635449088], [14.713837841116042, 40.66255119357923], [14.766880962811806, 40.67445065213435], [14.820767679557493, 40.642419927305916], [14.871802043652586, 40.593158645687744], [14.9142732892613, 40.533703927890315], [14.980880707973352, 40.42813932588344], [15.001321845043398, 40.376302330088684], [14.95542672140308, 40.33979714333225], [14.944458540117795, 40.278258600837226], [14.935258184357155, 40.22859329362691], [14.984666878355059, 40.220548133411945], [15.024186322073323, 40.1839153515033], [15.077088457894149, 40.16850566966405], [15.132054491297822, 40.17146805929239], [15.179490304847343, 40.1264485122849], [15.224011212465985, 40.10306806218], [15.271242689531674, 40.07423438152284], [15.270899698128261, 40.02244629262872], [15.321653299254324, 40.02712983881392], [15.365041718613535, 40.00076544632276], [15.416404625275607, 39.99252944882304], [15.454247752015482, 40.02568813790755], [15.500285678975988, 40.05833463842921], [15.564790633133676, 40.075851528194974], [15.615679618894587, 40.06883364422126], [15.658576677285629, 40.039056644973066], [15.691569978065635, 39.999144037608986], [15.730276655772425, 39.964163192081], [15.780196026993975, 39.89138537047195], [15.770669656532007, 39.83981140276434], [15.79444960305257, 39.77469154504143], [15.809056793834879, 39.71833623029289], [15.826323722594019, 39.670876379471395], [15.84698227217652, 39.62143771913792], [15.8673184815126, 39.57549804577354], [15.905178220203771, 39.53756825116024], [15.94522356737779, 39.50276830549731], [15.980834285214245, 39.46105846584491], [16.015052312997888, 39.39879799203937], [16.035193797450823, 39.34852858224642], [16.050949645280113, 39.29867520708678], [16.059820585854904, 39.20215468458571], [16.066866482873003, 39.13346883654448], [16.08612842007392, 39.074916857398435], [16.101841742581914, 39.02525360991849], [16.156120294665968, 38.951482186383124], [16.20348575053264, 38.93305974286331], [16.221260581702847, 38.85665614551352], [16.209254846279674, 38.800039644802084], [16.1822078367478, 38.747675617169456], [16.137095847893633, 38.718797724468565], [16.087215902816933, 38.71507071909892], [16.031726891228242, 38.72806648264747], [15.980187230510726, 38.72046347781472], [15.93721969854955, 38.69148087586728], [15.88519907149364, 38.673666027305444], [15.836197441617513, 38.64626214415466], [15.866478464536007, 38.59256060745218], [15.914247813167284, 38.55558271896501], [15.910527294684826, 38.47755159762565], [15.884351553006324, 38.43373655313569], [15.8581286460541, 38.38021054127992], [15.828538638562657, 38.33766723274117], [15.794217772042531, 38.28026731680947], [15.749190119664073, 38.25711300977838], [15.69189173668825, 38.251078688359065], [15.635613521796328, 38.23198999120136], [15.641275810968514, 38.1809668111479], [15.651531506658355, 38.129645786129075], [15.634663603195158, 38.07578094633806], [15.652467009094954, 38.0289239174941], [15.678022709680357, 37.954062823477585], [15.726161693074213, 37.929209913490766], [15.789850965850633, 37.91661991443556], [15.879315095501726, 37.926965225650754], [15.932246507871845, 37.92829694363233], [15.98287269970337, 37.91713454733846], [16.03688852242945, 37.923850958562205], [16.088307739792434, 37.947397746272344], [16.122376020034235, 37.99150807343683], [16.1450469946597, 38.0395782493788], [16.158134780896795, 38.09871477587031], [16.1791778970213, 38.146841018631974], [16.227915897185966, 38.19562182722433], [16.274203675518507, 38.24047669184595], [16.31735283322227, 38.28746209866289], [16.366388942318906, 38.30746010879683], [16.42164469556702, 38.3257887378533], [16.49808896023552, 38.36068207867846], [16.5638798090588, 38.41882070894405], [16.58009507779832, 38.49736691211002], [16.573118946345275, 38.56416802007596], [16.5607182124457, 38.61995834030489], [16.558483244390885, 38.68118887296994], [16.559077933595283, 38.74124561212152], [16.594221294992437, 38.79559822559857], [16.632775818804863, 38.827472965713795], [16.728426987860413, 38.873924593699485], [16.7958318444266, 38.902942262932314], [16.883706815513982, 38.92706254145802], [16.95480120306228, 38.93824942559213], [17.004736619894707, 38.92031719959543], [17.061569349381518, 38.91784774710824], [17.113087971825777, 38.910170876464754], [17.159089695050945, 38.947800624532164], [17.18120802142669, 39.014290387381486], [17.145477869018492, 39.04986450515704], [17.126325398287367, 39.096271758812726], [17.117602277016893, 39.145533000949236], [17.14335202522912, 39.191513833157614], [17.11796056136497, 39.23878746102869], [17.111389992789555, 39.28905820964596], [17.132315122368432, 39.35852928937681], [17.115834871045088, 39.40638783354972], [17.056721397060134, 39.436494631774785], [17.023740752963864, 39.4823861235193], [16.959245586934983, 39.49583131961841], [16.905246795314447, 39.52116148611683], [16.847280081313947, 39.55136625794161], [16.80331045028693, 39.598611628456496], [16.755276630619583, 39.62448312466788], [16.688554328431685, 39.6215299757766], [16.621896262086956, 39.62133353114954], [16.564112662095148, 39.642237525614924], [16.51790009762756, 39.66893957671376], [16.529873857709834, 39.723864668453416], [16.48741411454153, 39.76559392523481], [16.495470711936864, 39.8153171358078], [16.5345779545546, 39.86635888809934], [16.570961865632377, 39.90313844709757], [16.619434289719127, 39.95153018963344], [16.60961920654464, 40.01621467985962], [16.606000216573054, 40.080608337104486], [16.645072693178268, 40.11803372250487], [16.691814419944315, 40.151678816261914], [16.73733168542246, 40.21043702310506], [16.77531823409653, 40.28290421326577], [16.816257017733793, 40.33392545563755], [16.86652049966829, 40.39807751419292], [16.909439794469407, 40.44171008889834], [16.95839254439471, 40.47530459277307], [17.020132345692492, 40.50502705773997], [17.07414496772677, 40.518653308651324], [17.137486042910773, 40.5142183499611], [17.182545210705065, 40.48440589762084], [17.234077934525875, 40.47193068723843], [17.20895269075004, 40.421653699497554], [17.256798133659146, 40.39593033770908], [17.304924120639352, 40.3738415916732], [17.355622709491065, 40.35681654142449], [17.40083285287581, 40.33323240967474], [17.451443869762883, 40.32601124624576], [17.499113505474956, 40.30692307337054], [17.560239116482656, 40.297757910784874], [17.632613135077786, 40.3031466558546], [17.73052661414223, 40.30029022412763], [17.790643405151126, 40.29311008261619], [17.839771646527446, 40.28048657383635], [17.887936187331082, 40.26310842783645], [17.922752062631027, 40.22632213870688], [17.93684987047164, 40.171161954171936], [17.976715980758094, 40.14085167252064], [18.01199701776357, 40.096848994208145], [17.977225400708996, 40.05693608948989], [18.020611562856253, 40.01838635302373], [18.019889159288123, 39.966944393118304], [18.052338819470712, 39.92794185749248], [18.10340984099455, 39.8941250743583], [18.149259399321267, 39.86195440004356], [18.204743310445124, 39.83854520847053], [18.26266560271955, 39.83622050031862], [18.311035062089246, 39.81477873892398], [18.357859935320242, 39.79630592800906], [18.385923884882107, 39.83889947555692], [18.39974948115449, 39.88982610444724], [18.402699892895072, 39.952823965331504], [18.423384821905294, 39.99922677449107], [18.462185087102178, 40.03547527110602], [18.483239298554935, 40.081410925082444], [18.50656450317393, 40.12621712410887], [18.479933905314148, 40.16999096746737], [18.464541057106242, 40.22206997922003], [18.440993740693397, 40.2691634096409], [18.40451755266346, 40.30363001801729], [18.36014640643067, 40.34477479922228], [18.315973385047204, 40.37282935697194], [18.278961143685923, 40.4073144928169], [18.234002583982466, 40.44919960825369], [18.185812782200035, 40.469303918467325], [18.13924555766269, 40.487775458258334], [18.08078120683935, 40.52542953191939], [18.042271955323482, 40.55856413072642], [18.03168907645867, 40.60757144431383], [17.998613846560193, 40.649032569992094], [17.94958688530236, 40.63308641269417], [17.996500242564323, 40.663147842216425], [17.946517292230013, 40.67025599024319], [17.88925666348264, 40.68259938234179], [17.838543811022156, 40.69127040416015], [17.79484929313263, 40.717220244647486], [17.74498313181021, 40.73445237739285], [17.701661182596116, 40.76028996857275], [17.65263420694389, 40.77395182596788], [17.60235511272799, 40.787632935856585], [17.55110508209527, 40.80076874467918], [17.499868265378677, 40.81994965380644], [17.457210595682035, 40.84920744730934], [17.412046181591904, 40.87124741161593], [17.36525361878439, 40.89942456122801], [17.32801720702806, 40.93318967948021], [17.286935455272054, 40.964862969436865], [17.239316206613573, 40.991195508164274], [17.192948947438452, 41.01334875257668], [17.145891302617997, 41.03545633734202], [17.10146744521909, 41.062425613228655], [17.052392805390514, 41.0771694540227], [16.998237025370827, 41.090097452535446], [16.937792238395147, 41.10561105981501], [16.8792533484412, 41.12252713122944], [16.809634877705935, 41.14032729985337], [16.763234125767475, 41.160321176961126], [16.695970208617673, 41.177076494770134], [16.63814495593897, 41.19512001583893], [16.589219754235405, 41.206341090799896], [16.54098063517028, 41.2299939193201], [16.486973520159964, 41.25018465277171], [16.440620968366428, 41.27148835659323], [16.38712384190542, 41.29023627742754], [16.30539047914489, 41.31824025774539], [16.24317845556529, 41.337378395696774], [16.164154232452113, 41.371243721554215], [16.10475127981572, 41.397551168469555], [16.047834867530952, 41.419018181806024], [15.98779339974719, 41.441718947407495], [15.945303542071475, 41.47131642395415], [15.901705658045096, 41.53959137331194], [15.897521037226214, 41.60488348521927], [15.93694190489201, 41.63664184595699], [15.98657908689654, 41.659179069188056], [16.034874265857617, 41.67721841443206], [16.07355261775591, 41.710766409208205], [16.121424263957724, 41.73893169352772], [16.16759779878767, 41.76635471576624], [16.19642385994171, 41.80920122830033], [16.175776223731802, 41.85958576574342], [16.15120648302793, 41.90430481992159], [16.1023998385226, 41.92820132327548], [16.05512329721402, 41.94773952346222], [16.004107004878453, 41.94594487425655], [15.92456457321234, 41.933138460475575], [15.861819382073822, 41.92669087915385], [15.79976491516066, 41.920448446447836], [15.718282209578115, 41.91485640811978], [15.6673489169651, 41.92282038563511], [15.611205785280887, 41.92513180512665], [15.500575259292855, 41.90847980071547], [15.449728556268568, 41.9029437260455], [15.373557261590681, 41.90174445845182], [15.321712651492906, 41.91760364116203], [15.235533801983143, 41.918779504125396], [15.14586800050809, 41.92506169184511], [15.07913621524197, 41.942647252593794], [15.03708834529994, 41.972431954016514], [14.99918427960013, 42.00529455372616], [14.916556958868368, 42.01751562490792], [14.839389101385006, 42.04227750942349], [14.765860477487525, 42.07452327772508], [14.718146925799003, 42.10591156416382], [14.716495743906545, 42.16591313776876], [14.653140219222403, 42.18946142615997], [14.58810568295211, 42.21218820101244], [14.532808781372509, 42.24009455066492], [14.492057714835408, 42.27845520247376], [14.445578447204573, 42.31025094512075], [14.409086027209504, 42.35531607616971], [14.362225212308823, 42.383623966031855], [14.289971091449422, 42.42233866373855], [14.238390519377042, 42.456159946723254], [14.186401608857308, 42.493566568489435], [14.147185915365045, 42.530694912470494], [14.104167766632806, 42.56860338636287], [14.05222039998052, 42.63241149288356], [14.00114971240925, 42.700182360994205], [13.975746677144539, 42.74796178232431], [13.94399160985312, 42.804255086280186], [13.926335566586602, 42.861197394943076], [13.904502071225545, 42.918676628650175], [13.878904352927359, 42.96945258466239], [13.861422605190286, 43.023816336085936], [13.846080857158105, 43.083299200113146], [13.823989156805036, 43.133457295005044], [13.790573014858666, 43.1992183540584], [13.76269541849942, 43.25803622562653], [13.736629315877508, 43.305633574033216], [13.688219606705475, 43.382841318093], [13.666947017197883, 43.43264079230227], [13.624016153110844, 43.50084211216189], [13.616110270979073, 43.55289163807], [13.56889086641006, 43.57622785701172], [13.53150783953833, 43.61960611068175], [13.48025675756117, 43.61159910889913], [13.41382470755548, 43.62371569378824], [13.353613177369661, 43.648684609514596], [13.286192321456703, 43.67917744499327], [13.231968109012495, 43.71134740917988], [13.174202167684918, 43.748939642890456], [13.125742415700449, 43.778613163143284], [13.084339834850546, 43.808056447179546], [13.02839987204288, 43.8448140171263], [12.907332215722677, 43.92300245120612], [12.856076512725616, 43.93930148895969], [12.797076690173812, 43.96538964330642], [12.73838707111899, 43.968183749467315], [12.688006035338491, 43.9872367862493], [12.632221614812828, 44.02508639724156], [12.593082338501356, 44.06006866530557], [12.547664008350475, 44.08310654681764], [12.502368774702285, 44.11638399927166], [12.466072912217408, 44.150874883225505], [12.417652983232257, 44.1900883442875], [12.367873339289178, 44.24940976790202], [12.344047999764125, 44.31817496505905], [12.320506338545112, 44.38086253106153], [12.289213711812327, 44.46313716476345], [12.279561727679214, 44.52185048492781], [12.282548900985299, 44.59554529465034], [12.259418166495571, 44.64186112522614], [12.240243685105163, 44.69100450920169], [12.24848423634376, 44.75644948966284], [12.275235649885174, 44.80662878344011], [12.31107729213947, 44.84351570403231], [12.355463851084412, 44.81227930084131], [12.41753491594567, 44.80557678551614], [12.46215972444156, 44.8433984754475], [12.494203415271727, 44.893905916034946], [12.534039994954107, 44.950320194855784], [12.50058961642797, 44.990827145553745], [12.444145243464881, 45.01320917312659], [12.39500226810437, 45.04409220306931], [12.342338976880926, 45.08783109077083], [12.327371372503922, 45.140631690050505], [12.303252366549804, 45.20098666077458], [12.299178270546518, 45.25617410989088], [12.321200714236996, 45.32453192177468], [12.360135237015315, 45.396087803066195], [12.399570288683273, 45.42979552687716], [12.46809632427075, 45.44504270747501], [12.516592877187119, 45.45906752299537], [12.565951216867022, 45.473994385682346], [12.628763018841076, 45.49806364689301], [12.677914788819065, 45.514523757323765], [12.726564260666375, 45.52914502143567], [12.799168247587401, 45.56213204786716], [12.86468527925683, 45.587286132582115], [12.908362881062873, 45.614435618106995], [12.968837892475072, 45.62286539661096], [13.026064592402603, 45.630335838556974], [13.097679747015327, 45.635938226136155], [13.14812754456018, 45.68937531295288], [13.23332575363793, 45.714708273671086], [13.2915592844498, 45.70407015276442], [13.343768155923007, 45.68035720480761], [13.407789889344995, 45.67757117782837], [13.457226886188076, 45.69150061141678], [13.50473417364378, 45.71124606743839], [13.553645910572897, 45.72997027764886], [13.53158920490545, 45.77586812748222], [13.582917758898434, 45.779686953926614], [13.63204293366287, 45.770221462452575], [13.676994380319574, 45.73695508188215], [13.720088568803394, 45.70099825756885], [13.759667992211147, 45.664241853815014], [13.779018033259687, 45.61643142283589], [13.727081644612932, 45.60584195959084], [13.775563607367847, 45.58601126998565], [13.83971846376512, 45.58250378569834], [13.890589789995088, 45.61665799106635], [13.858129378922296, 45.66566852573745], [13.827080705862716, 45.71426389169582], [13.78360507199112, 45.74823218474102], [13.734673240014475, 45.76016324381539], [13.679307299952297, 45.79426045215404], [13.623811235967233, 45.79588562015792], [13.58779482232727, 45.83412929937573], [13.59032696034003, 45.88831913932898], [13.62625913932104, 45.924380100766456], [13.639496045315889, 45.98005115193], [13.58991130329294, 45.98966828767678], [13.540980050548974, 45.964866322776615], [13.494766167924745, 45.9861571280688], [13.51001606363412, 46.04624600190666], [13.544117178358457, 46.08296765425205], [13.595817465038971, 46.104213885488065], [13.639566358112598, 46.13459512450083], [13.663203312362567, 46.18011808247038], [13.594848536280951, 46.18860776904518], [13.538765379266462, 46.21345482201735], [13.484385703089846, 46.224552369036054], [13.435959672180937, 46.211562158081435], [13.401772896883001, 46.252203512830185], [13.375547466288204, 46.29821770928276], [13.4256932588121, 46.3225528891728], [13.470107976092184, 46.36113729378687], [13.516912365585613, 46.38301200395136], [13.565438475619379, 46.39820993720726], [13.59754333234977, 46.43925297099875], [13.649052818754631, 46.44674780806026], [13.698751471499483, 46.45649472535024], [13.71677723643666, 46.507345395341204], [13.666519711084744, 46.526922977744725], [13.60904485535617, 46.54374097657569], [13.542443459502007, 46.55362054420439], [13.477550671599749, 46.56038317860566], [13.425433355584092, 46.557910417995416], [13.372750478531838, 46.57935960668322], [13.320430739827184, 46.551261698455534], [13.26956379896671, 46.561275816053715], [13.21800553337405, 46.57029357964569], [13.16868010909676, 46.58488584049442], [13.109364573332877, 46.59581574529645], [13.056039475648019, 46.59754196485335], [13.000465981824211, 46.602400173485975], [12.948944503775442, 46.602617929597336], [12.896548714109272, 46.60963308468142], [12.837825522498104, 46.608233107291156], [12.797227776639795, 46.637774551380815], [12.74547559997038, 46.638074346542], [12.689397519125972, 46.65609887699686], [12.634098703574274, 46.65433392452767], [12.578127629334919, 46.65613630864979], [12.528368685611877, 46.66973034518409], [12.4775943539877, 46.67982126382043], [12.428058653265522, 46.694818750294395], [12.379037678258072, 46.720628422001596], [12.357406561812843, 46.774663348531185], [12.301835608706941, 46.78223989170482], [12.30696594651177, 46.83425107403763], [12.278095103909553, 46.87861958958958], [12.22574187989327, 46.87865489860888], [12.180420311903406, 46.9080532919427], [12.138074315619164, 46.95668327451471], [12.12106020860389, 47.00687210783943], [12.180037711131964, 47.025335165892464], [12.226370816734496, 47.060923080748566], [12.18668072282199, 47.09178374646217], [12.136519840449605, 47.080516314266816], [12.081207197567489, 47.068006824200424], [12.030634162963187, 47.05013893831206], [11.978875275242126, 47.04982873676557], [11.915327526073641, 47.0325484877238], [11.869002771469876, 47.01193608380153], [11.814732569254359, 46.98970079767374], [11.764999284817613, 46.972882955966895], [11.71694538070487, 46.98753335671673], [11.664483303925119, 46.99198882091092], [11.60945599832144, 47.01078773311393], [11.560438942352658, 46.990431449835555], [11.51249548607307, 47.00500666056235], [11.460622548044112, 46.99143667444751], [11.41714509708912, 46.96637434931955], [11.366581792316056, 46.9832834904282], [11.30845167570171, 46.984101839149], [11.256430776641501, 46.97414221356933], [11.206869301651981, 46.96259967883102], [11.155666903618547, 46.93443146500282], [11.108969221184172, 46.91623210774249], [11.078548209202234, 46.85975104887116], [11.057645436891855, 46.80854440317739], [11.025286107786892, 46.767296945041394], [10.974831775601771, 46.772404274018484], [10.923195699946637, 46.77491735299394], [10.868960115911138, 46.765736869818525], [10.814115077222038, 46.775412078519814], [10.757589921700792, 46.785338734057746], [10.736924400800536, 46.834016610469554], [10.694340500847108, 46.863200657726466], [10.624139698741239, 46.86430397306046], [10.573140400230704, 46.84601907045246], [10.5211515717091, 46.84530004821882], [10.471919991806404, 46.856036421612835], [10.450625327822856, 46.804265933758444], [10.442105023595486, 46.75285726859737], [10.415562765223957, 46.70902445731424], [10.391392117111558, 46.65644045209891], [10.441829479711847, 46.63900485010142], [10.48720523625727, 46.61561464668419], [10.474979061222307, 46.5665993571696], [10.419340040355502, 46.55105287825489], [10.36337388213401, 46.555567513378456], [10.311290986882318, 46.54686648396359], [10.26912623708295, 46.57780096852715], [10.243419376251452, 46.623796004860225], [10.19062832531304, 46.62608553110358], [10.137584276388406, 46.61046689303618], [10.094422588680697, 46.57689263268074], [10.049242390478511, 46.5439099374065], [10.04474275810916, 46.493931686154426], [10.043114869285338, 46.44212677426537], [10.09283144607816, 46.422763141881774], [10.143100955460069, 46.42811698180857], [10.127721873646673, 46.37761922473047], [10.109752619882778, 46.32804414634874], [10.153786844443786, 46.293102751644994], [10.150941678476803, 46.23969880703148], [10.099167544828575, 46.227590393527485], [10.0441320111527, 46.229627322065085], [9.998270548618677, 46.282929615326566], [9.984889293626434, 46.333539339564425], [9.95858751080376, 46.378118265436626], [9.906360621196157, 46.38088411700089], [9.855700238268797, 46.362982473428644], [9.80114728594923, 46.344059716391385], [9.74814176208906, 46.347726246369774], [9.718006284555294, 46.30609288849489], [9.668532417068299, 46.29620057286077], [9.61845471821315, 46.28744206922764], [9.56327157772024, 46.30249598395385], [9.51862365285057, 46.32723166054263], [9.482662179810205, 46.3678204788522], [9.45450425897267, 46.41760055302521], [9.462471514250549, 46.46724636535458], [9.410281964216107, 46.46654553464598], [9.36837768924759, 46.49403325821462], [9.309582544936562, 46.50447143915366], [9.273464576921405, 46.46871390848519], [9.270389436192067, 46.41829655065122], [9.276165578621239, 46.36834812888338], [9.29449098988146, 46.31717935444528], [9.259500120104645, 46.27832193019098], [9.234848799434314, 46.2338393411078], [9.196515886951316, 46.19643590643731], [9.155725247206625, 46.161893746562], [9.112985454244338, 46.134673844995056], [9.089842456701003, 46.08848784608527], [9.04468089596642, 46.059367393716705], [9.0245198887459, 46.00040397305161], [9.016615207022216, 45.94850507003822], [9.059674132878246, 45.92053550276666], [9.048471028968779, 45.86250590982131], [9.016990666689171, 45.818016290954446], [8.968112084291006, 45.83236447983749], [8.912448587664402, 45.83027876896088], [8.943059090030472, 45.8701749052404], [8.91414377984276, 45.91780970284017], [8.878874487372439, 45.956024887070946], [8.83461373715668, 45.985215948638725], [8.829914519336045, 46.041586680414696], [8.815292700283889, 46.09725705656029], [8.760165028237495, 46.10169974006297], [8.698771929045607, 46.10177042539979], [8.647970214996285, 46.12311751934821], [8.593051490875112, 46.14257336919338], [8.563721742857485, 46.183937336466485], [8.522229923960515, 46.22156233527735], [8.47303093963616, 46.231561065227034], [8.436904788187976, 46.28499217439307], [8.465450922091039, 46.333395164280304], [8.461027355676386, 46.38738177367238], [8.464950925686592, 46.440894086109225], [8.416652944892741, 46.45880110471688], [8.365528392474081, 46.45142823576775], [8.310846600561991, 46.4239329588095], [8.294883450904797, 46.37022451782495], [8.249555172420132, 46.34476373113779], [8.21172224777607, 46.30918494774579], [8.161355552174118, 46.296208806906414], [8.1134182231685, 46.28121334098325], [8.127610315706853, 46.22831297646988], [8.165644298148115, 46.18128393615139], [8.126423872208662, 46.135459579660576], [8.08250363144472, 46.105478034741935], [8.029729784638144, 46.08898589626526], [8.01276665262702, 46.0319681715375], [7.958134764466999, 45.99609395652218], [7.904506002981933, 45.99013822497376], [7.870660099807646, 45.94774093440738], [7.821402800814135, 45.926857487045055], [7.769230628089296, 45.93684694082833], [7.720139895408561, 45.923688969927845], [7.681261784634987, 45.957178543714846], [7.618389814663347, 45.97226735056358], [7.570075765741671, 45.987774652871046], [7.523645964789483, 45.95763580201604], [7.471408771007022, 45.94727339124514], [7.427157507961444, 45.915666075886755], [7.366299706510004, 45.904020371630764], [7.315947490864744, 45.91663703671361], [7.267409360462858, 45.89718105746183], [7.216412732881813, 45.88875473051925], [7.161352301179594, 45.87155467908408], [7.108231199948465, 45.85817639779944], [7.07261431630241, 45.89540158996576], [7.020648162089529, 45.91621336177707], [6.990390366645043, 45.86814381164696], [6.941589338834508, 45.851289580238706], [6.880178357000273, 45.84988728807076], [6.823941617831633, 45.83808284065982], [6.80471560209707, 45.791271010665724], [6.817277312045387, 45.73974810388925], [6.846940960281466, 45.69104040608115], [6.899064260281835, 45.68027408186748], [6.958291554953473, 45.653301452147545], [6.985122755017319, 45.60801704447707], [6.989999964241945, 45.556626034426884], [6.999687712960814, 45.50457168212559], [7.053190405575448, 45.49499208469213], [7.102129964487627, 45.46867745350748], [7.133760116876185, 45.426289977992994], [7.183777189726736, 45.40743776576622], [7.16443529180723, 45.36068172553243], [7.126078542957364, 45.32732967199635], [7.134563300243098, 45.27643052477863], [7.096958288587408, 45.233547906486855], [7.042103195424183, 45.22569819056672], [6.992429794801156, 45.210009936835476], [6.950606521033673, 45.179966662828555], [6.893519542896277, 45.16900778032873], [6.848324290453199, 45.12730636783051], [6.800676793326693, 45.150468774320984], [6.750992253733786, 45.143244538644225], [6.692532210920618, 45.13948527334078], [6.648688014355632, 45.11511415198352], [6.663919784835777, 45.057752783592306], [6.708564172773737, 45.02146231259373], [6.748265126196995, 44.98523681904029], [6.76000955264751, 44.93381496462793], [6.784999315639511, 44.88869864223722], [6.839662896016061, 44.860048628440026], [6.903439185227413, 44.84790574458336], [6.955657389490866, 44.854515136611525], [7.006570471632656, 44.8395088984379], [7.000079320674003, 44.789046566638845], [7.025968088779389, 44.74456730320445], [7.065868555056909, 44.713683952725134], [7.007313486409303, 44.68896941821978], [6.95925889297809, 44.6749321454522], [6.968679673105729, 44.61960074426453], [6.93163723841714, 44.58325912070789], [6.890107381079214, 44.55255699546017], [6.859070060317121, 44.51009957777912], [6.901594240449149, 44.470854792831766], [6.940330001375735, 44.433434162178955], [6.894397321385881, 44.41017969902584], [6.900221543704358, 44.35773823323821], [6.938923154360523, 44.32482714291218], [6.970991693794589, 44.284501738494036], [7.005252082903754, 44.23742616416311], [7.060386299182748, 44.22722134282049], [7.116262279734582, 44.216317865519706], [7.176689209037697, 44.198005283146216], [7.218872448767574, 44.168564879585425], [7.270366328721813, 44.14810914671956], [7.327446470294689, 44.144988943064], [7.379928057267306, 44.12236436181314], [7.442384365989769, 44.1279868391883], [7.493340986480195, 44.140905620001334], [7.546412438984731, 44.14654957600051], [7.597266064791065, 44.152960919943474], [7.645949652634817, 44.17824393357075], [7.666430626878929, 44.13066032771966], [7.708761292848069, 44.091379592779774], [7.700689731336988, 44.040721278079396], [7.670344906809395, 43.9982275607202], [7.631263720544528, 43.96442201034958], [7.581771872898579, 43.94826495190501], [7.560768023817601, 43.89794310062924], [7.51209931130528, 43.885624112398084], [7.510225708268947, 43.8330415604771], [7.529601085691221, 43.7842543691355], [7.582681066539358, 43.79247126512804], [7.648035113950014, 43.78183641977711], [7.699996775466545, 43.79865047788392], [7.75327849148396, 43.80712917385856], [7.804634449671353, 43.82322048540652], [7.859733894215577, 43.83067137341939], [7.911954620830088, 43.8363486238709], [7.961935925757993, 43.85023575095231], [8.009040142334705, 43.87139712909152], [8.073292691897295, 43.89121069171225], [8.11689386696053, 43.925226975896706], [8.160308611471324, 43.950546859092825], [8.178814952577738, 44.011283481315914], [8.226136169801704, 44.04400115969973], [8.237492244864175, 44.10218253892915], [8.294675851183998, 44.153447322219954], [8.343666603528817, 44.167895647349745], [8.407086717427973, 44.18104826878013], [8.428054436667457, 44.23299501244212], [8.448126451427845, 44.285446296457884], [8.504268476478586, 44.3144366765927], [8.550568738289158, 44.34407675847084], [8.606288964872906, 44.36617289239505], [8.651007270051949, 44.39014541073154], [8.711797116403991, 44.41528969711282], [8.773196228887343, 44.423275927278894], [8.826454567795777, 44.422028273828836], [8.8749156875535, 44.409141331482296], [8.925807814805706, 44.413024423854935], [8.973190790692797, 44.389245739095294], [9.027064430057461, 44.382320700973196], [9.077637345983087, 44.37489722298726], [9.130924289951013, 44.36094365971104], [9.155528082777877, 44.3157654978557], [9.217547143508424, 44.29850459339537], [9.230439448945793, 44.34837240273292], [9.279383248257327, 44.32928281059147], [9.330012852460209, 44.309873607489216], [9.381672282565685, 44.28576366922203], [9.43272236958632, 44.25350397721367], [9.4881569756465, 44.2391041191083], [9.538505257526442, 44.206202326993136], [9.58474667644962, 44.17982992231028], [9.6218956317865, 44.14265771657703], [9.675410376335876, 44.13949984610832], [9.72564424743625, 44.112493890594585], [9.767098817739083, 44.081048144056126], [9.817188446794415, 44.060824931313206], [9.83591272719461, 44.11021308541614], [9.848703126824036, 44.109565080841016]], [[12.463254209137292, 43.89518576425906], [12.408425480671621, 43.902805232171836], [12.404592592127, 43.95569608726894], [12.46939918538742, 43.97753559092474], [12.514901180723882, 43.94644950768748], [12.489599604321734, 43.90255347612245], [12.463254209137292, 43.89518576425906]], [[12.660382589253018, 41.736260631080384], [12.660382589253018, 41.736260631080384]], [[12.456685585068612, 41.901225288485676], [12.456685585068612, 41.901225288485676]]], [[[8.976235590612601, 45.97913644854947], [8.976235590612601, 45.97913644854947]]], [[[9.510768813079912, 40.91732907778253], [9.510768813079912, 40.91732907778253]]], [[[9.51168541614767, 40.92069409864583], [9.51168541614767, 40.92069409864583]]], [[[9.502204587628635, 41.15381154102018], [9.502204587628635, 41.15381154102018]]], [[[9.462035103989772, 41.17355490887588], [9.462035103989772, 41.17355490887588]]], [[[9.485244472532575, 41.18419681891673], [9.485244472532575, 41.18419681891673]]], [[[9.335469866232264, 41.19025903865089], [9.335469866232264, 41.19025903865089]]], [[[9.397290287309428, 41.19670115013246], [9.397290287309428, 41.19670115013246]]], [[[9.419904016093996, 41.20724912835821], [9.419904016093996, 41.20724912835821]]], [[[9.471027186757576, 41.24447744842607], [9.440696479009894, 41.19548931366336], [9.488700665697852, 41.22025060085208], [9.471027186757576, 41.24447744842607]]], [[[9.418352318244107, 41.21442938877981], [9.418352318244107, 41.21442938877981]]], [[[9.448462654322185, 41.22229584051792], [9.448462654322185, 41.22229584051792]]], [[[9.455590512548634, 41.22608153010546], [9.455590512548634, 41.22608153010546]]], [[[9.420326510551716, 41.267967705216506], [9.381460037903206, 41.23490047682286], [9.428606625031282, 41.21371947117345], [9.427935577262367, 41.264251011668954], [9.420326510551716, 41.267967705216506]]], [[[9.340705239483324, 41.25183902607892], [9.340705239483324, 41.25183902607892]]], [[[9.324657442051569, 41.251218821452724], [9.324657442051569, 41.251218821452724]]], [[[9.184354879035078, 41.251861114206854], [9.184354879035078, 41.251861114206854]]], [[[9.40024498219477, 41.253211415722646], [9.40024498219477, 41.253211415722646]]], [[[9.239302618090408, 41.253796902386895], [9.239302618090408, 41.253796902386895]]], [[[9.34973798653715, 41.28881117244661], [9.34973798653715, 41.28881117244661]]], [[[9.40247554585759, 41.28626196758507], [9.40247554585759, 41.28626196758507]]], [[[9.406119013474127, 41.29535143721897], [9.406119013474127, 41.29535143721897]]], [[[9.400334568901851, 41.29816858280413], [9.400334568901851, 41.29816858280413]]], [[[9.38028864756244, 41.307852239663575], [9.38028864756244, 41.307852239663575]]], [[[9.342166900792549, 41.30833105271548], [9.342166900792549, 41.30833105271548]]], [[[9.377096847427467, 41.3123924666293], [9.377096847427467, 41.3123924666293]]], [[[9.540173094841641, 39.082828387900356], [9.540173094841641, 39.082828387900356]]], [[[9.530964750140358, 39.089845250721936], [9.530964750140358, 39.089845250721936]]], [[[9.607731995895136, 39.14318945209132], [9.607731995895136, 39.14318945209132]]], [[[9.6029101124928, 39.148342855278344], [9.6029101124928, 39.148342855278344]]], [[[9.703387246268052, 39.97508931777588], [9.703387246268052, 39.97508931777588]]], [[[9.716233752911451, 40.736312414025434], [9.716233752911451, 40.736312414025434]]], [[[9.707137559977587, 40.82801104627678], [9.707137559977587, 40.82801104627678]]], [[[9.672080434810828, 40.87797800368799], [9.672080434810828, 40.87797800368799]]], [[[9.641387091773641, 40.88577715114112], [9.641387091773641, 40.88577715114112]]], [[[9.651751892761126, 40.88966466283766], [9.651751892761126, 40.88966466283766]]], [[[9.582269088609808, 40.90413319936501], [9.582269088609808, 40.90413319936501]]], [[[9.731332814130598, 40.9200000709614], [9.686541009547753, 40.895685260337395], [9.741631874375955, 40.91108036350294], [9.731332814130598, 40.9200000709614]]], [[[9.52611201604649, 40.931578685506], [9.52611201604649, 40.931578685506]]], [[[9.645147683960735, 40.98171256481543], [9.645147683960735, 40.98171256481543]]], [[[9.577164388887466, 41.06866865146202], [9.577164388887466, 41.06866865146202]]], [[[9.583005803939585, 41.06869441934934], [9.583005803939585, 41.06869441934934]]], [[[9.58736982041605, 41.07089385523497], [9.58736982041605, 41.07089385523497]]], [[[9.609276818764576, 41.08019457057697], [9.609276818764576, 41.08019457057697]]], [[[9.569826876374782, 41.117118468755855], [9.569826876374782, 41.117118468755855]]], [[[9.566019723347774, 41.12335833277142], [9.566019723347774, 41.12335833277142]]], [[[9.568864018249213, 41.128036319309025], [9.568864018249213, 41.128036319309025]]], [[[9.571652816742192, 41.12798986061947], [9.571652816742192, 41.12798986061947]]], [[[9.567863349843517, 41.13132351288319], [9.567863349843517, 41.13132351288319]]], [[[9.519431658529616, 41.1667841691624], [9.519431658529616, 41.1667841691624]]], [[[11.955120664840901, 36.83884001107456], [11.947440501990389, 36.78471644959054], [11.982096668246855, 36.744452167497506], [12.031967686333973, 36.73874187041647], [12.053743658975948, 36.78564894568289], [12.017906365622315, 36.82097109599986], [11.967495291335048, 36.83740394280594], [11.955120664840901, 36.83884001107456]]], [[[12.06474210600322, 37.991293207417385], [12.084318155450081, 37.944932875341856], [12.06474210600322, 37.991293207417385]]], [[[9.82089585599067, 40.53990374680947], [9.82089585599067, 40.53990374680947]]], [[[9.765120001138959, 40.68494751177438], [9.765120001138959, 40.68494751177438]]], [[[9.724712415833526, 40.846999616496056], [9.724712415833526, 40.846999616496056]]], [[[9.729808554644778, 40.87641780704569], [9.729808554644778, 40.87641780704569]]], [[[9.778912740442408, 40.874671083073224], [9.778912740442408, 40.874671083073224]]], [[[11.11212131833107, 42.26188508600104], [11.11212131833107, 42.26188508600104]]], [[[10.314470481417741, 42.350324529908086], [10.314470481417741, 42.350324529908086]]], [[[10.889530775337194, 42.388518610400645], [10.890795233093108, 42.33835479343886], [10.889530775337194, 42.388518610400645]]], [[[11.13065311186433, 42.377044410131056], [11.13065311186433, 42.377044410131056]]], [[[11.211230865437994, 42.382569109127566], [11.211230865437994, 42.382569109127566]]], [[[11.081579556498411, 42.4185247074363], [11.081579556498411, 42.4185247074363]]], [[[10.895242697531154, 42.56448891445864], [10.895242697531154, 42.56448891445864]]], [[[10.879753820640222, 42.57891843764056], [10.879753820640222, 42.57891843764056]]], [[[10.079995600684425, 42.61894822874279], [10.045607237453975, 42.58121670437595], [10.103453722378234, 42.57601829534341], [10.079995600684425, 42.61894822874279]]], [[[10.373797244467841, 42.71751438496768], [10.373797244467841, 42.71751438496768]]], [[[10.414801351723938, 42.86942690132792], [10.379690108548267, 42.82640608431966], [10.33510322131497, 42.798532584712966], [10.28701787878014, 42.82345111365313], [10.245989391212628, 42.7941677249496], [10.194121015840919, 42.8093313229756], [10.141351550272725, 42.80714770943283], [10.104506171684198, 42.772321192064226], [10.13687186931819, 42.73178240377403], [10.188032092258837, 42.73653792508117], [10.237231482581285, 42.72615841564896], [10.287032271655805, 42.73562338658803], [10.331321765972335, 42.76117363968149], [10.37365676692775, 42.731350372746874], [10.419328795805791, 42.70801914890481], [10.402354724017645, 42.757561114851306], [10.43474442599468, 42.79566359189573], [10.444281914326956, 42.84741066246781], [10.414801351723938, 42.86942690132792]]], [[[10.713956418841274, 42.79776505858078], [10.713956418841274, 42.79776505858078]]], [[[10.549565750865348, 42.85916318594014], [10.549565750865348, 42.85916318594014]]], [[[10.475661764707407, 42.86494844262376], [10.475661764707407, 42.86494844262376]]], [[[9.826435200951204, 43.07247681685539], [9.799270557961245, 43.0303311108415], [9.848387882446634, 43.044644240840334], [9.826435200951204, 43.07247681685539]]], [[[9.902319815170381, 43.43856380041145], [9.902319815170381, 43.43856380041145]]], [[[9.850949065114106, 44.028448935237215], [9.850949065114106, 44.028448935237215]]], [[[9.853768667470634, 44.049267260945285], [9.853768667470634, 44.049267260945285]]], [[[12.558096808484084, 35.50946620396452], [12.558096808484084, 35.50946620396452]]], [[[12.541392715825866, 35.528614669051706], [12.585313818419557, 35.50427243808185], [12.541392715825866, 35.528614669051706]]], [[[12.320162429169557, 35.552272294745535], [12.320162429169557, 35.552272294745535]]], [[[12.877266946555526, 35.87482454918161], [12.877266946555526, 35.87482454918161]]], [[[12.472322338797433, 37.86819190679322], [12.472322338797433, 37.86819190679322]]], [[[12.455021327227266, 37.89841589621122], [12.446501281378863, 37.84404810064347], [12.447047831683681, 37.895199517223844], [12.455021327227266, 37.89841589621122]]], [[[12.457150764824673, 37.886425446443845], [12.457150764824673, 37.886425446443845]]], [[[12.303372031533637, 37.915013681907574], [12.303372031533637, 37.915013681907574]]], [[[12.30803108668092, 37.95445779241565], [12.34572263025654, 37.91341223062933], [12.309672271644985, 37.95053798844957], [12.30803108668092, 37.95445779241565]]], [[[12.426055062798374, 37.98937281155073], [12.426055062798374, 37.98937281155073]]], [[[12.41525329217532, 37.98793103436533], [12.41525329217532, 37.98793103436533]]], [[[12.335685244137373, 38.019952123636195], [12.335685244137373, 38.019952123636195]]], [[[12.497289755868906, 38.00918471768544], [12.497289755868906, 38.00918471768544]]], [[[13.237584026573224, 38.21099617972994], [13.237584026573224, 38.21099617972994]]], [[[13.180875498455327, 38.72060715816204], [13.180875498455327, 38.72060715816204]]], [[[13.455103097984646, 40.79210881236], [13.455103097984646, 40.79210881236]]], [[[13.431387375856696, 40.802645196391346], [13.431387375856696, 40.802645196391346]]], [[[12.98789985271074, 40.935436641392734], [12.94286066877774, 40.906014492077865], [12.990193607896753, 40.9285852786145], [12.98789985271074, 40.935436641392734]]], [[[12.849355235816889, 40.921191573628924], [12.849355235816889, 40.921191573628924]]], [[[12.848256902134091, 40.924267603914664], [12.848256902134091, 40.924267603914664]]], [[[13.001903232743278, 40.93355039551789], [13.001903232743278, 40.93355039551789]]], [[[12.85542482514862, 40.94919327134836], [12.85542482514862, 40.94919327134836]]], [[[13.059274958887274, 40.97415796772393], [13.059274958887274, 40.97415796772393]]], [[[13.762006746787995, 45.65660012098686], [13.762006746787995, 45.65660012098686]]], [[[15.247317795186142, 37.24792175622091], [15.209531765213482, 37.2910298883088], [15.159178799400713, 37.292410132007014], [15.110469542651945, 37.31169395618741], [15.090617238966306, 37.36019257484303], [15.087504116531685, 37.44347825575613], [15.092404804192187, 37.49628248120088], [15.129214450132775, 37.53544885945523], [15.166343063543872, 37.57194930653622], [15.177191701199085, 37.62558952188467], [15.1995310086604, 37.67182776194148], [15.20984453605913, 37.72705087370805], [15.24618105602842, 37.797357644820856], [15.280158066963365, 37.840687008473274], [15.322629186483967, 37.89098232499586], [15.405425243086684, 37.98452449539669], [15.441419021098827, 38.02392396429854], [15.481367075638506, 38.063269188830795], [15.51350722979029, 38.11377274330618], [15.550393127766842, 38.1688850889838], [15.567950422578905, 38.21690075522737], [15.610822331229897, 38.2565816940153], [15.566511530024721, 38.28992509734511], [15.449662701381312, 38.25139580276485], [15.400011169067353, 38.23133292702391], [15.349169421485449, 38.21659766113907], [15.292829295879356, 38.206377865122825], [15.240920845400517, 38.21761044836159], [15.239507059571443, 38.27121342255886], [15.225344103247242, 38.20475332782917], [15.182831143790983, 38.159725719468646], [15.13235969304692, 38.13802053969405], [15.081867266891495, 38.120414935533134], [15.029947971501185, 38.149688611056376], [14.96976198743631, 38.15244384037888], [14.930003273899782, 38.183301827292425], [14.872930601515927, 38.16780465094405], [14.818433735600582, 38.15960521988193], [14.761623333424993, 38.15618657790889], [14.675593734347899, 38.09717977668237], [14.629886332417037, 38.07026162090601], [14.58119321209997, 38.0585796415003], [14.529439308085252, 38.04341051515769], [14.475050007203095, 38.033107566077604], [14.424108959872592, 38.04007387787414], [14.375587956003768, 38.01658214569345], [14.324938076830556, 38.011898546263055], [14.270789447225367, 38.012725716379606], [14.21574996952633, 38.01243022484867], [14.154116518119347, 38.02421958958136], [14.087723998652752, 38.0205071049028], [14.03973166106628, 38.03690875542077], [13.990107043717792, 38.030089697936006], [13.895970434304708, 38.0041345473547], [13.834928471731477, 37.98282238673517], [13.772786418070991, 37.97286973175265], [13.722334472697126, 37.9752432936988], [13.675158262043817, 37.99525171018491], [13.62530067085022, 38.009369993830404], [13.566420003006646, 38.03875842520149], [13.536853251713525, 38.08230119513571], [13.473032723511624, 38.09793357545858], [13.417098548052973, 38.09819350865636], [13.371890322441335, 38.12044507686578], [13.367858601561512, 38.174695308634426], [13.325649179971599, 38.20591398402284], [13.27394323985373, 38.2008904306718], [13.227223066477919, 38.17991939306253], [13.17427176998528, 38.169067358217454], [13.125544630897487, 38.189036028929934], [13.07710657361351, 38.17195775490382], [13.068259710642671, 38.120558652875424], [13.052816975692743, 38.072460500607185], [13.002726542604687, 38.05297945192424], [12.937187336459248, 38.02920676834842], [12.886518878292616, 38.02880164522825], [12.840736822047393, 38.05643980929321], [12.804552773627028, 38.094042762101616], [12.78342601788466, 38.13989498615683], [12.74923359636091, 38.17880910345861], [12.725680456484325, 38.13038936400646], [12.678038243131567, 38.11396196629168], [12.631157636243453, 38.072389711277225], [12.577507287130304, 38.070658715510184], [12.532748076915176, 38.03407548421956], [12.50411295945281, 37.993057315489104], [12.48776265580169, 37.94341024782648], [12.466539824653989, 37.89590581566495], [12.463420054027488, 37.84149157100855], [12.427905267478309, 37.80584812211612], [12.459856974845932, 37.75839284738189], [12.475183329500847, 37.70983315127398], [12.509915932680732, 37.66913121189819], [12.566646221763403, 37.660803167519504], [12.613493695399956, 37.63566614232851], [12.645124584100433, 37.58521753586909], [12.689886128141692, 37.56238195638233], [12.76481089709825, 37.57884640947292], [12.818636317675614, 37.582519339539964], [12.897140583712135, 37.57700627549164], [12.9558715403834, 37.567142939554124], [12.996246476373248, 37.53117393672905], [13.038555597310449, 37.495739874676154], [13.089131435953531, 37.50291881232491], [13.141880411145056, 37.49504709926664], [13.196187512727368, 37.465040914947636], [13.236934568882878, 37.43362323990181], [13.272162870532, 37.3890254436969], [13.321734121490433, 37.36372911350873], [13.370931817556311, 37.34861014681794], [13.41452204831288, 37.32156617911881], [13.459716295290997, 37.29398581468278], [13.511819912453296, 37.291507754170325], [13.565999189214288, 37.278581358042906], [13.614128532699462, 37.24193217774153], [13.655974319723729, 37.21156661052076], [13.697008455461543, 37.1807515981553], [13.747406357430975, 37.153135876572215], [13.824081645659467, 37.14448912131257], [13.864134211258548, 37.11085791879063], [13.920012700549345, 37.098831596095685], [13.97532640804799, 37.108624514768046], [14.026006814745443, 37.10828420313341], [14.101681625235631, 37.10584055759627], [14.156809026182273, 37.09508385784512], [14.218703582036762, 37.07159286864593], [14.268379170369187, 37.05183339299972], [14.321480967213837, 37.016465106392445], [14.359082634486954, 36.98202507593803], [14.393706116050845, 36.94204090841156], [14.42606177209627, 36.89521910244324], [14.452440650519017, 36.847124654983624], [14.479416985670891, 36.7993593017661], [14.527109214146758, 36.78335691320029], [14.588286266110401, 36.77699357769406], [14.639124466767381, 36.76105789261148], [14.680908672814104, 36.730123231868475], [14.733757326618528, 36.717328688859084], [14.78257411208315, 36.70356713974894], [14.838989308199405, 36.70764314398012], [14.88989504833714, 36.728765099940695], [14.956615361967105, 36.69408556625976], [15.0179597426641, 36.7020173066781], [15.053821031071685, 36.66706798042738], [15.105185423611324, 36.66179724700987], [15.120760726910534, 36.710852247113976], [15.101706867393183, 36.761120298435564], [15.107849238509393, 36.81528428313604], [15.126812742704, 36.86575322409166], [15.154403103123187, 36.91572208913239], [15.197754100269771, 36.9528481333151], [15.247628798554443, 36.97305837874481], [15.293273227123947, 37.010158835593764], [15.27142986033627, 37.05789479973899], [15.295748411366308, 37.10674490729013], [15.237351940093737, 37.114999315285], [15.200284482716638, 37.161612155009266], [15.182341148866184, 37.212885966663], [15.228017662971986, 37.24277604754626], [15.247317795186142, 37.24792175622091]]], [[[14.961098155380883, 38.43190029773929], [14.953714291805335, 38.381929394965155], [15.003017913206259, 38.37021805088948], [14.971169235817662, 38.41003963724942], [14.961098155380883, 38.43190029773929]]], [[[14.961247244887732, 38.52264326965447], [14.90447207899898, 38.510976153882645], [14.933562818469891, 38.46060966284562], [14.980676483893273, 38.48315269040968], [14.961247244887732, 38.52264326965447]]], [[[14.363769150603204, 38.55337305915766], [14.363769150603204, 38.55337305915766]]], [[[14.869087228910443, 38.58240257888292], [14.817418155749019, 38.58389244885713], [14.848899362585254, 38.536318044917785], [14.869087228910443, 38.58240257888292]]], [[[14.556459664083441, 38.585442897782485], [14.556459664083441, 38.585442897782485]]], [[[15.072377471952015, 38.646726239950496], [15.072377471952015, 38.646726239950496]]], [[[15.098073786816155, 38.63934483232387], [15.098073786816155, 38.63934483232387]]], [[[14.899167914701787, 40.25024573858251], [14.899167914701787, 40.25024573858251]]], [[[14.262551475071135, 40.5610222150376], [14.199722375391616, 40.56097160129918], [14.252893517914561, 40.54161543200662], [14.262551475071135, 40.5610222150376]]], [[[14.42909191332757, 40.58002551408103], [14.42909191332757, 40.58002551408103]]], [[[14.430510560307917, 40.581493573411734], [14.430510560307917, 40.581493573411734]]], [[[14.434841557150925, 40.58252713388254], [14.434841557150925, 40.58252713388254]]], [[[14.377179261007996, 40.58753968280131], [14.377179261007996, 40.58753968280131]]], [[[13.873511530833738, 40.75987000798576], [13.851037769956429, 40.71103730940335], [13.90019183264989, 40.701425241719384], [13.950797418022741, 40.705216025686624], [13.922399905988966, 40.751411045174336], [13.873511530833738, 40.75987000798576]]], [[[14.018088383178693, 40.76913468571182], [14.018088383178693, 40.76913468571182]]], [[[15.15357960291557, 36.68902178505916], [15.15357960291557, 36.68902178505916]]], [[[15.106160473295978, 36.79070181801538], [15.106160473295978, 36.79070181801538]]], [[[15.26420206659012, 36.97958522477951], [15.26420206659012, 36.97958522477951]]], [[[15.167496993900567, 37.56134443655304], [15.167496993900567, 37.56134443655304]]], [[[15.301498366061079, 37.85035438080589], [15.301498366061079, 37.85035438080589]]], [[[15.114664670195932, 38.63868991379818], [15.114664670195932, 38.63868991379818]]], [[[15.114601088618556, 38.66571060565671], [15.114601088618556, 38.66571060565671]]], [[[15.223088004610828, 38.81145012012878], [15.223088004610828, 38.81145012012878]]], [[[15.801954683605803, 39.70019504967035], [15.801954683605803, 39.70019504967035]]], [[[15.77561435074217, 39.875199042891275], [15.77561435074217, 39.875199042891275]]], [[[17.953183685837566, 40.051405479631285], [17.953183685837566, 40.051405479631285]]], [[[17.884885121934452, 40.25881950009111], [17.884885121934452, 40.25881950009111]]], [[[17.865757905168635, 40.27102124994841], [17.865757905168635, 40.27102124994841]]], [[[17.175264743209055, 40.43906038984028], [17.175264743209055, 40.43906038984028]]], [[[17.162236005145296, 40.45157935921912], [17.162236005145296, 40.45157935921912]]], [[[17.998613846560193, 40.649032569992094], [17.998613846560193, 40.649032569992094]]], [[[16.20109644524628, 41.815233224753335], [16.20109644524628, 41.815233224753335]]], [[[16.187852685544964, 41.84415346032228], [16.187852685544964, 41.84415346032228]]], [[[16.183746769388357, 41.89040207531957], [16.183746769388357, 41.89040207531957]]], [[[16.110761619918314, 41.928077085411225], [16.110761619918314, 41.928077085411225]]], [[[15.494979605652471, 42.12132918085537], [15.494979605652471, 42.12132918085537]]], [[[15.50007975578983, 42.121606167732516], [15.50007975578983, 42.121606167732516]]], [[[15.5081672311998, 42.12177579670948], [15.5081672311998, 42.12177579670948]]], [[[15.51702997828631, 42.138637281842584], [15.51702997828631, 42.138637281842584]]], [[[15.745986212822475, 42.226116147007026], [15.745986212822475, 42.226116147007026]]]]}}]}