{"type": "FeatureCollection", "features": [{"type": "Feature", "properties": {"code": "JAM", "name": "Jamaica", "tier": "country"}, "geometry": {"type": "MultiPolygon", "coordinates": [[[[-77.10457865798566, 17.706600686704803], [-77.10457865798566, 17.706600686704803]]], [[[-77.06970784671933, 17.72911416665903], [-77.06970784671933, 17.72911416665903]]], [[[-77.08750743042674, 17.76230483635544], [-77.08750743042674, 17.76230483635544]]], [[[-77.15714879707593, 17.787764479813575], [-77.15714879707593, 17.787764479813575]]], [[[-77.52838976947112, 17.805965078449105], [-77.54949706042169, 17.809749834067873], [-77.52838976947112, 17.805965078449105]]], [[[-77.14260042938554, 17.814833983630933], [-77.14260042938554, 17.814833983630933]]], [[[-77.14427108605292, 17.833326800414966], [-77.14427108605292, 17.833326800414966]]], [[[-77.12647783626579, 17.862881980253917], [-77.12647783626579, 17.862881980253917]]], [[[-77.10842746331485, 17.880495650633407], [-77.10842746331485, 17.880495650633407]]], [[[-77.06228255827097, 17.875837489871913], [-77.06228255827097, 17.875837489871913]]], [[[-76.87466421603654, 17.89297806579907], [-76.87466421603654, 17.89297806579907]]], [[[-76.83918213211086, 17.908444615202598], [-76.83918213211086, 17.908444615202598]]], [[[-77.7979518237625, 18.525031116881735], [-77.85410335882113, 18.524320337956965], [-77.89248542076001, 18.519344885483292], [-77.91558573581574, 18.50832781214899], [-77.92909053538682, 18.48593827601809], [-77.9379752719467, 18.46248257149989], [-77.95482073246427, 18.448409148788926], [-77.98120484615254, 18.455687524978828], [-78.00781640909685, 18.46205610414495], [-78.10357254584494, 18.453413032419576], [-78.15110944033512, 18.45978161158564], [-78.16794068527417, 18.440675874087276], [-78.17544651071995, 18.46091885786535], [-78.19910123333716, 18.455687524978828], [-78.2220736081864, 18.44522485920578], [-78.24823027261874, 18.42445589902337], [-78.26742130358821, 18.407397204828385], [-78.28838928186957, 18.398512468268393], [-78.31113420746294, 18.36439507987842], [-78.34205309069148, 18.360130406329745], [-78.34205309069148, 18.334542365037123], [-78.3376178302006, 18.30921020415741], [-78.3517196840686, 18.283053539725188], [-78.36832347975167, 18.26303800520293], [-78.34080211978375, 18.24074797812142], [-78.31954926130919, 18.225927384604688], [-78.2723853835987, 18.22287046660489], [-78.25258820036231, 18.21166176727246], [-78.23672134026833, 18.196813879845195], [-78.21270269884172, 18.200889770511594], [-78.18620940951047, 18.20875041679659], [-78.16437428094088, 18.217047765653092], [-78.13220385818158, 18.209041551844223], [-78.09930559780327, 18.21384528012959], [-78.06443926450328, 18.211172660392492], [-78.04822886505315, 18.199340932058362], [-78.03169858096948, 18.181838620834583], [-78.02681297095194, 18.154890432991408], [-78.02859958485732, 18.12912725577172], [-78.0035221671443, 18.118207416994323], [-77.98663633438372, 18.107289852709528], [-77.96710299228408, 18.086537382598294], [-77.9475423562738, 18.05901602263026], [-77.92661702472788, 18.028765271591], [-77.8723656325597, 18.03375591265285], [-77.8481962623672, 18.017557139971927], [-77.83888529772895, 17.99534842690923], [-77.84383459353796, 17.969000705101905], [-77.83961313534786, 17.944108658532514], [-77.81981595211136, 17.936102444723588], [-77.80380352449367, 17.909900290439964], [-77.77106829974178, 17.87727569700644], [-77.742601347696, 17.8618776807931], [-77.71880373599731, 17.858736217175476], [-77.69895997115339, 17.863580704367507], [-77.67613498342183, 17.858829380390773], [-77.6557613527911, 17.859970629777308], [-77.62635671298403, 17.864919925586378], [-77.60408488184294, 17.857495981872773], [-77.54119971156217, 17.861571872539002], [-77.51776334023089, 17.83930004139802], [-77.49738388689917, 17.842939229492913], [-77.47555458103056, 17.851283159957006], [-77.45468602081894, 17.854730198920606], [-77.42776185161733, 17.863301214721844], [-77.40232829385934, 17.859679494729676], [-77.37987595898875, 17.845693367043282], [-77.3618022952341, 17.83386163870898], [-77.33638620557895, 17.827472680089386], [-77.32091965617536, 17.80882184110294], [-77.29112380364802, 17.782437727414617], [-77.27247296466146, 17.767653525778883], [-77.25586916897822, 17.748092889768543], [-77.2294850552899, 17.738312571763345], [-77.20492053564914, 17.716477443193753], [-77.17876387121669, 17.706469675932624], [-77.14487393208259, 17.706014777420705], [-77.13304657077401, 17.722618573103944], [-77.14191709175543, 17.75241442563123], [-77.16943845172335, 17.761284946612648], [-77.19468531913196, 17.768335873546675], [-77.18604224740659, 17.787214161789223], [-77.17466978460988, 17.806319899287587], [-77.15374445306395, 17.818829608363842], [-77.16316085225947, 17.837116528540946], [-77.15005977511777, 17.86724900596704], [-77.11963616264399, 17.893451160250663], [-77.09998454693135, 17.89738148339319], [-77.07931395855206, 17.90465985958309], [-77.05456747950649, 17.90247634672619], [-77.03447916122241, 17.882970298537202], [-77.04088413226953, 17.863900952919778], [-77.03971959207894, 17.842211391873946], [-77.00915041208145, 17.85007203815894], [-76.98315751111323, 17.842939229492913], [-76.96109493328777, 17.83611575181476], [-76.93380102257561, 17.84384902651658], [-76.90627966260763, 17.865911604342216], [-76.89558954757882, 17.886382037376222], [-76.88626412808549, 17.911628904784834], [-76.87170737570574, 17.942789452847705], [-76.86096267285535, 17.979190431767336], [-76.8423300298092, 17.993601616623323], [-76.804336906098, 17.960703356245006], [-76.73126200915169, 17.96215903148294], [-76.7696568992285, 17.947148108429076], [-76.80123922919165, 17.939322398349645], [-76.83413560174102, 17.94290317747567], [-76.81461761246624, 17.9307346422832], [-76.79460207794392, 17.92868759897982], [-76.77390419565404, 17.927777801956154], [-76.714376176391, 17.939159362723046], [-76.66794013629953, 17.937121417389847], [-76.64721496009872, 17.923228816837423], [-76.63493270027834, 17.907307368921977], [-76.62287788971389, 17.885472240352385], [-76.6033172537035, 17.870915487972695], [-76.53780277002426, 17.8675401410145], [-76.51786001926405, 17.856622576729706], [-76.54231536326199, 17.85283782111094], [-76.50679688745544, 17.852255551015844], [-76.48015803060048, 17.864337655491], [-76.43250286249707, 17.872507632763984], [-76.38928750386975, 17.876601719370967], [-76.36608767976452, 17.868640995413273], [-76.34288785565917, 17.858860677408018], [-76.33421203124084, 17.881840694552466], [-76.31036224814187, 17.8663756008242], [-76.2919159315262, 17.8742944741187], [-76.26024043834786, 17.877648349867002], [-76.23191882091771, 17.89003905749263], [-76.21324177977687, 17.901166239011786], [-76.18958705715977, 17.897754500172766], [-76.1850380720411, 17.920499425766195], [-76.20459870805132, 17.938695366240722], [-76.22870832918039, 17.938467916984848], [-76.2339396620668, 17.96826376951219], [-76.26510021012973, 18.006475244509147], [-76.26964919524835, 18.0274005760549], [-76.27738246995011, 18.05014550164833], [-76.28684435899697, 18.0724992145216], [-76.31362878337575, 18.103213962042787], [-76.33516879653581, 18.1330365398577], [-76.33552418599822, 18.157913802225494], [-76.35933527997872, 18.15826919168785], [-76.3785973888406, 18.172513201340735], [-76.40907558913574, 18.179791577530636], [-76.43416647220857, 18.183494390861085], [-76.46603798079173, 18.183130532607663], [-76.47448146579524, 18.205535990186547], [-76.49864794923815, 18.208734495348097], [-76.53532812211944, 18.200744202987153], [-76.56429605935517, 18.208168146700814], [-76.59180832135291, 18.227674194889744], [-76.62610952659344, 18.232605864219522], [-76.65117564863027, 18.236080777616905], [-76.6806045108732, 18.26246483307824], [-76.7072433677281, 18.271053316982375], [-76.73431892715456, 18.270034344315775], [-76.76079210144206, 18.277013695812002], [-76.7852675604837, 18.273382397363036], [-76.78657766819782, 18.295799796027836], [-76.8060837163867, 18.313838523576862], [-76.81185983573096, 18.337315653814983], [-76.84179504004862, 18.350500112034354], [-76.86868939702129, 18.370668084867475], [-76.8993400948321, 18.383058792493102], [-76.89017607759541, 18.402510599720642], [-76.9418982160895, 18.41298165268489], [-76.9654801549446, 18.40264635849536], [-77.01218572240435, 18.40846337321574], [-77.02995519552417, 18.419125057087683], [-77.08077588864683, 18.410951099452518], [-77.12721731928565, 18.410541940986093], [-77.15479363099382, 18.417436018913122], [-77.16807375618981, 18.435444541200923], [-77.20059899978833, 18.435444541200923], [-77.21902238951901, 18.443405265158447], [-77.23699088073778, 18.457279669770514], [-77.27801704027661, 18.465325687199197], [-77.30644819726842, 18.469945750210286], [-77.32670539662502, 18.46319335042483], [-77.35087188006793, 18.458928676875928], [-77.37788147921009, 18.465681076661554], [-77.39991562587869, 18.4639041293496], [-77.42728061448321, 18.47349964483419], [-77.4489593716894, 18.46710263451115], [-77.4695719605084, 18.480252044619817], [-77.4933830544889, 18.483095160318953], [-77.52430193771744, 18.483095160318953], [-77.59004898826072, 18.49091372849159], [-77.6195463136396, 18.49233528634113], [-77.6433574076201, 18.48522749709332], [-77.67889635385984, 18.497310738814804], [-77.7151460790243, 18.50832781214916], [-77.76987605623316, 18.521121832795245], [-77.79439792913848, 18.521121832795245], [-77.7979518237625, 18.525031116881735]]]]}}]}