{"type": "FeatureCollection", "features": [{"type": "Feature", "properties": {"code": "JOR", "name": "the Hashemite Kingdom of Jordan", "tier": "country"}, "geometry": {"type": "Polygon", "coordinates": [[[39.07693655400004, 32.33079305900003], [39.05089737600008, 32.33913426000004], [39.033156398000074, 32.35545177700004], [39.00940637900004, 32.40607776600007], [39.00826180000007, 32.443394742000066], [39.01641692700008, 32.47152322000005], [39.045889842000065, 32.51762042800004], [39.05298471000003, 32.56701564700006], [39.04665249900006, 32.60979877700004], [38.79336984300005, 33.37433903900006], [38.45156975700007, 33.19418022100007], [37.555584356000054, 32.713316761000044], [36.867914529000075, 32.34073256700003], [36.83917287300005, 32.309782185000074], [36.75193050000007, 32.32826771300006], [36.72369754500005, 32.32848263900007], [36.69266673100003, 32.335574904000055], [36.566508664000025, 32.35061726400005], [36.499360015000036, 32.360286031000044], [36.46960095500003, 32.37274647300006], [36.42712434900005, 32.375753909000025], [36.39761964000007, 32.38026487500008], [36.383630338000046, 32.398091726000075], [36.33047099100003, 32.445755887000075], [36.30834245900007, 32.46228216600008], [36.26891806300006, 32.48202387600003], [36.24780693500003, 32.495754686000055], [36.20634773200004, 32.52728470400007], [36.179132182000046, 32.51827725600003], [36.15369708700007, 32.52363894100006], [36.11681620000007, 32.52363894100006], [36.07790050700004, 32.51291525200003], [36.07433959400004, 32.540150922000066], [36.05628067600003, 32.57745252500007], [36.02804772200005, 32.599526052000044], [36.02499551100004, 32.648368498000025], [35.99314060000006, 32.66631353900004], [35.96807177000005, 32.66891719800003], [35.964164940000046, 32.69385366600005], [35.94332851100006, 32.70563441000007], [35.92932903500008, 32.722754810000026], [35.89367920800004, 32.72645238500007], [35.865263120000066, 32.73506234700005], [35.83804757000007, 32.73035521500003], [35.817953845000034, 32.73078314600008], [35.79887752500008, 32.74148076400007], [35.769881518000034, 32.74982401500006], [35.75105954800006, 32.73420652400006], [35.73030858100003, 32.72282054600004], [35.691657004000035, 32.70099353000006], [35.67186239700004, 32.69520716000005], [35.65113015000003, 32.69520716000005], [35.62801473700006, 32.68494858400004], [35.603922615000045, 32.67754984000004], [35.594806678000054, 32.659598489000075], [35.56420317200008, 32.63643455000005], [35.56550544900006, 32.61463578100006], [35.577877080000064, 32.595986082000024], [35.57445860300004, 32.56965048400008], [35.58113277100006, 32.54934484800003], [35.56159861900005, 32.54056261000005], [35.55736621900007, 32.52066217300006], [35.57738872600004, 32.49348066600004], [35.568435572000055, 32.46478016100008], [35.57169126400004, 32.44129112500008], [35.56338924900007, 32.42109390100006], [35.56257532700005, 32.40047982800007], [35.55427331200008, 32.37504931900003], [35.56568412200005, 32.346945481000034], [35.560621912000045, 32.32347903400006], [35.56697051100008, 32.297614070000066], [35.56517988000007, 32.27325573400003], [35.56583101800004, 32.24462288900003], [35.57071455700003, 32.21818455600004], [35.575760880000075, 32.192840603000036], [35.56485431100003, 32.16900534000007], [35.56111026600007, 32.12834700600007], [35.54955255800007, 32.10049592800004], [35.537994852000054, 32.08022272300008], [35.52953005300003, 32.05815153900005], [35.534029418000046, 32.021716920000074], [35.54726055200007, 32.003607371000044], [35.55142783700006, 31.962781514000028], [35.54986510400005, 31.931929161000028], [35.53246668700007, 31.908053472000063], [35.54222725200003, 31.87102285000003], [35.55557558900006, 31.852496427000062], [35.557203435000076, 31.82774263400006], [35.55215711200003, 31.804780669000024], [35.557203435000076, 31.777938368000036], [35.56485431100003, 31.754687192000063], [35.539439565000066, 31.714745207000078], [35.497726010000065, 31.603031005000048], [35.49013617900005, 31.57373795700005], [35.48297365600007, 31.419529364000027], [35.46816025700008, 31.37020122000007], [35.42160386100005, 31.295951788000025], [35.40684324000006, 31.26779096000007], [35.40406127600005, 31.241290804000073], [35.44658557400004, 31.17908817500006], [35.45493146500007, 31.15426369200003], [35.45612373500006, 31.10289378300007], [35.45041673500003, 31.07992822800003], [35.43515567900005, 31.050515502000053], [35.42396423800005, 31.032645555000045], [35.42014897400003, 30.99972992800008], [35.42777950200008, 30.97661680400006], [35.42167508000006, 30.95262556700004], [35.39776609100005, 30.932773716000042], [35.373857102000045, 30.922300749000044], [35.33549080600005, 30.87424131800003], [35.33467688300004, 30.82337072200005], [35.311073117000035, 30.806174836000025], [35.29446908700004, 30.787297760000058], [35.29088782600007, 30.76701825400005], [35.28991111800008, 30.731343928000058], [35.27346987300007, 30.69649625200003], [35.254261290000045, 30.666816822000044], [35.243517507000035, 30.638248762000046], [35.208876943000064, 30.582550409000078], [35.20456380300004, 30.54975775300005], [35.197362732000045, 30.52408714300003], [35.19409558000007, 30.504269617000034], [35.18340254300006, 30.464820277000058], [35.16831102000003, 30.441965997000068], [35.16571536400005, 30.412670587000036], [35.17936005700005, 30.386775156000056], [35.19169522300007, 30.35001472700003], [35.18529427200008, 30.32434902800003], [35.16782266600006, 30.306299928000044], [35.15789280600006, 30.28690370100003], [35.15398597500007, 30.255271194000045], [35.13998649900003, 30.233473982000078], [35.13548687200006, 30.209634507000032], [35.143554738000034, 30.16396628700005], [35.146576020000055, 30.136399501000028], [35.17793629300007, 30.096592686000065], [35.15138142100005, 30.116248806000044], [35.149753575000034, 30.09005464200004], [35.12875436200005, 30.05990868400005], [35.09229061100007, 30.018337288000055], [35.08887213400004, 29.987323541000023], [35.082523534000075, 29.96222350900007], [35.08463973400006, 29.919059197000024], [35.085290873000076, 29.894788684000048], [35.07991898200004, 29.87404117600005], [35.05354787600004, 29.83846397900004], [35.042177009000056, 29.78642250300004], [35.01480514000008, 29.71737847000003], [35.01236337200004, 29.69475586300007], [35.01773604400006, 29.66587228700007], [35.01393548000004, 29.638406383000074], [34.99919995700003, 29.618700486000023], [34.98061386200004, 29.57955619200004], [34.978217673000074, 29.54231099800006], [35.00197120200005, 29.53206842900005], [34.999333310000054, 29.491263489000062], [34.990331973000025, 29.472118643000044], [34.98051451400005, 29.448910597000065], [34.978863603000036, 29.426714709000066], [34.97659659900006, 29.403133814000057], [34.967695277000075, 29.384569450000072], [34.957693791000054, 29.365685730000052], [36.07233677900007, 29.18413663000007], [36.50558652700005, 29.500699775000044], [36.75570790800003, 29.867452987000036], [37.50576090200008, 30.00076327200003], [37.67237045300004, 30.33406825700007], [38.005880638000065, 30.50069084900008], [37.00569807000005, 31.50079798200005], [38.91867530500008, 31.978928600000074], [39.005899414000055, 32.00095689200003], [39.30190042300006, 32.230853883000066], [39.29717966900006, 32.26362068800006], [39.28773816300003, 32.287155925000036], [39.259901995000064, 32.31742619400006], [39.24378632000003, 32.32966902000004], [39.22229811700004, 32.33587040300006], [39.16492608200008, 32.33369443400005], [39.13745618100006, 32.329946807000056], [39.07693655400004, 32.33079305900003]]]}}]}