{"type": "FeatureCollection", "features": [{"type": "Feature", "properties": {"code": "KAZ", "name": "Kazakhstan", "tier": "country"}, "geometry": {"type": "MultiPolygon", "coordinates": [[[[50.37410309999998, 44.78638819999998], [50.37410309999998, 44.78638819999998]]], [[[50.915520199999975, 44.833435499999986], [50.915520199999975, 44.833435499999986]]], [[[50.597044199999985, 44.82772], [50.597044199999985, 44.82772]]], [[[50.97894770000001, 44.857016], [50.97894770000001, 44.857016]]], [[[51.130904099999974, 44.86175419999998], [51.130904099999974, 44.86175419999998]]], [[[51.085848900000045, 44.8837118], [51.085848900000045, 44.8837118]]], [[[50.46359889999997, 44.9299273], [50.46359889999997, 44.9299273]]], [[[50.714172499999954, 44.9293788], [50.714172499999954, 44.9293788]]], [[[51.233904600000024, 45.036226399999954], [51.10571989999998, 44.990328700000035], [51.09459449999997, 44.8662038], [51.1635727, 44.9660177], [51.233904600000024, 45.036226399999954]]], [[[50.07424589999997, 45.04904], [50.009463199999985, 44.942436600000036], [50.086821599999986, 44.846568099999985], [50.21486919999997, 44.84823870000001], [50.074324099999956, 44.8753208], [50.031961100000025, 44.989010699999966], [50.07424589999997, 45.04904]]], [[[50.31460670000004, 45.06233849999999], [50.27443040000003, 44.947835800000014], [50.3582184, 45.04433820000002], [50.31460670000004, 45.06233849999999]]], [[[53.23530009999998, 45.56785560000003], [53.23530009999998, 45.56785560000003]]], [[[69.6837177, 55.360181], [69.676348, 55.48040019999998], [69.63452319999998, 55.36675660000003], [69.4945, 55.3364], [69.3627, 55.389], [69.2061, 55.3301], [69.1087, 55.4074], [68.9855, 55.4227], [69.0092, 55.2853], [68.85, 55.3436], [68.7175, 55.3541], [68.63551159999997, 55.26532109999998], [68.49269150000003, 55.200377299999985], [68.3588038, 55.2064629], [68.23998609999997, 55.18715], [68.31554940000004, 55.07669250000002], [68.20399530000005, 54.99682250000004], [68.03256390000004, 54.95046149999998], [67.9108618, 54.98369190000003], [67.79875349999999, 54.925387300000025], [67.69174140000001, 54.8633156], [67.56352710000002, 54.84439090000002], [67.3985243, 54.85539949999996], [67.2397211, 54.818962100000036], [67.1069, 54.8087], [66.923, 54.7814], [66.792, 54.7649], [66.6705, 54.7419], [66.381721, 54.703724], [65.998643, 54.625148], [65.84528550000003, 54.697243200000024], [65.74729, 54.607419], [65.627621, 54.638941], [65.489554, 54.655537], [65.379398, 54.573395], [65.238008, 54.549397], [65.239194, 54.37575], [65.121107, 54.330386], [64.982881, 54.414965], [64.84468, 54.38422], [64.697139, 54.36464], [64.5766234, 54.37413730000002], [64.46043760000003, 54.34407950000002], [64.33752810000001, 54.33237040000003], [64.21733050000002, 54.32258529999998], [64.08930979999995, 54.31390690000002], [64.00622159999998, 54.215697299999974], [63.8741894, 54.22771889999998], [63.7583091, 54.26703150000003], [63.62320749999998, 54.228179900000015], [63.502746, 54.21216359999998], [63.380243900000025, 54.19104979999998], [63.259889, 54.192836800000045], [63.1556043, 54.12661679999997], [63.03349779999998, 54.10292679999997], [62.911863599999954, 54.11627839999997], [62.78924459999999, 54.0969179], [62.66896849999998, 54.090497900000024], [62.580955, 54.005843], [62.474798, 53.93145], [62.419255, 54.047207], [62.2958764, 54.03283210000003], [62.17545920000004, 54.0285733], [62.05289469999997, 54.03766570000001], [61.931958, 53.950236], [61.825791, 54.023964200000016], [61.70064550000004, 54.01885819999996], [61.571867, 53.968503], [61.483358, 54.050542], [61.36695789999999, 54.08098920000002], [61.245586, 54.037656], [61.206505, 53.918143], [61.099964, 53.974558], [60.99537540000003, 53.90661609999998], [61.135364, 53.904236], [61.227187, 53.79567], [61.115178, 53.721553], [60.998452, 53.650746], [61.12091, 53.615491], [61.23300010000003, 53.5654818], [61.3576544, 53.56140720000002], [61.507042, 53.595817], [61.517503, 53.473471], [61.366321, 53.467363], [61.241934, 53.491914], [61.154711, 53.405554], [61.225143, 53.282833], [61.400363, 53.273691], [61.526708, 53.215251], [61.663598, 53.265264], [61.783362, 53.184299], [61.915054, 53.141813], [62.118862, 53.111967], [62.130271, 52.989365], [61.960691, 52.950035], [61.84972410000002, 53.0039684], [61.716556100000034, 52.99144480000002], [61.557147, 53.0121159], [61.389092, 52.991961], [61.250433, 53.035909], [61.120773199999974, 52.98666419999998], [61.0147841, 52.89446170000003], [60.902345800000035, 52.8344585], [60.733815, 52.761], [60.744251, 52.631788], [60.84144, 52.521735], [60.98097, 52.507692], [61.067349, 52.347597], [60.9641763, 52.280100500000046], [60.849841299999966, 52.23925410000001], [60.74251249999999, 52.1794787], [60.510395, 52.156918], [60.340247, 52.054854], [60.198105, 51.990784], [60.001687, 51.993295], [60.074519, 51.888273], [60.320541, 51.831509], [60.518456, 51.797917], [60.41816, 51.714930199999976], [60.526161, 51.638128], [60.935626499999984, 51.61526410000003], [60.9545549, 51.49451929999997], [61.08738850000003, 51.46805539999997], [61.2171986, 51.44915], [61.34180339999996, 51.438495], [61.461984500000014, 51.40984930000003], [61.549005, 51.323379], [61.689558, 51.255677], [61.567968, 51.237725], [61.5122, 51.0362], [61.449163, 50.8063336], [60.80864740000004, 50.6562994], [60.56045459999996, 50.66103], [60.325545699999964, 50.66999790000002], [60.18284219999998, 50.778362], [60.06733859999997, 50.821844], [59.9975098, 50.674848099999956], [59.862003, 50.598881], [59.61422890000004, 50.53065789999997], [59.4570812, 50.543730299999964], [59.29831260000002, 50.6525777], [59.16166, 50.66803370000004], [59.04188130000004, 50.68997309999996], [58.91376709999997, 50.695507600000035], [58.81657589999999, 50.770904500000015], [58.65696810000004, 50.8087994], [58.57861110000002, 50.93983], [58.52168390000003, 51.08353240000001], [58.38367440000002, 51.07483809999997], [58.2901753, 51.15898020000002], [58.179110399999985, 51.086468500000024], [58.056326, 51.11160250000004], [57.934836200000035, 51.094986200000015], [57.8141154, 51.134747100000034], [57.7552613, 50.96865869999998], [57.5590535, 50.93582470000004], [57.4469935, 50.8892267], [57.335928599999974, 50.93906650000004], [57.25181570000004, 51.028344899999986], [57.144793, 51.09909890000004], [57.024791200000024, 51.06774230000004], [56.8881298, 51.06034319999997], [56.74307740000001, 51.08254229999998], [56.66075760000001, 50.98541050000003], [56.55036549999998, 51.0418115], [56.43456029999997, 50.963475799999955], [56.29780149999998, 50.9020255], [56.18134039999997, 50.9378649], [56.12430359999997, 50.786782399999964], [55.999498500000044, 50.66859129999999], [55.8670963, 50.626267800000036], [55.745803399999986, 50.5790881], [55.6184481, 50.582150299999974], [55.501270300000016, 50.670095700000026], [55.146671899999966, 50.797133600000045], [55.097973899999985, 50.9075752], [54.9553455, 50.907870700000025], [54.84287050000002, 50.97715619999998], [54.73302860000003, 51.03041090000004], [54.611136100000046, 51.01913979999997], [54.52678730000004, 50.93185319999998], [54.65384620000001, 50.915192], [54.68490770000002, 50.7806308], [54.71856710000004, 50.66385360000003], [54.646527099999986, 50.560551900000014], [54.46623570000001, 50.566632], [54.44504739999997, 50.685886300000035], [54.494638500000036, 50.79645070000003], [54.40305450000002, 50.8815075], [54.28183119999998, 50.91085480000002], [54.1862705, 50.9962391], [54.13701379999997, 51.108241699999965], [54.026718600000045, 51.16298249999998], [53.90454140000004, 51.189241399999986], [53.786623800000044, 51.21363710000002], [53.66125859999996, 51.23116660000002], [53.613537, 51.34355859999997], [53.5248233, 51.425372], [53.4132208, 51.482943700000014], [53.28761689999998, 51.499477699999986], [53.16110240000002, 51.518709], [53.03973790000002, 51.48911080000003], [52.916485, 51.482910899999965], [52.79409040000004, 51.4989434], [52.675210600000014, 51.4781988], [52.54587910000003, 51.4601079], [52.48529020000002, 51.56999750000002], [52.384370199999985, 51.6831874], [52.24040089999998, 51.72395090000001], [52.09006059999998, 51.65837649999998], [51.89409490000002, 51.68340839999998], [51.7957352, 51.610869400000034], [51.730726500000046, 51.4807505], [51.61284180000002, 51.5334387], [51.4906463, 51.49036], [51.286546, 51.4877849], [51.3803263, 51.56343], [51.27217420000002, 51.68484349999998], [51.151802800000034, 51.6709104], [51.03194630000002, 51.682318500000044], [50.9082339, 51.68265059999999], [50.76816280000004, 51.77303660000001], [50.83257969999996, 51.649157499999966], [50.67890950000004, 51.5745466], [50.55852309999997, 51.599992599999986], [50.5543284, 51.4796919], [50.37191150000001, 51.42765040000003], [50.26741840000001, 51.290489299999976], [50.03868239999997, 51.25125139999997], [49.911100200000035, 51.20107250000003], [49.77628879999997, 51.107179], [49.5628364, 51.10999479999998], [49.4400097, 51.11550850000002], [49.3388959, 50.98724840000004], [49.43827110000002, 50.90105310000001], [49.262155200000024, 50.823155200000045], [49.12603070000002, 50.784780300000044], [49.00930350000002, 50.6825667], [48.81395169999997, 50.595478100000044], [48.689053, 50.61235030000002], [48.57062750000002, 50.632365], [48.659437799999964, 50.550528], [48.73206649999996, 50.257163], [48.763225, 50.097802299999984], [48.872366799999966, 50.04493889999997], [48.78776540000002, 49.948734500000015], [48.659002600000015, 49.897154200000024], [48.501207, 49.84805870000002], [48.378906, 49.835156199999965], [48.25436710000003, 49.8643288], [48.17012, 49.95253409999998], [48.11266160000002, 50.06142809999996], [48.019331899999976, 50.14106339999997], [47.9372336, 50.23262630000003], [47.83732670000004, 50.3104159], [47.73398090000002, 50.3812174], [47.63039869999998, 50.44369119999998], [47.50521389999999, 50.43332960000002], [47.412533400000015, 50.3515118], [47.30013479999996, 50.3033031], [47.316773, 50.1523651], [47.182360099999975, 49.93502660000002], [46.95735389999999, 49.8713974], [46.870089, 49.7428934], [46.8442733, 49.6065618], [46.805845400000045, 49.4292962], [46.91452089999998, 49.28283910000004], [47.0511394, 49.1655918], [46.9719153, 49.0274277], [46.791675, 48.95194420000004], [46.492161, 48.4336187], [46.6446167, 48.385655599999986], [46.889167, 48.32718889999998], [47.1237606, 48.269529], [47.0919048, 48.10352219999998], [47.211519, 48.082250100000024], [47.0499115, 47.997515], [47.180909400000026, 47.8536645], [47.38462749999998, 47.68156309999998], [47.4150752, 47.837710499999964], [47.652672799999976, 47.75819640000003], [47.86643870000004, 47.75500859999997], [48.03071819999999, 47.762931500000036], [48.213354, 47.69051459999998], [48.3268978, 47.55240360000001], [48.45301590000003, 47.410845], [48.711055, 47.09533760000004], [48.91578819999999, 46.880218], [48.99712520000003, 46.7430848], [48.7521448, 46.683976800000046], [48.62913930000003, 46.70819419999999], [48.506115, 46.67643240000003], [48.605214, 46.607013200000026], [48.7175196, 46.55977260000002], [48.819720399999966, 46.48538260000004], [48.93621440000003, 46.44580220000003], [49.053287, 46.39306790000004], [49.1798029, 46.377144], [49.314186600000035, 46.272843200000025], [49.44972859999998, 46.24370379999998], [49.6495961, 46.2310867], [49.839682, 46.1927839], [49.8695152, 46.351169099999964], [49.9173108, 46.528582], [50.0386838, 46.58103189999998], [50.12342590000004, 46.702381], [50.22899760000003, 46.76579659999997], [50.34246580000003, 46.812927499999965], [50.42393379999998, 46.90151209999998], [50.5699171, 46.88982319999997], [50.66587579999996, 46.963445800000045], [50.787240399999966, 46.98019609999997], [50.8907419, 47.0678535], [51.05433, 47.08080749999996], [51.19234570000001, 47.11983629999998], [51.34203440000002, 47.0960017], [51.47145650000004, 47.081057400000034], [51.5916301, 47.13104890000002], [51.71968949999998, 47.11049069999997], [51.71865950000002, 46.986740500000025], [51.84033740000002, 46.92811539999997], [51.9699717, 46.96378370000003], [52.10764420000002, 46.9825247], [52.2274638, 46.96729810000002], [52.341447, 47.01132619999997], [52.479321700000014, 47.0120909], [52.60923870000004, 46.98837990000004], [52.73146160000001, 46.9708123], [52.84647470000002, 47.008517], [52.975564099999964, 46.952301399999975], [53.092637099999976, 46.887345899999985], [53.1386424, 46.77495370000002], [53.204217, 46.67375290000002], [53.21080120000003, 46.550398300000026], [53.38034159999997, 46.48993109999997], [53.415360500000034, 46.36830049999998], [53.34806929999997, 46.24426140000002], [53.2704783, 46.147539499999965], [53.193574, 46.015133], [53.22798229999998, 45.89996370000004], [53.0975967, 45.900953], [53.098533, 45.76087029999998], [53.4548427, 45.693758899999956], [53.54719650000003, 45.57060179999996], [53.64264020000002, 45.4955668], [53.76314649999997, 45.51192909999997], [53.83764749999999, 45.63929590000002], [53.92725479999997, 45.726603], [54.088959799999984, 45.77355820000004], [54.2118693, 45.79151519999998], [54.3498851, 45.680807700000045], [54.42816270000003, 45.56267009999997], [54.568925, 45.489309399999975], [54.6756984, 45.3960878], [54.79689130000002, 45.334095799999986], [54.9043513, 45.25149520000002], [54.79689130000002, 45.16393319999998], [54.64857590000004, 45.0495614], [54.5383693, 44.99811650000003], [54.409549, 45.002696399999984], [54.28382420000003, 45.00501010000002], [54.14457810000003, 45.0371898], [54.013964, 44.961937199999966], [53.89139780000002, 44.9242712], [53.75335320000004, 44.94640779999999], [53.6247874, 44.86467870000001], [53.54650979999997, 44.73922289999999], [53.48539839999999, 44.6249799], [53.41776380000002, 44.50585969999998], [53.31202040000004, 44.3837966], [53.16851150000003, 44.39729], [53.2055903, 44.523731], [53.315796900000045, 44.67700310000004], [53.39235789999998, 44.7821278], [53.479905199999955, 44.93544659999997], [53.57534890000003, 45.02602869999996], [53.75456339999999, 45.08956910000001], [53.898415599999986, 45.132213200000024], [54.02510170000002, 45.231430799999984], [53.881592800000014, 45.18184359999997], [53.7380839, 45.25608730000001], [53.603844700000025, 45.288946], [53.4544993, 45.29232749999996], [53.35356239999999, 45.22732029999996], [53.235116100000035, 45.178939600000035], [53.09092049999996, 45.18063360000004], [52.929902200000015, 45.18692519999996], [52.771287, 45.2164382], [52.6669169, 45.29425960000004], [52.54297740000001, 45.30754149999996], [52.419037900000035, 45.317199], [52.290627399999956, 45.311892200000045], [52.17913449999997, 45.3569359], [52.058144, 45.4012704], [51.91092020000002, 45.41754], [51.788691800000045, 45.408939500000024], [51.643128500000046, 45.36811530000004], [51.525368799999974, 45.32806179999997], [51.38803970000004, 45.3058512], [51.28916270000003, 45.2195821], [51.259980299999974, 45.0820547], [51.22873790000001, 44.95561530000003], [51.2167216, 44.8206175], [51.2836696, 44.6921372], [51.36454060000003, 44.5996849], [51.519875600000034, 44.56606180000004], [51.403023900000036, 44.50997710000004], [51.273490400000036, 44.52481669999997], [51.131997600000034, 44.4758763], [51.0133367, 44.514179500000026], [50.890221700000026, 44.61276120000004], [50.74224960000004, 44.60322870000002], [50.61793830000002, 44.619208499999964], [50.496361300000025, 44.623969], [50.376552400000044, 44.642521700000046], [50.27615440000003, 44.576002900000034], [50.245118199999986, 44.451232500000046], [50.3117228, 44.33151110000002], [50.42845260000003, 44.2936793], [50.581574499999974, 44.2853235], [50.70620070000002, 44.26344550000001], [50.838379899999985, 44.197024], [50.87614540000002, 44.078016500000025], [50.976395699999976, 43.95876909999996], [51.02393339999997, 43.81039879999997], [51.10022430000002, 43.71628829999998], [51.1869837, 43.62846960000002], [51.2784955, 43.548515099999975], [51.31731520000004, 43.3916271], [51.2857295, 43.2420019], [51.37309270000002, 43.15713219999997], [51.496731, 43.168592], [51.6221858, 43.185202899999965], [51.74509530000001, 43.05188090000003], [51.82302959999997, 42.94290310000004], [51.90508370000001, 42.83322850000004], [52.0226009, 42.858572], [52.184735600000046, 42.87547730000003], [52.2874452, 42.790097], [52.42556330000002, 42.838180100000024], [52.551094, 42.81850189999996], [52.65542629999997, 42.7540867], [52.757753900000026, 42.6885074], [52.7025619, 42.57253710000002], [52.63273909999998, 42.6732642], [52.68262029999998, 42.55018910000003], [52.642000400000036, 42.424425899999974], [52.576322, 42.31048449999999], [52.48959749999999, 42.210851300000016], [52.42391919999997, 42.08009650000004], [52.485968900000046, 41.96175460000002], [52.4700029, 41.82724130000002], [52.655828600000035, 41.90645340000001], [52.798718, 42.000921], [52.909226, 42.076775], [53.570558, 42.288924], [54.150504, 42.368566], [54.779482, 42.052549], [54.912094, 41.940989], [54.964006, 41.810219], [55.066234, 41.699339], [55.137159, 41.591588], [55.240111, 41.472], [55.33761, 41.380314], [55.426281, 41.294538], [55.542728, 41.259293], [55.666039, 41.285904], [55.800546, 41.281154], [56.00179210000002, 41.32427980000004], [55.99857810000001, 43.7532701], [55.998664799999986, 44.156594100000014], [55.99872530000002, 44.43675189999998], [55.99874260000003, 45.000313700000014], [56.652713, 45.15662], [57.00101, 45.237915], [57.432773, 45.334335], [57.998912, 45.459793], [58.587577, 45.590118], [58.648567, 45.7184317], [58.71344850000001, 45.840883], [58.8163452, 45.90542779999998], [58.94647370000003, 45.906827], [59.06811290000002, 45.94123790000004], [59.18955270000003, 45.949080500000036], [59.3018128, 46.00396439999999], [59.2406327, 45.881354100000024], [59.098467100000036, 45.878527800000036], [58.99344450000001, 45.81516280000002], [58.9242937, 45.713178500000026], [58.88741660000002, 45.597874800000035], [58.779261299999966, 45.54501660000001], [59.0965967, 45.322897299999966], [59.497905, 45.151321], [59.59555629999997, 45.2568161], [59.61558489999997, 45.38576619999996], [59.57434770000002, 45.50694340000001], [59.442575200000036, 45.54879880000004], [59.57718849999997, 45.52899689999996], [59.70060449999998, 45.499222400000036], [59.833109900000025, 45.42671859999998], [59.89162920000003, 45.30228719999998], [59.87667749999998, 45.17893730000002], [59.86585331913014, 45.0407172876808], [59.991375, 45.002986], [60.570201, 44.667148], [60.9904177, 44.412594300000016], [61.106565600000025, 44.36043340000004], [61.13776079999999, 44.225787099999955], [61.42544809999998, 43.9994771], [62.004055, 43.505401], [62.24249940000003, 43.51855379999996], [63.349076400000044, 43.650484599999984], [63.8576283, 43.59925790000003], [64.5348607, 43.570687199999966], [64.9322634, 43.7353744], [65.184862, 43.4951617], [65.4954695, 43.33291390000002], [65.74181950000002, 42.999845], [65.8441558, 42.8582546], [66.09669310000001, 42.9381375], [66.095024, 42.566158], [66.07067559999999, 42.33794109999997], [65.99871, 41.937179], [66.53239280000004, 41.8774368], [66.571479, 41.688659], [66.606628, 41.493591], [66.645637, 41.344802], [66.706581, 41.141586], [66.999473, 41.140823], [67.313812, 41.134357], [67.574096, 41.168582], [67.698493, 41.176338], [67.864814, 41.135139], [67.9861345, 41.09665769999997], [68.10563, 41.066571500000016], [68.07504330000002, 40.9496027], [67.99472880000003, 40.860441499999986], [68.1680748, 40.719333799999966], [68.29823440000001, 40.65639390000004], [68.4352561, 40.596936499999956], [68.56305479999999, 40.579210600000046], [68.648613, 40.67630149999999], [68.58578379999997, 40.78060959999996], [68.5766106, 40.9064111], [68.464933, 40.95641879999998], [68.57864959999996, 41.0208411], [68.6843614, 40.961368499999985], [68.749031, 41.07045369999997], [68.85231640000003, 41.140962100000046], [68.980941, 41.209632], [69.03869039999996, 41.325956200000014], [69.149414, 41.393165], [69.25006389999996, 41.46632010000004], [69.37976059999997, 41.4653813], [69.45494, 41.56615], [69.565856, 41.614734], [69.68116, 41.677486], [69.79747419999997, 41.70734530000002], [69.92435390000004, 41.71625429999997], [70.02124, 41.7985], [70.13551929999997, 41.84434570000002], [70.22842320000004, 41.921190199999955], [70.336853, 41.98471], [70.416366, 42.078056], [70.545532, 42.073982], [70.666168, 42.07759], [70.74936459999998, 42.16577820000003], [70.86610850000002, 42.2118386], [70.886611, 42.335418], [70.959953, 42.452327], [71.080863, 42.475654], [71.002555, 42.587646], [71.156677, 42.605194], [71.2445913, 42.71310040000002], [71.36698579999995, 42.78534849999998], [71.49910569999999, 42.79536], [71.62086519999998, 42.76501910000003], [71.7605216, 42.8075477], [71.90477030000004, 42.81980040000002], [72.0209721, 42.77339950000003], [72.14505730000005, 42.7396819], [72.2820197, 42.75926879999996], [72.40183159999997, 42.71990129999998], [72.5220264, 42.68224769999998], [72.66729849999997, 42.656922], [72.78909320000004, 42.593844599999976], [72.901115, 42.53731520000004], [73.02323450000003, 42.548586], [73.15547730000002, 42.54764170000003], [73.30970350000003, 42.5179218], [73.41297830000003, 42.4279483], [73.43291650000003, 42.5488984], [73.46308109999998, 42.670984099999984], [73.50999619999997, 42.78174379999997], [73.51501640000004, 42.907358], [73.55938320000004, 43.028858], [73.699734, 43.075776], [73.82957259999998, 43.1262386], [73.95734760000005, 43.18033120000002], [74.17012619999996, 43.1987932], [74.28053839999997, 43.25025759999998], [74.39092860000002, 43.19403309999996], [74.50499690000002, 43.14826459999998], [74.61536439999998, 43.08513359999997], [74.7180028, 43.015726499999985], [74.84747819999998, 43.00108280000001], [74.96721280000004, 42.950928499999975], [75.08229679999997, 42.914399799999956], [75.19734790000003, 42.87163750000003], [75.33643, 42.85545049999999], [75.45510139999998, 42.8360683], [75.57798010000002, 42.82746759999998], [75.711571, 42.797189400000036], [75.78631140000002, 42.89916139999998], [75.907037, 42.949495], [76.028275, 42.911042], [76.185447, 42.931735], [76.308979, 42.900799], [76.432869, 42.878233], [76.549522, 42.909841], [76.676053, 42.909618], [76.791238, 42.953974], [76.911576, 42.971438], [77.033434, 42.953712], [77.1536, 42.972661], [77.265087, 42.912209], [77.402806, 42.918837], [77.52479, 42.932593], [77.646157, 42.916485], [77.770596, 42.912579], [77.899448, 42.878501], [78.024395, 42.86444], [78.149588, 42.857619], [78.269768, 42.869836], [78.39012, 42.881029], [78.513257, 42.888451], [78.641886, 42.842362], [78.774359, 42.815069], [78.90433, 42.788304], [79.029209, 42.762601], [79.15205, 42.794424], [79.19907310000005, 42.67887320000001], [79.3045049, 42.61245370000004], [79.409414, 42.543739], [79.501303, 42.463673], [79.630754, 42.454191], [79.760987, 42.452328], [79.890997, 42.439595], [80.000317, 42.37815], [80.106256, 42.315685], [80.1744037, 42.210844100000045], [80.28918330000005, 42.26174859999998], [80.22731939999997, 42.367317700000015], [80.22803190000005, 42.487990199999956], [80.17801930000002, 42.6036175], [80.25481469999997, 42.783959299999964], [80.36594729999999, 42.82975839999998], [80.48058009999998, 42.867638299999975], [80.60061549999998, 42.89253589999997], [80.48537309999998, 42.94473989999996], [80.3818076, 43.0162826], [80.49203120000003, 43.07343050000003], [80.6025, 43.135172], [80.72387489999998, 43.1342068], [80.78978220000003, 43.2384584], [80.69798590000002, 43.3162288], [80.73531620000003, 43.43384339999996], [80.68563819999996, 43.5797326], [80.5877161, 43.724279500000016], [80.52143, 43.82446160000002], [80.47552309999998, 43.93563160000002], [80.4510325, 44.0555402], [80.40210250000001, 44.16678389999997], [80.40539270000002, 44.293009199999986], [80.37710840000003, 44.41133349999997], [80.37048879999998, 44.5318599], [80.36839410000002, 44.654498199999956], [80.25845909999998, 44.719336], [80.164426, 44.79940130000004], [80.041526, 44.80086159999998], [79.95241149999998, 44.882110700000034], [80.01912270000003, 44.99086449999996], [80.12864, 45.04302970000003], [80.25514849999996, 45.0411025], [80.38178760000002, 45.039869699999954], [80.47959769999997, 45.115188799999984], [80.600094, 45.1044192], [80.715661, 45.146213599999975], [80.84385549999996, 45.13144670000002], [80.96780169999997, 45.16730870000003], [81.08760070000002, 45.1963892], [81.20295580000001, 45.23672939999999], [81.326991, 45.25692619999997], [81.45183319999998, 45.262192], [81.5672875, 45.305396700000045], [81.6782709, 45.35624060000003], [81.80662390000003, 45.3553365], [81.92203459999999, 45.228887], [82.04105740000004, 45.25304640000003], [82.1714705, 45.221269399999976], [82.29875560000004, 45.223113699999985], [82.41648310000002, 45.19231739999998], [82.5601012, 45.203483900000016], [82.58772629999999, 45.344720400000035], [82.43773889999997, 45.45969860000001], [82.27995879999997, 45.5351376], [82.28458519999997, 45.669622399999966], [82.337604, 45.78079359999998], [82.3407047, 45.90808620000002], [82.45610689999998, 45.977168300000024], [82.51189590000003, 46.15462879999998], [82.608009, 46.2984008], [82.72163059999997, 46.48504670000004], [82.7691774, 46.59992090000002], [82.86500739999997, 46.803910100000024], [82.91930980000004, 46.9278958], [82.96922339999996, 47.04274819999996], [83.02103870000003, 47.152769599999964], [83.11757869999995, 47.2294949], [83.23648160000002, 47.18907040000004], [83.36489069999999, 47.17778070000003], [83.48115739999999, 47.1175318], [83.60385330000001, 47.05463440000004], [83.732447, 47.0274798], [83.85103979999997, 46.995125], [83.98652359999997, 46.99566430000004], [84.1057458, 46.969245500000035], [84.22499820000004, 46.99719209999997], [84.38234710000005, 46.9996872], [84.50429530000002, 46.982132], [84.63977810000004, 46.9999695], [84.76252060000002, 46.99873430000003], [84.86883889999996, 46.92226949999998], [84.97829489999998, 46.87223650000003], [85.08260209999997, 46.94047729999997], [85.18778659999998, 47.00668440000004], [85.2993583, 47.064983699999964], [85.42406050000004, 47.060624699999984], [85.54699259999998, 47.053408200000014], [85.61019539999998, 47.16048650000004], [85.69553770000005, 47.2724922], [85.68793249999996, 47.392441200000036], [85.61511240000003, 47.49175240000001], [85.55304039999997, 47.98194809999996], [85.54494329999997, 48.10518450000003], [85.61049650000002, 48.210472099999954], [85.6974716, 48.3018417], [85.77825929999997, 48.41199110000003], [85.9088516, 48.4312935], [86.0396194, 48.43549349999996], [86.20457459999999, 48.43076709999996], [86.3105469, 48.48724750000002], [86.43929290000003, 48.48281860000003], [86.586633, 48.540539], [86.668662, 48.631144], [86.768324, 48.717133], [86.816999, 48.830547], [86.735443, 48.923498], [86.794943, 49.039097], [86.878704, 49.128484], [86.999315, 49.142674], [87.124018, 49.152659], [87.253524, 49.11171], [87.31563160000005, 49.2310833], [87.187821, 49.248784], [87.060354, 49.254606], [86.962708, 49.325412], [86.89371239999997, 49.43090609999998], [86.81484660000002, 49.5323219], [86.6966175, 49.570256800000024], [86.73842049999998, 49.688420400000034], [86.69769279999998, 49.8084159], [86.5950226, 49.7426809], [86.48845079999995, 49.65790970000003], [86.37135080000002, 49.59362189999996], [86.260324, 49.5434611], [86.14110339999998, 49.512792900000036], [86.01027209999998, 49.499723400000015], [85.9004442, 49.562105399999965], [85.78060540000003, 49.574999599999956], [85.62723189999997, 49.5777868], [85.4902051, 49.59812920000004], [85.32126110000002, 49.59084680000003], [85.20994520000002, 49.64171030000004], [85.17186130000002, 49.762724900000045], [85.08458269999998, 49.860175800000015], [84.9836473, 49.93455740000001], [85.03948230000003, 50.04842139999999], [84.92399490000004, 50.092159600000016], [84.8052256, 50.14720039999998], [84.6920117, 50.188622699999975], [84.56966379999999, 50.20125370000004], [84.45680089999998, 50.24725630000002], [84.33673490000004, 50.22165040000004], [84.2617622, 50.32556819999996], [84.20654349999995, 50.45414380000002], [84.16685519999999, 50.56749620000003], [84.07390459999996, 50.643921900000045], [83.979951, 50.72008769999996], [83.89559139999997, 50.830045400000024], [83.75464460000003, 50.8900747], [83.648704, 50.95477659999996], [83.51227319999995, 50.94854649999998], [83.40430649999996, 51.01313839999999], [83.2771448, 51.013343], [83.1521325, 51.012009800000044], [83.05896460000001, 50.9346123], [82.9422653, 50.894738599999975], [82.79421119999998, 50.918065200000015], [82.70647420000003, 50.831898200000026], [82.56746960000002, 50.746842399999956], [82.4107142, 50.7646687], [82.27038, 50.7697911], [82.15237750000003, 50.74377120000004], [82.02629419999995, 50.7791634], [81.90607019999999, 50.795478100000025], [81.7758571, 50.820919], [81.5825039, 50.7423881], [81.44933820000003, 50.755926], [81.42132779999997, 50.88178480000003], [81.30993420000003, 50.975683099999955], [81.19091789999999, 50.951066699999956], [81.05976349999999, 50.94790339999997], [81.10293449999998, 51.060574099999975], [81.17697569999997, 51.161705900000044], [81.0470905, 51.1814559], [80.9198003, 51.219025], [80.75218680000003, 51.2979963], [80.63510940000002, 51.262789500000025], [80.492555, 51.20399760000003], [80.48224289999999, 50.96868710000002], [80.32510390000002, 50.92752809999996], [80.1929508, 50.90036620000002], [80.083038, 50.8281677], [79.898963, 50.977003300000035], [79.73165389999998, 51.1910062], [79.5326896, 51.46646159999999], [79.40913839999999, 51.6155729], [79.21049819999999, 51.87300210000003], [79.11191209999996, 52.00308549999997], [78.7637887, 52.37759169999998], [78.61858119999995, 52.541368700000014], [78.5361879, 52.63429750000002], [78.37859939999998, 52.807644100000026], [78.1184926, 53.06863829999997], [77.94029210000002, 53.252486299999966], [77.33912790000002, 53.5949318], [76.8290166, 53.84946070000003], [76.69068689999997, 53.9202921], [76.53783129999995, 53.99985260000004], [76.434915, 54.1225724], [76.58268149999998, 54.14879329999997], [76.75646579999997, 54.161826], [76.8354563, 54.26267860000002], [76.78072450000003, 54.37765239999999], [76.93563760000004, 54.41569070000003], [76.79552859999995, 54.4190245], [76.67480560000001, 54.344999], [76.54471410000002, 54.32770769999997], [76.35205750000004, 54.334001200000046], [76.229287, 54.323221899999986], [75.93339629999997, 54.187661799999965], [75.59810750000004, 54.09879260000003], [75.375585, 54.07010430000001], [75.33168280000001, 53.942316], [75.21746289999999, 53.876105], [75.04658130000001, 53.79269670000004], [74.8858, 53.8231], [74.7632, 53.7437], [74.6426, 53.6724], [74.4584161, 53.69093220000003], [74.4865, 53.5694], [74.39059839999996, 53.455982799999965], [74.26849759999998, 53.5236333], [74.162936, 53.6013833], [73.901147, 53.65122139999998], [73.74792569999997, 53.60707219999996], [73.594035, 53.5593138], [73.438715, 53.43549650000001], [73.34607930000001, 53.53410679999999], [73.2777121, 53.63955150000004], [73.35556809999997, 53.766159600000016], [73.4530853, 53.8760982], [73.69108190000003, 53.85606609999998], [73.7493, 53.9952], [73.63003480000005, 54.07092360000003], [73.51879820000005, 54.00324980000002], [73.4035, 53.9452], [73.19918190000003, 53.96931610000004], [73.06696829999996, 53.985537], [72.99458090000003, 54.098412], [72.83167419999998, 54.09798420000003], [72.60879339999998, 54.1368406], [72.5309, 54.043], [72.6744, 54.0449], [72.5668, 53.979], [72.4305, 53.9141], [72.4331, 54.0447], [72.507372, 54.14039889999997], [72.34362779999995, 54.1786806], [72.30048929999998, 54.2938223], [72.1934331, 54.3581201], [72.0126, 54.3693], [72.1263, 54.3065], [72.1724, 54.1949], [71.9512, 54.2413], [71.8237, 54.2388], [71.7227, 54.1038], [71.4899, 54.0971], [71.38436949999996, 54.16758749999999], [71.1794006, 54.0945994], [71.0556, 54.188], [71.0017, 54.3084], [71.1999, 54.3077], [71.2049, 54.4585], [71.2113, 54.6067], [71.0984, 54.6994], [71.0289, 54.7986], [70.9966, 54.9321], [70.9924, 55.0669], [70.8942, 55.1745], [70.8043, 55.2694], [70.6241, 55.2503], [70.5034, 55.2678], [70.3663, 55.2058], [70.2294, 55.1471], [70.1063, 55.1761], [69.9736, 55.2078], [69.8671, 55.2957], [69.73804770000004, 55.33838029999998], [69.6837177, 55.360181]]]]}}]}