{"type": "FeatureCollection", "features": [{"type": "Feature", "properties": {"code": "KEN", "name": "Republic of Kenya", "tier": "country"}, "geometry": {"type": "MultiPolygon", "coordinates": [[[[39.406494140792006, -4.702209472788866], [39.406494140792006, -4.702209472788866]]], [[[39.40167236358877, -4.684814453024558], [39.40167236358877, -4.684814453024558]]], [[[39.3991088865659, -4.684875488213152], [39.3991088865659, -4.684875488213152]]], [[[39.36468505816896, -4.655029297164276], [39.36468505816896, -4.655029297164276]]], [[[39.231079101319494, -4.65142822283417], [39.231079101319494, -4.65142822283417]]], [[[39.2183227540919, -4.644592285305691], [39.2183227540919, -4.644592285305691]]], [[[39.22991943363502, -4.647827149403383], [39.22991943363502, -4.647827149403383]]], [[[39.2329101560789, -4.637878418154401], [39.2329101560789, -4.637878418154401]]], [[[39.238281249979764, -4.628479003603104], [39.238281249979764, -4.628479003603104]]], [[[39.24609374962688, -4.620971679899071], [39.24609374962688, -4.620971679899071]]], [[[39.251281737961904, -4.616088868406507], [39.251281737961904, -4.616088868406507]]], [[[39.265319824150595, -4.611389159781879], [39.265319824150595, -4.611389159781879]]], [[[39.29028320280764, -4.595275878978612], [39.29028320280764, -4.595275878978612]]], [[[39.409912109556274, -4.576293945209329], [39.409912109556274, -4.576293945209329]]], [[[39.40148925802288, -4.57421874969549], [39.40148925802288, -4.57421874969549]]], [[[39.3096923828972, -4.574401855261385], [39.3096923828972, -4.574401855261385]]], [[[39.40289306556258, -4.572326659747489], [39.40289306556258, -4.572326659747489]]], [[[39.415283202557816, -4.570312500321563], [39.415283202557816, -4.570312500321563]]], [[[39.45349121085076, -4.558776855067777], [39.45349121085076, -4.558776855067777]]], [[[39.533325195301586, -4.444213867176188], [39.533325195301586, -4.444213867176188]]], [[[39.64727783220627, -4.036071777590394], [39.64727783220627, -4.036071777590394]]], [[[39.664123535273006, -4.028686523364343], [39.664123535273006, -4.028686523364343]]], [[[39.6660766604096, -3.992675780962486], [39.6660766604096, -3.992675780962486]]], [[[39.61431884743689, -3.960998535154204], [39.61431884743689, -3.960998535154204]]], [[[39.979492187614426, -3.36462402367971], [39.979492187614426, -3.36462402367971]]], [[[39.964111328175306, -3.356872558321868], [39.964111328175306, -3.356872558321868]]], [[[39.9871215816957, -3.349609375372324], [39.9871215816957, -3.349609375372324]]], [[[39.97412109371356, -3.351013183811347], [39.97412109371356, -3.351013183811347]]], [[[40.16790771506902, -2.98022460897846], [40.16790771506902, -2.98022460897846]]], [[[40.177124023155216, -2.974792480788324], [40.177124023155216, -2.974792480788324]]], [[[40.16131591829503, -2.969421386887461], [40.16131591829503, -2.969421386887461]]], [[[40.164123535173076, -2.938171387399564], [40.164123535173076, -2.938171387399564]]], [[[40.17028808562668, -2.881225586091887], [40.17028808562668, -2.881225586091887]]], [[[40.18487548941238, -2.814208984057302], [40.18487548941238, -2.814208984057302]]], [[[40.18048095673083, -2.808471679924025], [40.18048095673083, -2.808471679924025]]], [[[40.174072266422, -2.788208008093079], [40.174072266422, -2.788208008093079]]], [[[40.165710449177936, -2.787475585829554], [40.165710449177936, -2.787475585829554]]], [[[40.18267822262192, -2.781616211319033], [40.18267822262192, -2.781616211319033]]], [[[40.17388915995684, -2.77648925817266], [40.17388915995684, -2.77648925817266]]], [[[40.17590332028203, -2.76586914074818], [40.17590332028203, -2.76586914074818]]], [[[40.18572998025445, -2.753723145406809], [40.18572998025445, -2.753723145406809]]], [[[40.18627929695202, -2.746398924570656], [40.18627929695202, -2.746398924570656]]], [[[40.18249511705608, -2.745117187408198], [40.18249511705608, -2.745117187408198]]], [[[40.168884277187715, -2.739074707331838], [40.168884277187715, -2.739074707331838]]], [[[40.172302245951926, -2.733581543053731], [40.172302245951926, -2.733581543053731]]], [[[40.71307373026849, -2.295104980910082], [40.71307373026849, -2.295104980910082]]], [[[40.78289794918106, -2.286071776591143], [40.78289794918106, -2.286071776591143]]], [[[40.75952148542825, -2.276611327750516], [40.75952148542825, -2.276611327750516]]], [[[40.788085938415406, -2.277770996334368], [40.788085938415406, -2.277770996334368]]], [[[40.75872802707681, -2.263488769391131], [40.75872802707681, -2.263488769391131]]], [[[40.74511718720845, -2.255187988235036], [40.74511718720845, -2.255187988235036]]], [[[40.72509765613199, -2.256103516064343], [40.72509765613199, -2.256103516064343]]], [[[40.89190673940453, -2.247924804386173], [40.84271240255538, -2.257873534735779], [40.815917969139036, -2.314880371232107], [40.86871337941898, -2.296997069958763], [40.89190673940453, -2.247924804386173]]], [[[40.81652832012594, -2.251098632395895], [40.81652832012594, -2.251098632395895]]], [[[40.812683105041344, -2.243408203126023], [40.812683105041344, -2.243408203126023]]], [[[40.816101073805555, -2.233703614430226], [40.816101073805555, -2.233703614430226]]], [[[40.93249511735581, -2.2301025392008], [40.93249511735581, -2.2301025392008]]], [[[40.985900878622715, -2.224182128602308], [40.985900878622715, -2.224182128602308]]], [[[40.972900390640575, -2.222229002566394], [40.93908691412986, -2.259826659872431], [40.90588379040463, -2.222229002566394], [40.92791748090707, -2.278381347321272], [40.98809814541312, -2.258483886622003], [40.972900390640575, -2.222229002566394]]], [[[40.97747802708932, -2.161193847218215], [40.97747802708932, -2.161193847218215]]], [[[41.058471680124, -2.159484862836109], [41.058471680124, -2.159484862836109]]], [[[40.986083984188554, -2.141113280953107], [40.986083984188554, -2.141113280953107]]], [[[41.02691650379364, -2.139709473413404], [41.02691650379364, -2.139709473413404]]], [[[41.07971191407364, -2.130615234805191], [41.07971191407364, -2.130615234805191]]], [[[40.996276855292706, -2.096984862960994], [40.996276855292706, -2.096984862960994]]], [[[40.99707031274477, -2.090087890243865], [40.99707031274477, -2.090087890243865]]], [[[41.14007568324621, -2.104187011621264], [41.14007568324621, -2.104187011621264]]], [[[41.053527831644146, -2.085876464926855], [41.00427246140504, -2.099914551115603], [41.05987548856302, -2.094604492403334], [41.053527831644146, -2.085876464926855]]], [[[41.08551025429483, -2.052429200447193], [41.06427001944587, -2.099487304795218], [41.1043090815989, -2.137695312188839], [41.10772705036311, -2.087585449309017], [41.15850830121718, -2.087219238177227], [41.11468505826889, -2.058715820378779], [41.08551025429483, -2.052429200447193]]], [[[41.11071777370637, -2.053588867232406], [41.11071777370637, -2.053588867232406]]], [[[41.105529785371345, -2.051208495775427], [41.105529785371345, -2.051208495775427]]], [[[40.97167968776745, -2.047790527011159], [40.97167968776745, -2.047790527011159]]], [[[41.20227050807756, -2.002685546900409], [41.20227050807756, -2.002685546900409]]], [[[41.178710937859535, -1.985900879022324], [41.178710937859535, -1.985900879022324]]], [[[41.157287597444736, -1.975708007918172], [41.157287597444736, -1.975708007918172]]], [[[41.186706543072546, -1.981872558371833], [41.186706543072546, -1.981872558371833]]], [[[41.27893066361929, -2.001403808838631], [41.27893066361929, -2.001403808838631]]], [[[41.25231933576879, -1.959899902158725], [41.25231933576879, -1.959899902158725]]], [[[41.23931884778665, -1.956787109337597], [41.23931884778665, -1.956787109337597]]], [[[41.24353027310366, -1.955078124955435], [41.24353027310366, -1.955078124955435]]], [[[41.164672851670844, -1.958312988153807], [41.164672851670844, -1.958312988153807]]], [[[41.236877441141075, -1.956176756552054], [41.236877441141075, -1.956176756552054]]], [[[41.27728271442578, -1.946411132667606], [41.27728271442578, -1.946411132667606]]], [[[41.264709472764025, -1.947998046672467], [41.264709472764025, -1.947998046672467]]], [[[41.18627929675222, -1.948120117049712], [41.18627929675222, -1.948120117049712]]], [[[41.208496093719816, -1.930786131574678], [41.208496093719816, -1.930786131574678]]], [[[41.23327636681091, -1.928527832293582], [41.23327636681091, -1.928527832293582]]], [[[41.343505859008246, -1.925415038573135], [41.343505859008246, -1.925415038573135]]], [[[41.21368408205478, -1.922302245752007], [41.21368408205478, -1.922302245752007]]], [[[41.23968505891838, -1.923400879147209], [41.23968505891838, -1.923400879147209]]], [[[41.2235107420272, -1.917907714869102], [41.2235107420272, -1.917907714869102]]], [[[41.21008300772468, -1.913818359030017], [41.21008300772468, -1.913818359030017]]], [[[41.34729003890425, -1.914306641438316], [41.34729003890425, -1.914306641438316]]], [[[41.20928955117188, -1.90802001970809], [41.20928955117188, -1.90802001970809]]], [[[41.34930419922944, -1.920410155804007], [41.34930419922944, -1.920410155804007]]], [[[41.225891112584804, -1.911499023660951], [41.225891112584804, -1.911499023660951]]], [[[41.36511230498894, -1.906127929760089], [41.36511230498894, -1.906127929760089]]], [[[41.373474121333686, -1.893371581633119], [41.373474121333686, -1.893371581633119]]], [[[41.39868164074517, -1.854980468673659], [41.39868164074517, -1.854980468673659]]], [[[41.43811035191129, -1.836425781224762], [41.38452148417923, -1.885498046797352], [41.42407226572254, -1.848022460767879], [41.43811035191129, -1.836425781224762]]], [[[41.43988037058267, -1.835021972785796], [41.43988037058267, -1.835021972785796]]], [[[41.43707275370468, -1.823608398808517], [41.43707275370468, -1.823608398808517]]], [[[41.45227050757791, -1.818908691083152], [41.45227050757791, -1.818908691083152]]], [[[41.47509765643173, -1.80328369178892], [41.47509765643173, -1.80328369178892]]], [[[41.48431396541724, -1.785400391414896], [41.48431396541724, -1.785400391414896]]], [[[41.504516601160276, -1.755126953146316], [41.504516601160276, -1.755126953146316]]], [[[41.50970458859592, -1.747375488687794], [41.50970458859592, -1.747375488687794]]], [[[35.29178619377785, 5.430648327058691], [35.1946144107265, 5.276678561566428], [34.36576461794283, 4.576629638946713], [33.992813110636575, 4.222472667379748], [34.03901290921846, 4.187450886049589], [34.06701660163492, 4.142167568578486], [34.08179473903601, 4.084993838594812], [34.05979156522858, 4.027931213554723], [34.095584870445464, 3.986524105403191], [34.11943817183419, 3.902048111031547], [34.08845519994759, 3.861609936049774], [34.14947128337309, 3.868941784036167], [34.20444488492353, 3.882287501966687], [34.225391387702416, 3.830832004193667], [34.1628189087657, 3.810412645327347], [34.22115707374002, 3.784496545579145], [34.26724243179285, 3.747371196923268], [34.30775070173354, 3.712411880703769], [34.35371017358568, 3.735324144094022], [34.399776458816575, 3.706176757751223], [34.45478439288547, 3.676872969412045], [34.453144074439535, 3.611759424557818], [34.450988769116464, 3.518797159361441], [34.39648056042955, 3.488626003687159], [34.41897582977077, 3.43368768703715], [34.40063095055797, 3.371311903321725], [34.43828582722921, 3.307920933404375], [34.45169830363386, 3.240974902969469], [34.45543670623903, 3.182759761653699], [34.49473571807897, 3.141456366018531], [34.54759216264824, 3.138805627777572], [34.57794952385149, 3.069905519823919], [34.588268280256955, 3.004117964572458], [34.59907531727214, 2.926089525611189], [34.65346145558175, 2.867506980662654], [34.7089309693888, 2.873942375440322], [34.7493247988005, 2.825782060193944], [34.781223296717826, 2.768143892426735], [34.77489089859614, 2.697809695860826], [34.830188751609626, 2.620690583903354], [34.8673324581265, 2.570816516968705], [34.91265869124567, 2.51674580597421], [34.947284698929764, 2.472677468990071], [34.90037155180573, 2.439894915018385], [34.904159545726486, 2.320427894331885], [34.928157806137904, 2.261112451378551], [34.96104431184557, 2.198125124175192], [34.99234771757318, 2.092884779309145], [34.98313140858767, 1.999306082809539], [35.02584838829256, 1.924175262178665], [35.00048828090951, 1.838327407783709], [34.98781585661652, 1.665248633417718], [34.94221496604791, 1.576222181008916], [34.88680648832883, 1.555817246368861], [34.8604125976633, 1.45716917491751], [34.79727172830769, 1.425327420624001], [34.80398941038305, 1.373371004967964], [34.82922363156541, 1.311321258769112], [34.818397521728286, 1.248018622061807], [34.77513122532582, 1.22083568601812], [34.71216964841062, 1.215191602910181], [34.663600921345505, 1.19163501304547], [34.61582183860702, 1.160987496375924], [34.57745361339357, 1.100133776552582], [34.52774429326456, 1.121568560840444], [34.503494262250456, 1.069816112323792], [34.48793029814482, 1.010644793822223], [34.4800224307906, 0.95273196680688], [34.45542907729015, 0.903296290591413], [34.423305511440276, 0.852899312853026], [34.40132522627823, 0.807708978986227], [34.357868193562354, 0.778375029184303], [34.31000137296502, 0.750681996776791], [34.31280899074238, 0.697315454044997], [34.27975463826601, 0.659025191959074], [34.23596191381131, 0.629510342628237], [34.185794830666964, 0.612825572342331], [34.144191742255146, 0.584605157701901], [34.12610626259402, 0.537320494345408], [34.120807647754816, 0.480405212430639], [34.0899162295504, 0.425796062038671], [34.10892105106569, 0.378244609401236], [34.08265686062566, 0.335445612425133], [34.04986953844849, 0.294756829663982], [34.01406097443447, 0.24891889129384], [33.91391754176118, 0.111395418363941], [33.98221969588229, -0.129406451946124], [33.928096771149114, -0.454822927336181], [33.91997909555886, -0.561803161786429], [33.9350662229279, -1.001096844343863], [34.0169181826281, -1.002415060706426], [34.04496002158777, -1.045197368064009], [34.093727112116596, -1.03020441500172], [34.37486267057585, -1.188609838273351], [34.730567932064446, -1.389030336580731], [35.01661682140923, -1.550204634836007], [36.000205993411896, -2.10440587962762], [36.511089325212254, -2.39226198180495], [36.75143813955856, -2.526379823769787], [37.31246948258058, -2.840817212844058], [37.47046661364334, -2.93037223818817], [37.520252227758135, -2.956131696720377], [37.56765747041595, -2.986975431071244], [37.67139434757115, -3.058684825943942], [37.71119689971721, -3.307967662877275], [37.679538726730925, -3.352660894684504], [37.61803436269571, -3.399550199881787], [37.58476257303437, -3.438400506678022], [37.62292480493585, -3.471951722893664], [37.669361114423964, -3.506130695575109], [37.72039032005728, -3.528786182736098], [37.76075363187465, -3.617186069381546], [37.78376388539505, -3.673391341936849], [38.44649526614364, -4.137198598236694], [39.19128417992101, -4.65808105479681], [39.22607421944974, -4.622009277206303], [39.241699218743975, -4.569885254001235], [39.29467773458981, -4.566589355614212], [39.325317383090805, -4.609375000355953], [39.37951660180977, -4.64508056681467], [39.39068603503256, -4.596069336430674], [39.37548828115928, -4.539672851820626], [39.42669677743436, -4.53308105504658], [39.4694824221761, -4.50158691390493], [39.497497557566305, -4.458496094119425], [39.50848388702184, -4.407897948831248], [39.559326172165186, -4.360778808395253], [39.596679687817414, -4.269775390721634], [39.613098144563764, -4.201416015436735], [39.640686035432225, -4.155212401930783], [39.670898437612834, -4.098022460767879], [39.63867187510698, -4.055297851214789], [39.59088134759617, -4.073425293242622], [39.56488037073257, -4.023193359086179], [39.612915038997926, -4.04052734366195], [39.634887695211034, -3.988891601965804], [39.6591186534032, -3.944580078407853], [39.668884277287646, -3.994079589401508], [39.68011474569903, -4.05297851584578], [39.72229003855449, -4.024291991582118], [39.74829101541809, -3.974304199079484], [39.70312500011869, -3.950622557584893], [39.70867919958545, -3.897705077827027], [39.717895507671585, -3.94769287122898], [39.775512695154816, -3.936279297251701], [39.80590820290132, -3.869689942436821], [39.829528808307884, -3.817993163753442], [39.84368896487388, -3.761413573577499], [39.86071777440583, -3.711303710697621], [39.86688232396011, -3.650512695204668], [39.8076782215727, -3.644104003996517], [39.77111816427191, -3.596618652428845], [39.822692870779406, -3.608398438437121], [39.86968994173748, -3.62799072229393], [39.8933105471441, -3.579406738230318], [39.92327880857022, -3.501892090047875], [39.954528808957434, -3.433410644385674], [39.95172119118007, -3.383483887071691], [39.949707030854825, -3.330383300848609], [39.99188232460966, -3.357482910208091], [40.053100586423, -3.333007812160758], [40.099914550915855, -3.302917480357394], [40.12969970677608, -3.260009765238408], [40.11749267534674, -3.207275391046437], [40.13232421898755, -3.159301757969729], [40.15991210895669, -3.116577148416638], [40.16967773463978, -3.067321777278153], [40.19531250037164, -3.013977051199902], [40.239685058218924, -2.989685058718464], [40.18450927738132, -2.992492675596452], [40.149291992431586, -3.031188963599732], [40.14788818399256, -2.979797363557452], [40.15869140608356, -2.930480957230372], [40.1527099611958, -2.880493163828419], [40.17828369173901, -2.831970214953401], [40.15667724575832, -2.786071777390589], [40.16351318328685, -2.736022948799985], [40.182086943557636, -2.681185245602535], [40.19268798816017, -2.730704307857479], [40.233272552086646, -2.677738666706034], [40.267143249761205, -2.637876749412385], [40.34037399266566, -2.584270238780448], [40.299560546781834, -2.61399889023653], [40.34909820521807, -2.585504293887993], [40.40028762777183, -2.56051897986697], [40.46140289292924, -2.536766767672134], [40.51275253330283, -2.529463529817974], [40.454677581904946, -2.536158323247946], [40.48450088520775, -2.494179725613776], [40.523448943813776, -2.52579498295205], [40.570209502966236, -2.548222541437099], [40.64380264297762, -2.532797098107551], [40.679748535266754, -2.490975380009729], [40.7306175230803, -2.456020117034711], [40.77612304684118, -2.425720214416287], [40.817321777578, -2.393676756577008], [40.794677734290076, -2.339904785077749], [40.77227783175658, -2.394470214928447], [40.76367187465735, -2.344604491903738], [40.72949218791422, -2.306884766019095], [40.73431396511745, -2.256225586441587], [40.70129394515948, -2.205627441153467], [40.74389648433532, -2.244873046753639], [40.79388427773728, -2.248107909952012], [40.841308594116356, -2.231079101319438], [40.88067626919451, -2.195800781181049], [40.925903320581824, -2.22100830059253], [40.91827392560123, -2.158325195151576], [40.912475586279356, -2.090087890243865], [40.85528564421713, -2.072204589869898], [40.88751220672299, -2.032104493427596], [40.834106444556824, -2.018615723037158], [40.818481445262535, -1.970520019583205], [40.77410888741525, -1.942382812916435], [40.825073242036524, -1.956604003771702], [40.876281738311604, -1.96557617200267], [40.92071533224686, -1.998596191061324], [40.94329833944687, -2.051696777284405], [40.961486816663296, -2.00402832015078], [40.96447753910718, -1.945678711303458], [41.001281738061834, -1.903320312882101], [41.040527343662006, -1.86560058609814], [41.01251220737254, -1.907592773387762], [40.9843139646178, -1.950683594072586], [40.98791503894796, -2.003784179396291], [41.0147094723643, -2.0473022464015], [41.05267333990275, -2.008178711178516], [41.086730957168015, -1.970581054771799], [41.14270019455836, -1.954223633214042], [41.17907714809195, -1.917480469448037], [41.22552490235239, -1.886901855236374], [41.24328613324849, -1.938171386700105], [41.27630615230714, -1.981384277762174], [41.31652832002601, -1.947204590119668], [41.35107421880019, -1.91040039026575], [41.386718750070315, -1.870788574433107], [41.4155273438119, -1.827209472239304], [41.45269775389829, -1.77911376968467], [41.49267578086267, -1.743103027282814], [41.5197143550335, -1.700012206597989], [41.56214523341583, -1.658420443348746], [41.56224060022356, -1.597498417318036], [40.992401122613785, -0.829093695117876], [40.990833282330186, 0.047381221865919], [40.992340088324454, 0.603289485121707], [40.99256896938249, 1.017965078325744], [40.99222183197202, 1.44281959504832], [40.99210739144303, 1.710132122199752], [40.990371704390725, 1.947254896596235], [40.99245071392937, 2.251881361135929], [40.99252319299103, 2.824751376874588], [41.32826614366763, 3.153732777445782], [41.64416503898542, 3.601388454413666], [41.89141464277162, 3.952381611022588], [41.839630127128714, 3.953299283735021], [41.79401016193947, 3.974493265551814], [41.73938751182425, 3.988351583558767], [41.68766021734518, 3.972337961128062], [41.63584518410801, 3.977761030447255], [41.57970809904958, 3.973807572961164], [41.52669143666054, 3.974105358275722], [41.47958755502168, 3.955513715885331], [41.41941070543976, 3.950047015957068], [41.3697700503476, 3.956725120667841], [41.320243835784424, 3.94509124786282], [41.26170349242227, 3.956075906378032], [41.210506439120934, 3.948141574673969], [41.15496444715154, 3.958093166666345], [41.11534500057138, 3.988790512072512], [41.071971892588806, 4.026919841377605], [41.04237365721855, 4.074861049397953], [40.999561309806666, 4.112263679725061], [40.958206177073464, 4.142584324307165], [40.906288147180305, 4.15761566133375], [40.885768890721806, 4.204546927998365], [40.85110092157032, 4.243442058804021], [40.80400848380452, 4.266191482850729], [40.74593353240664, 4.264103889283092], [40.698371886853124, 4.242779730600148], [40.401668547565464, 4.122731685818678], [40.205959319567, 4.042222500268224], [40.156196594097594, 4.013656139819034], [39.867729186752626, 3.867498398232556], [39.77526092455207, 3.668095588940332], [39.60940551655142, 3.501092910409511], [39.552986145094565, 3.466102599955093], [39.50149536242111, 3.470076799404808], [39.445632934812124, 3.46072244628391], [39.37629318158514, 3.468190194421993], [39.31955719031214, 3.471681594629956], [39.26805877689111, 3.472457409182141], [39.20119857775222, 3.479816435580062], [39.1551742557873, 3.503200769300122], [39.10622787461676, 3.524243593067411], [39.05572891195976, 3.523049831184835], [39.004505157786866, 3.526483297066534], [38.904338835568865, 3.505867957939927], [38.840858460449624, 3.528243780226319], [38.713779449362164, 3.565577507196224], [38.68787384020561, 3.617382288162105], [38.61133956906593, 3.607573747730328], [38.55714416527104, 3.615034103441189], [38.51571273765279, 3.644616604272926], [38.44758987417339, 3.597583294233687], [38.18106842037133, 3.61578059200076], [38.128154754638274, 3.60075616806273], [38.033779144591904, 3.684154033581819], [37.98958206156294, 3.729181766425427], [37.91836929300854, 3.768545389158419], [37.799015046407305, 3.849547147782687], [37.65184783920648, 3.950332642437559], [37.585124969241974, 3.998672485746681], [37.49339675915314, 4.0646705623966], [37.42774200409025, 4.107660771427504], [37.13801574732895, 4.295440674247743], [37.09048843339451, 4.343093395044207], [37.04771804834928, 4.376231669555978], [36.987091064700905, 4.392543793161565], [36.90834426887295, 4.4251213071027], [36.84259414700233, 4.449958324716988], [36.678955077714704, 4.441352844258404], [36.62520980798632, 4.454100131715734], [36.54587554891748, 4.444598674689132], [36.26266860986851, 4.450857639568483], [36.05060958836185, 4.456217766236989], [35.94394683797623, 4.548029422619834], [35.949348448572096, 4.628556251969485], [35.81214523321597, 4.782410621852762], [35.81184387219702, 5.095732688812575], [35.846511840449125, 5.139614105306748], [35.85469818107623, 5.202098846384729], [35.83023834272541, 5.262299061252747], [35.864097595627584, 5.301617145914577], [35.822383880711584, 5.335206032032772], [35.77493667568706, 5.356192588816953], [35.72734832656408, 5.377607822742846], [35.67699813875316, 5.385745525335778], [35.62284469642566, 5.38317585018541], [35.55982971057273, 5.422921657808331], [35.48496246324714, 5.429678917248282], [35.29178619377785, 5.430648327058691]]]]}}]}