{"type": "FeatureCollection", "features": [{"type": "Feature", "properties": {"code": "KGZ", "name": "Kyrgyzstan", "tier": "country"}, "geometry": {"type": "MultiPolygon", "coordinates": [[[[69.2649523, 39.8060382], [69.2890852, 39.755031], [69.3283536, 39.7172191], [69.3213918, 39.6632866], [69.3446207, 39.6189076], [69.3557592, 39.5688576], [69.3730024, 39.520877], [69.4035794, 39.5630464], [69.445202, 39.5287136], [69.4960275, 39.5395228], [69.5520113, 39.5553724], [69.6024337, 39.5831426], [69.6609986, 39.5782505], [69.7163502, 39.5935545], [69.775504, 39.5794318], [69.8268644, 39.5612367], [69.8672218, 39.5294871], [69.9016382, 39.5761893], [69.9590903, 39.5688051], [70.0143766, 39.542539], [70.0581268, 39.5668531], [70.104668, 39.5873927], [70.1487764, 39.5607536], [70.1984539, 39.5724583], [70.2415718, 39.5453295], [70.3008199, 39.527926], [70.3397053, 39.5636037], [70.3896533, 39.5821989], [70.4414536, 39.6010438], [70.4918096, 39.6064065], [70.5454586, 39.6105248], [70.6058024, 39.5857992], [70.6569046, 39.5725418], [70.6854989, 39.5306854], [70.7456293, 39.4870408], [70.7629097, 39.4264226], [70.8156056, 39.3884477], [70.8678821, 39.3931723], [70.9221347, 39.3901206], [70.9510045, 39.4345888], [70.9935309, 39.4031709], [71.0514756, 39.4090397], [71.0778429, 39.4703758], [71.1127251, 39.5102424], [71.1695554, 39.5074664], [71.2396844, 39.5357847], [71.2868192, 39.5179983], [71.3344577, 39.552003], [71.3923181, 39.5721164], [71.4600836, 39.5912999], [71.5260464, 39.6023719], [71.5612636, 39.5576393], [71.5437917, 39.505128], [71.5624396, 39.4548731], [71.6131276, 39.4449589], [71.6748967, 39.4508504], [71.7303162, 39.4546019], [71.7864695, 39.4434136], [71.8002925, 39.3808445], [71.7571553, 39.3506437], [71.7801199, 39.2862171], [71.8360362, 39.2817317], [71.8998406, 39.2754094], [71.9445732, 39.3179745], [71.9951631, 39.3477628], [72.0429156, 39.3647014], [72.077759, 39.3049242], [72.1165336, 39.2694974], [72.1739441, 39.2695043], [72.208611, 39.2255601], [72.232934, 39.1753645], [72.2657764, 39.2153281], [72.2886183, 39.260281], [72.3162554, 39.311224], [72.367014, 39.3328089], [72.4226598, 39.3419196], [72.4734745, 39.3630078], [72.5230666, 39.381292], [72.5665375, 39.3516331], [72.6097844, 39.3837116], [72.6599792, 39.3940069], [72.7109952, 39.3850533], [72.7677184, 39.3645981], [72.8242073, 39.3643137], [72.874445, 39.3481202], [72.9266941, 39.3687952], [72.9841608, 39.3575153], [73.0351498, 39.3548106], [73.0868118, 39.3722673], [73.1363521, 39.3653476], [73.2007067, 39.353209], [73.2495147, 39.3768262], [73.319919, 39.3822314], [73.3632668, 39.4083866], [73.3932836, 39.45273], [73.4450616, 39.4601183], [73.5052415, 39.4739714], [73.5544376, 39.4573551], [73.6092155, 39.4605225], [73.6646557, 39.471629], [73.7138087, 39.4615213], [73.7772933, 39.4682522], [73.8362215, 39.4721907], [73.872997, 39.5130622], [73.901612, 39.5559477], [73.936775, 39.5977392], [73.9378251, 39.6513153], [73.9273757, 39.7007576], [73.8999182, 39.7460165], [73.8499689, 39.7582982], [73.838795, 39.8087538], [73.8787973, 39.8518426], [73.9214678, 39.9053706], [73.9321792, 39.957658], [73.9732426, 40.0030138], [74.0016488, 40.0527264], [74.0321613, 40.0946504], [74.0873872, 40.0822953], [74.1319331, 40.1079431], [74.18393, 40.1171467], [74.235215, 40.1238778], [74.2885373, 40.103507], [74.3388709, 40.0938591], [74.3851533, 40.1161513], [74.4308648, 40.1450012], [74.4699843, 40.1794353], [74.525516, 40.2089619], [74.5630853, 40.2582705], [74.6063028, 40.2844138], [74.6605188, 40.2728815], [74.6942554, 40.3139477], [74.7352923, 40.3445079], [74.7897874, 40.3537452], [74.836982, 40.3339495], [74.8884259, 40.3398548], [74.8580164, 40.3860806], [74.8152821, 40.4185522], [74.8149248, 40.4685927], [74.8346242, 40.5175658], [74.8956942, 40.5003908], [74.9463962, 40.4706998], [74.9939284, 40.4541108], [75.0440098, 40.4534722], [75.1018139, 40.437105], [75.1533307, 40.4550758], [75.2071833, 40.4448431], [75.2602025, 40.4714873], [75.3025653, 40.5052624], [75.344792, 40.5355128], [75.3924987, 40.5524801], [75.4379165, 40.5738961], [75.4779654, 40.605743], [75.5222421, 40.6344252], [75.572043, 40.6576857], [75.6174592, 40.6317675], [75.6236233, 40.5793938], [75.6407649, 40.5280043], [75.6873392, 40.4993306], [75.7202841, 40.4613092], [75.6800929, 40.4212887], [75.6646814, 40.3715008], [75.685495, 40.3217268], [75.7341652, 40.3061624], [75.7884091, 40.3080299], [75.8393335, 40.3124695], [75.8948762, 40.3064315], [75.9432526, 40.3414297], [75.9748832, 40.3810971], [76.0209509, 40.3528132], [76.0686724, 40.3827163], [76.125467, 40.3754972], [76.1778248, 40.3795237], [76.2278043, 40.4034643], [76.2726098, 40.4389239], [76.3122512, 40.4060914], [76.3251665, 40.3555375], [76.3655823, 40.3867011], [76.4221347, 40.3854496], [76.4629425, 40.4161839], [76.5060456, 40.4450563], [76.5352309, 40.4878767], [76.5497293, 40.5393056], [76.5879404, 40.5760723], [76.6277112, 40.6146193], [76.6556445, 40.6596813], [76.6560954, 40.7155751], [76.6438577, 40.7648195], [76.6922438, 40.7818744], [76.728384, 40.8179895], [76.7394408, 40.8757491], [76.748232, 40.9288231], [76.7864422, 40.9612137], [76.8370681, 40.9767651], [76.8659016, 41.0216751], [76.9182557, 41.0239192], [76.9598126, 41.0521406], [77.012927, 41.0649467], [77.0693404, 41.0596032], [77.1152962, 41.0298088], [77.1638703, 41.0141701], [77.2143556, 41.0262123], [77.2632569, 41.0138981], [77.317489, 41.0190511], [77.3705686, 41.040258], [77.4208237, 41.0276876], [77.4736125, 41.0175458], [77.5248605, 41.0020823], [77.5832538, 40.9933867], [77.6339858, 41.0086272], [77.6869413, 41.0032863], [77.7312127, 41.0300571], [77.7827237, 41.0319454], [77.8049654, 41.0800879], [77.814213, 41.1367081], [77.8738445, 41.1640182], [77.9236833, 41.1879867], [77.9810297, 41.1829139], [78.0296526, 41.2022295], [78.0819349, 41.2189827], [78.1306132, 41.2389071], [78.1394264, 41.2893751], [78.1574711, 41.3402657], [78.1749408, 41.3875135], [78.2273744, 41.4008346], [78.2780217, 41.3884405], [78.3360947, 41.3949612], [78.3911099, 41.3999457], [78.4383045, 41.4172627], [78.5066423, 41.4324725], [78.5457726, 41.4659911], [78.5993321, 41.467748], [78.6499239, 41.4732784], [78.6921574, 41.5105238], [78.7245817, 41.5549657], [78.7774072, 41.561179], [78.8359272, 41.5719909], [78.8846658, 41.5956996], [78.9201371, 41.6319345], [78.9685951, 41.6545999], [79.0218909, 41.6592444], [79.0675264, 41.6882609], [79.1176147, 41.7101279], [79.1666067, 41.7291393], [79.2167217, 41.7261461], [79.2711926, 41.7638948], [79.311699, 41.8009698], [79.3677263, 41.808183], [79.4094256, 41.8408038], [79.4588069, 41.8507297], [79.541542, 41.8383956], [79.5998655, 41.8554735], [79.6377583, 41.8935242], [79.6923565, 41.8986614], [79.7461169, 41.9009019], [79.7958652, 41.9133719], [79.8168847, 41.9651363], [79.8460431, 42.0141235], [79.8971363, 42.0341778], [79.9535743, 42.0452632], [80.0168523, 42.041776], [80.0756233, 42.0461552], [80.1300061, 42.0346306], [80.1986907, 42.036932], [80.1872335, 42.0860812], [80.1493191, 42.1189899], [80.1312877, 42.1683376], [80.1644814, 42.2058604], [80.1180373, 42.2762591], [80.082613, 42.321523], [80.035499, 42.342613], [80.000317, 42.37815], [79.964233, 42.421429], [79.918979, 42.442723], [79.868541, 42.436909], [79.806773, 42.448037], [79.749387, 42.452623], [79.698128, 42.47392], [79.644103, 42.467956], [79.585794, 42.4572], [79.526432, 42.457296], [79.480396, 42.490035], [79.435546, 42.514605], [79.399106, 42.550272], [79.362872, 42.588436], [79.3163896, 42.6069032], [79.2689491, 42.623073], [79.21659, 42.6560987], [79.1820147, 42.6975423], [79.1700054, 42.7550192], [79.1993719, 42.8042231], [79.1069376, 42.7810668], [79.0567431, 42.775477], [78.98653, 42.776015], [78.930488, 42.774268], [78.880256, 42.795982], [78.829388, 42.804795], [78.776742, 42.8141], [78.726216, 42.822583], [78.664153, 42.814881], [78.625116, 42.846411], [78.575398, 42.86276], [78.529779, 42.884612], [78.464812, 42.896432], [78.414738, 42.879887], [78.362314, 42.86806], [78.306999, 42.857244], [78.257325, 42.873511], [78.197829, 42.881989], [78.152668, 42.860034], [78.098996, 42.857045], [78.044716, 42.858457], [77.990152, 42.860227], [77.934015, 42.881626], [77.882614, 42.883663], [77.830071, 42.884694], [77.780651, 42.914754], [77.73023, 42.904507], [77.670445, 42.917955], [77.613177, 42.914125], [77.55939, 42.92899], [77.508648, 42.929836], [77.455105, 42.928596], [77.405335, 42.922835], [77.350501, 42.898513], [77.302013, 42.916541], [77.236072, 42.911752], [77.183774, 42.943029], [77.137044, 42.973255], [77.0843628, 42.981017], [77.041048, 42.948157], [77.004469, 42.98309], [76.945016, 42.982407], [76.896004, 42.970957], [76.84593, 42.984124], [76.801757, 42.946927], [76.748745, 42.942141], [76.7105478, 42.9064144], [76.653169, 42.910605], [76.594388, 42.909008], [76.54002, 42.916448], [76.48643, 42.888854], [76.432869, 42.878233], [76.38342, 42.870752], [76.329015, 42.863217], [76.302069, 42.910942], [76.252402, 42.92015], [76.200932, 42.91645], [76.134371, 42.924924], [76.082113, 42.918927], [76.028275, 42.911042], [75.965136, 42.929947], [75.920747, 42.953777], [75.848007, 42.942314], [75.8011943, 42.9177508], [75.7724305, 42.8541397], [75.7168122, 42.7973436], [75.6359655, 42.8155446], [75.5779801, 42.8274676], [75.5180352, 42.8344722], [75.4551014, 42.8360683], [75.3833784, 42.8478477], [75.3066937, 42.8564071], [75.2436593, 42.8552952], [75.190927, 42.8750516], [75.1368603, 42.8853543], [75.0822968, 42.9143998], [75.0309724, 42.9224232], [74.9804825, 42.9459096], [74.9303385, 42.9642988], [74.8787669, 42.983926], [74.8322904, 43.0039191], [74.7781549, 42.9985354], [74.727663, 43.0043064], [74.6718128, 43.041484], [74.6348232, 43.0794775], [74.5929304, 43.1127247], [74.5489529, 43.1420178], [74.4974867, 43.1519043], [74.4451736, 43.1615172], [74.3996189, 43.1839578], [74.3525408, 43.2020889], [74.3032301, 43.2213431], [74.2562483, 43.250367], [74.2042832, 43.2667971], [74.2220379, 43.2052475], [74.1701262, 43.1987932], [74.074877, 43.1869858], [74.0191919, 43.1899957], [73.9691322, 43.2226545], [73.9352731, 43.148213], [73.8872374, 43.1176872], [73.8378589, 43.1278612], [73.7659966, 43.1065882], [73.699734, 43.075776], [73.6405245, 43.0515009], [73.5593832, 43.028858], [73.5474371, 42.9614046], [73.5150164, 42.907358], [73.5097724, 42.8426688], [73.505575, 42.7928192], [73.474961, 42.7446165], [73.4656339, 42.6942132], [73.4438929, 42.6426808], [73.4329165, 42.5488984], [73.4792662, 42.468656], [73.4871648, 42.4175902], [73.4129783, 42.4279483], [73.356887, 42.4363186], [73.3195744, 42.5025455], [73.2516639, 42.5293864], [73.1757069, 42.5408998], [73.1200892, 42.5519331], [73.0673587, 42.5452307], [72.9107899, 42.5349882], [72.8390883, 42.5573465], [72.790855, 42.5881604], [72.7442786, 42.6389054], [72.6672985, 42.656922], [72.6067418, 42.6814386], [72.5495378, 42.677163], [72.4989387, 42.6851377], [72.4156112, 42.7101626], [72.3297038, 42.742385], [72.2820197, 42.7592688], [72.2319631, 42.7602762], [72.182091, 42.7509659], [72.1283422, 42.7385492], [72.05693, 42.7688936], [71.9846791, 42.7840658], [71.9389642, 42.8141413], [71.8636388, 42.8328097], [71.8064348, 42.8265489], [71.7292404, 42.7997326], [71.6753845, 42.7898434], [71.6274041, 42.7647661], [71.5706103, 42.7748604], [71.5250925, 42.7994166], [71.4692626, 42.7877866], [71.4086575, 42.7957652], [71.2771306, 42.7803987], [71.2445913, 42.7131004], [71.178175, 42.6740989], [71.178901, 42.620468], [71.101333, 42.599731], [71.002555, 42.587646], [71.0439775, 42.5340403], [71.0889746, 42.4843773], [71.0116854, 42.4905013], [70.963592, 42.461494], [70.932899, 42.41798], [70.914268, 42.369133], [70.881324, 42.327548], [70.894599, 42.276641], [70.943305, 42.263467], [70.9963216, 42.256134], [71.0356991, 42.2914718], [71.0920274, 42.2825241], [71.1475757, 42.2682903], [71.1911758, 42.2412076], [71.2450159, 42.2277866], [71.2543943, 42.1753099], [71.2178708, 42.1372099], [71.1647013, 42.1390998], [71.117081, 42.1127097], [71.0681608, 42.0852068], [71.0153554, 42.0611149], [70.9610916, 42.0308015], [70.9103325, 42.0402797], [70.8607589, 42.0482911], [70.8378758, 41.9997011], [70.8554983, 41.9505496], [70.8068604, 41.9206212], [70.7572325, 41.9364243], [70.707664, 41.9198041], [70.6607789, 41.9011266], [70.6287543, 41.853324], [70.5785299, 41.8197525], [70.5275022, 41.7985755], [70.5047453, 41.7506422], [70.4648761, 41.7169147], [70.4197291, 41.6904113], [70.3770526, 41.6618033], [70.3220284, 41.63684], [70.2747383, 41.6130366], [70.2206539, 41.6109616], [70.191723, 41.5690831], [70.1692706, 41.515337], [70.2176513, 41.4995564], [70.2732101, 41.5028653], [70.3250383, 41.5004818], [70.3726654, 41.482623], [70.4165853, 41.4576615], [70.4638759, 41.4269068], [70.509838, 41.3994729], [70.5602015, 41.4254685], [70.6036617, 41.452905], [70.6659962, 41.4701753], [70.7171645, 41.4657924], [70.7425419, 41.4195883], [70.7787526, 41.3755547], [70.7853132, 41.3256582], [70.770166, 41.2710891], [70.775962, 41.21655], [70.8244371, 41.2413519], [70.876472, 41.2335098], [70.9205139, 41.1948185], [70.9626004, 41.1657552], [71.0192874, 41.1926662], [71.0760037, 41.1769903], [71.1163507, 41.1451054], [71.1617584, 41.1669051], [71.2177659, 41.1673199], [71.2669383, 41.1802859], [71.2733449, 41.1109341], [71.3217469, 41.1309426], [71.3652351, 41.1626636], [71.3924936, 41.1121033], [71.4398495, 41.1368251], [71.4373515, 41.1966578], [71.44828, 41.253608], [71.4719237, 41.3054401], [71.5283658, 41.2969583], [71.5878451, 41.300328], [71.6236572, 41.3486252], [71.6617286, 41.401218], [71.6767816, 41.4583405], [71.6784292, 41.5090012], [71.7261424, 41.5467739], [71.7280188, 41.4892341], [71.6964801, 41.4431637], [71.7492309, 41.4468147], [71.7945838, 41.4199907], [71.8306968, 41.3824165], [71.8785552, 41.3643691], [71.9003146, 41.3090638], [71.8964317, 41.2591123], [71.8620069, 41.2008483], [71.8953725, 41.1618751], [71.9426252, 41.1453575], [72.0066045, 41.1565212], [72.0505366, 41.1298127], [72.1073796, 41.1528354], [72.1638402, 41.1641074], [72.1795416, 41.1064281], [72.2073834, 41.0619172], [72.1761698, 41.0187567], [72.2237081, 41.0000388], [72.2841619, 41.0204686], [72.3325475, 41.0416721], [72.3816281, 41.0316362], [72.4441808, 41.0317566], [72.4882378, 41.0008902], [72.5253671, 40.9593252], [72.5693798, 40.9344374], [72.5817101, 40.8858102], [72.6283108, 40.862455], [72.6916925, 40.8509631], [72.7722136, 40.8531172], [72.8244151, 40.8526408], [72.8806906, 40.8374103], [72.9390539, 40.8004244], [72.9799137, 40.8294928], [73.0309636, 40.8390316], [73.0803352, 40.8492599], [73.1354114, 40.833371], [73.0648404, 40.7691827], [73.0045457, 40.7637326], [72.9463303, 40.731978], [72.8962259, 40.7192513], [72.8464751, 40.6726965], [72.7855988, 40.6666821], [72.7496057, 40.6077482], [72.701073, 40.5877373], [72.6574199, 40.5613512], [72.6553076, 40.510487], [72.5829773, 40.5359811], [72.5164562, 40.5577172], [72.4509704, 40.5731268], [72.4156739, 40.6101159], [72.3501656, 40.6039324], [72.3947509, 40.5753409], [72.4054481, 40.5260884], [72.4355993, 40.4857717], [72.4161765, 40.429272], [72.3687659, 40.4120668], [72.3211981, 40.4460532], [72.243501, 40.460299], [72.2005182, 40.4869306], [72.1481334, 40.4732694], [72.0867767, 40.4510961], [72.0822199, 40.4010606], [72.0264554, 40.3602847], [71.9774038, 40.3285657], [72.0151373, 40.293927], [71.9785256, 40.2565838], [71.9270225, 40.2419489], [71.8737525, 40.2620393], [71.8312299, 40.2184761], [71.7686432, 40.1863692], [71.7310269, 40.1485307], [71.6893057, 40.1873378], [71.699768, 40.2415648], [71.6528349, 40.2713058], [71.6251475, 40.2214178], [71.569164, 40.214398], [71.518776, 40.227087], [71.501476, 40.277068], [71.4279816, 40.2840457], [71.3815045, 40.3063607], [71.3241066, 40.3178244], [71.2737578, 40.3435988], [71.2035163, 40.3450557], [71.1454145, 40.3358841], [71.096349, 40.307457], [71.033574, 40.279384], [70.9723193, 40.2885256], [70.9833215, 40.2206414], [70.9241137, 40.1986945], [70.8594516, 40.1650105], [70.8023225, 40.1795465], [70.7979381, 40.1293316], [70.7100219, 40.1088676], [70.6602835, 40.0939753], [70.664054, 40.036396], [70.65039, 39.986723], [70.604926, 39.957623], [70.547171, 39.965323], [70.5027975, 39.9395602], [70.5467241, 39.9792091], [70.5750702, 40.0225798], [70.520212, 40.0522631], [70.4654527, 40.0578586], [70.4049303, 40.0745945], [70.3533476, 40.0902678], [70.3053488, 40.1196539], [70.2523873, 40.1259792], [70.2003801, 40.1342616], [70.1347461, 40.1650542], [70.0324804, 40.2239585], [69.8861277, 40.2011255], [69.8337865, 40.1918994], [69.7840413, 40.1794219], [69.7046486, 40.1362881], [69.6470583, 40.1215107], [69.5821533, 40.1046068], [69.5184401, 40.080154], [69.5084529, 40.0281897], [69.5260615, 39.9695316], [69.493792, 39.9266476], [69.4344794, 39.9231432], [69.4347639, 39.9738194], [69.3875401, 39.9937507], [69.3442395, 39.9684046], [69.2968843, 39.9204575], [69.3249668, 39.8786048], [69.2895791, 39.8387131], [69.2649523, 39.8060382]], [[70.999375, 40.183479], [71.067374, 40.166861], [71.089743, 40.114049], [71.10276, 40.056168], [71.137364, 40.019738], [71.19253, 40.034876], [71.145026, 40.001378], [71.154518, 39.951919], [71.208013, 39.953197], [71.199696, 39.902011], [71.147267, 39.888507], [71.09989, 39.911004], [71.050893, 39.900454], [71.082668, 39.942525], [71.093345, 39.995652], [71.046556, 40.023348], [71.004907, 40.081421], [71.008674, 40.166926], [70.999375, 40.183479]], [[71.714499, 39.966072], [71.765816, 39.981046], [71.810816, 40.003772], [71.858872, 39.984213], [71.797658, 39.95853], [71.7451, 39.933733], [71.714499, 39.966072]], [[70.525426, 39.876387], [70.6005, 39.875026], [70.660996, 39.867445], [70.719887, 39.875709], [70.691502, 39.816703], [70.647349, 39.784464], [70.606432, 39.820162], [70.55673, 39.850888], [70.525426, 39.876387]], [[71.0290364, 40.2399421], [71.0290364, 40.2399421]], [[71.654813, 40.20643], [71.654813, 40.20643]]], [[[72.7581056, 40.6658117], [72.7581056, 40.6658117]]]]}}]}