{"type": "FeatureCollection", "features": [{"type": "Feature", "properties": {"code": "KHM", "name": "Cambodia", "tier": "country"}, "geometry": {"type": "MultiPolygon", "coordinates": [[[[102.88387389999995, 9.932328600000021], [102.88387389999995, 9.932328600000021]]], [[[102.9257507, 9.924728], [102.9257507, 9.924728]]], [[[103.13819380000002, 10.316947199999985], [103.13819380000002, 10.316947199999985]]], [[[103.79887050000004, 10.432235600000043], [103.79887050000004, 10.432235600000043]]], [[[104.32306439999996, 10.444033], [104.32306439999996, 10.444033]]], [[[103.56398960000004, 10.4981697], [103.56398960000004, 10.4981697]]], [[[103.5891497, 10.505365400000025], [103.5891497, 10.505365400000025]]], [[[103.794854, 10.485374], [103.74827540000003, 10.52011350000002], [103.7351896, 10.4705477], [103.78221929999997, 10.452325], [103.794854, 10.485374]]], [[[103.42239480000005, 10.611147900000043], [103.42239480000005, 10.611147900000043]]], [[[103.31601120000003, 10.622728300000043], [103.29130179999997, 10.579157600000014], [103.31833940000001, 10.6214354], [103.31601120000003, 10.622728300000043]]], [[[103.4784221, 10.629565900000019], [103.4784221, 10.629565900000019]]], [[[103.23272349999998, 10.779685299999956], [103.18575210000003, 10.740517499999983], [103.21879740000004, 10.702229499999975], [103.25916320000002, 10.671930700000013], [103.31134539999998, 10.690931399999974], [103.2711814, 10.724094200000026], [103.24678559999997, 10.7771492], [103.23272349999998, 10.779685299999956]]], [[[103.18634440000001, 10.833079], [103.18634440000001, 10.833079]]], [[[103.08417330000002, 10.897759400000021], [103.08417330000002, 10.897759400000021]]], [[[102.98246969999998, 11.418016900000042], [102.97854619999998, 11.368122899999959], [102.9904961, 11.3180264], [102.9926053, 11.260407], [103.03932069999998, 11.285106499999968], [103.03696310000004, 11.33883890000003], [103.02180790000003, 11.401195], [102.98246969999998, 11.418016900000042]]], [[[102.93521470000003, 11.600561], [102.93521470000003, 11.600561]]], [[[107.54112250000001, 14.687233199999966], [107.5089553, 14.644149199999973], [107.4633926, 14.614088099999961], [107.4567865, 14.562948400000014], [107.4094174, 14.536638100000015], [107.36273869999995, 14.555237399999982], [107.328071, 14.5916052], [107.28224489999997, 14.570085199999966], [107.25633470000002, 14.525388899999975], [107.23759689999997, 14.478450500000012], [107.19406580000002, 14.445541199999973], [107.14523, 14.4135108], [107.097783, 14.393900200000026], [107.06242439999995, 14.439864899999982], [107.027496, 14.404085599999977], [106.99557449999999, 14.354938200000028], [106.96330829999997, 14.315474099999964], [106.914636, 14.329809099999974], [106.86300919999996, 14.3159361], [106.81224049999999, 14.315464499999969], [106.7828527, 14.357028400000043], [106.75681279999998, 14.40022429999997], [106.707871, 14.4235219], [106.66032720000003, 14.443367], [106.61569119999997, 14.4673445], [106.58211909999997, 14.506970599999974], [106.5580536, 14.56452120000003], [106.51381329999998, 14.588845600000028], [106.4640547, 14.554501899999966], [106.43092410000004, 14.5166158], [106.42216939999999, 14.462600399999964], [106.36775269999997, 14.453458], [106.3178365, 14.44057730000004], [106.27522710000002, 14.477368], [106.244726, 14.4371632], [106.22508190000002, 14.3818461], [106.17259560000004, 14.3503103], [106.12143570000002, 14.3588216], [106.06849630000002, 14.3509458], [106.017877, 14.354637700000033], [106.0233766, 14.2992954], [106.02704390000002, 14.2461316], [106.05836229999997, 14.198375300000038], [106.10997380000005, 14.185901], [106.11471649999997, 14.133968100000033], [106.14377990000004, 14.089007500000022], [106.18771730000003, 14.063011299999989], [106.16273519999997, 14.01736059999999], [106.11635190000003, 13.992841799999983], [106.1040015, 13.937566900000014], [106.0342142, 13.919952299999988], [105.97460910000004, 13.925376900000025], [105.92148439999998, 13.929909499999976], [105.87493069999996, 13.960433700000024], [105.82412370000002, 14.0014737], [105.783756, 14.044417699999961], [105.74194619999997, 14.09577069999997], [105.68650789999998, 14.1009676], [105.63219410000005, 14.10841], [105.60006689999997, 14.148435199999959], [105.54977459999998, 14.15810069999997], [105.5034566, 14.132380699999963], [105.457452, 14.105808300000039], [105.40632570000004, 14.110590400000028], [105.35499249999998, 14.116390100000014], [105.32068740000001, 14.154012700000035], [105.27533990000005, 14.17647570000003], [105.25702929999999, 14.22621779999998], [105.24069339999998, 14.2735208], [105.20616679999998, 14.312671], [105.160271, 14.289166199999986], [105.1428914, 14.238059700000033], [105.09341329999995, 14.215765499999971], [105.03670829999996, 14.230509], [105.01537980000005, 14.2766618], [104.98448919999997, 14.3182923], [105.00135520000005, 14.366018500000038], [104.9580407, 14.391276199999986], [104.90541769999997, 14.399656200000038], [104.8526449, 14.406728], [104.80863250000002, 14.436642299999974], [104.75678419999997, 14.4142483], [104.6987045, 14.427349200000045], [104.64094870000002, 14.423193], [104.5893754, 14.381442299999986], [104.54507990000005, 14.356958400000025], [104.49620149999997, 14.3733455], [104.44754270000003, 14.356576], [104.39834120000005, 14.374577200000044], [104.34065709999996, 14.368641700000012], [104.29156910000005, 14.399686100000025], [104.24540630000004, 14.376031], [104.1945586, 14.38182940000004], [104.14541559999998, 14.354622700000036], [104.09332810000004, 14.353397199999979], [104.032902, 14.340217], [103.98284109999996, 14.3541628], [103.92980060000004, 14.3320539], [103.87568929999998, 14.346143799999972], [103.818974, 14.3555196], [103.76903509999995, 14.367094199999958], [103.710619, 14.3798118], [103.70820389999997, 14.431125799999972], [103.65386039999999, 14.438634300000036], [103.6041706, 14.422064500000037], [103.5491926, 14.427468200000032], [103.49817009999998, 14.412125100000011], [103.4706728, 14.36853729999999], [103.41739359999995, 14.38133740000001], [103.352885, 14.352693899999963], [103.2816272, 14.348305], [103.22859670000003, 14.328378199999975], [103.17892009999998, 14.3352562], [103.12861379999998, 14.31983430000004], [103.083529, 14.2965099], [103.03819809999999, 14.251752400000012], [102.9972019, 14.213518799999974], [102.9447111, 14.198502900000026], [102.9404068, 14.1483992], [102.91095929999996, 14.09523350000002], [102.89963319999995, 14.043776899999965], [102.8666326, 14.004258700000044], [102.81562690000004, 13.9654346], [102.7662519, 13.856377099999989], [102.72321970000003, 13.793260099999976], [102.688584, 13.751927600000041], [102.59802920000001, 13.706757], [102.55599549999997, 13.670437699999965], [102.58610289999999, 13.6286605], [102.56418550000002, 13.582779], [102.510706, 13.569321799999972], [102.4591511, 13.561951200000038], [102.40520830000003, 13.568862900000017], [102.35547579999998, 13.563336], [102.35892980000004, 13.51177089999998], [102.3551713, 13.4612417], [102.35880430000005, 13.408607300000025], [102.3450807, 13.346887100000032], [102.35002589999998, 13.291574200000026], [102.37055630000003, 13.23677389999998], [102.39423169999998, 13.191297199999989], [102.41106349999998, 13.143930700000043], [102.43383840000003, 13.090930399999982], [102.494368, 13.0134135], [102.500673, 12.961368699999957], [102.5034483, 12.906550699999956], [102.50117070000003, 12.849847799999962], [102.52891659999997, 12.8039892], [102.51751969999997, 12.751859799999957], [102.497282, 12.704447], [102.532843, 12.65334], [102.582687, 12.644785], [102.627464, 12.614799], [102.667609, 12.573362], [102.693038, 12.529831], [102.720349, 12.486617], [102.76532, 12.456903], [102.786695, 12.407401], [102.737768, 12.37701], [102.726574, 12.32381], [102.718757, 12.273061], [102.71751850000003, 12.222360900000021], [102.70351, 12.172681], [102.732509, 12.124695], [102.758131, 12.080455], [102.780038, 12.023605], [102.79315170000001, 11.9706467], [102.813767, 11.922422], [102.83278710000003, 11.856309500000032], [102.864451, 11.815302], [102.903867, 11.769513], [102.91057, 11.717652], [102.912757, 11.660226], [102.936309, 11.6121953], [102.97478489999999, 11.57787850000003], [102.970393, 11.524275500000018], [103.014459, 11.456812899999983], [103.0609813, 11.4268262], [103.09014009999997, 11.362526], [103.1375227, 11.336720299999973], [103.09978760000001, 11.297896899999985], [103.0651224, 11.26003939999998], [103.09292110000004, 11.197215], [103.11146060000003, 11.148545099999966], [103.11111720000004, 11.095487300000032], [103.10636749999998, 11.0025763], [103.0939049, 10.9490434], [103.1228131, 10.90281630000001], [103.1653851, 10.867416], [103.22169010000002, 10.879890800000029], [103.2604855, 10.92102049999997], [103.31808610000002, 10.904261899999982], [103.35240970000002, 10.862792800000024], [103.40365110000003, 10.884273800000036], [103.41421639999997, 10.94519440000004], [103.4287137, 11.006632799999986], [103.45053669999997, 11.073292899999968], [103.4643888, 11.121660599999975], [103.5008335, 11.1613871], [103.55374330000002, 11.16740320000003], [103.5794544, 11.116585299999974], [103.628031, 11.088453100000043], [103.65893359999998, 11.033363899999985], [103.67577110000002, 10.97320710000003], [103.70297619999998, 10.916072899999966], [103.71214840000003, 10.854197600000019], [103.67911209999997, 10.809689200000031], [103.65723759999999, 10.76451270000001], [103.617741, 10.733236700000019], [103.55977, 10.724791900000023], [103.53666030000002, 10.679897199999958], [103.4988906, 10.6452037], [103.53278860000005, 10.596467300000038], [103.56404669999998, 10.5476892], [103.614954, 10.5328144], [103.64329749999997, 10.489049499999984], [103.69806120000001, 10.506762199999956], [103.711328, 10.55532629999996], [103.75649390000004, 10.530352], [103.82488829999998, 10.5611621], [103.86908739999997, 10.621995299999968], [103.9181565, 10.607528499999978], [103.97259480000004, 10.581943], [104.027248, 10.5601702], [104.07800980000002, 10.547684599999977], [104.1279047, 10.558265200000031], [104.17586470000002, 10.543308], [104.2246409, 10.567516], [104.27213219999996, 10.543264], [104.28920950000003, 10.493555200000019], [104.34174840000001, 10.495443799999963], [104.38338870000001, 10.4572466], [104.43923859999995, 10.423199699999989], [104.48948890000003, 10.419855300000028], [104.54238960000002, 10.44825350000003], [104.57045439999997, 10.4991971], [104.61698070000003, 10.527331799999965], [104.69472760000004, 10.536901300000027], [104.7540709, 10.517596], [104.86907379999997, 10.5222001], [104.92165430000003, 10.587273100000031], [104.95685329999998, 10.637833600000016], [105.0983022, 10.7210119], [105.07751080000001, 10.775041899999986], [105.03571920000002, 10.867485], [105.05571169999997, 10.915793899999974], [105.09641250000004, 10.954941200000027], [105.14265120000002, 10.9232954], [105.19745110000004, 10.911396700000035], [105.26503970000002, 10.896854500000023], [105.33813479999996, 10.859885399999984], [105.37159320000005, 10.897817400000024], [105.406523, 10.935623200000014], [105.45619419999997, 10.956018800000015], [105.53650029999997, 10.951880600000012], [105.641065, 10.981365], [105.695438, 11.002117], [105.74190859999997, 11.027238499999962], [105.791155, 11.002029], [105.839673, 10.934755], [105.847924, 10.866127], [105.898416, 10.844198], [105.941322, 10.872878], [106.015451, 10.850199], [106.07265, 10.811099], [106.129772, 10.80888], [106.19094959999995, 10.788907399999962], [106.187558, 10.840055], [106.145762, 10.90604], [106.14500049999995, 10.96980149999998], [106.202774, 10.974055], [106.1872756, 11.051622900000039], [106.15387589999996, 11.102084800000037], [106.108674, 11.071363], [106.068667, 11.109102], [106.023096, 11.140392], [106.01379660000003, 11.19079], [105.963325, 11.196156], [105.910782, 11.240579], [105.898396, 11.289451], [105.878855, 11.336395], [105.878772, 11.390312], [105.903806, 11.440348], [105.884266, 11.493412], [105.880679, 11.545746], [105.83377, 11.564512], [105.811477, 11.616418], [105.850402, 11.660305], [105.901933, 11.665294], [105.951754, 11.640254], [105.977568, 11.684205], [106.01515, 11.726956], [106.032804, 11.775095], [106.090578, 11.764996], [106.152412, 11.736826], [106.212463, 11.72885], [106.26643, 11.72051], [106.298881, 11.681237], [106.349577, 11.686297], [106.399668, 11.691387], [106.45093009999995, 11.67063679999996], [106.435141, 11.719167], [106.414296, 11.766158], [106.43733, 11.811972], [106.445924, 11.862426], [106.411855, 11.973559], [106.464844, 11.982698], [106.519747, 11.980765], [106.62699630000002, 11.97451969999999], [106.67754879999995, 11.978234599999963], [106.73393480000003, 11.98738670000004], [106.75963450000003, 12.031023799999966], [106.786292, 12.076542699999985], [106.84572549999996, 12.07414239999998], [106.8970648, 12.0660938], [106.947586, 12.071657399999983], [106.9930595, 12.094995299999981], [107.03415959999998, 12.126739800000012], [107.07398090000002, 12.1640207], [107.10051340000003, 12.206552799999985], [107.13901060000002, 12.242260600000025], [107.17493839999997, 12.2805235], [107.22201010000003, 12.297985700000028], [107.2686071, 12.3250577], [107.326759, 12.326056799999966], [107.37519580000001, 12.305668599999956], [107.39876140000003, 12.26118550000002], [107.44387889999996, 12.287444599999956], [107.50272530000002, 12.324367399999984], [107.5475458, 12.360804200000034], [107.54380520000002, 12.415482799999959], [107.56691709999997, 12.462906600000027], [107.5624249, 12.5166047], [107.58953550000004, 12.558667699999985], [107.58082430000003, 12.610156599999959], [107.57143009999999, 12.661912], [107.55905309999999, 12.716146], [107.55982670000004, 12.77025750000003], [107.55077259999999, 12.819544900000016], [107.51128119999998, 12.8576232], [107.494884, 12.9082076], [107.48708209999995, 12.96139449999996], [107.49283609999998, 13.0115435], [107.547979, 13.170148400000018], [107.60930490000001, 13.316913], [107.62767879999997, 13.366495800000028], [107.61960729999996, 13.502073700000011], [107.57274750000002, 13.62442409999996], [107.55232339999996, 13.694054799999972], [107.53580529999998, 13.741461499999957], [107.49344120000005, 13.772811899999976], [107.46172790000001, 13.8161014], [107.45395249999999, 13.870821199999966], [107.4730623, 13.917843400000024], [107.45545719999997, 13.9802429], [107.40106109999996, 13.990129199999984], [107.3579293, 14.016496800000017], [107.37148229999998, 14.070088199999958], [107.33685, 14.106521900000018], [107.36301530000001, 14.162932199999961], [107.38802729999998, 14.206283599999963], [107.4026803, 14.255563899999984], [107.3973387, 14.3074355], [107.410775, 14.356573599999983], [107.44400679999997, 14.395816400000033], [107.49071069999998, 14.4202596], [107.5044006, 14.470269399999985], [107.52141640000004, 14.5178149], [107.52405790000002, 14.572981100000032], [107.54939419999998, 14.61804829999998], [107.5512708, 14.67050410000002], [107.54112250000001, 14.687233199999966]]]]}}]}