{"type": "FeatureCollection", "features": [{"type": "Feature", "properties": {"code": "KIR", "name": "Kiribati", "tier": "country"}, "geometry": {"type": "MultiPolygon", "coordinates": [[[[-171.7056235, -2.7676228], [-171.61925210000004, -2.857414200000022], [-171.7056235, -2.7676228]]], [[[176.79151939999997, -2.612752399999976], [176.79151939999997, -2.612752399999976]]], [[[175.999951, -2.511143200000023], [175.999951, -2.511143200000023]]], [[[175.576998, -1.939126300000029], [175.576998, -1.939126300000029]]], [[[175.522025, -1.790608600000012], [175.6040949, -1.8782397], [175.522025, -1.790608600000012]]], [[[175.07066560000004, -1.53850459999997], [175.07066560000004, -1.53850459999997]]], [[[175.06903760000006, -1.467721], [175.06903760000006, -1.467721]]], [[[175.0341689, -1.4456213], [175.0341689, -1.4456213]]], [[[175.01320450000009, -1.433737600000042], [175.01320450000009, -1.433737600000042]]], [[[176.41209880000002, -1.3117885], [176.48955030000002, -1.40436350000003], [176.41209880000002, -1.3117885]]], [[[175.96229, -1.275706199999962], [175.96229, -1.275706199999962]]], [[[174.79206230000005, -1.262049], [174.79206230000005, -1.262049]]], [[[174.68324460000002, -1.12653089999998], [174.77339580000006, -1.224074299999969], [174.6888876, -1.136543500000022], [174.68324460000002, -1.12653089999998]]], [[[169.54925240000006, -0.863425], [169.54925240000006, -0.863425]]], [[[174.32406990000004, -0.5722884], [174.4296417, -0.6408198], [174.46728919999998, -0.760963], [174.43787070000002, -0.6407983], [174.3363544, -0.5757965], [174.32406990000004, -0.5722884]]], [[[173.56602429999998, 0.186145199999986], [173.56602429999998, 0.186145199999986]]], [[[173.6307324, 0.204261300000029], [173.6307324, 0.204261300000029]]], [[[173.41108659999998, 0.231945800000042], [173.41108659999998, 0.231945800000042]]], [[[173.40376640000005, 0.259498399999978], [173.40376640000005, 0.259498399999978]]], [[[173.9434225, 0.3436422], [173.9434225, 0.3436422]]], [[[173.78674509999996, 0.38406970000001], [173.78674509999996, 0.38406970000001]]], [[[173.9254097, 0.403647600000033], [173.9254097, 0.403647600000033]]], [[[173.83764160000004, 0.495393], [173.92054280000002, 0.402756500000022], [173.83764160000004, 0.495393]]], [[[173.002184, 1.030372800000011], [173.01554369999997, 0.89379], [173.0172842, 1.023791800000038], [173.002184, 1.030372800000011]]], [[[172.93312910000003, 1.3658781], [172.93312910000003, 1.3658781]]], [[[173.13838070000003, 1.391769299999966], [173.02406770000005, 1.340059700000027], [173.15893430000006, 1.3586892], [173.13838070000003, 1.391769299999966]]], [[[173.125913, 1.401662499999988], [173.125913, 1.401662499999988]]], [[[172.9908238, 1.396795299999974], [172.9908238, 1.396795299999974]]], [[[173.09201290000004, 1.427537899999974], [173.09201290000004, 1.427537899999974]]], [[[173.09244480000007, 1.4351854], [173.09244480000007, 1.4351854]]], [[[173.027729, 1.493193599999985], [173.027729, 1.493193599999985]]], [[[173.0098999, 1.521828500000031], [173.0098999, 1.521828500000031]]], [[[172.9602623, 1.636127], [173.00543610000005, 1.521024400000024], [172.9602623, 1.636127]]], [[[172.91227970000006, 1.954176300000019], [172.99107180000004, 1.8589415], [173.03853650000002, 1.74813680000002], [172.991633, 1.8636358], [172.91227970000006, 1.954176300000019]]], [[[173.2545579, 1.99831], [173.2545579, 1.99831]]], [[[-157.45238589999997, 2.048395799999967], [-157.428282, 1.929834900000036], [-157.5321202, 1.867593700000012], [-157.43658229999994, 1.787831399999971], [-157.31425209999998, 1.75828760000004], [-157.211266, 1.6932789], [-157.2756978, 1.804962400000041], [-157.34579489999993, 1.904189499999985], [-157.4097817, 2.018888600000044], [-157.45238589999997, 2.048395799999967]]], [[[173.27379360000003, 2.059553399999979], [173.27379360000003, 2.059553399999979]]], [[[172.89428570000007, 3.102693], [172.76656580000002, 3.065355399999957], [172.89977410000006, 3.091637799999956], [172.89428570000007, 3.102693]]], [[[172.97119980000008, 3.176969400000016], [172.97119980000008, 3.176969400000016]]], [[[172.6983639, 3.2732718], [172.6983639, 3.2732718]]], [[[173.00897880000008, 3.39294529999997], [173.00897880000008, 3.39294529999997]]], [[[-159.2442839, 3.862456700000015], [-159.2442839, 3.862456700000015]]], [[[-159.3329092, 3.936281699999964], [-159.3329092, 3.936281699999964]]], [[[-159.34976959999997, 3.93969629999996], [-159.34976959999997, 3.93969629999996]]], [[[-160.3998383, 4.699343900000029], [-160.3998383, 4.699343900000029]]]]}}]}