{"type": "FeatureCollection", "features": [{"type": "Feature", "properties": {"code": "KNA", "name": "Saint Kitts and Nevis", "tier": "country"}, "geometry": {"type": "MultiPolygon", "coordinates": [[[[-62.57828774678205, 17.206566812608344], [-62.601158814028, 17.204794703912512], [-62.61890509279573, 17.191265995529307], [-62.62805815785765, 17.170159237159112], [-62.62816416544382, 17.147470512853943], [-62.628031655736265, 17.12379126355603], [-62.61406519874987, 17.102515357098127], [-62.59196268403059, 17.095777478947525], [-62.56572588604075, 17.10656809793943], [-62.54473644782877, 17.126754500919503], [-62.542165771732925, 17.150762575632427], [-62.54547849913337, 17.18056574851056], [-62.567766526004334, 17.196263029914974], [-62.57828774678205, 17.206566812608344]]], [[[-62.809239375996356, 17.416972968327855], [-62.82988439454914, 17.412110637096248], [-62.849760756253886, 17.405354027866167], [-62.86346716437811, 17.387414216792706], [-62.853528983076046, 17.363070162558017], [-62.84139612053451, 17.34500762999818], [-62.797212624462986, 17.31773260247769], [-62.7793653077627, 17.30093075125319], [-62.76060699042023, 17.293102541349242], [-62.73712803812839, 17.290769828564805], [-62.71269667681014, 17.294090970022296], [-62.688927860432386, 17.281003743328142], [-62.66809908880185, 17.269655455634847], [-62.6572084993727, 17.25099054997395], [-62.66491058925226, 17.230899940080235], [-62.65406140820738, 17.213259533100995], [-62.63894709163492, 17.226865735165575], [-62.62155527435641, 17.24011499900803], [-62.63588281903685, 17.255221954629576], [-62.655924816976665, 17.26317040568972], [-62.67281972465054, 17.277682365348937], [-62.68259226971742, 17.296146884970824], [-62.69963469768311, 17.323049574278457], [-62.716586542334994, 17.347569396510494], [-62.73554414044969, 17.370974430825356], [-62.761489522123725, 17.38641147091272], [-62.779023682297066, 17.402835051996078], [-62.802316294161585, 17.407588971753682], [-62.809239375996356, 17.416972968327855]]]]}}]}