{"type": "FeatureCollection", "features": [{"type": "Feature", "properties": {"code": "KOR", "name": "Republic of Korea", "tier": "country"}, "geometry": {"type": "MultiPolygon", "coordinates": [[[[126.82336637096148, 33.55943982608727], [126.74550521579317, 33.56055637397765], [126.6646915431802, 33.54967581019065], [126.58243391279495, 33.52928356768268], [126.4849345876612, 33.520757551320116], [126.35736028574865, 33.477960841319884], [126.29794924755981, 33.44171489472677], [126.24097740997968, 33.39276764481099], [126.1958113937809, 33.36668528919489], [126.16114342462936, 33.300767319656245], [126.2008239432704, 33.24355202390689], [126.25391686277317, 33.20404694231263], [126.30379021384738, 33.2265593743158], [126.42845775941817, 33.23930930218273], [126.52120889527441, 33.2366177895795], [126.60691886201607, 33.240610458406024], [126.74179256527486, 33.28020847234319], [126.80640709701004, 33.303615627259546], [126.84795550933939, 33.332065315062266], [126.90750666100382, 33.395725097735124], [126.93921959730676, 33.43626536735292], [126.91285241021069, 33.50657786687515], [126.8499455093779, 33.534979558759744], [126.82336637096148, 33.55943982608727]]], [[[127.29566491000764, 34.061468817032335], [127.3093367850646, 34.01146067916716], [127.29566491000764, 34.061468817032335]]], [[[125.13738040458202, 34.05133698111689], [125.1022241548211, 34.095933335255324], [125.12989342534138, 34.04755280212021], [125.13738040458202, 34.05133698111689]]], [[[126.56788170667562, 34.16864655159725], [126.51514733158422, 34.16885000162631], [126.55193118607542, 34.133978583345026], [126.60401451855535, 34.15224844021344], [126.56788170667562, 34.16864655159725]]], [[[126.66537519610858, 34.119086005414886], [126.66358483207455, 34.1733259139599], [126.63868248770677, 34.12811920793524], [126.66537519610858, 34.119086005414886]]], [[[126.91993248759445, 34.16697825704102], [126.88217207098432, 34.21328359556162], [126.84913170656307, 34.174383855730525], [126.90186608165448, 34.15241120041662], [126.91993248759445, 34.16697825704102]]], [[[126.58887779987072, 34.179103907919114], [126.57536868591626, 34.22894928558111], [126.56861412893909, 34.179022528267126], [126.58887779987072, 34.179103907919114]]], [[[126.03321373762412, 34.31488678619638], [126.06934655040311, 34.27899811417177], [126.03321373762412, 34.31488678619638]]], [[[126.84351647190783, 34.350043035957526], [126.79379316462291, 34.342230536310296], [126.8357039722606, 34.30914948116373], [126.88404381556984, 34.32489655173458], [126.84351647190783, 34.350043035957526]]], [[[127.04590905036241, 34.35765208467609], [126.99146569088907, 34.356268621599725], [127.04558352995605, 34.33543528860781], [127.09693444107165, 34.33779531470219], [127.04590905036241, 34.35765208467609]]], [[[126.74561608241629, 34.32420482019643], [126.72185306126994, 34.38129303634474], [126.66439863398978, 34.39948151176242], [126.64193769626775, 34.34796784134295], [126.68702233191516, 34.322699285843555], [126.73170006570558, 34.28937409084165], [126.74561608241629, 34.32420482019643]]], [[[126.86019941477127, 34.39887116077563], [126.82300866022172, 34.43984609612056], [126.76840253964565, 34.41136302278545], [126.7692163415611, 34.360988673788256], [126.81967207110927, 34.389064846165866], [126.86019941477127, 34.39887116077563]]], [[[127.48682701915175, 34.46385325712231], [127.49463951879898, 34.41425202021469], [127.53191165479916, 34.45058828302291], [127.48682701915175, 34.46385325712231]]], [[[127.21021569090146, 34.42397695517241], [127.24512779990812, 34.46405670805075], [127.17302493635191, 34.483710027995585], [127.11052493557747, 34.46491119979214], [127.14128665535497, 34.42430247557877], [127.21021569090146, 34.42397695517241]]], [[[127.77930748835001, 34.48847077001005], [127.76107832130765, 34.54311758041217], [127.70753014430079, 34.53388092696332], [127.7565210302215, 34.49823639479388], [127.77930748835001, 34.48847077001005]]], [[[126.31560306073277, 34.53827545784617], [126.2639266292108, 34.575751043875755], [126.26832116009359, 34.52204010576634], [126.216563347121, 34.5089785825956], [126.17212975408495, 34.46491119979214], [126.11573326857558, 34.436183985702485], [126.12427819138566, 34.38231028918864], [126.19849694118102, 34.35553620023563], [126.30518639423678, 34.401678777653615], [126.35385175885176, 34.419582424289615], [126.37891686342266, 34.46930573067499], [126.35035241043556, 34.53815338656972], [126.31560306073277, 34.53827545784617]]], [[[126.05762779958343, 34.532538152813686], [126.10336347694306, 34.57941315339434], [126.06763756602095, 34.625474351160506], [126.07634524813477, 34.570990301861116], [126.03158613379321, 34.53904856993569], [126.05762779958343, 34.532538152813686]]], [[[126.0380965500159, 34.56948476840745], [126.02857506598673, 34.634222723100265], [126.02051842468563, 34.571437892644724], [126.0380965500159, 34.56948476840745]]], [[[128.2712508469491, 34.63231028868887], [128.2712508469491, 34.63231028868887]]], [[[125.43392988425694, 34.69554270992825], [125.39340253969556, 34.65965403880301], [125.44320722663235, 34.669419663586666], [125.43392988425694, 34.69554270992825]]], [[[127.79786217489959, 34.579738673800875], [127.81723066516327, 34.63076406540932], [127.7924910818981, 34.68235911727953], [127.7462671230295, 34.64842357039157], [127.77540123807671, 34.58397044537986], [127.79786217489959, 34.579738673800875]]], [[[125.99903404998145, 34.677435614162334], [125.9804793634321, 34.726223049154555], [125.92286217504943, 34.695379949725066], [125.95964603044001, 34.659816799006194], [125.99903404998145, 34.677435614162334]]], [[[126.11784915481485, 34.76996491065228], [126.11133873769279, 34.717718817069795], [126.15943444114657, 34.70278554931372], [126.16358483217448, 34.754950262344835], [126.11784915481485, 34.76996491065228]]], [[[126.00717207093453, 34.78095123920849], [125.95655358208217, 34.77973053633531], [125.90186608185434, 34.771063544047365], [125.90642337294037, 34.71930573107477], [125.94613691468703, 34.75665924672694], [126.00757897189226, 34.75971100525885], [126.00717207093453, 34.78095123920849]]], [[[126.15821373827362, 34.76447174727349], [126.10238691482436, 34.794378972611526], [126.14625084669933, 34.761867580424564], [126.15821373827362, 34.76447174727349]]], [[[128.3790128557588, 34.82287045101066], [128.39928054935797, 34.770715731246014], [128.44063484572166, 34.80673540931184], [128.38582970337814, 34.82012484058896], [128.3790128557588, 34.82287045101066]]], [[[128.24146569108882, 34.79999420816631], [128.24146569108882, 34.79999420816631]]], [[[126.14226321677427, 34.879136460179666], [126.0937606132619, 34.85761139475022], [126.09400475401628, 34.804673569629585], [126.14210045657092, 34.83291250221032], [126.14226321677427, 34.879136460179666]]], [[[128.01343834690226, 34.869126694641295], [127.96363365996558, 34.85976797081531], [128.02654056079837, 34.843207098329], [128.08236738424762, 34.83559804871106], [128.05892988440678, 34.880357163952056], [128.01343834690226, 34.869126694641295]]], [[[126.35962975371035, 34.858587957768066], [126.3325301443507, 34.906724351047956], [126.28012128966589, 34.877508856348754], [126.23072350368693, 34.85455963711769], [126.30616295725486, 34.85590241126732], [126.36166425939814, 34.83738841364453], [126.35962975371035, 34.858587957768066]]], [[[126.08912194072514, 34.91132233285947], [126.02800540482565, 34.90989817905779], [125.98650149814569, 34.86896393443811], [126.0398869149493, 34.86644114814055], [126.08838951936104, 34.882961329901605], [126.08912194072514, 34.91132233285947]]], [[[126.24642988443168, 34.91624583507729], [126.24642988443168, 34.91624583507729]]], [[[127.94988040525664, 34.824652410880105], [127.90967858200099, 34.862046617257704], [127.93824303498809, 34.91396719043365], [127.88892662866112, 34.93475983270025], [127.85629316519748, 34.89272695468526], [127.82667076864118, 34.85138580910785], [127.8579207690284, 34.75971100525885], [127.89210045667096, 34.71271393430078], [127.92457115993113, 34.75958893398223], [127.96534264434763, 34.71930573107477], [128.02588951908626, 34.70311106972025], [128.06527754042622, 34.73753489811713], [128.0717879566489, 34.79364655214681], [128.02906334709587, 34.82176341435013], [127.96192467468404, 34.80695221607198], [127.94988040525664, 34.824652410880105]]], [[[128.72388756565886, 34.95453522302216], [128.72527102963443, 35.009263413975475], [128.6237899102763, 34.953558660903525], [128.64551842483547, 34.89691803643842], [128.58399498797837, 34.90989817905779], [128.52328535213746, 34.8991559921555], [128.49154707114064, 34.84992096637967], [128.52881920714083, 34.808091539293116], [128.58057701921416, 34.83185455864111], [128.56039472703503, 34.78180573094983], [128.59864342515402, 34.7399763038635], [128.67823326885036, 34.72483958517881], [128.68018639398701, 34.78656647296452], [128.73406009229961, 34.7882347684199], [128.72055097744567, 34.842271226036246], [128.74756920715322, 34.88580963660553], [128.73438561270598, 34.93545156513767], [128.72388756565886, 34.95453522302216]]], [[[126.14380944095296, 35.05768463693647], [126.14380944095296, 35.05768463693647]]], [[[128.8317977215878, 34.99380117398505], [128.843272331653, 35.047186590788726], [128.82422936269495, 34.99673086124034], [128.8317977215878, 34.99380117398505]]], [[[126.18921959700685, 35.1022403021484], [126.2360945966883, 35.051947332803195], [126.22282962258907, 35.10114166875309], [126.18921959700685, 35.1022403021484]]], [[[126.11426842494791, 35.05931224166676], [126.1269637378864, 35.1105410833045], [126.16521243600516, 35.14350006717444], [126.11133873769279, 35.13328685070758], [126.06910240964851, 35.10236237162627], [126.10523522242761, 35.05003489839203], [126.11426842494791, 35.05931224166676]]], [[[126.30730227957667, 35.616644597570314], [126.25896243626744, 35.598374741601106], [126.30941816491645, 35.61066315268249], [126.30730227957667, 35.616644597570314]]], [[[126.40479576900964, 36.479641018018754], [126.38379967491517, 36.5265160177002], [126.36336739908643, 36.57383977728398], [126.32976321729882, 36.531724351397884], [126.32814310122319, 36.471089495084186], [126.37761477999811, 36.44619375174034], [126.42261803509427, 36.41152578258891], [126.40541386495795, 36.45883552803724], [126.40479576900964, 36.479641018018754]]], [[[126.15919030039208, 37.23191966386145], [126.11280358221973, 37.263088282798094], [126.12159264398554, 37.21092356976703], [126.15919030039208, 37.23191966386145]]], [[[126.47820071688977, 37.241603908093964], [126.47820071688977, 37.241603908093964]]], [[[126.57374108208535, 37.278998113572186], [126.54737389409001, 37.22748444225334], [126.61353600438326, 37.23281484632827], [126.57789147221376, 37.271144924099076], [126.57374108208535, 37.278998113572186]]], [[[126.57644010492697, 37.502370479614115], [126.52637779999554, 37.52509186369872], [126.47337965015083, 37.499256838732265], [126.41888511475645, 37.49686137755066], [126.37356753401457, 37.471642951161414], [126.4162780296075, 37.434554709432405], [126.48701249912756, 37.44679561382651], [126.54055947104291, 37.47765700456722], [126.57644010492697, 37.502370479614115]]], [[[130.89673912860792, 37.46312083515846], [130.91944420708467, 37.51019928576858], [130.86784915521446, 37.53693268399627], [130.81430097730833, 37.522609768126415], [130.82748457085643, 37.471258856111376], [130.8776961596501, 37.4555117864399], [130.89673912860792, 37.46312083515846]]], [[[125.69361412888907, 37.65395742389603], [125.69361412888907, 37.65395742389603]]], [[[126.3701277998581, 37.65835195477905], [126.34302819139805, 37.70429108306712], [126.3142195967572, 37.746079820327566], [126.28199303515055, 37.699286200297934], [126.34986412892647, 37.65737539266041], [126.3701277998581, 37.65835195477905]]], [[[126.27654056069855, 37.81150950655854], [126.22046959739407, 37.77130768420233], [126.29623457136859, 37.76113515756157], [126.34253990988896, 37.79214101809356], [126.27654056069855, 37.81150950655854]]], [[[126.52906334739566, 37.62490469029939], [126.52767988431935, 37.6958682306344], [126.52149498760366, 37.751166082748625], [126.47144615991238, 37.790228582783016], [126.42530358159524, 37.82444896025146], [126.37378991027617, 37.79612864801885], [126.37061608226657, 37.73798248920053], [126.40479576900964, 37.66518789320679], [126.39063561334297, 37.60927969010578], [126.46273847689929, 37.604315497162645], [126.51783287898434, 37.60382721565355], [126.52906334739566, 37.62490469029939]]], [[[124.71420332132641, 37.80955638232126], [124.71420332132641, 37.80955638232126]]], [[[124.73267662912315, 37.98045481963425], [124.64942467500885, 37.973293360800085], [124.68490644607584, 37.919989325447204], [124.72820071678973, 37.94700755425538], [124.73267662912315, 37.98045481963425]]], [[[128.47445722731936, 38.42609284061217], [128.45069420707216, 38.47410716441419], [128.36491946666024, 38.62433502803924], [128.3083744716048, 38.60134002702074], [128.27695520082193, 38.55405609121573], [128.28108931501993, 38.48437042275697], [128.24873986825048, 38.42576934817703], [128.1723621016298, 38.35595448940825], [128.1084900312901, 38.323501688951865], [128.039863729128, 38.30427805608747], [127.97175419180257, 38.300040589102025], [127.86685103424804, 38.30484649686832], [127.80075687672854, 38.293916931721185], [127.7537313233421, 38.32536204092554], [127.56082320202938, 38.31208119738949], [127.5020670987177, 38.2980768843409], [127.37711348509936, 38.31851491313279], [127.25381351787962, 38.31003997826241], [127.15748864798286, 38.30722361277958], [127.09046431537604, 38.28585540800083], [127.0267472737678, 38.25446197563974], [126.97191857907922, 38.218908589759735], [126.91982873640723, 38.13459849062792], [126.86479333524426, 38.09602203368996], [126.76190555839491, 37.97900075258275], [126.69632816571243, 37.946186218719106], [126.66745892708786, 37.82781016111022], [126.68685957081277, 37.77362701957139], [126.69556725382586, 37.72174713712076], [126.73642011789434, 37.65330638218393], [126.66146894583528, 37.672430730793735], [126.6687931648728, 37.72772858290796], [126.62086022162214, 37.757554428594176], [126.54818769600547, 37.77016836098113], [126.54542076895336, 37.67251211134493], [126.56028577097163, 37.62084737190878], [126.59110466964489, 37.57287000844411], [126.60110577291312, 37.506802103934035], [126.59598521574515, 37.439656588580704], [126.62538211988897, 37.397918344656034], [126.7171623890332, 37.383838776338564], [126.68979271865919, 37.3324864200124], [126.73331008868968, 37.3061704349177], [126.7835730791345, 37.295267564346716], [126.84278404964425, 37.288397528123596], [126.80233808743299, 37.254299221032284], [126.75220787919034, 37.24827708541932], [126.69052168123073, 37.257717189796665], [126.71900475366647, 37.21287669490363], [126.67066491035746, 37.18561432534091], [126.68563886793959, 37.13011302319762], [126.7592879565741, 37.16469961089848], [126.81690514405716, 37.16079336062518], [126.8645125660023, 37.179103908218906], [126.81120990031673, 37.14412053063813], [126.76445101390334, 37.11765780406455], [126.75552653222371, 37.06014106365927], [126.80128014386378, 37.037746486011656], [126.85865319059235, 37.041327215878425], [126.87045332106402, 37.09076569168337], [126.90674889404636, 37.033148505099575], [126.82440967086984, 37.002616176295476], [126.87338300921851, 36.94798411657388], [126.94581139408058, 36.925930079809405], [126.97315514419472, 36.969956772786986], [127.04200280008922, 36.99359772265689], [126.99415123828919, 36.966864325328515], [126.97445722671978, 36.91290924736393], [126.89901777405112, 36.87933991070844], [126.90479576890971, 36.82225169456012], [126.86654707079072, 36.7897809921991], [126.8317977219873, 36.8311221368773], [126.8343205091843, 36.89549388223702], [126.78199303505062, 36.89118073100599], [126.79623457126866, 36.955755927294376], [126.71434831592205, 36.993042063040946], [126.64944896080101, 36.96605646073726], [126.63111412881415, 36.91160716393955], [126.63138267896761, 36.9689308522772], [126.59629238728405, 37.01082778697298], [126.54932701922667, 37.039211329639215], [126.50074303516317, 37.05499909093538], [126.53296959676959, 37.000921941694344], [126.55909264401032, 36.94236888191847], [126.58261152440241, 36.89801666943379], [126.53126061328669, 36.941310940147844], [126.49122155023451, 36.8710798202776], [126.46876061341163, 36.91779205885649], [126.43238365987816, 36.9619815120372], [126.39087975409757, 37.00787994960018], [126.33570397236053, 36.98676178602767], [126.37647545677692, 36.94159576982895], [126.41553795681136, 36.89984772329393], [126.37411543068276, 36.8495547548481], [126.35670006555563, 36.78876373935515], [126.29843183725961, 36.791896876639726], [126.30184980602382, 36.84780507974074], [126.31104576874736, 36.909572658251705], [126.30892988430674, 36.966864325328515], [126.28353925932947, 36.90623607003869], [126.24374433703156, 36.87067291931987], [126.19223066481334, 36.885931708381804], [126.19686933735011, 36.835679428862704], [126.21338951911116, 36.78131744994039], [126.16561933696289, 36.816066798743805], [126.13095136781146, 36.76805247584116], [126.12891686302282, 36.7119001319856], [126.15821373827362, 36.76080963735507], [126.21338951911116, 36.726711330263754], [126.16187584689283, 36.706203517678375], [126.22925866005914, 36.68471914297419], [126.27418053460417, 36.71987539273533], [126.30233808663354, 36.63442617362898], [126.29525800924978, 36.582709052281075], [126.34302819139805, 36.610012110770356], [126.32911217468734, 36.66058991069599], [126.33155358223212, 36.71137116065057], [126.36714982890169, 36.62906549477691], [126.42423834362467, 36.60658136983437], [126.43951348775738, 36.66426528071821], [126.43799889363413, 36.71645742397112], [126.47958418086534, 36.74713776229788], [126.47453515577286, 36.68788509022488], [126.49985528829109, 36.636835815320694], [126.45765695390548, 36.5955956654077], [126.47032852114455, 36.540198793439686], [126.48275800887518, 36.485825913834844], [126.50757897179233, 36.43866608267376], [126.55909264401032, 36.473456122202435], [126.61744225375719, 36.473456122202435], [126.55677759031357, 36.45582983368001], [126.49877937626741, 36.420105858998284], [126.52059980603644, 36.373602605775716], [126.57618248783172, 36.3662783867382], [126.52881920664117, 36.33388906492854], [126.57154381619432, 36.305609441622494], [126.53492272190613, 36.21963125208072], [126.58847089891299, 36.19159577042859], [126.53135681286676, 36.17393972783623], [126.49341881612565, 36.13080475493564], [126.55176768842819, 36.14182264699764], [126.61232836686065, 36.09899244174784], [126.66529381555722, 36.03461334802762], [126.71338951901123, 36.007391669190326], [126.77133222690077, 36.03091054868298], [126.87069746181862, 36.061957098141534], [126.80233808743299, 36.02094147297066], [126.7444767591951, 35.98956940310552], [126.6613351473992, 35.98339864822901], [126.52141673579388, 35.97052000309577], [126.56973974019695, 35.945951984396686], [126.61228893158909, 35.89022422037158], [126.70850670661935, 35.88458893443186], [126.80982506577425, 35.9116885437914], [126.79712975373536, 35.8628604189733], [126.72909589885671, 35.86497630431313], [126.7493441320263, 35.813257440078814], [126.78956139394325, 35.77968984630951], [126.73312722773949, 35.79241505091386], [126.66215366805739, 35.79299834489785], [126.62513224955376, 35.74562583486454], [126.53033472167022, 35.683164305288585], [126.49097741037929, 35.64911530172992], [126.46373599591959, 35.6019728571618], [126.51315778120681, 35.5768965182599], [126.65503991016385, 35.59577057475235], [126.69247480636739, 35.53436920827238], [126.64288939932635, 35.57277499277188], [126.5942327005788, 35.542487712138325], [126.52528299141704, 35.53485769662541], [126.46981423483908, 35.49852640706814], [126.42554772234973, 35.41766998877898], [126.45606529957399, 35.352769272983664], [126.38941490957063, 35.34247467686498], [126.38379967491517, 35.291734116736166], [126.33838951886128, 35.248032945064494], [126.37728925869237, 35.21161530170491], [126.4039005874422, 35.142157293924015], [126.44752037856267, 35.10667552285713], [126.42505944084064, 35.01976146012345], [126.38697350382427, 35.06537506710578], [126.34498131563532, 35.096421616564385], [126.34302819139805, 35.15696849220234], [126.28907311343346, 35.13939036687208], [126.28353925932947, 35.0788434921335], [126.33822675865815, 35.070135809120416], [126.37411543068276, 35.01683177286816], [126.34921308721437, 34.972601629861515], [126.39999433716912, 34.98456451963699], [126.40170332065179, 34.91547272298794], [126.41138756578368, 34.8590355485519], [126.37728925869237, 34.81126536730295], [126.42945397172343, 34.805609441922286], [126.48715253975797, 34.813788152701136], [126.5485945969632, 34.84906647283958], [126.56763756592102, 34.90143463679914], [126.57577558687399, 34.84487539288517], [126.62769616004994, 34.82558828317286], [126.56893964934557, 34.80072663042972], [126.53052819102322, 34.765285549188775], [126.46014859937839, 34.77875539244752], [126.39232840723025, 34.768607452372066], [126.43576744091467, 34.728105394048725], [126.49024498811582, 34.72557200744228], [126.54110761772256, 34.68398672111044], [126.58545983200565, 34.64179108289227], [126.53155606216274, 34.65259658836186], [126.46936248559041, 34.65867434524489], [126.44788115689005, 34.705878563345095], [126.37861288897386, 34.711182163126296], [126.37985478706878, 34.65450554239692], [126.42529931161403, 34.61927176927685], [126.47274824333692, 34.60203685131967], [126.38233483218687, 34.60272858285788], [126.34921308721437, 34.656683660822466], [126.32618248833126, 34.73582591373503], [126.27808678487725, 34.70331451974937], [126.2710880871457, 34.642482815329856], [126.31861412943863, 34.619126695141006], [126.33301842496041, 34.570990301861116], [126.3890080086129, 34.54970937718605], [126.4387313158976, 34.5406761737666], [126.48633873784252, 34.56093984559743], [126.53964277409489, 34.56297435128545], [126.51685631596627, 34.5128441430428], [126.46591230580839, 34.4723574892069], [126.5087996746654, 34.427232163733436], [126.48853600373377, 34.380560614081105], [126.5274357426656, 34.341376043669584], [126.57886803523184, 34.30475495028088], [126.62964928518659, 34.38922760636905], [126.68222089917538, 34.41400788035946], [126.72706139406819, 34.44277578337585], [126.76148522156575, 34.479193426735264], [126.76563561259354, 34.531805731449424], [126.77784264402294, 34.586493230778046], [126.80233808743299, 34.5406761737666], [126.80201256612725, 34.47040436407025], [126.85702558676144, 34.43756744967823], [126.90479576890971, 34.45868561414994], [126.93897545655227, 34.49591705942481], [126.99415123828919, 34.5406761737666], [127.01026451909229, 34.6124942076417], [127.06251061267483, 34.63686757977507], [127.1071883473644, 34.66010162958662], [127.14804121233215, 34.69147370035114], [127.19971764385434, 34.69147370035114], [127.23389733239605, 34.748236395193544], [127.2907820967165, 34.721380926588495], [127.34400475421626, 34.7152774113236], [127.33643639442414, 34.66364166872813], [127.29200279958957, 34.69452545798367], [127.24057050882209, 34.67096588686621], [127.26132246216196, 34.60040924658961], [127.19288170722518, 34.57477448085774], [127.2133895189113, 34.63686757977507], [127.15902753998921, 34.58002350528068], [127.12452233194017, 34.5406761737666], [127.17920983216823, 34.513332423652514], [127.22348066500092, 34.54682037975681], [127.26099694085622, 34.513332423652514], [127.31592550435869, 34.44490101986628], [127.3566183943235, 34.49196472968862], [127.43921959720683, 34.5406761737666], [127.38040826922645, 34.54710467524069], [127.37916100397717, 34.60000234563188], [127.45224043055157, 34.57477448085774], [127.50358984969193, 34.59132477282009], [127.45224043055157, 34.63686757977507], [127.40601647168285, 34.70001862226178], [127.3952742847805, 34.75665924672694], [127.42554772214987, 34.80072663042972], [127.36532636781783, 34.82404205899394], [127.4248152998864, 34.82713450735173], [127.48389733189651, 34.839544988810246], [127.51099694125605, 34.88471100500897], [127.53956139424315, 34.8230654968753], [127.57178795674884, 34.77252838677572], [127.56202233196518, 34.70571523566963], [127.57227623825793, 34.6474063166483], [127.6303817072502, 34.6227074241084], [127.63209069073287, 34.685044663780275], [127.65626061283717, 34.73126862174962], [127.7063908210796, 34.71588776231039], [127.76132246206203, 34.787054755372765], [127.77564537883131, 34.84906647283958], [127.72144616011235, 34.844631252130625], [127.66895592487617, 34.81834544468671], [127.618907097185, 34.83641185062652], [127.58570397166113, 34.87921784073086], [127.5806583990659, 34.93366120020437], [127.62606855601916, 34.90973541885461], [127.69996178540816, 34.93162669541573], [127.7165633468212, 34.98236725464517], [127.79843183695982, 34.958644924223904], [127.86451256580244, 34.94472890841257], [127.91211998774736, 34.962062892988286], [127.92579186280432, 35.01976146012345], [127.9797469407689, 34.992254949806124], [128.02499433661944, 35.035793361274784], [128.0693465500035, 35.082464910926944], [128.05567467494643, 34.961737371682545], [128.10189863381493, 34.92352936428887], [128.18588300929355, 34.89362213715191], [128.22413170741254, 34.937892970884036], [128.27906334659633, 34.9068057307], [128.33505293114797, 34.94733307526133], [128.32447350444886, 34.897284246670836], [128.41586347681812, 34.86273834789654], [128.47445722731936, 34.89069244989662], [128.44044029988015, 34.93162669541573], [128.4200138678458, 34.98273346577702], [128.47877037944954, 34.9900576839151], [128.48812910237632, 35.05117422071385], [128.3714298837823, 35.006781316604645], [128.4284774101045, 35.05780670821315], [128.4812931648479, 35.07501862241156], [128.52637779959582, 35.103461005021416], [128.58033287935905, 35.08787669465386], [128.63453209717875, 35.054632880203314], [128.61036217507433, 35.10919830915469], [128.59058678475242, 35.15696849220234], [128.60206139391835, 35.21393463707403], [128.62232506574935, 35.157375393159896], [128.6640731131837, 35.12612539277285], [128.71583092525714, 35.105861720941846], [128.76197088474862, 35.07939238794853], [128.85740242568147, 35.083823078772184], [128.89792560818034, 35.12130532967734], [128.9580099139265, 35.13689688318465], [128.9503604002124, 35.07291301272551], [128.9927699439778, 35.0459626593493], [129.03762722741476, 35.09783422756766], [129.1010781848105, 35.092276152922125], [129.12025714924812, 35.14961672333328], [129.19434654955364, 35.15550364767523], [129.2284790272853, 35.2005305531427], [129.25570722710688, 35.24697500239449], [129.2641262906959, 35.302427614343], [129.3205132101167, 35.33854547229578], [129.361813989624, 35.367171831015355], [129.360503479552, 35.426056067033926], [129.39185631561656, 35.47573476794531], [129.3735457689222, 35.53278229426758], [129.406260612937, 35.489691472683376], [129.4546004571456, 35.513251043800665], [129.4672751414347, 35.59966756920301], [129.47112589544383, 35.683222298070746], [129.4976505871051, 35.747870183862005], [129.52213430965082, 35.84455221321423], [129.53558955331528, 35.93903563218879], [129.57164375275715, 35.99712436389831], [129.57496178525832, 36.054673569829504], [129.4790145191048, 36.00958893418215], [129.40193704306012, 36.02566008444535], [129.418711785121, 36.07298411742323], [129.4096785817012, 36.133612371813626], [129.3857528003515, 36.18545156533759], [129.38656660226695, 36.32269928634304], [129.4348250659241, 36.389593817101115], [129.44711347700547, 36.49331289307571], [129.42798912929493, 36.575669663824044], [129.44092858208842, 36.65778229381783], [129.47388756595853, 36.730617579637624], [129.43799889393392, 36.856146551622146], [129.41993248799395, 36.98676178602767], [129.418955924976, 37.03851959810106], [129.37891686282308, 37.13011302319762], [129.34644615956267, 37.2475039733298], [129.2828068373658, 37.32444896035139], [129.26278730628917, 37.37091705907511], [129.18995201867074, 37.46938711062677], [129.14820397213578, 37.50511302334752], [129.11898847743646, 37.58063385566794], [129.07333418062797, 37.613023179276354], [129.06421959665715, 37.67885976826375], [129.01229902438058, 37.72724030229824], [128.92383873836718, 37.80231354383517], [128.69247480596766, 38.064927475722584], [128.6428328792341, 38.129299221082306], [128.5627547540288, 38.28896718998402], [128.47445722731936, 38.42609284061217]]]]}}]}