{"type": "FeatureCollection", "features": [{"type": "Feature", "properties": {"code": "KWT", "name": "Kuwait", "tier": "country"}, "geometry": {"type": "MultiPolygon", "coordinates": [[[[48.3158494, 29.467798899999977], [48.295714900000014, 29.46783270000002], [48.2746815, 29.448663], [48.2671018, 29.429686799999956], [48.293847, 29.43229820000002], [48.3215389, 29.429793800000017], [48.3423057, 29.421726399999983], [48.35768310000001, 29.408614600000018], [48.387904100000014, 29.3924557], [48.402992199999986, 29.408270100000024], [48.375416099999974, 29.4297291], [48.357730899999964, 29.44917559999998], [48.3324804, 29.458389600000025], [48.3158494, 29.467798899999977]]], [[[48.0994253, 29.813536], [48.07720669999997, 29.8072624], [48.09733609999997, 29.804236700000033], [48.0994253, 29.813536]]], [[[48.05138990000003, 29.8232676], [48.056675600000034, 29.80385069999998], [48.05138990000003, 29.8232676]]], [[[48.05769750000003, 29.829320200000044], [48.07413789999998, 29.811435799999987], [48.0633101, 29.828931], [48.05769750000003, 29.829320200000044]]], [[[48.099425700000026, 29.844124], [48.099425700000026, 29.844124]]], [[[48.04089580000003, 29.84925019999998], [48.05430589999999, 29.8343852], [48.04089580000003, 29.84925019999998]]], [[[48.069798799999965, 29.86917290000002], [48.050751200000036, 29.86000919999996], [48.07554370000004, 29.84411090000001], [48.09518140000004, 29.848143199999956], [48.0774443, 29.85983229999998], [48.069798799999965, 29.86917290000002]]], [[[48.13256970000003, 29.8708096], [48.145807300000016, 29.851304500000044], [48.13256970000003, 29.8708096]]], [[[48.147917099999965, 29.880781300000027], [48.147917099999965, 29.880781300000027]]], [[[48.02764920000001, 29.88827810000001], [48.033090899999955, 29.868866299999965], [48.02764920000001, 29.88827810000001]]], [[[48.098820899999986, 29.966717899999963], [48.0841953, 29.95200060000003], [48.06597460000001, 29.9392583], [48.043560300000046, 29.938757], [48.06120970000002, 29.9206457], [48.0832817, 29.912525], [48.099020299999964, 29.8988644], [48.12205339999997, 29.898084], [48.130477500000026, 29.91806], [48.12015789999999, 29.943409800000033], [48.1014049, 29.959063700000012], [48.098820899999986, 29.966717899999963]]], [[[48.152083199999964, 29.9830465], [48.124707899999954, 29.98013780000002], [48.1056213, 29.96635350000001], [48.127546100000046, 29.9533388], [48.1496135, 29.94546479999998], [48.154682, 29.922954499999978], [48.169300200000045, 29.93817809999997], [48.20156570000002, 29.934754899999973], [48.21362749999997, 29.914960599999986], [48.200846, 29.897210300000012], [48.193152300000044, 29.876996899999988], [48.183635399999986, 29.85880059999997], [48.18176280000003, 29.830999199999965], [48.16149820000003, 29.8282516], [48.13980030000002, 29.83446639999996], [48.1189988, 29.8401829], [48.13585870000003, 29.827954799999958], [48.116256, 29.82277229999997], [48.09601239999996, 29.8245137], [48.109875900000034, 29.80888150000003], [48.1224971, 29.79013570000002], [48.10069670000003, 29.78991609999997], [48.0780723, 29.797771], [48.06495840000004, 29.77756020000002], [48.0925155, 29.76711689999996], [48.10670829999996, 29.74994919999996], [48.1218755, 29.73460050000001], [48.12679589999997, 29.7118304], [48.139702, 29.69283140000001], [48.15126429999998, 29.674316], [48.15595219999999, 29.64896859999997], [48.1690129, 29.6186589], [48.182887, 29.595819400000025], [48.2053967, 29.584856], [48.22694520000001, 29.581966400000017], [48.24669490000004, 29.591117800000035], [48.3162788, 29.651285], [48.3363276, 29.6722553], [48.34999830000001, 29.689753499999984], [48.36353240000001, 29.7126461], [48.376670400000016, 29.7452985], [48.37406579999998, 29.777381100000035], [48.37045640000003, 29.79710379999996], [48.34771540000004, 29.81001659999998], [48.36540160000004, 29.793146900000036], [48.343513600000016, 29.801705899999977], [48.32096939999996, 29.834669200000043], [48.31040950000002, 29.852998], [48.33033419999996, 29.86268], [48.303949, 29.8565027], [48.285235, 29.89126360000003], [48.25970959999996, 29.9130993], [48.245129800000036, 29.92821859999997], [48.22586140000004, 29.941952100000037], [48.17554760000004, 29.97815430000004], [48.15534009999997, 29.98273089999999], [48.152083199999964, 29.9830465]]], [[[48.094381099999985, 30.01777], [48.06848250000004, 30.014624800000036], [48.045485700000015, 30.003314900000035], [48.03302080000002, 29.9855563], [48.02157680000003, 29.968334], [48.051982600000045, 29.9633639], [48.066926, 29.977191499999957], [48.0868015, 29.9840588], [48.098398300000014, 30.001536399999964], [48.12233689999998, 30.000906100000037], [48.155377300000026, 30.0072797], [48.13293880000002, 30.012190300000043], [48.112800900000025, 30.014063100000012], [48.094381099999985, 30.01777]]], [[[47.47839949999996, 30.103699299999988], [47.371192899999976, 30.103568299999985], [47.33883569999996, 30.091035499999965], [47.305167700000034, 30.068672], [47.28747739999996, 30.058729700000033], [47.2683736, 30.052000599999975], [47.24760360000001, 30.04861250000004], [47.22713349999998, 30.043211199999977], [47.18955279999996, 30.028350399999983], [47.17251890000002, 30.017378300000043], [47.155585699999975, 30.0003282], [47.13935729999998, 29.986795899999976], [47.12371250000004, 29.953356300000024], [47.104349699999965, 29.92147639999998], [47.08150779999997, 29.851257299999958], [47.06261590000004, 29.819258500000025], [47.048420699999966, 29.7854767], [47.03106580000002, 29.75228419999998], [47.00694870000003, 29.722137199999967], [47.003197399999976, 29.6835029], [46.99812180000004, 29.663421599999975], [46.977272, 29.6351397], [46.95482849999996, 29.604365599999973], [46.93897670000004, 29.57099289999996], [46.918775, 29.53953119999997], [46.90439359999998, 29.5251108], [46.89233859999997, 29.4904351], [46.876588899999966, 29.455192700000012], [46.866208300000025, 29.43736170000002], [46.826199600000024, 29.3959391], [46.797768400000045, 29.369288900000036], [46.7665229, 29.321602900000034], [46.727591799999985, 29.279775099999974], [46.703131099999986, 29.25058669999996], [46.68433, 29.222605700000017], [46.660501799999956, 29.1958691], [46.62766140000002, 29.16881239999998], [46.609297, 29.158943], [46.56678480000002, 29.119607], [46.5526837, 29.1002727], [46.7827437, 29.076128800000014], [46.842666600000044, 29.07130619999996], [47.46574740000002, 29.0003021], [47.491985800000016, 28.9741087], [47.51377959999998, 28.931195700000025], [47.54310790000002, 28.898680800000022], [47.56465870000003, 28.862111500000022], [47.58714, 28.83671739999998], [47.595066500000044, 28.799002699999978], [47.60002709999997, 28.758889400000022], [47.59390810000003, 28.72756209999996], [47.59568870000001, 28.688512800000023], [47.60587480000002, 28.65527579999996], [47.63896530000004, 28.630190499999976], [47.65377570000004, 28.596354299999984], [47.709038399999976, 28.543086399999986], [48.43052237951703, 28.534353102252965], [48.41691139999997, 28.5550415], [48.40268120000001, 28.571225], [48.39799160000004, 28.59607489999996], [48.389980300000026, 28.6153847], [48.3879564, 28.635439200000025], [48.392020100000046, 28.6591343], [48.38171590000004, 28.68413], [48.3815588, 28.7067022], [48.3963509, 28.7442719], [48.36846930000002, 28.741592299999976], [48.33762280000004, 28.750115399999967], [48.3115546, 28.765539], [48.28553650000002, 28.79561240000004], [48.281221400000035, 28.826890799999962], [48.28049260000004, 28.854898900000016], [48.28991579999999, 28.880026500000035], [48.2593719, 28.8863498], [48.2348198, 28.897930799999962], [48.214797599999976, 28.914742399999984], [48.20433830000001, 28.939719299999968], [48.18506140000002, 28.955513099999976], [48.174417, 28.97611269999998], [48.1599156, 29.014624899999976], [48.15733909999999, 29.037130899999976], [48.152118699999974, 29.058932699999975], [48.1425008, 29.07726890000002], [48.139209200000046, 29.103871599999966], [48.152062600000036, 29.124741], [48.13224030000004, 29.144588799999973], [48.12441939999998, 29.163249100000012], [48.117058100000015, 29.188257700000044], [48.107197600000035, 29.215680100000043], [48.10072010000001, 29.237343100000015], [48.0909086, 29.2635233], [48.088642299999975, 29.29253], [48.09165239999999, 29.322334800000018], [48.09892169999998, 29.343211500000034], [48.07051489999998, 29.34317580000001], [48.05002440000003, 29.343138600000042], [48.03148619999997, 29.35278020000003], [48.01587360000003, 29.368698500000036], [48.003666699999975, 29.3889294], [47.980891299999975, 29.386468899999986], [47.9601643, 29.369423900000015], [47.94287970000001, 29.3566056], [47.9250055, 29.346612300000043], [47.90732439999998, 29.3593901], [47.90562380000004, 29.33788390000003], [47.8862969, 29.32540050000001], [47.86565, 29.32362320000004], [47.8403649, 29.3224719], [47.821509399999975, 29.339373199999976], [47.817436, 29.36189370000002], [47.8322678, 29.3756122], [47.850131300000015, 29.3863166], [47.8218811, 29.379348200000035], [47.80385280000003, 29.370508699999977], [47.792899100000014, 29.3872517], [47.77375850000002, 29.369967], [47.75170809999997, 29.3713592], [47.733012, 29.359593500000038], [47.70546469999996, 29.358658400000028], [47.7006894, 29.3793575], [47.71803829999998, 29.396491499999968], [47.74066649999997, 29.40475760000001], [47.7640724, 29.416379900000013], [47.7853557, 29.439640900000043], [47.80083630000002, 29.46558739999996], [47.8188142, 29.4777125], [47.849937, 29.506597699999972], [47.878793600000016, 29.5237283], [47.90025850000003, 29.53296990000003], [47.9199302, 29.543322699999976], [47.941554, 29.557317199999968], [47.9633493, 29.565785599999963], [47.9962119, 29.577971100000024], [48.02797130000002, 29.577915400000034], [48.0859504, 29.5659642], [48.1162807, 29.554031100000035], [48.1402027, 29.5397676], [48.165080699999976, 29.5541821], [48.14449729999998, 29.543844900000018], [48.1609513, 29.52311919999997], [48.18836330000002, 29.54683760000001], [48.179871200000015, 29.566719799999987], [48.161820699999986, 29.5866304], [48.15496720000002, 29.605505599999972], [48.144303800000046, 29.62378419999996], [48.132073800000036, 29.651394799999988], [48.11781459999999, 29.677405599999986], [48.106785, 29.699529900000023], [48.10610670000001, 29.729886699999987], [48.08848830000002, 29.74338040000002], [48.071329, 29.756110400000015], [48.0529225, 29.7659827], [48.042870900000025, 29.7922329], [48.0273636, 29.818359100000038], [48.01914819999999, 29.836937200000026], [48.0096708, 29.872963899999984], [48.0123094, 29.898212599999987], [48.00692740000002, 29.93510230000003], [47.99938860000003, 29.960119299999956], [48.007887399999966, 29.98678629999998], [47.98322389999998, 29.9934655], [47.98559560000001, 29.97214119999998], [47.96584029999997, 29.981068099999987], [47.956560199999956, 29.999745099999988], [47.7076035, 30.10369249999996], [47.47839949999996, 30.103699299999988]]]]}}]}