{"type": "FeatureCollection", "features": [{"type": "Feature", "properties": {"code": "LAO", "name": "Lao People's Democratic Repub*", "tier": "country"}, "geometry": {"type": "Polygon", "coordinates": [[[101.790307, 22.493486], [101.734357, 22.496985], [101.685783, 22.477138], [101.671135, 22.429265], [101.67793, 22.376], [101.643601, 22.320086], [101.607611, 22.269563], [101.552794, 22.266402], [101.563415, 22.216862], [101.589237, 22.172986], [101.576502, 22.119674], [101.595529, 22.069616], [101.618835, 22.022672], [101.620435, 21.970027], [101.663921, 21.938665], [101.705489, 21.894442], [101.739454, 21.848252], [101.784932, 21.824314], [101.760416, 21.763078], [101.772855, 21.702043], [101.782185, 21.647616], [101.832448, 21.617363], [101.80352, 21.57656], [101.75463, 21.587111], [101.758536, 21.531415], [101.738068, 21.485207], [101.756393, 21.437222], [101.738502, 21.388243], [101.732138, 21.33729], [101.758753, 21.29421], [101.805256, 21.2689], [101.83567, 21.228014], [101.781194, 21.220165], [101.78211, 21.166277], [101.73269, 21.147029], [101.686897, 21.180858], [101.632274, 21.199294], [101.601464, 21.241445], [101.552056, 21.25435], [101.500016, 21.248781], [101.446924, 21.226246], [101.396463, 21.227863], [101.351031, 21.20574], [101.301248, 21.1784], [101.253442, 21.200418], [101.218409, 21.237876], [101.245958, 21.288986], [101.24663, 21.339863], [101.233024, 21.390818], [101.18834, 21.415093], [101.190859, 21.474889], [101.208789, 21.525536], [101.174139, 21.562119], [101.14541529999995, 21.51785970000003], [101.1064204, 21.480576799999966], [101.05888729999994, 21.455031600000034], [101.01939420000005, 21.405281899999984], [100.96946790000005, 21.38548749999999], [100.919849, 21.3571903], [100.8757024, 21.32805910000001], [100.82955370000002, 21.297880699999972], [100.77614980000004, 21.29883819999997], [100.728121, 21.314987100000053], [100.71019060000006, 21.256037599999978], [100.69961490000006, 21.18506389999996], [100.673552, 21.12846160000003], [100.64313309999997, 21.08351830000003], [100.60505019999997, 21.03857690000001], [100.545999, 21.02466630000003], [100.52503839999997, 20.962264300000022], [100.5157652, 20.907750399999962], [100.55907590000001, 20.873572799999963], [100.61241570000001, 20.89168920000003], [100.6077977, 20.84105059999998], [100.54359930000005, 20.82455249999996], [100.494094, 20.815050499999977], [100.43961160000003, 20.823612199999964], [100.38428219999999, 20.831381700000044], [100.3454192, 20.79792559999997], [100.29649619999998, 20.780204700000027], [100.25539879999995, 20.7510772], [100.222778, 20.706389], [100.19049159999997, 20.661916700000027], [100.168611, 20.614167], [100.15411320000004, 20.565752400000015], [100.13894559999999, 20.51313539999996], [100.12205960000001, 20.44401130000003], [100.10144339999998, 20.377640600000014], [100.093912, 20.327048], [100.090593, 20.275865], [100.153201, 20.244616], [100.167476, 20.298123], [100.217636, 20.314395], [100.246994, 20.369212], [100.299015, 20.397153], [100.35149, 20.38045], [100.376653, 20.335715], [100.405757, 20.282049], [100.453352, 20.230164], [100.481381, 20.182867], [100.518051, 20.143908], [100.560049, 20.175811], [100.572138, 20.126883], [100.560945, 20.077046], [100.545632, 20.026879], [100.529066, 19.971251], [100.519842, 19.914445], [100.496559, 19.864583], [100.449278, 19.847301], [100.438173, 19.790989], [100.403966, 19.752539], [100.439785, 19.711197], [100.442561, 19.652489], [100.478023, 19.612634], [100.480709, 19.558639], [100.519753, 19.522253], [100.574332, 19.49939], [100.610913, 19.533912], [100.657747, 19.551773], [100.708253, 19.535401], [100.75296, 19.510243], [100.812197, 19.523391], [100.847883, 19.568208], [100.882987, 19.60608], [100.929777, 19.625264], [100.982208, 19.627373], [101.035342, 19.628509], [101.080287, 19.603685], [101.1228, 19.572127], [101.179136, 19.578156], [101.224914, 19.604776], [101.274512, 19.586174], [101.284654, 19.534539], [101.269893, 19.484731], [101.219732, 19.474258], [101.208721, 19.423483], [101.198803, 19.370118], [101.240114, 19.328625], [101.243192, 19.267808], [101.253587, 19.210839], [101.254955, 19.157347], [101.284296, 19.11055], [101.325333, 19.080173], [101.345441, 19.025798], [101.305259, 18.988203], [101.290691, 18.935217], [101.245758, 18.88864], [101.245951, 18.838537], [101.250007, 18.786798], [101.224287, 18.734136], [101.267568, 18.698299], [101.241212, 18.650544], [101.202331, 18.617947], [101.18173, 18.568292], [101.141882, 18.537927], [101.098649, 18.510599], [101.074276, 18.466368], [101.069247, 18.409302], [101.106049, 18.374606], [101.148508, 18.34652], [101.148363, 18.294634], [101.159631, 18.245105], [101.184101, 18.196564], [101.168529, 18.139986], [101.174284, 18.089392], [101.160646, 18.029867], [101.117385, 17.975888], [101.090009, 17.929197], [101.043731, 17.909675], [101.034573, 17.860105], [100.998623, 17.820795], [100.998572, 17.770252], [101.002846, 17.716779], [100.991315, 17.667023], [100.98782890000001, 17.6119432], [100.998738, 17.56271740000005], [101.04593869999998, 17.545206800000013], [101.08005479999994, 17.50253120000006], [101.12675469999998, 17.481778900000034], [101.17753579999993, 17.4951751], [101.22040449999996, 17.534468400000048], [101.249949, 17.5756196], [101.28812539999996, 17.62304530000004], [101.33250470000002, 17.65442410000001], [101.37895479999999, 17.682607299999987], [101.42147789999993, 17.71221], [101.46471289999998, 17.746285200000045], [101.52248919999997, 17.77326650000005], [101.57464049999996, 17.78459750000002], [101.564541, 17.841148], [101.61199, 17.877421], [101.669313, 17.902805], [101.723795, 17.911528], [101.74276, 17.974627], [101.755263, 18.02939], [101.786801, 18.071433], [101.834961, 18.051559], [101.880279, 18.027095], [101.93675, 18.071498], [101.968785, 18.110983], [102.01844, 18.147833], [102.04496, 18.198412], [102.112091, 18.21072], [102.163325, 18.204438], [102.182694, 18.152962], [102.248854, 18.097768], [102.286273, 18.060587], [102.346463, 18.044625], [102.40325, 18.001931], [102.460039, 17.971035], [102.526527, 17.96359], [102.589007, 17.962308], [102.613374, 17.910321], [102.593103, 17.861155], [102.637811, 17.831283], [102.68245, 17.80327], [102.679187, 17.856731], [102.740279, 17.883526], [102.779224, 17.926711], [102.833615, 17.951878], [102.898788, 17.98064], [102.953897, 18.004702], [103.008827, 17.976327], [103.057706, 17.999945], [103.081067, 18.049559], [103.078731, 18.106751], [103.136057, 18.160459], [103.150313, 18.220804], [103.182301, 18.265776], [103.241484, 18.283973], [103.294796, 18.300318], [103.258196, 18.334612], [103.28042, 18.400378], [103.334271, 18.432957], [103.400762, 18.447947], [103.457189, 18.424882], [103.524159, 18.425614], [103.571144, 18.404961], [103.628212, 18.39284], [103.674127, 18.361731], [103.746304, 18.343828], [103.818088, 18.338251], [103.850563, 18.290069], [103.910763, 18.318229], [103.962744, 18.339348], [104.000071, 18.301132], [104.06057, 18.218574], [104.086313, 18.165181], [104.105323, 18.115444], [104.15473, 18.059765], [104.195325, 18.016429], [104.227011, 17.97556], [104.271171, 17.869779], [104.335034, 17.837048], [104.393452, 17.761347], [104.438799, 17.696617], [104.471869, 17.651817], [104.51692, 17.627223], [104.605635, 17.578217], [104.672964, 17.541188], [104.723461, 17.504159], [104.74653, 17.456803], [104.796036, 17.401765], [104.80564, 17.300007], [104.806605, 17.240214], [104.801488, 17.164734], [104.783351, 17.115989], [104.751548, 17.055999], [104.729525, 17.008272], [104.735743, 16.946487], [104.744617, 16.891462], [104.757184, 16.83877], [104.745977, 16.765323], [104.758932, 16.716698], [104.74397, 16.637451], [104.733866, 16.571959], [104.767935, 16.499947], [104.830181, 16.46472], [104.863021, 16.416752], [104.884136, 16.370698], [104.928052, 16.332839], [104.957523, 16.29163], [105.014911, 16.243842], [105.012126, 16.19103], [105.032141, 16.144916], [105.05805, 16.099042], [105.119778, 16.077212], [105.211107, 16.049639], [105.262536, 16.043898], [105.312086, 16.029603], [105.364358, 16.020692], [105.41786, 16.012139], [105.374569, 15.980437], [105.347836, 15.931877], [105.371063, 15.865431], [105.390433, 15.808696], [105.431978, 15.757142], [105.495611, 15.766287], [105.550828, 15.750345], [105.59588, 15.724528], [105.626469, 15.67621], [105.628573, 15.605232], [105.607888, 15.546231], [105.60264, 15.478627], [105.588905, 15.420478], [105.540228, 15.392179], [105.476975, 15.369923], [105.496221, 15.320747], [105.553215, 15.321348], [105.591615, 15.278211], [105.548169, 15.253191], [105.51173, 15.216873], [105.476133, 15.180206], [105.46654089999998, 15.130768900000014], [105.515281, 15.084618], [105.551906, 15.047262], [105.573115, 15.000847], [105.619294, 14.979793], [105.583229, 14.941315], [105.579959, 14.87894], [105.553705, 14.835114], [105.511194, 14.799139], [105.52119, 14.749141], [105.515211, 14.696253], [105.528151, 14.647161], [105.528945, 14.595222], [105.524087, 14.541256], [105.483281, 14.505898], [105.457822, 14.461899], [105.429139, 14.416089], [105.37607, 14.397799], [105.321881, 14.398101], [105.281332, 14.353714], [105.233587, 14.336846], [105.22409079999997, 14.28476], [105.24900889999996, 14.237546499999965], [105.27492920000003, 14.184602400000024], [105.320521, 14.1629677], [105.3507285, 14.1217482], [105.39807049999996, 14.101197400000032], [105.4545035, 14.101796300000025], [105.498976, 14.1290337], [105.5454044, 14.155707100000015], [105.6000669, 14.148435199999987], [105.6321941, 14.10841], [105.68223880000002, 14.10884], [105.73696970000002, 14.094354], [105.786853, 14.082603299999963], [105.79266610000003, 14.023653899999989], [105.83355089999996, 13.987697900000018], [105.89389939999998, 13.9479122], [105.94651240000006, 13.934323700000018], [105.997507, 13.930699900000032], [106.06047459999998, 13.9188228], [106.10658540000004, 13.945175200000016], [106.12033669999998, 13.994112900000022], [106.16914820000002, 14.020446399999987], [106.17610339999996, 14.070435899999978], [106.12561579999996, 14.105624400000039], [106.11305229999998, 14.17317149999996], [106.0583623, 14.198375299999977], [106.031956, 14.242876199999966], [106.02337660000002, 14.299295400000023], [105.9947558, 14.349060700000027], [106.05028209999998, 14.3482337], [106.0954887, 14.3729339], [106.1514659, 14.368485], [106.2038729, 14.371781599999956], [106.23903579999998, 14.414515700000042], [106.24226, 14.465402899999969], [106.29352930000005, 14.468477099999955], [106.3416602, 14.44514640000002], [106.40465990000007, 14.449967200000014], [106.44002220000003, 14.487532199999976], [106.45976320000005, 14.540046100000026], [106.50130530000001, 14.58075240000002], [106.5535244, 14.5707497], [106.570492, 14.52104390000003], [106.61254009999996, 14.491798199999984], [106.6309214, 14.443561], [106.68512760000002, 14.43342860000002], [106.73591539999998, 14.4319587], [106.760814, 14.385526], [106.78649150000001, 14.34111920000002], [106.83223839999998, 14.311766099999968], [106.88557230000002, 14.313599300000035], [106.93673009999995, 14.324093400000038], [106.97728730000004, 14.359669899999961], [107.01546990000003, 14.396927499999979], [107.03705280000004, 14.443783799999988], [107.07882849999996, 14.409034300000013], [107.1322288, 14.40526670000003], [107.1757146, 14.433228299999968], [107.20350960000002, 14.478692199999966], [107.25831959999998, 14.4922889], [107.26486820000002, 14.543802], [107.2944286, 14.585119], [107.35009509999995, 14.577612], [107.38502859999996, 14.541275100000018], [107.4374866, 14.52404730000002], [107.45814360000006, 14.57664249999996], [107.47790750000001, 14.624793299999961], [107.5209774, 14.658182], [107.54981080000003, 14.699841100000011], [107.5420634, 14.750128799999985], [107.50571760000003, 14.78537219999997], [107.540895, 14.821886200000012], [107.5790019, 14.8545878], [107.5615636, 14.902630699999964], [107.51493049999998, 14.931108100000035], [107.48232960000006, 14.9714125], [107.47482260000002, 15.0210845], [107.52329140000005, 15.038549800000023], [107.57643149999996, 15.031920200000027], [107.61499540000005, 15.066216900000018], [107.61843789999996, 15.1196918], [107.61082079999997, 15.171115700000016], [107.62015009999996, 15.226123199999975], [107.6169795, 15.2777157], [107.62711570000005, 15.3273759], [107.60383540000002, 15.3717019], [107.55401010000003, 15.39698119999996], [107.526645, 15.442176400000019], [107.492729, 15.478924100000036], [107.44425320000006, 15.50243], [107.39217569999997, 15.495405299999987], [107.36933980000002, 15.54177619999998], [107.34882889999999, 15.587486600000034], [107.3169883, 15.626279299999968], [107.27355260000004, 15.6551018], [107.27655529999997, 15.707783199999959], [107.22333219999994, 15.74285280000004], [107.22606649999997, 15.796629200000012], [107.25674120000004, 15.84831090000004], [107.3082687, 15.867523599999956], [107.35144520000001, 15.894060399999955], [107.40493479999996, 15.89871279999996], [107.43401550000004, 15.960427600000038], [107.46379960000004, 16.01619740000001], [107.46056390000003, 16.07220490000002], [107.41121750000003, 16.084398899999986], [107.36543679999994, 16.0612489], [107.314147, 16.074068899999972], [107.283708, 16.118643], [107.24205359999998, 16.147590300000026], [107.1862697, 16.15201740000004], [107.14981660000002, 16.18792650000004], [107.1534017, 16.2418939], [107.09198460000005, 16.3076837], [107.03907119999998, 16.303030600000035], [106.98240789999997, 16.304466], [106.96488479999996, 16.3539162], [106.9177855, 16.37444290000002], [106.89790369999999, 16.4221039], [106.8773709, 16.4693197], [106.8865705, 16.521806], [106.84094179999997, 16.548715], [106.81909509999998, 16.50349130000003], [106.77916579999997, 16.46966160000004], [106.74583670000001, 16.423682699999976], [106.69589980000002, 16.439688700000044], [106.66143570000004, 16.48196980000004], [106.64771, 16.5405829], [106.64884219999996, 16.59330419999997], [106.59771760000002, 16.60612850000004], [106.56454709999996, 16.64475379999998], [106.55129669999998, 16.694343700000037], [106.55132540000005, 16.865156899999956], [106.5169121, 16.906377], [106.54932249999997, 17.005153300000043], [106.50746969999997, 16.973490400000014], [106.46089650000003, 17.00067289999997], [106.414959, 17.0376246], [106.40793260000005, 17.088494099999963], [106.36990220000004, 17.1248106], [106.33764250000002, 17.16848139999997], [106.30425060000002, 17.20801869999996], [106.30792330000004, 17.270647], [106.26093030000001, 17.253460099999963], [106.20865970000001, 17.27016869999999], [106.16476990000005, 17.29943839999998], [106.11362749999996, 17.347614899999975], [105.86183439999998, 17.627344899999986], [105.81786640000003, 17.655627600000024], [105.768269, 17.674179100000032], [105.74369270000001, 17.720371099999966], [105.70104419999998, 17.76169560000004], [105.68421940000003, 17.819579200000025], [105.6498094, 17.86126370000004], [105.60874309999997, 17.89698959999998], [105.6276772, 17.9452093], [105.6413775, 17.99375130000004], [105.59331960000004, 18.00897309999997], [105.5804496, 18.061846899999956], [105.53870259999998, 18.0941981], [105.50328370000004, 18.133843200000033], [105.50005809999996, 18.189655], [105.45231720000002, 18.20501969999996], [105.4143167, 18.172340899999984], [105.3636099, 18.163930800000017], [105.31990629999999, 18.20038110000003], [105.33128750000002, 18.252704899999983], [105.28171719999999, 18.260767399999967], [105.24307269999997, 18.29639], [105.1933315, 18.318181199999984], [105.17846870000002, 18.3711777], [105.13802789999997, 18.408016199999977], [105.10346929999999, 18.447354], [105.11305390000005, 18.49668229999998], [105.12872949999996, 18.548199499999985], [105.15021289999999, 18.60519060000002], [105.19818, 18.6403308], [105.1521355, 18.678952299999974], [105.11570219999997, 18.715058799999962], [105.056414, 18.707868400000017], [105.01950420000001, 18.743463100000024], [104.96857430000001, 18.7408951], [104.92531609999999, 18.779488400000044], [104.87403709999998, 18.784521], [104.8100242, 18.781061], [104.7484787, 18.79964789999996], [104.7098033, 18.8353289], [104.66196909999998, 18.8560528], [104.617838, 18.891662099999962], [104.5621908, 18.938055300000023], [104.53052430000002, 18.982312199999985], [104.4818709, 19.00478990000004], [104.42952909999998, 19.00009469999996], [104.39767070000003, 19.040228], [104.34647169999997, 19.07272689999998], [104.2991039, 19.113529899999982], [104.24691280000002, 19.11214939999998], [104.222814, 19.15671630000001], [104.18327420000001, 19.19391370000002], [104.13447359999998, 19.206113899999966], [104.07641, 19.2399173], [103.9995569, 19.23252529999998], [103.9521394, 19.261412300000014], [103.91655610000005, 19.296733899999985], [103.95117370000004, 19.358081599999977], [103.98715370000004, 19.400227299999962], [104.04761419999998, 19.4266111], [104.0820689, 19.469162299999965], [104.12004739999998, 19.5040842], [104.10432940000003, 19.552992599999975], [104.07125530000003, 19.598687800000015], [104.05649239999997, 19.64859720000004], [104.10544309999997, 19.66197980000003], [104.154514, 19.672656899999986], [104.20715169999998, 19.702727299999967], [104.26018129999999, 19.7036079], [104.31574790000002, 19.6887214], [104.36640520000002, 19.695277599999972], [104.42319950000002, 19.700896700000026], [104.45030779999998, 19.6573207], [104.49916230000002, 19.640557100000045], [104.5543557, 19.6157919], [104.60761689999997, 19.635580300000022], [104.65414740000003, 19.655919599999983], [104.674993, 19.71045819999996], [104.71230529999997, 19.753757900000036], [104.7659054, 19.7648751], [104.81715169999998, 19.784187399999976], [104.84448570000004, 19.840264300000044], [104.84380549999999, 19.893275300000013], [104.86261029999999, 19.943259800000035], [104.90832089999996, 19.98275249999998], [104.93959430000001, 20.039797400000026], [104.97599740000003, 20.079624700000032], [104.9484685, 20.121697400000016], [104.90706790000003, 20.150434399999984], [104.85558270000001, 20.1474762], [104.80738060000003, 20.17797579999997], [104.7614462, 20.199232100000042], [104.71162770000004, 20.205140300000036], [104.66658750000002, 20.227534400000014], [104.61405749999996, 20.242782], [104.62276669999999, 20.294011599999962], [104.61869750000001, 20.34616739999996], [104.65449749999995, 20.38120809999996], [104.70620560000003, 20.3996783], [104.67736549999996, 20.4452712], [104.624838, 20.461228], [104.59843410000002, 20.416449100000012], [104.54801640000004, 20.408655299999968], [104.50026960000007, 20.382916299999987], [104.44721240000001, 20.379810100000018], [104.4060842, 20.413175200000023], [104.37999859999995, 20.4573603], [104.42110540000004, 20.491902599999968], [104.46910619999998, 20.513951399999975], [104.514922, 20.549494599999985], [104.54138149999996, 20.59851349999996], [104.5970619, 20.608463599999983], [104.6338697, 20.644779499999977], [104.5856779, 20.680471400000034], [104.55199790000005, 20.719064], [104.49937160000002, 20.712271400000038], [104.48383040000004, 20.7662784], [104.43334380000005, 20.795461899999957], [104.38418649999998, 20.82698490000005], [104.33745059999998, 20.8560855], [104.31263729999995, 20.9039283], [104.25759429999998, 20.89819230000004], [104.22591769999998, 20.93887439999999], [104.15544019999997, 20.95411690000003], [104.10723009999995, 20.97656480000002], [104.05294889999996, 20.949482900000042], [104.03186439999998, 20.901896700000037], [103.979975, 20.9078388], [103.9299554, 20.9017589], [103.874735, 20.88408270000003], [103.817125, 20.862881499999986], [103.78354779999997, 20.806386], [103.7907789, 20.750914899999973], [103.740135, 20.732760100000014], [103.74572420000001, 20.67855449999997], [103.6914696, 20.660293099999983], [103.65000749999999, 20.698509], [103.6100182, 20.7296094], [103.5577358, 20.7444852], [103.50683759999997, 20.75566440000002], [103.48500350000005, 20.81038590000003], [103.43284550000004, 20.7956858], [103.37454840000004, 20.794874799999967], [103.32298749999997, 20.8182755], [103.26884020000004, 20.82277159999996], [103.22677030000003, 20.851473], [103.2114295, 20.90102270000002], [103.16089839999998, 20.90690230000004], [103.109473, 20.900523500000013], [103.083589, 20.943798099999967], [103.06702030000002, 20.995155800000013], [103.0384768, 21.0380432], [102.99271690000002, 21.0616003], [102.96031590000003, 21.114209200000012], [102.93677610000002, 21.159298900000046], [102.908435, 21.2010277], [102.873526, 21.25347839999997], [102.82377749999998, 21.245614], [102.84410209999996, 21.29276889999997], [102.8972127, 21.3047156], [102.89677209999996, 21.356192300000025], [102.91993150000002, 21.407807400000046], [102.9422312, 21.4565802], [102.8925893, 21.43290140000004], [102.90934410000003, 21.481535], [102.94152170000001, 21.526776900000037], [102.9789432, 21.571806], [102.9902006, 21.622355299999974], [102.98995090000004, 21.68383360000003], [102.97722250000001, 21.73470010000002], [102.92308530000003, 21.725181199999966], [102.87758910000002, 21.702398499999987], [102.856466, 21.750055499999988], [102.85660220000003, 21.802428099999986], [102.82541119999996, 21.843409900000033], [102.81518119999997, 21.790772299999965], [102.8261374, 21.73538129999998], [102.78455640000003, 21.7028945], [102.749125, 21.664452], [102.69767560000004, 21.661467], [102.66071970000003, 21.699759799999974], [102.64895619999999, 21.762390800000013], [102.65072450000001, 21.825536099999965], [102.6154807, 21.872356], [102.60320970000005, 21.924974499999983], [102.54791160000002, 21.952776599999957], [102.5032373, 21.976865800000034], [102.5189077, 22.0299657], [102.4744775, 22.05692710000004], [102.44097689999998, 22.100842299999968], [102.39014630000003, 22.126953500000013], [102.35897210000002, 22.167074299999967], [102.321581, 22.2027004], [102.274325, 22.2242843], [102.23700049999997, 22.258888], [102.2011915, 22.296063699999983], [102.1677386, 22.3494606], [102.14441, 22.399755], [102.110634, 22.436762], [102.057402, 22.449015], [101.999866, 22.443433], [101.949067, 22.439988], [101.912876, 22.401364], [101.863345, 22.392719], [101.827757, 22.428926], [101.808378, 22.47601], [101.790307, 22.493486]]]}}]}