{"type": "FeatureCollection", "features": [{"type": "Feature", "properties": {"code": "LBN", "name": "Republic of Lebanon", "tier": "country"}, "geometry": {"type": "Polygon", "coordinates": [[[36.383754615278065, 34.63219998342248], [36.364552611509, 34.643841078164655], [36.347493147107855, 34.662795934760084], [36.34997256373492, 34.68433934831364], [36.32075856782507, 34.68983512443441], [36.3002764304714, 34.66439193532614], [36.2959644015549, 34.636280095937536], [36.27154538180042, 34.62992567707886], [36.24422436658506, 34.63429683153004], [36.2246994996508, 34.62561106501266], [36.200828107568725, 34.63662423538034], [36.178427925852645, 34.63344732172624], [36.139181725166736, 34.63580335401514], [36.11324217621541, 34.63566476573311], [36.093029540669136, 34.62998244679454], [36.07146939608623, 34.62970525054834], [36.04468765398718, 34.629428053375705], [36.0231275094045, 34.635110410288746], [35.99264011745538, 34.646612526548324], [35.97545937724101, 34.63122981844157], [35.99078729253023, 34.58950199301563], [35.99099615643081, 34.547980725999196], [35.9820486964291, 34.52435917205753], [35.96221336341284, 34.51947418006762], [35.94453404485489, 34.50890385334543], [35.929549744369865, 34.49264602858199], [35.907472156317056, 34.47042009698674], [35.879461216474965, 34.46353749508836], [35.852795629654906, 34.45709876234457], [35.823905035914095, 34.45967644825288], [35.8048243079582, 34.44918743632894], [35.81409517012878, 34.42749411479696], [35.81467729403255, 34.4072609079945], [35.775351590313505, 34.38460301520854], [35.73830263786232, 34.37748557712712], [35.729747572491874, 34.353452638079034], [35.721054522196084, 34.32189182377891], [35.70500083853972, 34.30514168313533], [35.68333289323397, 34.31306662933275], [35.66899539708635, 34.29098177151411], [35.654583787941874, 34.27636294426458], [35.656605051496456, 34.255204008713406], [35.65087813809163, 34.215377372812895], [35.634606966476724, 34.19634306104331], [35.63266655346422, 34.17217622267282], [35.625875107920706, 34.147824032296796], [35.64064380696004, 34.134173030652846], [35.65002246985347, 34.113380014218365], [35.65047523288979, 34.08800739612326], [35.6395657997308, 34.05740088768022], [35.62598290864355, 34.03900094611663], [35.62479710069147, 34.01773779048574], [35.64281706953386, 34.005860267494256], [35.635361571537146, 33.98636938139822], [35.603344756831575, 33.971619545757164], [35.591378876588124, 33.9506972094141], [35.58135340935712, 33.91733601120745], [35.566584710317954, 33.90167947077663], [35.533058685491596, 33.904542595881935], [35.50772982763567, 33.90874763655245], [35.484755337568345, 33.904853954940336], [35.46934845824933, 33.88888370563262], [35.479589526926134, 33.86561375997974], [35.48227106990862, 33.8261522353929], [35.477891665540255, 33.794942798882175], [35.46475345243505, 33.76862286126351], [35.447860242224976, 33.74628821450318], [35.44235493911668, 33.71090575965485], [35.421305250761634, 33.693586281280204], [35.41691026088523, 33.65951445608056], [35.401874769203005, 33.64603599809885], [35.39901522409292, 33.614680066657854], [35.38923570357974, 33.59721091988371], [35.378724738755864, 33.572051783563154], [35.356826400717864, 33.5172238811773], [35.34071945653784, 33.50300411125073], [35.31847173997886, 33.477763205407655], [35.286790802453595, 33.45812740155844], [35.27598375374737, 33.4391048355198], [35.2645845383459, 33.40747367726857], [35.25496182302976, 33.38238296630101], [35.246523442902685, 33.34430047188937], [35.23468010180534, 33.3204285986011], [35.222392635012284, 33.30422168308428], [35.21380621298647, 33.277863551262044], [35.195597075644685, 33.26845684410819], [35.21128950250858, 33.2243803610649], [35.205219790960655, 33.20171442018443], [35.19189603177648, 33.18090117624831], [35.18020073257793, 33.16243767196107], [35.159919010454075, 33.149919931959346], [35.15056277145487, 33.13088458565517], [35.120717551673806, 33.114141572575534], [35.10694781688835, 33.092381985540214], [35.14411367730446, 33.08982422550764], [35.17224966628913, 33.08991454262218], [35.19230060079212, 33.082327583051494], [35.20890191129422, 33.09415934088099], [35.23358827717726, 33.09027580928125], [35.27432832669098, 33.09412321601366], [35.295578005320806, 33.10209927356266], [35.31806954777102, 33.09759115586877], [35.32731453776819, 33.07730176570897], [35.343941721270426, 33.058684590266466], [35.37595422394702, 33.0499528192388], [35.41038146281687, 33.057123343793364], [35.433235216074536, 33.061008338716306], [35.444877694149284, 33.08025008743704], [35.48547140387166, 33.08966052519514], [35.50618935530679, 33.086979189309716], [35.5055156007885, 33.11139044069148], [35.52572823633494, 33.11590507358494], [35.528841521212655, 33.13694268506981], [35.53852957218089, 33.16597371364452], [35.54425648558572, 33.18627510060571], [35.53852957218089, 33.21009503440075], [35.55032027624958, 33.24222053287622], [35.5622726814027, 33.26324225387975], [35.568632924054725, 33.2853234161214], [35.58814485490211, 33.266306912140465], [35.619299263824246, 33.24377014889586], [35.625913916182355, 33.26383356102241], [35.64550777557906, 33.27813908924469], [35.690559853699426, 33.29394166520092], [35.70985187107203, 33.303434811138345], [35.72257235637585, 33.326046248324246], [35.74402470023591, 33.32379437614435], [35.779059935182886, 33.33424257161988], [35.79964987325957, 33.346310479039914], [35.81883840193825, 33.36332878911668], [35.82045541278188, 33.38628472715635], [35.86400690483919, 33.4189527264997], [35.88435968132541, 33.42619022045392], [35.90064190251434, 33.443232476795174], [35.92049448364605, 33.45475641284486], [35.93871280581868, 33.46752701614855], [35.936772392806176, 33.489915996558636], [35.93289156678122, 33.51337775192752], [35.96684879449907, 33.53404759001347], [35.986360725346685, 33.54869322300783], [36.0114782937855, 33.544290808949825], [36.033233827178606, 33.5524384675673], [36.05041456739309, 33.57040439928613], [36.05277270820676, 33.5921550158738], [36.0347497748445, 33.60492217839317], [36.00712583959785, 33.62245640797306], [35.977521066067425, 33.63274523548148], [35.95747013160553, 33.63507884434705], [35.93752699786643, 33.6404638542478], [35.9445340448558, 33.661192998081106], [35.963614772811695, 33.67743182539482], [35.96027295040125, 33.70299503421711], [35.9424513348892, 33.71769088416028], [35.98046618181763, 33.74115885271897], [36.00233679248237, 33.759343547472724], [36.02179266695384, 33.766570462260745], [36.04058448897217, 33.78241663728568], [36.05697019885514, 33.813591456365714], [36.08025515500452, 33.815741025318744], [36.104618118383144, 33.82639850673735], [36.13135269766593, 33.83562197711632], [36.142456172126, 33.85854201971688], [36.173826182494, 33.84233747016117], [36.19506292490803, 33.83589060696977], [36.21877908394913, 33.84502351961953], [36.23635060178418, 33.857825861463425], [36.26017456154807, 33.85531926028278], [36.295140804032485, 33.84224435226554], [36.31480365589209, 33.836341903222774], [36.34102079170481, 33.834106888934116], [36.38117440497575, 33.83353379893356], [36.378621683857205, 33.85834507679567], [36.36171853050428, 33.88715836748952], [36.33767879681312, 33.89531826480044], [36.317544036509105, 33.898580172638844], [36.295289827751674, 33.89553817262197], [36.274080854803856, 33.88861524244709], [36.287555945168265, 33.9233294681876], [36.30782248107607, 33.95364810697066], [36.3211897707173, 33.97001031796759], [36.33951589361277, 33.984045334735754], [36.36351843540763, 33.99792819374443], [36.38441705072091, 34.03393758217959], [36.40280768156879, 34.0514197369468], [36.42205933835095, 34.05822411134443], [36.45161570935653, 34.04983059906914], [36.4752801240507, 34.04771551324535], [36.49722835123606, 34.06597425366397], [36.5067148148525, 34.087582431059275], [36.52329887806553, 34.121483651879714], [36.540409008806535, 34.13513313397556], [36.56821297126038, 34.15077878225952], [36.582770380882664, 34.17504093431211], [36.594464603304345, 34.191617249817966], [36.614731139212324, 34.20097944861942], [36.61419213559759, 34.233337897128195], [36.5968362192084, 34.26024922769142], [36.58670295125455, 34.284048778471515], [36.57414632304943, 34.30131963276472], [36.55360812931991, 34.312977589149], [36.546708883053384, 34.339952443640925], [36.530151209457244, 34.3689210738321], [36.55673435028433, 34.396633668424215], [36.56115417992385, 34.42233667715004], [36.5375803178369, 34.426612037672555], [36.51384691068023, 34.438732669692], [36.49542592314856, 34.45483388849931], [36.46955374964915, 34.46239982028635], [36.44830407114847, 34.48128321436889], [36.45058082241633, 34.50567741595228], [36.42289828669658, 34.512033520401076], [36.40207912116267, 34.50016233509092], [36.3782077290806, 34.503232631316905], [36.350334774164025, 34.508406393169594], [36.36366325554502, 34.5245368027318], [36.38112697265706, 34.53661479978996], [36.40096230567332, 34.54922378001396], [36.397728283985884, 34.576299990278585], [36.40511478951987, 34.600400163367226], [36.42620114992536, 34.60461515597211], [36.44961411943342, 34.59255257766807], [36.45955199857701, 34.61002194996388], [36.4627523325384, 34.63663487884543], [36.422327061445685, 34.626240219324586], [36.39975628508557, 34.637604980611115], [36.383754615278065, 34.63219998342248]]]}}]}