{"type": "FeatureCollection", "features": [{"type": "Feature", "properties": {"code": "LBR", "name": "Liberia", "tier": "country"}, "geometry": {"type": "Polygon", "coordinates": [[[-9.75015538699995, 8.545153782000057], [-9.77490309999996, 8.549830821000057], [-9.785946059999958, 8.532646073000024], [-9.790891064999926, 8.507098904000031], [-9.832187104999946, 8.50087725800006], [-9.842723977999981, 8.482531221000045], [-9.853921162999939, 8.499586592000071], [-9.878732810999963, 8.496712389000038], [-9.915963954999938, 8.49869943300007], [-9.934766529999933, 8.490861500000051], [-9.951307596999982, 8.478135946000066], [-9.967588840999952, 8.461845936000032], [-9.989542402999973, 8.450018471000021], [-10.009837395999966, 8.441344332000028], [-10.034050453999953, 8.434731129000056], [-10.057677050999928, 8.427206936000061], [-10.05426904899997, 8.460047082000074], [-10.046258894999937, 8.484857328000032], [-10.054470897999977, 8.503571821000037], [-10.074665963999962, 8.518439965000027], [-10.096310714999959, 8.515560673000039], [-10.115924432999975, 8.530344941000067], [-10.136381513999936, 8.52000524400006], [-10.158224521999955, 8.527899607000052], [-10.192037691999928, 8.501351381000063], [-10.205130234999956, 8.48058527400002], [-10.22978347399993, 8.482332276000022], [-10.253039679999972, 8.489802036000071], [-10.27503146099997, 8.492383756000038], [-10.277541376999977, 8.470738615000073], [-10.274641650999968, 8.449857185000042], [-10.28047208199996, 8.425216969000076], [-10.279147695999939, 8.402257783000039], [-10.290235363999955, 8.381662525000024], [-10.295571564999932, 8.359013406000031], [-10.289259490999939, 8.338060039000027], [-10.296601701999975, 8.318057474000057], [-10.300862250999955, 8.297484478000058], [-10.32004457499994, 8.284571710000023], [-10.311153222999963, 8.263544616000047], [-10.30883027699997, 8.24042319800003], [-10.295370483999932, 8.221316733000037], [-10.301116342999933, 8.197091206000039], [-10.32063878699995, 8.187660175000076], [-10.333899515999974, 8.172031349000065], [-10.350881991999927, 8.150172748000045], [-10.370884831999945, 8.160716432000072], [-10.39041691899996, 8.155261968000048], [-10.420680113999936, 8.149685551000061], [-10.443158428999936, 8.15424848500004], [-10.466039482999975, 8.155077978000065], [-10.484559669999953, 8.146472693000021], [-10.506503776999978, 8.141749620000041], [-10.525923173999956, 8.129408813000055], [-10.531081177999965, 8.107588804000045], [-10.544734437999978, 8.08888634400006], [-10.563445773999945, 8.066434423000032], [-10.577431073999946, 8.048227992000022], [-10.601362195999968, 8.042996019000043], [-10.607118638999964, 8.005258368000057], [-10.605452197999966, 7.775416498000027], [-10.630661188999966, 7.767100578000054], [-10.658203649999962, 7.763140418000035], [-10.697251533999975, 7.738327049000077], [-10.711304549999966, 7.710785643000065], [-10.727194890999954, 7.692227024000033], [-10.749244674999943, 7.669020003000071], [-10.76745438599994, 7.651735611000049], [-10.791527220999967, 7.620812946000058], [-10.791956993999975, 7.600262273000055], [-10.816133438999941, 7.595024622000039], [-10.819911773999934, 7.575230403000035], [-10.836335812999948, 7.563346263000028], [-10.858883772999945, 7.539106426000046], [-10.88580613399995, 7.523998972000072], [-10.903785381999967, 7.510529408000025], [-10.923953205999965, 7.499658642000043], [-10.956708038999977, 7.498122402000035], [-10.97579568599997, 7.480123794000065], [-10.999910185999966, 7.456711105000068], [-11.025876278999931, 7.438680130000023], [-11.041318338999929, 7.424696393000033], [-11.06125407999997, 7.40321370700002], [-11.089250870999933, 7.39230137800007], [-11.114437391999957, 7.376879374000055], [-11.133900984999968, 7.348962601000039], [-11.14511175499996, 7.325781150000068], [-11.163659116999952, 7.307258968000042], [-11.180135205999932, 7.29292042000003], [-11.181267655999932, 7.268156416000068], [-11.20232809199996, 7.254730586000051], [-11.223031438999953, 7.250803860000076], [-11.247677910999926, 7.234511118000057], [-11.270344230999967, 7.240484713000058], [-11.285884842999963, 7.21449814500005], [-11.297638548999942, 7.197399331000042], [-11.313152918999947, 7.183932036000044], [-11.330120307999948, 7.165415281000037], [-11.333322004999957, 7.144533459000058], [-11.33849635699994, 7.117904486000043], [-11.335224462999975, 7.090448211000023], [-11.36198658799998, 7.081967009000039], [-11.377921801999946, 7.066758440000058], [-11.364428504999978, 7.050992359000077], [-11.371501956999964, 7.019323834000033], [-11.390939511999932, 7.008792726000024], [-11.400923374999934, 6.987356268000042], [-11.416168439999979, 6.974064037000062], [-11.421531784999956, 6.951086027000031], [-11.445141924999973, 6.940706637000062], [-11.460203031999981, 6.926024151000036], [-11.496928108999953, 6.928788449000024], [-11.477004768999961, 6.911680404000037], [-11.456625462999966, 6.890226704000042], [-11.410014685999954, 6.858646374000045], [-11.39356324299996, 6.838907171000074], [-11.37381384799994, 6.802665414000046], [-11.372472700999936, 6.777459787000055], [-11.363045872999976, 6.759140185000035], [-11.339528249999944, 6.758029497000052], [-11.312351192999927, 6.768531992000021], [-11.290935445999935, 6.772721280000042], [-11.271728451999934, 6.779035463000071], [-11.251676800999974, 6.783773368000027], [-11.229804142999967, 6.782336040000075], [-11.213400536999927, 6.759952662000046], [-11.207129111999961, 6.738766028000043], [-11.182486197999935, 6.712791801000037], [-11.196071934999964, 6.686619741000072], [-11.235014772999932, 6.682207722000044], [-11.254870831999938, 6.687793795000061], [-11.281411658999957, 6.706386762000022], [-11.302085371999965, 6.710650316000056], [-11.328016359999936, 6.730271319000053], [-11.34052864299997, 6.748391725000033], [-11.367733372999965, 6.755446516000063], [-11.38605158699994, 6.744357394000076], [-11.371419809999963, 6.721999200000027], [-11.35758982599998, 6.703287259000035], [-11.29607979399998, 6.678539310000076], [-11.26679652699994, 6.664416267000036], [-11.183429384999954, 6.63122958200006], [-11.110597466999934, 6.599546334000024], [-11.080621578999967, 6.584368348000055], [-11.051487442999928, 6.574677733000044], [-11.03120559499996, 6.578820280000059], [-11.013199129999975, 6.566819903000066], [-10.99468307799998, 6.552935640000044], [-10.960941443999957, 6.535037039000031], [-10.951374138999938, 6.552811524000049], [-10.958479828999941, 6.525538930000039], [-10.912792614999944, 6.495657522000045], [-10.893815079999968, 6.482000787000061], [-10.861948248999965, 6.45961679800007], [-10.836968697999964, 6.429050869000037], [-10.821237198999938, 6.415894404000028], [-10.801408832999925, 6.381797247000065], [-10.78430560199996, 6.394401261000041], [-10.744348718999959, 6.401895247000027], [-10.772106849999943, 6.39454235200003], [-10.77926438299994, 6.373352217000047], [-10.78430846599997, 6.393516842000054], [-10.798217518999934, 6.372872256000051], [-10.794870420999928, 6.345771955000032], [-10.804506337999953, 6.322788122000077], [-10.784265190999974, 6.326849430000038], [-10.761227634999955, 6.32800461100004], [-10.74403912899993, 6.31389929900007], [-10.726376615999982, 6.30333078700005], [-10.713609817999952, 6.280664428000023], [-10.735202537999953, 6.282875280000042], [-10.749210327999947, 6.297810222000066], [-10.766152402999978, 6.308944323000048], [-10.788502366999978, 6.297682123000072], [-10.797661638999955, 6.31566482900007], [-10.81713805399994, 6.321668715000044], [-10.80318873899995, 6.303556234000041], [-10.772387975999948, 6.283330983000042], [-10.713214148999953, 6.257121948000076], [-10.695673688999932, 6.234182495000027], [-10.673304953999946, 6.227915789000065], [-10.652944972999933, 6.22415723000006], [-10.628657054999962, 6.217585800000052], [-10.557532340999956, 6.198491776000026], [-10.533714561999943, 6.189593323000054], [-10.501864556999976, 6.181026084000052], [-10.39578843399994, 6.146060312000031], [-10.375661788999935, 6.129412707000029], [-10.363355092999939, 6.104889770000057], [-10.325775380999971, 6.087984514000027], [-10.284974359999978, 6.073925313000075], [-10.254550501999972, 6.060230391000061], [-10.225590349999948, 6.043884691000073], [-10.207967562999954, 6.019575674000066], [-10.186145546999967, 5.998606034000034], [-10.178222391999952, 5.977900064000039], [-10.150495803999945, 5.963359250000053], [-10.124789095999972, 5.955034208000029], [-10.09983951199996, 5.933479007000074], [-10.065496478999933, 5.911351930000023], [-10.053222974999926, 5.88952411300005], [-10.057929509999951, 5.868594486000063], [-10.022534438999969, 5.837701128000049], [-9.970309548999978, 5.784141489000035], [-9.940013905999933, 5.754525929000067], [-9.905149482999946, 5.724194656000066], [-9.859299852999982, 5.695282002000056], [-9.845889690999968, 5.676937318000057], [-9.799440525999955, 5.627969108000059], [-9.781814534999967, 5.60724067600006], [-9.728674087999934, 5.568618968000067], [-9.711063238999941, 5.552027355000064], [-9.692401616999973, 5.542706319000047], [-9.673288448999926, 5.526043292000054], [-9.653069379999977, 5.512272584000073], [-9.63263171799997, 5.501171552000073], [-9.592515898999977, 5.47405608300005], [-9.583811295999965, 5.447080327000037], [-9.570396228999925, 5.42626124800006], [-9.549298782999927, 5.416937303000054], [-9.518201981999937, 5.395384575000037], [-9.492212094999957, 5.372936017000029], [-9.48908686599998, 5.350913872000035], [-9.462201809999954, 5.314671194000027], [-9.444208604999972, 5.293548933000068], [-9.424444277999953, 5.277544624000029], [-9.408058817999972, 5.261920166000039], [-9.390202922999947, 5.245323078000069], [-9.372582674999933, 5.231257115000062], [-9.349788725999929, 5.210678959000063], [-9.317707488999929, 5.193919936000043], [-9.297250018999932, 5.18134798400007], [-9.283296457999938, 5.159918782000034], [-9.254002936999939, 5.129641240000069], [-9.231692073999966, 5.124057275000041], [-9.200632278999933, 5.105569863000028], [-9.17869967699994, 5.090056415000049], [-9.161036800999966, 5.078877258000034], [-9.14242050699994, 5.06913903800006], [-9.119030208999959, 5.05715703900006], [-9.069393162999972, 5.024417802000073], [-9.044135207999943, 5.01078392200003], [-9.04081863099998, 4.988773708000053], [-9.01127312899996, 4.977082112000062], [-8.918402270999934, 4.94943745300003], [-8.872078359999932, 4.929491944000063], [-8.85367767899993, 4.917327802000045], [-8.811361614999953, 4.879858578000039], [-8.795995323999932, 4.863567941000042], [-8.76179917199994, 4.839453220000053], [-8.726949772999944, 4.82923383900004], [-8.716135522999934, 4.807514259000072], [-8.675609924999947, 4.799892563000071], [-8.650140077999936, 4.789155909000044], [-8.611136129999977, 4.777369343000032], [-8.592222360999926, 4.765582131000031], [-8.560347043999968, 4.753548267000042], [-8.538523849999933, 4.742045354000027], [-8.516795285999933, 4.734972912000046], [-8.484404311999981, 4.712495682000053], [-8.469601980999926, 4.692119869000067], [-8.45123629799997, 4.681886187000032], [-8.431921583999952, 4.666872339000065], [-8.408428925999942, 4.655205903000024], [-8.35100188499996, 4.640403562000074], [-8.324321848999944, 4.630078697000044], [-8.30741794599993, 4.617469375000042], [-8.293392242999971, 4.600748629000066], [-8.268996432999927, 4.591154458000062], [-8.25492511899995, 4.574159475000044], [-8.23092913499994, 4.569384988000024], [-8.19895989899993, 4.560545236000053], [-8.154919203999953, 4.55497146700003], [-8.104619430999946, 4.547205103000067], [-8.063822131999927, 4.536971330000029], [-7.997349119999967, 4.523448536000046], [-7.951203248999946, 4.510087767000073], [-7.923759167999947, 4.492244166000035], [-7.864606249999952, 4.472130779000054], [-7.831958364999934, 4.456503260000034], [-7.817356810999968, 4.433165097000028], [-7.806351073999963, 4.415070750000041], [-7.786273541999947, 4.40378619400002], [-7.735708791999969, 4.383164754000063], [-7.695967499999938, 4.37029399000005], [-7.630602118999946, 4.363400098000056], [-7.610899644999961, 4.354004312000029], [-7.580824831999962, 4.361102242000072], [-7.532007250999925, 4.362030292000043], [-7.561165846999927, 4.385591994000038], [-7.566429889999938, 4.407171127000026], [-7.551975538999955, 4.427205849000075], [-7.563236966999966, 4.451163455000028], [-7.560017326999969, 4.480579295000041], [-7.556812684999954, 4.502356908000024], [-7.562714235999977, 4.52662693700006], [-7.560674671999948, 4.555076425000038], [-7.573748269999953, 4.584309361000066], [-7.549799463999932, 4.605561100000045], [-7.556438193999952, 4.636072240000033], [-7.572705735999932, 4.650197720000051], [-7.559546089999969, 4.667655560000071], [-7.57176968999994, 4.686575838000067], [-7.55809302199998, 4.705672970000023], [-7.558987135999928, 4.73514818700005], [-7.563664270999936, 4.764133057000038], [-7.565641366999955, 4.787171355000055], [-7.587541661999978, 4.794838140000024], [-7.593811218999974, 4.818237088000046], [-7.589137477999941, 4.84070048500007], [-7.584569890999944, 4.863084835000052], [-7.59228345799994, 4.88629759600002], [-7.593691418999981, 4.907220334000044], [-7.569940457999962, 4.906171103000077], [-7.549958085999947, 4.924213863000034], [-7.527122202999976, 4.918064872000059], [-7.53753043699993, 4.941495776000068], [-7.544364120999944, 4.966823679000072], [-7.540821576999974, 4.999682990000053], [-7.555041217999928, 5.020981481000035], [-7.545274377999931, 5.041815745000065], [-7.553415549999954, 5.06280467800002], [-7.560340311999937, 5.083679579000034], [-7.539951498999926, 5.096393241000044], [-7.518120353999961, 5.110434362000035], [-7.496998236999957, 5.110169862000021], [-7.482278565999934, 5.137974315000065], [-7.472591659999978, 5.15728428500006], [-7.470602805999931, 5.182412198000065], [-7.470695302999957, 5.204847348000044], [-7.481876597999928, 5.225827435000042], [-7.465353568999944, 5.238187355000036], [-7.466169732999958, 5.260892673000058], [-7.47435104799996, 5.280257660000075], [-7.45158347499995, 5.287043106000056], [-7.432219060999955, 5.297399209000048], [-7.421038033999935, 5.276846243000023], [-7.400918118999925, 5.287020790000042], [-7.395465415999979, 5.307498775000056], [-7.375557323999942, 5.323906023000063], [-7.384467050999945, 5.344783115000041], [-7.381635702999972, 5.373726097000031], [-7.401472432999981, 5.366839547000041], [-7.417857093999942, 5.379670273000045], [-7.433974639999974, 5.412474162000024], [-7.448944425999969, 5.431280749000052], [-7.422539361999952, 5.429361904000075], [-7.416313567999964, 5.449451210000063], [-7.423747392999928, 5.476481353000054], [-7.404860478999979, 5.493565045000025], [-7.395376182999939, 5.52472431800004], [-7.392476047999935, 5.552178216000073], [-7.397908148999932, 5.585086756000067], [-7.403030909999927, 5.622032225000055], [-7.40715187099994, 5.643424499000048], [-7.415810350999948, 5.670137490000059], [-7.424160651999955, 5.700587874000064], [-7.429479813999933, 5.720638440000073], [-7.436060925999925, 5.743158999000059], [-7.439426018999939, 5.768287641000029], [-7.463182571999937, 5.788463207000063], [-7.469751201999941, 5.816367384000046], [-7.474607370999934, 5.842547074000038], [-7.48915647299998, 5.817765416000043], [-7.507473126999969, 5.835906516000023], [-7.518987368999944, 5.857543306000025], [-7.54036799499994, 5.846683918000053], [-7.563391960999979, 5.864163462000022], [-7.576002530999972, 5.896344568000075], [-7.596098827999981, 5.891834754000058], [-7.613085206999926, 5.906681327000058], [-7.637571081999965, 5.908984746000044], [-7.658386766999968, 5.915839233000042], [-7.660991219999971, 5.950537393000047], [-7.671787389999963, 5.932469937000064], [-7.674529477999954, 5.909896564000064], [-7.705210238999939, 5.913632322000069], [-7.721303528999954, 5.929072328000075], [-7.743540727999971, 5.936001900000065], [-7.759709751999935, 5.951964747000034], [-7.765631463999966, 5.975455808000049], [-7.786457043999974, 5.980063352000059], [-7.794330625999976, 5.999520963000066], [-7.790473002999931, 6.021569886000066], [-7.771175214999971, 6.034387132000063], [-7.791451773999938, 6.051779545000045], [-7.791626193999946, 6.074136362000047], [-7.803008033999959, 6.095172263000052], [-7.827653200999976, 6.097768479000024], [-7.84726877199995, 6.077024304000076], [-7.85439923499996, 6.096031808000021], [-7.851860048999981, 6.130795144000047], [-7.849346519999926, 6.153296375000025], [-7.839295010999933, 6.171967785000049], [-7.843360621999977, 6.19194055600002], [-7.821837546999973, 6.194585044000064], [-7.843385464999926, 6.214746167000044], [-7.868732023999939, 6.241569360000028], [-7.884766988999957, 6.255735679000054], [-7.899676853999949, 6.272366771000065], [-7.916600894999931, 6.291020419000063], [-7.946550101999946, 6.299531124000055], [-7.963464404999968, 6.286853141000051], [-7.980625525999926, 6.300495937000051], [-7.998381023999968, 6.316382571000076], [-8.031194038999956, 6.314126920000035], [-8.06461289899994, 6.307383344000073], [-8.087484536999966, 6.305778815000053], [-8.102455625999937, 6.291447359000074], [-8.130496333999929, 6.281997880000063], [-8.161734343999967, 6.282198669000024], [-8.181150632999959, 6.291202934000069], [-8.19914366699993, 6.30327018600002], [-8.220064942999954, 6.306293092000033], [-8.245077184999957, 6.323454634000029], [-8.26675882099994, 6.318699473000038], [-8.276893090999977, 6.340400248000037], [-8.301167490999944, 6.353071285000055], [-8.333585184999947, 6.370463501000074], [-8.355045291999943, 6.36428376300006], [-8.375675113999932, 6.364907250000044], [-8.391388616999961, 6.351166364000051], [-8.40773773899997, 6.368908728000065], [-8.387539783999955, 6.382196454000052], [-8.395205118999968, 6.41099624800006], [-8.40407655699994, 6.432170171000053], [-8.435805441999946, 6.471167851000075], [-8.451339601999962, 6.48673959100006], [-8.465871069999935, 6.461778032000041], [-8.492860740999959, 6.461730447000036], [-8.50884128499996, 6.480891060000033], [-8.532240806999937, 6.483680070000048], [-8.556898631999957, 6.501650377000033], [-8.590020091999975, 6.50354741600006], [-8.597435151999946, 6.525038576000043], [-8.572274336999953, 6.523167406000027], [-8.555967690999978, 6.551650062000022], [-8.537818410999932, 6.569027702000028], [-8.533720682999956, 6.598260578000065], [-8.507810553999946, 6.601936533000071], [-8.497059719999982, 6.620059737000076], [-8.47631750599993, 6.635211401000049], [-8.451512580999974, 6.642216482000038], [-8.443978282999979, 6.667463611000073], [-8.421336733999965, 6.672330142000021], [-8.40477752399994, 6.68456666700007], [-8.412297955999975, 6.704117053000061], [-8.394794196999953, 6.71678051400005], [-8.378660045999936, 6.730130204000034], [-8.36800507199996, 6.74862934500004], [-8.35974955499995, 6.767473928000072], [-8.34792620099995, 6.78679405500003], [-8.33391076099997, 6.803230367000026], [-8.32236071099993, 6.821863717000042], [-8.316844187999948, 6.841876799000033], [-8.308471733999966, 6.863037803000054], [-8.329098544999965, 6.869868676000067], [-8.333461721999981, 6.889621463000026], [-8.311707782999974, 6.902755027000069], [-8.318570956999963, 6.926422484000057], [-8.323309671999937, 6.954856591000066], [-8.306758754999976, 6.972928400000058], [-8.287797431999934, 6.988327495000021], [-8.275467875999936, 7.006018188000041], [-8.292868393999981, 7.026854492000041], [-8.300846770999954, 7.066223642000068], [-8.305910248999965, 7.086814889000038], [-8.29767044099998, 7.140392271000053], [-8.278324466999948, 7.154019554000058], [-8.28213677399998, 7.177364974000056], [-8.304658167999946, 7.192295453000042], [-8.326218661999974, 7.207292510000059], [-8.338703073999966, 7.224746668000023], [-8.35628259699996, 7.237265658000069], [-8.357895781999957, 7.263422458000036], [-8.366114717999949, 7.285125815000072], [-8.382006967999928, 7.306881480000072], [-8.395071941999959, 7.32601031400003], [-8.399107532999949, 7.351716943000042], [-8.398281294999947, 7.393288182000049], [-8.402539677999926, 7.417512201000022], [-8.413408089999962, 7.43619850500005], [-8.406875319999926, 7.466669134000028], [-8.424908739999978, 7.477126772000076], [-8.453934447999927, 7.498416888000065], [-8.505649366999933, 7.50759471300006], [-8.519603576999941, 7.52853344600004], [-8.509335343999965, 7.557518877000064], [-8.50387199499994, 7.583958646000042], [-8.533167065999976, 7.606805914000063], [-8.548784200999933, 7.620607135000057], [-8.550956419999977, 7.649056737000024], [-8.555551296999965, 7.677124389000028], [-8.549364049999951, 7.697547587000031], [-8.577988921999975, 7.699883302000046], [-8.601111387999936, 7.699575847000062], [-8.674552579999954, 7.700241681000023], [-8.678752347999932, 7.679595557000027], [-8.700459138999975, 7.655309727000031], [-8.712856202999944, 7.638705363000042], [-8.707090001999973, 7.618519067000022], [-8.714988869999956, 7.58673974200002], [-8.719304187999967, 7.563745166000047], [-8.710546840999939, 7.54245846300006], [-8.709786514999962, 7.522078133000036], [-8.726138908999928, 7.497417738000024], [-8.739691406999953, 7.480049214000076], [-8.757754954999939, 7.465900728000065], [-8.77517219899994, 7.451751129000058], [-8.77668669999997, 7.431800423000027], [-8.788891539999952, 7.414804933000028], [-8.807700544999932, 7.406232436000039], [-8.829740363999974, 7.375670659000036], [-8.842640112999959, 7.358781248000071], [-8.846140521999928, 7.334647713000038], [-8.838627282999937, 7.313996339000028], [-8.839104865999957, 7.292744508000055], [-8.84683283399994, 7.272970198000053], [-8.863285968999946, 7.260572489000026], [-8.88577685499996, 7.26191975100005], [-8.905917735999935, 7.264270640000063], [-8.912963565999974, 7.283713833000036], [-8.934448581999959, 7.286399548000077], [-8.945193265999933, 7.268299662000061], [-8.967013945999952, 7.264949718000025], [-8.984050624999952, 7.25372132900003], [-9.013003324999943, 7.244922056000064], [-9.033143663999965, 7.240731101000051], [-9.042792672999951, 7.222712616000024], [-9.061671825999952, 7.208045395000056], [-9.081809620999934, 7.201338111000041], [-9.103627582999934, 7.205942562000075], [-9.105089670999973, 7.227242979000039], [-9.110481016999927, 7.249371259000043], [-9.123414955999976, 7.273802447000037], [-9.144653258999938, 7.272874057000024], [-9.172208958999931, 7.29176678400006], [-9.197613685999954, 7.313578240000027], [-9.20193229299997, 7.333400724000057], [-9.206251731999942, 7.354145242000072], [-9.20025891499995, 7.377506390000065], [-9.229051743999946, 7.389633080000067], [-9.256758736999927, 7.385161284000048], [-9.278919385999927, 7.374390945000073], [-9.290629921999937, 7.392055958000071], [-9.290494571999943, 7.420178535000048], [-9.311595895999972, 7.434455828000068], [-9.33422427599993, 7.430137022000054], [-9.355623906999938, 7.429966617000048], [-9.369773136999981, 7.412435961000028], [-9.385306406999973, 7.394442942000069], [-9.405160248999948, 7.389507937000076], [-9.402409531999979, 7.411639330000071], [-9.414432553999973, 7.42776389200003], [-9.433051990999957, 7.418833433000032], [-9.450281286999939, 7.405907778000028], [-9.468434419999937, 7.394363372000043], [-9.474878457999978, 7.374225773000035], [-9.475032571999975, 7.396578761000058], [-9.470569263999948, 7.417645391000065], [-9.464691820999974, 7.437304066000024], [-9.449253544999976, 7.450421278000022], [-9.435561511999936, 7.466438763000042], [-9.418965775999936, 7.487848647000021], [-9.414248628999928, 7.507339456000068], [-9.40263822999998, 7.531232172000045], [-9.39111087799995, 7.556533389000037], [-9.37833829699997, 7.584406619000049], [-9.365638796999974, 7.602411335000056], [-9.359678083999938, 7.630278289000046], [-9.376562474999957, 7.644608981000033], [-9.372759229999929, 7.667664777000027], [-9.375024628999938, 7.691626609000025], [-9.363657007999961, 7.715600761000076], [-9.35769060299998, 7.737994535000041], [-9.35479772399998, 7.757981274000031], [-9.35697649399998, 7.778377583000065], [-9.367053619999979, 7.798021393000056], [-9.390345989999958, 7.81093609800007], [-9.408181439999964, 7.837919229000022], [-9.425076412999942, 7.867427196000051], [-9.430810878999978, 7.892077867000069], [-9.427542654999968, 7.921184069000049], [-9.433612547999928, 7.945913393000069], [-9.418610551999961, 7.970779141000037], [-9.417639462999944, 7.998485395000046], [-9.402938106999954, 8.020131913000057], [-9.406786576999934, 8.042018936000034], [-9.40988468699993, 8.061833560000025], [-9.429854076999959, 8.06363742600007], [-9.454956316999926, 8.042714658000023], [-9.44202139999993, 8.082695852000029], [-9.455442854999944, 8.105649804000052], [-9.450641450999967, 8.127877579000028], [-9.45875228899996, 8.162445521000052], [-9.478497765999975, 8.181576393000057], [-9.498142843999972, 8.185533080000027], [-9.503333493999946, 8.210236242000065], [-9.500286674999927, 8.236027118000038], [-9.498238079999965, 8.261817284000074], [-9.50192646599993, 8.282376141000043], [-9.501374686999952, 8.306671943000026], [-9.520369535999976, 8.317758291000075], [-9.500909140999966, 8.333371904000046], [-9.481021108999926, 8.34127365200004], [-9.494208301999947, 8.36745931300004], [-9.515706215999955, 8.380201181000075], [-9.536352508999926, 8.378017567000029], [-9.555433212999958, 8.387858123000058], [-9.568779107999944, 8.404090612000061], [-9.592459634999955, 8.425614210000049], [-9.604506424999954, 8.407768952000026], [-9.626316970999937, 8.404418208000038], [-9.648120450999954, 8.39708600800003], [-9.655484562999959, 8.418963374000043], [-9.635024133999934, 8.433590232000029], [-9.621229252999967, 8.451356039000075], [-9.629924397999957, 8.472568643000045], [-9.652826713999957, 8.472614134000025], [-9.648030140999936, 8.492687400000023], [-9.668363900999964, 8.499783700000023], [-9.687747413999944, 8.487395444000072], [-9.699374686999931, 8.469465710000065], [-9.707579955999961, 8.447976031000053], [-9.721938273999967, 8.46685429300004], [-9.736463409999942, 8.48506793100006], [-9.75015538699995, 8.545153782000057]], [[-10.746118176999971, 6.389955971000063], [-10.750365914999975, 6.369891361000043], [-10.767002161999926, 6.355451144000028], [-10.766760912999928, 6.375595225000041], [-10.748620269999947, 6.38467369500006], [-10.746118176999971, 6.389955971000063]]]}}]}