{"type": "FeatureCollection", "features": [{"type": "Feature", "properties": {"code": "LBY", "name": "Libya", "tier": "country"}, "geometry": {"type": "Polygon", "coordinates": [[[11.505111802767544, 33.1812253152961], [11.477417846756282, 33.041214295103714], [11.474420613220786, 32.969874980246175], [11.456540566593901, 32.90210133880578], [11.463775268014274, 32.79846425402218], [11.44920251418472, 32.69301849410829], [11.449925984596575, 32.63795725542303], [11.537362507573732, 32.54351857502229], [11.564130900220903, 32.46548716290232], [11.513901407723836, 32.40799713056316], [11.44403487121241, 32.36849049943703], [10.873216999564931, 32.13669586192452], [10.805624227076464, 32.03236114515079], [10.736584512865022, 31.98538726860761], [10.68356449330679, 31.957016907304478], [10.628477417099191, 31.974121805776747], [10.597574910253968, 31.873507792050987], [10.542384480359544, 31.806638489075056], [10.513549031063008, 31.757029114202282], [10.427766153585196, 31.71460276300718], [10.315421589934488, 31.715842997356503], [10.263951863088039, 31.68049631795077], [10.196462441588437, 31.578590393032243], [10.132590373047321, 31.517560526597094], [10.106235392449435, 31.42919382763307], [10.182716511857564, 31.240781555724254], [10.213205606653446, 31.135361633332764], [10.244831583910525, 31.078155822733095], [10.240594116025704, 31.021156718607756], [10.27015303573404, 30.915633443428703], [10.253926636405197, 30.84178782055153], [10.192224976401576, 30.731251932930434], [10.10117110136531, 30.641696675561207], [9.995647827085577, 30.49452219644229], [9.871314331091583, 30.35515085862528], [9.772922403646078, 30.338097636097075], [9.51970788541064, 30.228905334713488], [9.286543823238901, 30.11712921184369], [9.421729370014475, 29.968714498375448], [9.549680216268996, 29.802316386392192], [9.66770918772886, 29.60832305856235], [9.82614912877932, 29.128533224428793], [9.848266642391707, 28.97572601344484], [9.851263875027882, 28.78599599192154], [9.776953165955888, 28.26757802310732], [9.789872273386777, 28.20944203742016], [9.935909870943817, 27.86672393865888], [9.86335616015873, 27.619245504176718], [9.818501017108304, 27.58573333742362], [9.811679727737271, 27.526537985439745], [9.770545287734876, 27.444217427692195], [9.74305342557517, 27.36411895802354], [9.72186608884897, 27.30846344013571], [9.80609867361494, 27.02512156231029], [9.82552901205429, 26.920580139062224], [9.890848022318437, 26.869575501108557], [9.88547367377106, 26.736612040613238], [9.894051961428943, 26.673980204622808], [9.854571166925837, 26.524376932749306], [9.482604206818735, 26.35255279537523], [9.468858276188541, 26.301031392584775], [9.416458374254603, 26.232250061691047], [9.377804402950858, 26.168946432132202], [9.40116215001325, 26.113394267031822], [9.693960816438562, 25.743494363574086], [9.9694995520627, 25.395401917164804], [10.007946817791435, 25.331426493138224], [10.02138269005917, 25.268019510791817], [10.029960977716996, 24.995064595754513], [10.032028035265682, 24.856339213084254], [10.193361857064076, 24.749937439661153], [10.229742065244182, 24.629944763440108], [10.26033451282757, 24.57664052394108], [10.391799356555111, 24.479979757260026], [10.450193725560041, 24.476930847780466], [10.677363321560108, 24.55385121676028], [11.149995971337034, 24.422334697088672], [11.508630411963964, 24.313814189273444], [11.567128132857079, 24.266840311831004], [11.822306355853698, 23.790641988636935], [11.968860717348264, 23.517351175916076], [12.409970743554993, 23.418881734104787], [12.763024129160272, 23.340178528416402], [13.11587080919054, 23.261449483406977], [13.482256713376671, 23.179671529817313], [13.599562215324, 23.119029236110407], [13.906055134636802, 22.86661570265261], [14.20164432812328, 22.62321970642438], [14.637069947420173, 22.822535705958103], [14.979271280445289, 22.99536753368477], [15.458828572380753, 23.212899475730296], [15.964637492126599, 23.442213643644777], [16.570285278342965, 23.15571950265297], [17.06431197132048, 22.91175506744247], [17.55844201618612, 22.66776479111229], [18.052468709163634, 22.423852030946534], [18.546598754928652, 22.179835917093953], [19.04072880069367, 21.935871480984133], [19.534652139984303, 21.691855367131552], [20.02878218574932, 21.447942606965796], [20.522808878726835, 21.203926493113215], [21.016938923592477, 20.959962057003395], [21.51096561656999, 20.71604929593832], [22.00509566233501, 20.472033182985058], [22.499122355312522, 20.22809458439758], [22.99314904739066, 19.98410430896672], [23.487279093155678, 19.7401657103793], [23.98130578613319, 19.49612375900432], [23.98130578613319, 19.99542144774165], [24.47460900869885, 19.995188903744975], [24.86724654159468, 19.994956359748244], [24.96801558405201, 19.994956359748244], [24.98072798680721, 20.405318908740696], [24.980831339594715, 20.749535624269697], [24.98093469238222, 21.12331126040641], [24.981141397957174, 21.621575418570785], [24.98124475074468, 21.995351053808122], [24.98124475074468, 22.287167867403184], [24.98124475074468, 22.870801493694046], [24.98124475074468, 23.162669983233172], [24.98124475074468, 23.746277771102314], [24.98124475074468, 24.03814626064144], [24.98124475074468, 24.62172821098818], [24.98124475074468, 25.205439351644827], [24.98124475074468, 25.788969625148127], [24.98124475074468, 26.08083811468731], [24.98124475074468, 26.372706604226437], [24.98124475074468, 26.85996368467636], [24.98124475074468, 27.138034566741908], [24.98124475074468, 27.6278237918346], [24.98124475074468, 28.09670061284305], [24.98124475074468, 28.4915436808962], [24.98124475074468, 28.890175679963704], [24.98124475074468, 29.181372375934473], [24.9743201085862, 29.23893992174004], [24.956646769332963, 29.29268341081081], [24.87375777170388, 29.468331604020364], [24.86156213378547, 29.541557109273242], [24.870553832593373, 29.614007467270824], [24.85618778433883, 29.67948150626654], [24.80492476396671, 29.75479990659045], [24.81494999244825, 29.848566793422833], [24.72554976381059, 30.078371887752496], [24.697334432138405, 30.122606913178572], [24.688652791693016, 30.182758279570976], [24.746116983811817, 30.282752176571762], [24.7723686116222, 30.331017965206968], [24.829729451852756, 30.38755198223822], [24.888123819958366, 30.464343160008866], [24.91706262204241, 30.5324526982335], [24.95065230316129, 30.621232808347486], [24.961194295580356, 30.67626821040966], [24.988582804053237, 30.750578918582278], [24.98124475074468, 30.82540639159174], [24.937629842043634, 30.90576324457811], [24.92460738092592, 30.956767883431155], [24.8895707598827, 31.018831278640675], [24.85949507623684, 31.145955302595212], [24.858564900249974, 31.227914124237486], [24.848643024555997, 31.312043355316632], [24.86125207542301, 31.380359599116275], [25.02372277788396, 31.494409485109713], [25.060413045325845, 31.579365539388164], [25.150889518736335, 31.656480209594065], [25.122080924994748, 31.720851954953787], [25.06373131614737, 31.804103908168884], [25.022227410366725, 31.854681708094404], [25.033376498226858, 31.916327216228126], [24.981700065805455, 31.96792226809822], [24.865407748169105, 31.9893252622511], [24.791758660433857, 32.00775788022207], [24.733734571093635, 32.03314850519939], [24.670258009099882, 32.032416082935924], [24.546071811265108, 31.991441147590933], [24.280935092180812, 32.00755442929352], [24.090668164604153, 32.00576406525943], [24.004893425091552, 32.0529238946221], [23.84034264379801, 32.14911530242932], [23.669688347239457, 32.183254299346515], [23.531097852084258, 32.181382553861795], [23.40528405041863, 32.1906598980359], [23.36198977970463, 32.21710846568317], [23.299082878871786, 32.22418854396619], [23.31218509186857, 32.1627464858617], [23.273203972385488, 32.20970286699378], [23.230804884138138, 32.25063711071414], [23.195078972316765, 32.29165273588512], [23.0955509771959, 32.3235537779845], [23.094411654874023, 32.43646881668258], [23.12842858231329, 32.395493882236906], [23.14096113414905, 32.45856354417225], [23.11329186272934, 32.50079987221636], [23.094411654874023, 32.57737864810616], [23.118662956630203, 32.62933991110805], [23.041351759376255, 32.65253327019434], [22.976898634364545, 32.67670319229853], [22.89584394614127, 32.688177802363725], [22.81251061327424, 32.724514065172], [22.578868035331595, 32.78461334822748], [22.513845248259656, 32.7909610051463], [22.379161004276966, 32.870347397914145], [22.247325066098995, 32.88084544496138], [22.175059441440112, 32.91624583457764], [22.116709831693413, 32.944159246751894], [21.87745201909547, 32.90322500213222], [21.787445508903147, 32.91596100489653], [21.716319206566197, 32.95038483329347], [21.623220248016082, 32.93675364806245], [21.454600457145432, 32.812567450227675], [21.331879102038954, 32.77464427341454], [21.09669029991744, 32.781073309086025], [20.93409264376055, 32.7226016298614], [20.79656009217456, 32.64301178616506], [20.56267337257816, 32.557847397639364], [20.416758660184087, 32.45945872573964], [20.34571373839833, 32.419907945095645], [20.277191602010873, 32.3608259139848], [20.071543815894415, 32.17641836091866], [19.957204623394716, 31.98273346637643], [19.948008659771858, 31.925970769735272], [19.91968834663993, 31.804673570229113], [19.920664909657887, 31.717718816770002], [19.944346550253158, 31.66144440343652], [19.948903842238565, 31.60101959817598], [20.022227409567336, 31.3967959658612], [20.08220462314489, 31.336615302254472], [20.12810306070776, 31.242987372369385], [20.1523543633632, 31.08820221585961], [20.0998641290264, 30.935003973354753], [20.03646894578526, 30.819077866850137], [19.982188347414365, 30.778631902840118], [19.914317253638387, 30.68292877834051], [19.748871289878196, 30.510931707632267], [19.61638431088727, 30.421372789122984], [19.55103600430823, 30.4049339861146], [19.418955925375712, 30.333238022616683], [19.338552279763974, 30.298814195119064], [19.239756706906576, 30.273993231302654], [19.146006706644243, 30.264715887128546], [19.056813998367375, 30.26618073075616], [18.968028191048234, 30.277736721372662], [18.780528191422945, 30.375921942343837], [18.719248894421014, 30.39150625181213], [18.65316816467913, 30.422308661415627], [18.56836998818443, 30.500067450352617], [18.324229363194604, 30.656887110751597], [18.235687695730633, 30.746812242191254], [18.17530358209467, 30.78607819225482], [18.016856316066196, 30.837876695053467], [17.92676842532262, 30.855169988903924], [17.861664258598694, 30.913641669027868], [17.77605228018865, 30.93520742428325], [17.691742384303666, 30.959662176967925], [17.613942904641362, 30.992499091360003], [17.466807487575522, 31.029974677389475], [17.41863040536896, 31.062160549170073], [17.36589603027761, 31.08661530185475], [17.16032962291382, 31.11880117363529], [16.941905144207112, 31.183294989372314], [16.72803795658649, 31.22382233303432], [16.358653191091946, 31.227118231421287], [16.04460696663824, 31.27553945528166], [15.761485222165334, 31.388128972673996], [15.687510613124346, 31.43781159103213], [15.622813347358147, 31.49725983327471], [15.51441490992022, 31.62836334828995], [15.370453320864101, 31.92938873939886], [15.35523522162822, 32.038519598200935], [15.359629754309765, 32.10211823057193], [15.370453320864101, 32.159084377242266], [15.322601759063957, 32.22418854396619], [15.292165560592196, 32.28091054898272], [15.269704622870108, 32.32884349223343], [15.19597415458361, 32.38979726792962], [15.114756707056415, 32.41278717698668], [14.91114342482922, 32.443915106097336], [14.72681725411303, 32.450751043625814], [14.662933790262286, 32.476752019590094], [14.46949303467585, 32.51902903925878], [14.404063346646183, 32.56683991123299], [14.317149284811705, 32.63043854360393], [14.262461784583763, 32.66030508001546], [14.203379754372236, 32.70034414306781], [13.9912215502344, 32.74457428607451], [13.915293816056817, 32.772772527929874], [13.830332879358934, 32.794094143330085], [13.616953972347972, 32.79340241089261], [13.373545768722295, 32.89203522264745], [13.257090690882706, 32.91864655229659], [13.187754754378489, 32.91624583457764], [13.115489128820286, 32.88214752838576], [12.824392122698328, 32.80434804872351], [12.729828321419973, 32.79857005386492], [12.348317905047338, 32.83266836095612], [12.224864128576712, 32.87592194184418], [12.160655144319492, 32.91168854439087], [12.080739780216732, 32.95783112180885], [11.847015820823515, 33.08283112155908], [11.739268425097805, 33.11298248855104], [11.691091341991864, 33.1359723976081], [11.772959832130596, 33.09935130421934], [11.635752800051705, 33.10871002804544], [11.587657096597752, 33.13231028898872], [11.525889518986162, 33.17694733295309], [11.505111802767544, 33.1812253152961]]]}}]}