{"type": "FeatureCollection", "features": [{"type": "Feature", "properties": {"code": "LCA", "name": "Saint Lucia", "tier": "country"}, "geometry": {"type": "MultiPolygon", "coordinates": [[[[-60.93194131312828, 13.721877382979244], [-60.93194131312828, 13.721877382979244]]], [[[-60.93059081378959, 13.726847506707486], [-60.93059081378959, 13.726847506707486]]], [[[-60.942976719087085, 14.107751012047572], [-60.96490188833354, 14.09417293205172], [-60.949324170070724, 14.079002971324996], [-60.96670870345639, 14.065174516724596], [-60.97302607505469, 14.037474605329237], [-60.991500923596504, 14.020042561080402], [-61.01016876067331, 14.008941547756706], [-61.01515692974044, 13.988899690166136], [-61.03004177511821, 13.970032489259268], [-61.045296678014495, 13.942638196705104], [-61.057930270086615, 13.926853430048652], [-61.06645414727558, 13.908461104468245], [-61.07898959346653, 13.885002430917893], [-61.08057113851743, 13.863429051792139], [-61.06165265658245, 13.853224727967586], [-61.06895979510898, 13.834136580216637], [-61.07864926099052, 13.808845288598889], [-61.06745832828824, 13.788509177527146], [-61.04453593482833, 13.764885180346084], [-61.02625807873329, 13.75508489583433], [-60.99677677771251, 13.750723005285124], [-60.981073937214546, 13.734953163448836], [-60.95770735982035, 13.728693548604781], [-60.95000358380884, 13.709792144595212], [-60.93839224039681, 13.731457523413098], [-60.9308048280638, 13.752440304298716], [-60.90994194659277, 13.76509420972053], [-60.89812330066178, 13.784133765732292], [-60.89486471726997, 13.814551135004194], [-60.89007879177956, 13.83490198289229], [-60.88257145767693, 13.85400586050531], [-60.89696197413252, 13.87215156216621], [-60.880836012276745, 13.886868142389801], [-60.88928426558664, 13.905252370630876], [-60.88725828635677, 13.92674257583451], [-60.875001562456305, 13.944249644328067], [-60.873508854191925, 13.973684815569811], [-60.88239753776929, 13.995267326627072], [-60.88492000202774, 14.016051448098096], [-60.89504989817675, 14.0388341216497], [-60.89220712099643, 14.062566092143186], [-60.91300744135003, 14.061012519592055], [-60.921019268304065, 14.080498215966202], [-60.918200014104, 14.101909223812015], [-60.942976719087085, 14.107751012047572]]]]}}]}