{"type": "FeatureCollection", "features": [{"type": "Feature", "properties": {"code": "LIE", "name": "Liechtenstein", "tier": "country"}, "geometry": {"type": "Polygon", "coordinates": [[[9.536542700000018, 47.26590930000001], [9.520451700000022, 47.2439624], [9.501642700000025, 47.22017559999998], [9.489754799999984, 47.196494500000014], [9.49129919999996, 47.1629726], [9.50720110000003, 47.1423838], [9.519614799999966, 47.1001327], [9.492274600000018, 47.073844], [9.472377399999955, 47.06502829999997], [9.485748399999961, 47.04909189999998], [9.5120732, 47.05681810000002], [9.539752799999969, 47.06514820000003], [9.554385600000016, 47.050507], [9.582159499999966, 47.052704], [9.603472, 47.06177440000004], [9.618683699999965, 47.078138199999955], [9.635374, 47.090632199999966], [9.622998500000014, 47.107980299999966], [9.6350038, 47.12808570000003], [9.625853299999966, 47.14588709999997], [9.602844899999964, 47.15160710000002], [9.579457899999989, 47.1711394], [9.57259389999996, 47.1907921], [9.575662099999983, 47.21370770000004], [9.558547500000026, 47.2241186], [9.559501199999977, 47.25046680000003], [9.53952189999996, 47.261351899999966], [9.536542700000018, 47.26590930000001]]]}}]}