{"type": "FeatureCollection", "features": [{"type": "Feature", "properties": {"code": "LKA", "name": "Sri Lanka", "tier": "country"}, "geometry": {"type": "MultiPolygon", "coordinates": [[[[79.78336969999997, 8.2629394], [79.78336969999997, 8.2629394]]], [[[79.80090119999996, 8.340674900000035], [79.8065169, 8.319823100000036], [79.80090119999996, 8.340674900000035]]], [[[79.78618239999999, 8.5100342], [79.7857392, 8.533518300000022], [79.777276, 8.50186679999996], [79.78758519999997, 8.466705600000026], [79.79952639999998, 8.450373499999976], [79.79191859999996, 8.469996800000025], [79.7798288, 8.493351199999967], [79.78618239999999, 8.5100342]]], [[[79.91054369999996, 8.9401386], [79.91054369999996, 8.9401386]]], [[[79.9073024, 8.9544885], [79.9073024, 8.9544885]]], [[[79.7981055, 9.096284300000026], [79.74991290000001, 9.106389299999986], [79.7098859, 9.1048341], [79.6897822, 9.091479500000023], [79.71349349999998, 9.07689780000003], [79.74684, 9.06815120000002], [79.77385210000003, 9.056965], [79.79424179999998, 9.046294700000026], [79.8275277, 9.023748399999977], [79.8611621, 8.994487700000022], [79.87612439999995, 8.97726210000003], [79.89065809999997, 8.955591400000042], [79.9070178, 8.971130500000026], [79.9278815, 8.97795210000001], [79.9014456, 8.9959248], [79.87980109999997, 9.0162409], [79.86862930000002, 9.035954599999975], [79.853117, 9.061109400000024], [79.86976810000002, 9.043139900000032], [79.91346190000002, 9.0169484], [79.9025629, 9.035989899999965], [79.86213519999995, 9.0725532], [79.7981055, 9.096284300000026]]], [[[79.9906729, 9.296668700000012], [79.97086280000002, 9.2902632], [79.99121379999998, 9.284124500000026], [79.9906729, 9.296668700000012]]], [[[80.05778709999997, 9.333052799999965], [80.05778709999997, 9.333052799999965]]], [[[80.00958560000004, 9.485092499999983], [80.00958560000004, 9.485092499999983]]], [[[79.6613197, 9.55414859999997], [79.65229420000001, 9.5227956], [79.66148789999998, 9.499773700000038], [79.686618, 9.485121299999967], [79.70458120000004, 9.475815], [79.72917830000003, 9.482619099999969], [79.72622170000001, 9.511303799999961], [79.715276, 9.5290688], [79.6947597, 9.530481800000025], [79.67712970000002, 9.543627400000034], [79.6613197, 9.55414859999997]]], [[[79.77102030000002, 9.621987799999989], [79.76323089999998, 9.6007206], [79.77545739999998, 9.61888409999996], [79.77102030000002, 9.621987799999989]]], [[[79.8167063, 9.621305400000015], [79.80509009999999, 9.6013937], [79.80190990000001, 9.58007190000001], [79.84303820000002, 9.567548300000041], [79.85954780000002, 9.58082760000001], [79.86420340000002, 9.603080899999973], [79.84362960000001, 9.6194352], [79.85009669999998, 9.595849600000019], [79.82527509999997, 9.596129199999972], [79.81900819999996, 9.618147799999967], [79.8167063, 9.621305400000015]]], [[[79.86204470000001, 9.62201], [79.86204470000001, 9.62201]]], [[[79.78345860000005, 9.669778899999983], [79.76409540000002, 9.66049530000004], [79.78698829999996, 9.6657591], [79.78345860000005, 9.669778899999983]]], [[[79.86478359999997, 9.7017175], [79.84133490000005, 9.70337659999996], [79.8443517, 9.682985399999968], [79.85713719999995, 9.661318300000012], [79.877976, 9.666416599999963], [79.8652134, 9.649410800000037], [79.879953, 9.63349440000001], [79.89513979999998, 9.620062700000044], [79.91329, 9.629240400000018], [79.93542180000003, 9.630713400000037], [79.962214, 9.614246400000017], [79.98134659999998, 9.62176549999998], [79.96798649999998, 9.605672099999964], [79.98657090000005, 9.596997699999978], [80.0066029, 9.6151802], [80.00391059999998, 9.642553], [79.98777449999999, 9.624952], [79.96319940000002, 9.634341500000023], [79.9336191, 9.655886700000018], [79.9311759, 9.6775584], [79.9063921, 9.67176139999997], [79.9145158, 9.651566100000021], [79.896434, 9.67410379999998], [79.89015989999996, 9.696387300000044], [79.86776779999997, 9.6961549], [79.86478359999997, 9.7017175]]], [[[79.81353259999996, 9.689304899999975], [79.8148233, 9.711011299999985], [79.80935120000002, 9.686979799999975], [79.81353259999996, 9.689304899999975]]], [[[79.90188759999998, 9.766833500000029], [79.87993810000002, 9.761359399999982], [79.8546474, 9.74939549999996], [79.86126069999999, 9.726584699999965], [79.87410180000002, 9.703803099999988], [79.89222080000005, 9.716729900000011], [79.8944906, 9.742629200000021], [79.89189640000002, 9.763664600000023], [79.90188759999998, 9.766833500000029]]], [[[80.212085, 9.8357907], [80.1691365, 9.824890499999974], [80.13965550000002, 9.8253427], [80.11169279999999, 9.810819200000022], [80.07099340000003, 9.811435400000025], [80.04438589999995, 9.816171600000036], [80.01944879999998, 9.8169656], [79.99814159999995, 9.811128600000043], [79.9749609, 9.805761200000031], [79.95430509999996, 9.798323400000044], [79.9355782, 9.780879800000044], [79.91447960000002, 9.7763322], [79.90811239999996, 9.75398129999996], [79.9255779, 9.738550699999983], [79.93044410000003, 9.718133100000028], [79.9395422, 9.6961367], [79.95996989999998, 9.69715189999998], [79.96731629999995, 9.716438100000026], [79.97987440000003, 9.6866721], [80.00014460000004, 9.678522600000019], [80.0116344, 9.658144400000037], [80.03982870000002, 9.645753400000025], [80.07124489999997, 9.638142], [80.09609720000003, 9.618906500000037], [80.124004, 9.608215099999963], [80.10074330000005, 9.629631100000015], [80.08248810000005, 9.6405017], [80.114829, 9.636084199999974], [80.137209, 9.62638290000002], [80.1536499, 9.614328300000043], [80.17851529999999, 9.59258689999998], [80.19975349999999, 9.580762699999969], [80.184287, 9.595522599999963], [80.17253819999998, 9.629935599999985], [80.15659729999997, 9.64537929999998], [80.17408939999999, 9.655159299999962], [80.19331279999999, 9.644782], [80.22685250000005, 9.631606500000036], [80.30769879999998, 9.584543200000041], [80.3420999, 9.560972300000039], [80.37199280000004, 9.53142340000004], [80.3846719, 9.51323289999997], [80.40495180000002, 9.519572799999978], [80.39274, 9.498842], [80.38123869999997, 9.481572200000034], [80.35205630000002, 9.4671801], [80.33248689999998, 9.455327300000029], [80.31189960000002, 9.461814599999975], [80.30709309999996, 9.44200289999997], [80.2921951, 9.4586805], [80.2670839, 9.4593911], [80.24427679999997, 9.467425300000045], [80.26451259999997, 9.4743892], [80.24747990000004, 9.49769049999998], [80.2768371, 9.49725669999997], [80.24056990000003, 9.520298299999965], [80.2237991, 9.5346111], [80.19751910000004, 9.538299700000021], [80.1705749, 9.5436988], [80.14299649999995, 9.55918610000004], [80.126178, 9.57783969999997], [80.1076343, 9.585592399999989], [80.0656022, 9.599908], [80.0899256, 9.5788748], [80.11534640000004, 9.56106750000001], [80.14702380000003, 9.5353411], [80.16313320000003, 9.51944330000001], [80.1821876, 9.49404770000002], [80.180471, 9.471359400000036], [80.15483559999996, 9.445270699999988], [80.127631, 9.42688749999996], [80.088299, 9.408316799999962], [80.05773310000004, 9.394309599999985], [80.05450329999996, 9.37235470000002], [80.05879260000003, 9.349506699999967], [80.07287109999996, 9.3256055], [80.1142414, 9.3081576], [80.11406980000001, 9.2851183], [80.11990630000003, 9.259366699999962], [80.1204213, 9.225819100000045], [80.1102932, 9.197351900000019], [80.10394180000002, 9.175322099999985], [80.08617960000004, 9.142894900000044], [80.07541429999998, 9.124585900000028], [80.0747276, 9.104585599999961], [80.071992, 9.078274299999968], [80.06154930000004, 9.057235300000023], [80.05095239999997, 9.0353452], [80.03861859999998, 9.019195], [80.0158218, 9.0125568], [79.99205490000003, 8.995036899999988], [79.98367069999998, 8.97354639999999], [79.95526130000003, 8.95780409999998], [79.93613689999997, 8.945620499999986], [79.91119209999997, 8.938844100000011], [79.92824050000004, 8.9180758], [79.92855089999996, 8.895775699999977], [79.92942640000003, 8.87348920000002], [79.9199851, 8.8353257], [79.91500690000004, 8.8125953], [79.92564990000001, 8.794274299999973], [79.938983, 8.769059], [79.959799, 8.7241418], [79.9513773, 8.693042199999958], [79.94947049999998, 8.672150500000033], [79.94247880000005, 8.651414799999959], [79.94088980000002, 8.616067199999968], [79.92039159999997, 8.59391439999997], [79.91971920000002, 8.558987300000044], [79.90132350000003, 8.545833599999987], [79.87746920000002, 8.536611199999957], [79.86684190000001, 8.5169193], [79.865094, 8.496332299999978], [79.861916, 8.474958300000026], [79.86354049999997, 8.45135540000004], [79.84762139999998, 8.436578200000035], [79.84624809999995, 8.391917300000042], [79.84487480000001, 8.364404899999968], [79.83711949999996, 8.341404], [79.83769560000002, 8.311451200000032], [79.83126819999997, 8.292052800000029], [79.8206252, 8.273027199999962], [79.81043709999999, 8.23888709999996], [79.78953950000002, 8.233578], [79.8089976, 8.216280399999977], [79.82221550000003, 8.19062479999997], [79.81805030000001, 8.169899699999974], [79.8341864, 8.1517179], [79.82920829999998, 8.127417600000044], [79.817192, 8.110763399999989], [79.80294409999996, 8.084421200000016], [79.79315939999995, 8.066065599999963], [79.8099822, 8.049238900000024], [79.825521, 8.034115], [79.83573140000004, 8.014223499999986], [79.81934119999998, 7.997058400000025], [79.82405339999995, 7.97421], [79.82456840000002, 7.953469299999984], [79.8243041, 7.925184799999975], [79.8211352, 7.961119699999976], [79.7842279, 7.979389200000011], [79.75723989999999, 7.987631], [79.73668280000003, 8.013883600000018], [79.74509420000001, 8.0356411], [79.74968680000005, 8.061232600000025], [79.73204789999997, 8.084931100000016], [79.73685440000001, 8.108044299999985], [79.72956069999996, 8.1299718], [79.73896270000002, 8.148133299999973], [79.74651579999995, 8.16671880000004], [79.74767449999999, 8.188659199999961], [79.74228859999997, 8.208357800000023], [79.75704080000003, 8.22274620000001], [79.765817, 8.2414874], [79.77777169999997, 8.2592929], [79.75811020000005, 8.25108140000004], [79.740116, 8.2307261], [79.747388, 8.2515394], [79.76390389999999, 8.268103399999973], [79.75417719999997, 8.290105500000024], [79.761387, 8.310871300000013], [79.77235629999998, 8.329334900000031], [79.77751250000001, 8.3505673], [79.78554840000002, 8.370317300000043], [79.77293129999995, 8.350446300000016], [79.76239989999998, 8.32305029999998], [79.74612409999996, 8.282370300000032], [79.734902, 8.235512100000044], [79.71574329999997, 8.218738499999969], [79.69584249999997, 8.210279500000041], [79.6971686, 8.183576], [79.70305419999998, 8.160937100000034], [79.70423880000003, 8.119770399999961], [79.70750029999998, 8.09444850000003], [79.70612209999999, 8.056992300000012], [79.74508919999995, 7.934087700000038], [79.76638019999997, 7.843013], [79.77766759999997, 7.804164500000034], [79.78440459999997, 7.775155300000016], [79.7983092, 7.695378800000043], [79.80067030000004, 7.640013599999975], [79.79727920000003, 7.6126946], [79.78837060000004, 7.550995399999973], [79.7969364, 7.492191699999974], [79.80222350000003, 7.466392199999962], [79.81946889999998, 7.399271499999972], [79.84250160000003, 7.2718992], [79.8416157, 7.248874499999981], [79.83898739999997, 7.223806], [79.82954429999997, 7.206170199999963], [79.85260790000001, 7.195044099999982], [79.86555830000003, 7.169499800000035], [79.86671689999997, 7.14197879999996], [79.87088289999997, 7.1211533], [79.85766129999998, 7.105634800000039], [79.84181030000003, 7.125309499999989], [79.83870619999998, 7.145935599999965], [79.827629, 7.1670218], [79.82412060000001, 7.188997900000028], [79.83213940000002, 7.1399965], [79.84037590000001, 7.11709509999996], [79.84630050000003, 7.0901412], [79.86815419999996, 7.000655899999987], [79.868977, 6.980085800000025], [79.858749, 6.96271559999997], [79.84987, 6.942502599999979], [79.83984270000003, 6.960757300000032], [79.82567129999997, 6.943300199999981], [79.83108139999996, 6.965935899999965], [79.82256740000001, 6.944833], [79.85782329999996, 6.871638], [79.8615936, 6.849417600000019], [79.8630095, 6.824681499999975], [79.87991760000001, 6.770477399999964], [79.8997602, 6.720653099999963], [79.91706580000003, 6.682176], [79.93528479999998, 6.641385700000014], [79.94818950000004, 6.60714], [79.95577039999996, 6.583662399999969], [79.96422, 6.556880400000021], [79.98153759999997, 6.5115977], [79.98256790000003, 6.488474], [79.97345820000001, 6.470500299999983], [79.98013349999997, 6.448030200000022], [79.99383619999998, 6.429638900000035], [80.00394660000002, 6.400279099999962], [80.0090322, 6.3801233], [80.01579630000002, 6.35895510000002], [80.02840019999996, 6.331022399999987], [80.033613, 6.306440700000016], [80.03550569999999, 6.285294700000011], [80.03658940000004, 6.262370300000032], [80.0469274, 6.2437789], [80.0635369, 6.202785200000039], [80.08860269999997, 6.166099199999976], [80.0987299, 6.148356700000025], [80.11321230000003, 6.121014800000025], [80.124221, 6.1018158], [80.15235650000001, 6.077444300000013], [80.1739542, 6.0626112], [80.19137609999997, 6.04267], [80.21149420000002, 6.033460299999983], [80.23175409999997, 6.034105], [80.23653790000002, 6.012620099999967], [80.25652609999997, 6.003011599999964], [80.28973449999998, 5.9941721], [80.314905, 5.9913747], [80.33339289999998, 5.982872699999976], [80.36355679999997, 5.97193380000003], [80.39034489999999, 5.965007800000023], [80.4098272, 5.957135699999983], [80.4261748, 5.97034639999996], [80.44903560000004, 5.967848], [80.45175039999997, 5.947881800000011], [80.47425510000004, 5.937388499999986], [80.519666, 5.935420100000012], [80.5434913, 5.9431145], [80.57302470000005, 5.937608100000037], [80.58536370000002, 5.921071], [80.6133377, 5.930345100000035], [80.6291442, 5.946947599999986], [80.64947570000002, 5.954787], [80.6730956, 5.959474100000018], [80.69738720000004, 5.963407], [80.717234, 5.959925100000031], [80.729489, 5.9794842], [80.75010460000004, 5.988913500000016], [80.7648222, 6.002469399999955], [80.78717429999998, 6.012477499999981], [80.79899739999998, 6.030344500000019], [80.8189628, 6.0415404], [80.84707949999998, 6.045440899999966], [80.87130160000004, 6.058171099999977], [80.90413410000004, 6.0638799], [80.92880520000003, 6.0747755], [80.97700369999998, 6.08705190000003], [81.0009355, 6.1011803], [81.0505053, 6.106824], [81.07634089999998, 6.111551699999974], [81.09671489999997, 6.11436289999996], [81.12361940000001, 6.120762500000022], [81.138619, 6.135511299999986], [81.1685572, 6.145548099999988], [81.18759640000003, 6.1586273], [81.21078009999998, 6.1641264], [81.23279630000003, 6.1729772], [81.2707113, 6.184753499999963], [81.291549, 6.1930732], [81.3151758, 6.1988526], [81.339824, 6.214248], [81.36612750000002, 6.23150220000004], [81.3948614, 6.2467909], [81.41638269999997, 6.264728700000034], [81.4275415, 6.284069599999987], [81.450851, 6.299103099999971], [81.48126810000002, 6.310703500000026], [81.49473079999997, 6.328943], [81.50354350000003, 6.349855], [81.54197339999997, 6.365520799999969], [81.5661984, 6.372416699999973], [81.5894255, 6.394998799999963], [81.60727129999995, 6.408841199999983], [81.61603150000002, 6.428103299999989], [81.649461, 6.4457348], [81.66136750000001, 6.464294499999968], [81.6931124, 6.4864659], [81.70921780000002, 6.514428099999981], [81.72501, 6.5369171], [81.74026349999995, 6.569928799999981], [81.76289790000001, 6.5964872], [81.77159969999995, 6.626646899999989], [81.77770359999998, 6.64689089999997], [81.7730236, 6.671656699999985], [81.78661959999997, 6.693395700000027], [81.8002324, 6.708249200000039], [81.80274739999999, 6.7335918], [81.82604830000004, 6.7642035], [81.82030860000005, 6.784322300000013], [81.8248766, 6.809712099999966], [81.84022720000002, 6.837035300000017], [81.83504519999997, 6.858761200000042], [81.84588609999999, 6.8824969], [81.8453711, 6.910616100000012], [81.86791329999998, 6.972435699999969], [81.87241419999997, 7.000019800000024], [81.87896019999998, 7.022269499999957], [81.86890820000005, 7.048930600000026], [81.85806969999997, 7.100527200000029], [81.8571039, 7.121515599999962], [81.86085979999999, 7.154386], [81.86234070000005, 7.226581700000035], [81.86479819999998, 7.25767740000003], [81.86849919999996, 7.2794854], [81.86584860000004, 7.306660399999966], [81.86063329999999, 7.3468025], [81.83873640000003, 7.414982], [81.82344439999997, 7.43692460000003], [81.817995, 7.460915599999975], [81.80975559999996, 7.498088099999968], [81.80604169999998, 7.5290319], [81.79358790000002, 7.579759300000035], [81.78659030000003, 7.600323500000041], [81.77632519999997, 7.623972700000039], [81.75619570000005, 7.661674300000023], [81.7170345, 7.722209600000031], [81.6989811, 7.753086699999969], [81.67345030000001, 7.76448259999998], [81.65212689999998, 7.778912600000034], [81.6268462, 7.812401900000012], [81.60529109999999, 7.823992], [81.58130469999998, 7.845080399999961], [81.56854159999999, 7.870427400000015], [81.56367480000002, 7.898957600000013], [81.58151660000001, 7.9189913], [81.56049069999999, 7.932447400000033], [81.52177680000001, 7.9265548], [81.545307, 7.937043099999965], [81.54015719999998, 7.961864799999987], [81.55275529999999, 7.9851298], [81.53105910000002, 7.983285100000039], [81.51475130000003, 7.997394699999962], [81.4912337, 8.012183699999966], [81.4728659, 8.04261], [81.46411120000003, 8.066575499999963], [81.45758809999997, 8.0990371], [81.44677339999998, 8.12265939999999], [81.43510039999997, 8.15409690000002], [81.43355550000004, 8.175167099999971], [81.42274079999997, 8.1991247], [81.41175450000001, 8.229876599999965], [81.4003596, 8.285949], [81.39555310000003, 8.312957300000036], [81.388515, 8.347776600000014], [81.38147690000004, 8.3769884], [81.37323710000004, 8.406877299999984], [81.3619075, 8.4579888], [81.35298110000004, 8.485664299999975], [81.3437114, 8.504849199999988], [81.32201520000004, 8.524545], [81.30251260000003, 8.50943310000001], [81.28054, 8.5070563], [81.28813470000001, 8.48661510000004], [81.27856529999997, 8.466873299999957], [81.2535222, 8.4603171], [81.2330931, 8.4632788], [81.20355630000002, 8.469247500000023], [81.191068, 8.5055825], [81.17084840000004, 8.5136773], [81.149734, 8.507226], [81.13891930000001, 8.488550599999957], [81.12243980000002, 8.502472399999974], [81.13754609999998, 8.5192797], [81.14904740000001, 8.537444399999973], [81.1729132, 8.531767099999989], [81.18715620000003, 8.516733199999972], [81.20655990000003, 8.510148400000041], [81.214107, 8.531163200000027], [81.1986589, 8.545690799999985], [81.19649760000004, 8.566105499999967], [81.21607769999999, 8.581838800000032], [81.233565, 8.56446590000002], [81.22183180000002, 8.54440440000004], [81.24481929999997, 8.544367], [81.24378180000002, 8.5647298], [81.2247343, 8.593794], [81.21955869999996, 8.620333700000018], [81.22349939999997, 8.643402500000043], [81.215137, 8.6659304], [81.18870110000005, 8.709541100000042], [81.176064, 8.73378749999998], [81.15299560000001, 8.75620070000003], [81.1349711, 8.77486289999996], [81.12209650000004, 8.790809900000031], [81.10201210000002, 8.820666199999973], [81.0886226, 8.851707399999988], [81.06991150000002, 8.860188100000023], [81.04759550000001, 8.872400099999968], [81.030086, 8.892074], [81.0175547, 8.91717369999996], [81.0074267, 8.9375235], [80.986484, 8.95872], [80.96845960000003, 8.9833064], [80.9650264, 8.9585504], [80.94013550000003, 8.941593300000019], [80.91558790000003, 8.935658100000012], [80.90734810000004, 8.954480799999988], [80.9264026, 8.9639766], [80.923141, 8.984154199999985], [80.9243426, 9.004839399999966], [80.8882937, 9.013316599999978], [80.87816569999998, 9.031626599999989], [80.89201389999995, 9.0473604], [80.9143863, 9.032304699999962], [80.93344069999996, 9.008908400000017], [80.950758, 8.988879499999982], [80.9361668, 9.0348255], [80.91764970000001, 9.067885], [80.90557120000001, 9.090175599999963], [80.87883490000003, 9.1337571], [80.85959269999998, 9.176850200000032], [80.85063950000001, 9.20546840000003], [80.84462490000001, 9.230976099999967], [80.8192654, 9.272429699999975], [80.81079259999998, 9.293002], [80.79214290000003, 9.312410200000045], [80.74510760000004, 9.347304600000019], [80.70614049999998, 9.383042399999965], [80.670906, 9.419896199999968], [80.710874, 9.372795199999963], [80.72318660000003, 9.355624900000016], [80.66507170000001, 9.40445330000004], [80.62065309999998, 9.4604334], [80.5940456, 9.48041329999998], [80.549757, 9.512074100000014], [80.48572729999997, 9.565738400000036], [80.42152590000002, 9.615501400000028], [80.3614445, 9.664580199999985], [80.333292, 9.695716200000028], [80.31458090000001, 9.722619399999967], [80.3042812, 9.7400461], [80.2881451, 9.759840399999977], [80.26703070000005, 9.79316659999996], [80.25638769999998, 9.814199099999989], [80.23536069999996, 9.82811819999996], [80.212085, 9.8357907]]]]}}]}