{"type": "FeatureCollection", "features": [{"type": "Feature", "properties": {"code": "LSO", "name": "Lesotho", "tier": "country"}, "geometry": {"type": "Polygon", "coordinates": [[[28.651411700000022, -28.570652], [28.6322278, -28.57865280000002], [28.61351, -28.59386], [28.59393, -28.60239], [28.572494900000038, -28.60712249999999], [28.5518681, -28.6055553], [28.53187559999996, -28.606800900000025], [28.508958300000035, -28.612075], [28.489788500000028, -28.60600460000004], [28.4699326, -28.609632700000027], [28.449358100000037, -28.616455400000014], [28.427426499999957, -28.6218472], [28.40220220000002, -28.623960200000038], [28.403021699999968, -28.64440339999998], [28.38558220000004, -28.65622639999998], [28.3659267, -28.6653788], [28.367423400000018, -28.68652469999999], [28.349682700000038, -28.703589199999975], [28.325752, -28.700236500000038], [28.305128800000016, -28.69225530000003], [28.29217120000002, -28.707599399999957], [28.268446, -28.705940700000028], [28.247623, -28.70294529999999], [28.222901300000018, -28.704258800000044], [28.196245799999968, -28.71117], [28.1831, -28.69387], [28.16825019999997, -28.709686499999982], [28.1578564, -28.7303324], [28.1380834, -28.734320700000033], [28.118638, -28.741336900000043], [28.10863220000001, -28.76480289999998], [28.09762540000004, -28.78207029999997], [28.086943400000035, -28.79980169999998], [28.071798499999982, -28.81569680000002], [28.051151300000036, -28.81753480000004], [28.054838799999963, -28.8415625], [28.035697900000038, -28.852093], [28.030862800000016, -28.871855], [28.007676599999957, -28.872469500000015], [27.986921399999957, -28.8771292], [27.9655506, -28.8707636], [27.948444300000023, -28.852739099999987], [27.92676710000003, -28.856609500000037], [27.920127600000015, -28.8773395], [27.899560500000035, -28.878529], [27.898018800000017, -28.9027515], [27.87934219999996, -28.917505599999966], [27.8592916, -28.91408860000004], [27.830139399999958, -28.90389019999999], [27.818653699999977, -28.9204656], [27.798607899999965, -28.9188951], [27.77783019999997, -28.90711630000002], [27.75421820000003, -28.8973046], [27.76659630000004, -28.91734440000004], [27.761912899999956, -28.9380282], [27.7387999, -28.93794749999998], [27.7230888, -28.95156329999999], [27.723293100000028, -28.9743474], [27.70953289999997, -28.99059809999997], [27.710962899999984, -29.011798200000012], [27.69020290000003, -29.00425559999997], [27.6860183, -29.0252678], [27.6723156, -29.044215799999957], [27.651174400000038, -29.041569700000043], [27.666621699999975, -29.063495800000023], [27.660439200000024, -29.08612], [27.640035499999975, -29.08155479999996], [27.652181499999966, -29.1007271], [27.640958, -29.11752009999999], [27.618725, -29.135255299999958], [27.616848600000036, -29.157522099999973], [27.596054, -29.171101299999975], [27.57539490000002, -29.183825899999967], [27.554635699999956, -29.1938941], [27.534695100000032, -29.217310700000017], [27.51503920000004, -29.2238586], [27.53315550000001, -29.239984300000028], [27.540868, -29.259323899999963], [27.51943, -29.277356400000016], [27.4992107, -29.284448900000033], [27.48910220000002, -29.3019372], [27.46564, -29.29412], [27.47204, -29.31814], [27.444427, -29.328583199999976], [27.43383, -29.35217], [27.4323, -29.37296], [27.408818, -29.36381670000003], [27.42163360000002, -29.387381699999988], [27.41945, -29.41053], [27.3958147, -29.410823100000023], [27.38236, -29.43252], [27.37047, -29.44875], [27.35667, -29.46658], [27.34726, -29.488], [27.30636, -29.49684], [27.30138, -29.51748], [27.2891, -29.5334], [27.26281, -29.53331], [27.24389, -29.55453], [27.22688, -29.54365], [27.20675, -29.55781], [27.189617199999986, -29.5703013], [27.16507, -29.5625], [27.14108, -29.57519], [27.119633199999964, -29.577588799999983], [27.1063732, -29.60285889999998], [27.08535320000002, -29.61490890000002], [27.06970320000001, -29.59761890000003], [27.06610320000004, -29.6193689], [27.04893320000003, -29.634148899999975], [27.034123199999975, -29.61326890000004], [27.028263199999973, -29.639078900000033], [27.0135432, -29.660799], [27.030423099999982, -29.671951499999967], [27.06438, -29.7051], [27.088, -29.71947], [27.17663909999998, -29.90159150000002], [27.22294, -29.99677], [27.25386, -30.02606], [27.26847, -30.04301], [27.29089, -30.05028], [27.32295, -30.13991], [27.39003, -30.14341], [27.41007, -30.1521], [27.39234, -30.16697], [27.38618, -30.19327], [27.36777, -30.21327], [27.36657, -30.23725], [27.36576, -30.25915], [27.36927, -30.27903], [27.38932, -30.28346], [27.3835, -30.30429], [27.38688, -30.32406], [27.41272, -30.33083], [27.43815, -30.3232], [27.46308, -30.31361], [27.4745, -30.33296], [27.47444, -30.35302], [27.48998, -30.36598], [27.50689, -30.38759], [27.53345, -30.38407], [27.55311, -30.40116], [27.565289, -30.4193829], [27.567455700000025, -30.44494669999997], [27.592366699999975, -30.450380699999986], [27.60870779999997, -30.47044569999999], [27.6116569, -30.491307500000016], [27.62719030000004, -30.5088786], [27.6454803, -30.519798699999985], [27.664680300000015, -30.52552859999997], [27.686350300000033, -30.540128599999967], [27.69388030000001, -30.558838500000025], [27.714763899999976, -30.568096100000037], [27.73032029999997, -30.590068600000038], [27.7466703, -30.60608860000002], [27.7680503, -30.61211849999996], [27.79176029999996, -30.617698499999975], [27.813750299999988, -30.61639849999997], [27.85491030000004, -30.61594850000004], [27.880780300000023, -30.613828499999958], [27.90277029999996, -30.60306849999998], [27.9219803, -30.60932850000004], [27.9326203, -30.627608499999965], [27.97752, -30.65503], [28.00375, -30.65899], [28.05244, -30.65805], [28.08457, -30.65398], [28.113575, -30.675575], [28.12357, -30.64932], [28.11881, -30.62266], [28.11315, -30.59987], [28.13734, -30.59242], [28.15357, -30.57584], [28.16355, -30.5567], [28.16367, -30.53508], [28.17234, -30.5088], [28.17792, -30.48841], [28.15493, -30.47122], [28.17253, -30.45063], [28.18613, -30.43522], [28.20627, -30.43722], [28.22829, -30.43046], [28.23925, -30.41307], [28.25865, -30.40229], [28.26704, -30.37708], [28.27103, -30.35645], [28.25286, -30.34207], [28.24252, -30.31788], [28.22051, -30.30897], [28.20691, -30.29067], [28.22313, -30.27545], [28.23643, -30.25994], [28.25973, -30.25652], [28.28269, -30.25556], [28.30319, -30.25623], [28.31882, -30.24062], [28.34029, -30.23461], [28.34515, -30.21276], [28.35629, -30.19248], [28.3651, -30.16862], [28.39017, -30.16282], [28.3998, -30.14368], [28.43249, -30.15371], [28.45687, -30.15751], [28.48133, -30.14879], [28.50645, -30.14488], [28.53143, -30.13289], [28.55059, -30.12063], [28.57506, -30.12741], [28.59909, -30.13121], [28.62694, -30.13173], [28.65017, -30.1337], [28.67164, -30.13613], [28.69031, -30.12407], [28.71878, -30.11773], [28.73965, -30.1158], [28.7618, -30.10549], [28.79117, -30.1094], [28.8076, -30.09734], [28.83129, -30.09761], [28.85534, -30.09014], [28.87063, -30.07453], [28.88999, -30.06816], [28.91063, -30.05919], [28.93633, -30.04916], [28.95222, -30.03667], [28.97194, -30.03237], [28.99076, -30.02017], [29.00421, -30.00502], [29.024319899999977, -29.9992399], [29.0387301, -29.984139900000013], [29.068889399999957, -29.97069749999996], [29.088799799999958, -29.9606096], [29.1064499, -29.9443201], [29.12559989999996, -29.93016990000001], [29.14856989999998, -29.92497990000002], [29.16965989999997, -29.91583989999997], [29.1609299, -29.8955199], [29.145879899999986, -29.878879899999973], [29.1317899, -29.859859900000014], [29.11193990000002, -29.85419010000003], [29.1182999, -29.833380100000024], [29.132509899999974, -29.814829900000035], [29.124939899999973, -29.795189900000025], [29.13108989999999, -29.773219899999965], [29.140709899999965, -29.7503299], [29.145239899999968, -29.7164099], [29.1590899, -29.70164989999999], [29.1622899, -29.677499900000033], [29.182769899999965, -29.66809010000004], [29.2085599, -29.65976989999996], [29.226979900000043, -29.6450899], [29.25522990000004, -29.642110100000014], [29.27732990000002, -29.644770100000013], [29.282679900000012, -29.62143990000003], [29.292529900000012, -29.600820100000043], [29.3049399, -29.583159899999973], [29.32512990000004, -29.5698001], [29.3056399, -29.5542499], [29.3070599, -29.533659899999982], [29.29323989999996, -29.517219899999976], [29.294769899999988, -29.493709900000038], [29.315999900000016, -29.488049899999975], [29.327780100000027, -29.4706999], [29.3631199, -29.4701601], [29.37710989999997, -29.454839900000014], [29.3973501, -29.44715009999996], [29.4066399, -29.4206599], [29.419519899999973, -29.39675990000003], [29.447030100000042, -29.3762599], [29.4433499, -29.351380099999975], [29.452259900000037, -29.32926990000004], [29.4383399, -29.309339900000015], [29.4396701, -29.289009900000025], [29.434279899999975, -29.262849900000028], [29.42168990000002, -29.23839990000003], [29.40892990000003, -29.221920100000016], [29.387999900000043, -29.204770099999973], [29.362790099999973, -29.205089899999965], [29.34481990000001, -29.187899899999987], [29.34672990000004, -29.164960099999977], [29.3513099, -29.14228009999997], [29.34893990000002, -29.120829900000018], [29.32946010000003, -29.10161989999997], [29.3146299, -29.08556009999998], [29.27945990000004, -29.07560990000004], [29.2611399, -29.0894699], [29.241289900000027, -29.076040100000018], [29.2295899, -29.0568101], [29.21189990000003, -29.046089900000034], [29.2152799, -29.0260599], [29.18563990000002, -29.01326990000001], [29.1681369, -29.00111960000002], [29.149219900000027, -28.989660099999988], [29.124469899999987, -28.980289899999985], [29.11124990000004, -28.95321990000001], [29.0934999, -28.938619900000013], [29.07354990000001, -28.9350999], [29.063779899999968, -28.9157101], [29.04127990000002, -28.91506010000004], [29.02903989999998, -28.89821989999996], [29.012279899999964, -28.883460099999976], [29.00352990000003, -28.902520099999958], [28.986549900000018, -28.9157499], [28.974249899999986, -28.8911999], [28.957199899999956, -28.876760100000016], [28.93979990000001, -28.8624099], [28.947749900000012, -28.840860099999972], [28.93960990000001, -28.818369900000036], [28.94781010000002, -28.798049899999985], [28.9320699, -28.774919899999958], [28.912419899999968, -28.760599900000035], [28.888049900000016, -28.775039900000028], [28.86862, -28.76059], [28.84663, -28.75994], [28.82434, -28.76711], [28.80391, -28.75924], [28.80332, -28.73004], [28.80619, -28.70988], [28.78466, -28.70116], [28.76582, -28.69007], [28.74338, -28.68772], [28.72421, -28.68163], [28.70472, -28.67143], [28.6981, -28.6451], [28.70362, -28.6181], [28.69021409999996, -28.601814600000015], [28.673495399999986, -28.5856728], [28.652021899999973, -28.573433199999982], [28.651411700000022, -28.570652]]]}}]}