{"type": "FeatureCollection", "features": [{"type": "Feature", "properties": {"code": "LTU", "name": "Lithuania", "tier": "country"}, "geometry": {"type": "MultiPolygon", "coordinates": [[[[21.2818064, 55.273130100000024], [21.2818064, 55.273130100000024]]], [[[21.2833416, 55.29088620000004], [21.2833416, 55.29088620000004]]], [[[21.322658100000023, 55.344270499999986], [21.24838649999998, 55.33528229999997], [21.29105350000002, 55.3019551], [21.34634510000004, 55.279596099999985], [21.384822, 55.32037309999997], [21.322658100000023, 55.344270499999986]]], [[[21.07681959999996, 55.7271067], [21.10365, 55.66708390000003], [21.10623789999999, 55.61144890000002], [21.0979027, 55.5364862], [21.0697676, 55.451784], [21.030327499999977, 55.37766170000002], [20.99715930000001, 55.33134970000001], [20.953702399999983, 55.28083340000004], [21.0072732, 55.30176159999997], [21.058191099999977, 55.331073], [21.079415, 55.384500900000035], [21.108998, 55.42614660000004], [21.10778869999996, 55.4781043], [21.1196111, 55.52959769999998], [21.12847, 55.58517], [21.129048100000023, 55.6567269], [21.102069599999982, 55.719393300000036], [21.07681959999996, 55.7271067]]], [[[24.886428899999967, 56.450289900000044], [24.848240899999972, 56.413228900000036], [24.788326299999984, 56.40557109999997], [24.7336062, 56.40055680000004], [24.6876743, 56.37632519999999], [24.62876150000004, 56.37557669999997], [24.59469970000003, 56.33455560000004], [24.5647736, 56.2891976], [24.483752499999987, 56.269473599999976], [24.42317180000004, 56.26105779999998], [24.357743700000032, 56.27232019999996], [24.316318499999976, 56.30103910000003], [24.269568100000026, 56.2831668], [24.20104550000004, 56.26706], [24.121520199999978, 56.248891099999966], [24.046005400000013, 56.27966079999999], [24.0189971, 56.32976150000003], [23.915153, 56.33111710000002], [23.82885849999998, 56.338080900000044], [23.7814775, 56.320518], [23.764795300000017, 56.37332379999999], [23.713292599999967, 56.36948609999998], [23.661356699999956, 56.36474119999996], [23.6026802, 56.349068400000014], [23.544935799999987, 56.3321], [23.49257870000003, 56.34522010000002], [23.439078800000022, 56.35168790000004], [23.387975, 56.3789231], [23.30645219999998, 56.38305349999998], [23.177012600000023, 56.36859509999998], [23.1460196, 56.32676960000002], [23.0932498, 56.30463830000002], [23.04523150000004, 56.320037599999985], [23.005101699999962, 56.3684601], [22.96917170000001, 56.41389090000001], [22.920516899999964, 56.39914], [22.85703729999997, 56.36935240000002], [22.795349299999977, 56.36785070000003], [22.7331151, 56.37195970000001], [22.6800028, 56.351588399999976], [22.61622459999999, 56.38256829999998], [22.564549200000037, 56.3875568], [22.510935799999963, 56.392834200000024], [22.4476572, 56.40285539999998], [22.3888612, 56.40058929999997], [22.33319010000003, 56.40119569999997], [22.280189600000043, 56.40719969999998], [22.22448480000003, 56.40711130000004], [22.165750700000018, 56.41962780000004], [22.114875500000018, 56.42978519999998], [22.0622449, 56.41898], [22.011207399999975, 56.42058759999996], [21.97318410000002, 56.377811599999966], [21.919349, 56.3720174], [21.86876679999998, 56.36262129999997], [21.8143559, 56.36162140000002], [21.765504, 56.33700390000002], [21.710444099999958, 56.3143591], [21.65978030000004, 56.31855020000002], [21.607965199999988, 56.324775699999975], [21.55897440000003, 56.31325510000004], [21.514078, 56.28943219999997], [21.467095799999967, 56.270707799999954], [21.4173223, 56.242007], [21.353838099999976, 56.224695], [21.30588750000002, 56.20189549999998], [21.26755240000002, 56.16910420000002], [21.235300800000044, 56.12805010000003], [21.2042978, 56.08004459999997], [21.147498600000024, 56.082637800000036], [21.06462796472983, 56.069178322915974], [21.071904, 56.010612599999966], [21.054910399999958, 55.9261248], [21.057480200000043, 55.8659234], [21.069224, 55.7865342], [21.0856492, 55.7351254], [21.123846499999964, 55.70262519999997], [21.150789099999965, 55.660206], [21.169150300000037, 55.608428899999986], [21.20163, 55.56893], [21.220542, 55.52168289999996], [21.251546100000017, 55.46958480000003], [21.249939699999974, 55.41714680000004], [21.2195163, 55.37419929999997], [21.26886940000001, 55.358310700000025], [21.35889, 55.34334], [21.384370800000017, 55.293699600000025], [21.43121630000002, 55.25232579999996], [21.488075599999988, 55.201002], [21.54007390000001, 55.1962191], [21.594637800000037, 55.18791090000003], [21.649194900000033, 55.180811300000045], [21.709841500000014, 55.15128739999999], [21.760853599999972, 55.12317659999996], [21.8162719, 55.1186837], [21.879422300000016, 55.09363119999998], [21.965539599999982, 55.07387810000003], [22.032408099999977, 55.084098], [22.047652800000026, 55.03393849999997], [22.100243799999973, 55.02414910000001], [22.15856549999997, 55.055638499999986], [22.2180995, 55.06034529999996], [22.2913595, 55.064764], [22.348300499999983, 55.0616275], [22.425430700000025, 55.05396130000003], [22.49123589999997, 55.047693], [22.545168, 55.065267099999964], [22.597438099999987, 55.0459905], [22.625048800000023, 55.00414880000003], [22.660664800000017, 54.96452249999996], [22.71355309999996, 54.967794699999985], [22.762702499999985, 54.93765089999997], [22.799610799999968, 54.902548], [22.851759199999975, 54.89005130000001], [22.858754400000024, 54.838788], [22.877908599999984, 54.790805], [22.831235899999978, 54.769129], [22.7825368, 54.749075399999974], [22.738610899999976, 54.7189546], [22.729171099999988, 54.66867550000002], [22.72050489999997, 54.61660130000003], [22.68490049999996, 54.58113890000004], [22.683823700000037, 54.529401], [22.704118499999957, 54.46690960000004], [22.7671737, 54.38457949999999], [22.836302300000042, 54.406481], [22.887994799999987, 54.409087800000016], [22.9649851, 54.39058480000002], [23.009382200000015, 54.35572], [23.06316460000004, 54.34095849999997], [23.09216930000004, 54.29845370000003], [23.140399, 54.31594990000003], [23.20242130000003, 54.2886259], [23.248879400000042, 54.25681990000003], [23.337518899999974, 54.2517237], [23.38678479999996, 54.224837699999966], [23.4244732, 54.17752920000002], [23.475520600000042, 54.16341640000001], [23.496466700000028, 54.113026600000026], [23.5286013, 54.0657804], [23.513227700000037, 54.01794819999998], [23.49539770000004, 53.9694208], [23.538712400000026, 53.94295430000004], [23.591219599999967, 53.937544], [23.65204980000004, 53.9349652], [23.703136300000025, 53.9338809], [23.752738500000035, 53.92628550000002], [23.7977822, 53.899865], [23.82355, 53.94768409999996], [23.87518329999998, 53.94392990000002], [23.9242146, 53.9669563], [23.970531699999984, 53.941576199999965], [24.103109399999976, 53.9405138], [24.154208799999964, 53.96110830000002], [24.216033100000043, 53.95729030000004], [24.263126300000025, 53.93985989999998], [24.3161406, 53.90766689999997], [24.38969390000003, 53.90346630000004], [24.44080740000003, 53.9019136], [24.482524800000014, 53.9318049], [24.527759699999983, 53.96624920000003], [24.57405910000001, 53.98807819999997], [24.6259068, 54.01050479999997], [24.697865, 54.01714209999999], [24.68594239999997, 53.967146800000044], [24.738839700000035, 53.965992], [24.7840637, 53.994674599999975], [24.8323755, 54.01243750000001], [24.822860199999973, 54.062257500000015], [24.779151399999975, 54.09981020000002], [24.8312303, 54.13250059999998], [24.88129440000004, 54.1503417], [24.93020090000004, 54.16615710000003], [24.981369499999982, 54.1601207], [25.02911950000004, 54.13639120000001], [25.09143029999996, 54.1459952], [25.1393335, 54.18342250000003], [25.1886738, 54.208813800000016], [25.21485250000004, 54.2517055], [25.270027700000018, 54.2753139], [25.32138739999996, 54.261967499999976], [25.3731593, 54.2733678], [25.434050200000023, 54.2956023], [25.493987500000024, 54.302040599999984], [25.5425116, 54.27609849999998], [25.58458490000004, 54.234239], [25.542680500000035, 54.190855699999986], [25.58611780000004, 54.1467853], [25.63895549999997, 54.12765389999998], [25.689408400000023, 54.14818220000003], [25.73935119999997, 54.156185800000024], [25.7885812, 54.165195], [25.758261700000016, 54.209330400000034], [25.751644100000036, 54.26207929999999], [25.698712, 54.280532699999966], [25.66195150000001, 54.3222324], [25.5893248, 54.31592080000002], [25.536032500000026, 54.3317002], [25.59365990000004, 54.375362799999984], [25.62892729999997, 54.41708210000004], [25.602232899999986, 54.46082750000004], [25.6493983, 54.4887947], [25.682365500000024, 54.53641760000002], [25.7349139, 54.5590263], [25.755644099999973, 54.6082131], [25.734638599999958, 54.677695], [25.745366799999967, 54.75317829999999], [25.741556099999972, 54.809484], [25.78426349999998, 54.83935609999998], [25.818077299999985, 54.87957780000003], [25.860421499999962, 54.918480199999976], [25.916199900000024, 54.93413290000004], [25.96375639999997, 54.95246090000003], [26.023240599999962, 54.94306170000002], [26.072684, 54.951615399999966], [26.1186237, 54.98008109999996], [26.17217540000003, 54.993267200000034], [26.233351300000017, 55.0345487], [26.265293, 55.074345200000046], [26.301891699999967, 55.1252017], [26.3499957, 55.14645620000002], [26.413849300000035, 55.14096550000002], [26.47752120000004, 55.13771769999997], [26.53997819999998, 55.143235099999956], [26.5908741, 55.1539476], [26.641474900000038, 55.1549202], [26.694207499999976, 55.166837299999976], [26.729708100000014, 55.2156206], [26.759509400000024, 55.255836800000026], [26.826076, 55.27722840000001], [26.79402559999997, 55.3179164], [26.739575500000033, 55.324160900000024], [26.687073299999973, 55.3320238], [26.632441899999957, 55.32192490000002], [26.574088199999977, 55.324112], [26.5224876, 55.330504299999966], [26.465535299999974, 55.33938509999997], [26.511002900000012, 55.37945360000004], [26.5593564, 55.41108849999998], [26.54946040000001, 55.460299699999965], [26.5242191, 55.50992280000001], [26.581401499999966, 55.535456], [26.623702099999978, 55.5656165], [26.63765389999999, 55.654148], [26.592825800000018, 55.67653770000002], [26.54248520000002, 55.6767876], [26.492900599999956, 55.68796890000002], [26.446280200000015, 55.70684], [26.392432600000014, 55.708865399999986], [26.350029799999984, 55.74238540000002], [26.2686215, 55.7677261], [26.2312214, 55.81243250000002], [26.20374350000003, 55.8588881], [26.15114669999996, 55.8767901], [26.08999439999997, 55.90091310000004], [26.045279699999966, 55.94502950000001], [25.995085199999977, 55.96527710000002], [25.9459911, 55.9845786], [25.892844900000032, 56.000814], [25.8503509, 56.03049570000002], [25.801430700000026, 56.05866569999997], [25.75197360000003, 56.070574100000016], [25.70279540000002, 56.08227570000001], [25.676319199999973, 56.129926300000015], [25.6237161, 56.13609289999998], [25.565441399999987, 56.1399296], [25.5096328, 56.159091200000034], [25.454031700000044, 56.147064], [25.40257389999998, 56.148509900000015], [25.33735490000004, 56.15417160000004], [25.279689, 56.15831190000004], [25.23373990000004, 56.192224500000044], [25.1664061, 56.17392449999998], [25.11055, 56.1860194], [25.067964, 56.22602649999996], [25.044118700000027, 56.271331699999976], [24.9925895, 56.298445], [24.96660130000001, 56.3437385], [24.925030499999988, 56.402725399999966], [24.900206300000026, 56.4468984], [24.886428899999967, 56.450289900000044]]]]}}]}