{"type": "FeatureCollection", "features": [{"type": "Feature", "properties": {"code": "LUX", "name": "Luxembourg", "tier": "country"}, "geometry": {"type": "Polygon", "coordinates": [[[6.028116, 50.17522], [6.001703299999984, 50.176098], [5.971067400000019, 50.17502], [5.967153500000012, 50.155163], [5.961332300000023, 50.131363], [5.929662699999972, 50.12619], [5.895315599999985, 50.11216179999996], [5.886469, 50.09051], [5.868074399999968, 50.073494], [5.854204, 50.05889], [5.8699093, 50.045944], [5.853258, 50.027573], [5.833753600000025, 50.01842], [5.82080650000001, 50.00024], [5.840135599999964, 49.989437], [5.8234577, 49.975155], [5.8070393, 49.9624], [5.785627400000016, 49.96099], [5.775156, 49.937714], [5.760469399999969, 49.9173], [5.739889, 49.904198], [5.757341399999972, 49.88946], [5.778108599999988, 49.88376], [5.757635100000026, 49.873071699999954], [5.7457409, 49.85369680000003], [5.73919110000003, 49.83361629999999], [5.75118060000004, 49.814867], [5.753091799999988, 49.793397900000045], [5.776575100000026, 49.794626199999975], [5.798425699999977, 49.781902], [5.815973299999967, 49.762207], [5.832433699999974, 49.746925], [5.826921499999972, 49.726887], [5.86004069999997, 49.727234], [5.8869343, 49.709282], [5.865728400000015, 49.693], [5.882177399999967, 49.671806], [5.902273, 49.66818], [5.9022503, 49.64586], [5.883863400000023, 49.63298], [5.876596499999965, 49.608406], [5.849031399999972, 49.597725], [5.8677807, 49.5896474], [5.861059, 49.567024], [5.84181, 49.55311], [5.820032, 49.54919], [5.839159, 49.537315], [5.847826, 49.51495], [5.866262399999967, 49.499912], [5.889356599999963, 49.496754], [5.921945300000032, 49.50072769999996], [5.9431541, 49.50023169999996], [5.9721127, 49.491413], [5.974004699999958, 49.465485], [5.997934299999975, 49.456497], [6.02174950000003, 49.454975], [6.041774199999984, 49.44785389999998], [6.058107400000035, 49.46644], [6.079206499999979, 49.463917], [6.100775, 49.45289], [6.111078299999973, 49.472553], [6.128038400000025, 49.49392], [6.1531353, 49.49171], [6.174974399999967, 49.510307], [6.195245699999986, 49.506424], [6.217230400000019, 49.50689789999996], [6.240651299999956, 49.5149373], [6.262712500000013, 49.506622], [6.279581, 49.494595], [6.299467099999979, 49.48801230000002], [6.320650100000026, 49.47742270000003], [6.342649500000031, 49.469106700000026], [6.364450499999964, 49.45950509999997], [6.368707700000043, 49.4886379], [6.355833099999987, 49.530736900000036], [6.378263500000037, 49.54979519999996], [6.358366, 49.569788], [6.377595899999956, 49.5767994], [6.384340300000036, 49.5997295], [6.409132, 49.612760500000036], [6.4270535, 49.634920099999974], [6.439870800000015, 49.65614129999999], [6.44634820000003, 49.678175], [6.479684799999986, 49.69725229999998], [6.498117400000015, 49.711576499999985], [6.517149, 49.723470700000014], [6.502351799999984, 49.74578670000001], [6.5181522, 49.76210589999997], [6.516901, 49.782579400000024], [6.530641599999988, 49.805151], [6.510931, 49.80142019999999], [6.492860800000023, 49.8111019], [6.470987300000043, 49.8223248], [6.443403199999987, 49.81140710000003], [6.408834499999961, 49.817754699999966], [6.3639431, 49.8507175], [6.341535599999971, 49.84868050000003], [6.319768900000034, 49.840398800000024], [6.3138752, 49.86028860000001], [6.292181, 49.87018390000003], [6.26192670000001, 49.880849800000036], [6.246622099999978, 49.89525030000004], [6.226896299999974, 49.910799], [6.223524, 49.934002], [6.2117405, 49.95023], [6.192838699999959, 49.96697810000002], [6.178812, 49.952516600000024], [6.164838799999962, 49.970274], [6.150774, 49.994123500000015], [6.138528799999988, 50.01096920000002], [6.1298199, 50.029768], [6.125188799999971, 50.0507832], [6.129137, 50.07337], [6.119993199999963, 50.0920124], [6.134866700000031, 50.11339], [6.1265278, 50.133997], [6.115232499999968, 50.155064], [6.102449400000022, 50.17055], [6.079206499999979, 50.17079], [6.063444, 50.153343], [6.033594, 50.162273], [6.028116, 50.17522]]]}}]}