{"type": "FeatureCollection", "features": [{"type": "Feature", "properties": {"code": "LVA", "name": "the Republic of Latvia", "tier": "country"}, "geometry": {"type": "Polygon", "coordinates": [[[26.59752476500006, 55.674681365000026], [26.651453185000037, 55.70009569300004], [26.721862179000027, 55.70077657500008], [26.78396398800004, 55.677790955000035], [26.827425342000026, 55.705298121000055], [26.87844672500006, 55.727852032000044], [26.920625046000055, 55.78812967200008], [26.973607538000067, 55.81463976400005], [27.025238750000028, 55.82692011300003], [27.082470405000038, 55.82625183500005], [27.133434329000067, 55.85156876000008], [27.199662010000054, 55.834224909000056], [27.24248562300005, 55.80576150100006], [27.30559568700005, 55.79269570300005], [27.353446580000025, 55.807234866000044], [27.412001407000048, 55.80117462000004], [27.467966099000023, 55.79418921300004], [27.55108741400005, 55.784360055000036], [27.615520686000025, 55.78704358700003], [27.639684404000036, 55.84813228500008], [27.653239230000054, 55.91319271200007], [27.74440398200005, 55.97218322700007], [27.794691026000066, 55.979919334000044], [27.833301661000064, 56.02170994100004], [27.874935959000027, 56.053397878000055], [27.927619891000063, 56.065952209000045], [27.962178625000035, 56.10526741100006], [28.008618881000075, 56.12665182300003], [28.06054886900006, 56.134662545000026], [28.116001776000076, 56.16413594200003], [28.168548432000023, 56.17712474600006], [28.20401905400007, 56.214648286000056], [28.23967285200007, 56.27130170200007], [28.206219459000067, 56.32271376700004], [28.175635595000074, 56.36760607200006], [28.182508717000076, 56.42800491700007], [28.155314977000046, 56.472851554000044], [28.12555962500005, 56.515711845000055], [28.13722518000003, 56.564427282000054], [28.075946271000078, 56.586180038000066], [28.032682672000078, 56.61298091300006], [28.012508680000053, 56.67248961300004], [27.97550657100004, 56.70795239200004], [27.927129541000056, 56.729296402000045], [27.944649130000073, 56.77657837400005], [27.977729127000032, 56.814807665000046], [27.915088765000064, 56.823875798000074], [27.876513163000027, 56.86075570000003], [27.819698772000038, 56.86682553600008], [27.765677414000038, 56.862746403000074], [27.703699477000043, 56.847596216000056], [27.672046902000034, 56.89562197500004], [27.723822512000027, 56.914783998000075], [27.769565364000073, 57.00524053300006], [27.717696525000065, 57.002518999000074], [27.742447222000067, 57.048435563000055], [27.71932145200003, 57.093122977000064], [27.75721416700003, 57.13103212400006], [27.80684214100006, 57.141172839000035], [27.82565588700004, 57.19193775900004], [27.853930571000035, 57.23524798500006], [27.867799881000053, 57.29147203600007], [27.823910493000028, 57.323026190000064], [27.773260537000056, 57.331455145000064], [27.72115240100004, 57.361265841000034], [27.671321748000025, 57.38947932200006], [27.603239960000053, 57.41563167900006], [27.52719356800003, 57.42594264500008], [27.552164438000034, 57.47643110800004], [27.556406046000063, 57.53780666500006], [27.500589760000025, 57.54022516100008], [27.44414944600004, 57.53178538900005], [27.38051555100003, 57.535433788000034], [27.32574771800006, 57.52349170900004], [27.275332262000063, 57.54390561200006], [27.225509448000025, 57.55466767000007], [27.16139309700003, 57.56051976600003], [27.10887868900005, 57.56550005500003], [27.055839426000034, 57.58266344700007], [26.99521026000008, 57.604590691000055], [26.939913588000024, 57.60907664400003], [26.886623066000027, 57.62158641000008], [26.846340877000046, 57.58930728000007], [26.796883910000076, 57.581837343000075], [26.737805656000035, 57.58769822100004], [26.69228307900005, 57.56612610800005], [26.64281029600005, 57.546551572000055], [26.605184226000063, 57.511334677000036], [26.524905054000044, 57.51624710900006], [26.469490415000053, 57.57555830100006], [26.401571138000065, 57.57223438600005], [26.345001747000026, 57.58405766700008], [26.28887097200004, 57.59146762300003], [26.247518995000064, 57.62075771000008], [26.21211110200005, 57.66581642800003], [26.19667507400004, 57.72051173800003], [26.14290972300006, 57.73320918400003], [26.078686033000054, 57.766805602000034], [26.02410266100003, 57.76861693400008], [26.05047663000005, 57.822579947000065], [26.01099425700005, 57.85818814600003], [25.961959682000042, 57.845878377000076], [25.895494134000046, 57.85068866200004], [25.82027133300005, 57.86486214200005], [25.788288340000065, 57.90458171600005], [25.737462942000036, 57.92415628100008], [25.67896895800004, 57.90439272700007], [25.58051733700006, 57.944192659000066], [25.525284245000023, 57.97185915600005], [25.458453490000068, 57.99156239400003], [25.40831229400004, 58.02913730400007], [25.353374849000033, 58.043584503000034], [25.295672618000026, 58.081449973000076], [25.30060600300004, 58.01538100300007], [25.24586682900008, 58.00295707400005], [25.228265504000035, 58.053504659000055], [25.15387690500006, 58.07474868600008], [25.076951586000064, 58.06643410300006], [25.020405932000074, 58.01782472000008], [24.948868636000043, 58.00936397900006], [24.865723784000068, 57.98071859400005], [24.808295608000037, 57.990517467000075], [24.74214254800006, 57.98203776500003], [24.69209441600003, 57.94641612500004], [24.641421597000033, 57.95425622400006], [24.58509380000004, 57.962051004000045], [24.53102218300006, 57.94693037400003], [24.462261885000032, 57.92495426200003], [24.411324480000076, 57.864544023000064], [24.35677411000006, 57.87451745700008], [24.333166057000028, 57.82444157000003], [24.34877307800008, 57.75660777400003], [24.342632327000047, 57.70247729100004], [24.36937063000005, 57.65594053400008], [24.372273827000072, 57.600259891000064], [24.362453741000024, 57.54135039100004], [24.38149798300003, 57.49248828600008], [24.39853535700007, 57.40179014000006], [24.40458736100004, 57.345220392000044], [24.412330302000044, 57.285856770000066], [24.373161233000076, 57.21926613000005], [24.300400006000075, 57.174966108000035], [24.229242201000034, 57.13559586000008], [24.159042331000023, 57.100851815000055], [24.095733934000066, 57.07887232200005], [24.02921403700003, 57.06442616000004], [23.98556062600005, 57.03072059300007], [23.93605974600007, 57.011367085000074], [23.837926268000047, 56.98435994200008], [23.753073949000054, 56.969930496000075], [23.70227862300004, 56.96476742400006], [23.619406165000044, 56.965384319000066], [23.559939237000037, 56.97663994000004], [23.504361578000044, 57.02078260500008], [23.42647121400006, 57.03682757200005], [23.358357200000057, 57.04705257400008], [23.303650867000044, 57.06477150100005], [23.25912794000004, 57.08981632900003], [23.229884281000068, 57.13973278700007], [23.213013841000077, 57.18772802800004], [23.17837889200007, 57.234192963000055], [23.161322450000057, 57.30194186400007], [23.126945054000032, 57.33899351800005], [23.035770585000023, 57.37878557000005], [22.98681811600005, 57.400399572000026], [22.93828187500003, 57.41739121400008], [22.897341269000037, 57.452173326000036], [22.854583939000065, 57.48395366200003], [22.812303413000052, 57.51104483200004], [22.730768586000067, 57.53512191200008], [22.647684008000056, 57.57726203800007], [22.586800598000025, 57.64100265500008], [22.57539267100003, 57.70517408300003], [22.60618696800003, 57.75892063300006], [22.492870883000023, 57.73992452400006], [22.414544094000064, 57.71892917400004], [22.261947720000023, 57.67472922800005], [22.154699090000065, 57.64714876200003], [22.087337379000076, 57.62596966000007], [22.021338556000046, 57.60905139000005], [21.96624255100005, 57.60081123800006], [21.901625827000032, 57.598840213000074], [21.838124377000042, 57.59743208300006], [21.723692836000055, 57.57791222900005], [21.67666055600006, 57.52954505100007], [21.63608623700003, 57.48478334600003], [21.593692458000078, 57.430286324000065], [21.550498892000064, 57.40451977400005], [21.51041226600006, 57.37035154000006], [21.454395731000034, 57.31825671300004], [21.411591931000032, 57.26777615100008], [21.414449192000063, 57.21315125500007], [21.407196373000033, 57.15852280300004], [21.41715681900007, 57.079338077000045], [21.39675429400006, 57.02913454000003], [21.349526678000075, 56.98239406300007], [21.30409310600004, 56.95793206700006], [21.244598091000057, 56.91826000800006], [21.185079634000033, 56.89355418300005], [21.118617176000043, 56.868961298000045], [21.067462324000076, 56.84398810000005], [21.058110843000065, 56.78755692000004], [21.059647319000078, 56.732263825000075], [21.05146269000005, 56.67224203600006], [21.029185385000062, 56.613768468000046], [21.003471330000025, 56.56795616900007], [20.968366480000043, 56.52551811400008], [20.996722066000075, 56.483855565000056], [20.995572416000073, 56.43376403500008], [20.973957320000068, 56.37562256700005], [20.983567545000028, 56.306306144000075], [20.980177739000055, 56.24732806900005], [21.038777264000032, 56.12726756300003], [21.06466808400006, 56.06919138100005], [21.143341858000042, 56.080022762000056], [21.20247476000003, 56.07710657400003], [21.235494732000063, 56.115783074000035], [21.24866924400004, 56.16621037900006], [21.293585558000075, 56.19125692700004], [21.33817745600004, 56.21737732100007], [21.40559867500008, 56.236076094000055], [21.465214840000044, 56.260526611000046], [21.502761968000073, 56.295496], [21.55737110700005, 56.30468132700008], [21.60770655300007, 56.323154214000056], [21.659766484000045, 56.31855305600004], [21.710449924000045, 56.31435944300006], [21.756989273000045, 56.33727532100005], [21.80805027400004, 56.35898967400004], [21.866481608000072, 56.366060247000064], [21.91813547000004, 56.36813134500005], [21.96949405500004, 56.37664920000003], [22.014225298000042, 56.41432259700008], [22.068872304000024, 56.421308441000065], [22.118384241000058, 56.430051340000034], [22.20972970200006, 56.42389050200006], [22.26451110900007, 56.40466194700008], [22.319426175000046, 56.40808252200003], [22.38880043100005, 56.40059645500003], [22.447708875000046, 56.40284657400008], [22.50164509500007, 56.39597065800007], [22.551403452000045, 56.38916045900004], [22.601547931000027, 56.382308401000046], [22.651162015000068, 56.36198160400005], [22.711414154000067, 56.36509729900007], [22.795349344000044, 56.367850659000055], [22.847800946000064, 56.36816001900007], [22.899852132000035, 56.37419946800003], [22.935701668000036, 56.41065317200008], [23.00225029300003, 56.406423550000056], [23.015311386000064, 56.34608986400008], [23.07042171100005, 56.324360813000055], [23.14601964600007, 56.32676957800004], [23.177012614000034, 56.36859507200006], [23.281519810000077, 56.372786407000035], [23.38797503400008, 56.37892313700007], [23.43892928100007, 56.35178733400005], [23.492626234000056, 56.34520447500006], [23.54493578100005, 56.33209995300007], [23.602680156000076, 56.34906844000005], [23.657630268000048, 56.36307066100005], [23.713663671000063, 56.36953233200006], [23.76479525600007, 56.37332382000005], [23.781477489000054, 56.320517978000055], [23.82885850100007, 56.33808085900006], [23.912615475000052, 56.33869046700005], [24.018972321000035, 56.32977941400003], [24.046005525000055, 56.27966082100005], [24.097835167000028, 56.27728482900005], [24.15466465800006, 56.253769970000064], [24.240256960000067, 56.27800060000004], [24.290132803000063, 56.285601874000065], [24.34063880100007, 56.29563066700007], [24.392017744000043, 56.27841712900005], [24.454149648000055, 56.25815790200005], [24.519241257000033, 56.28126352500004], [24.57944846500004, 56.28827456400006], [24.60566229400007, 56.33539504500004], [24.63772711000007, 56.37589115000003], [24.687731774000042, 56.37634364300004], [24.733547045000023, 56.400559361000035], [24.787022614000023, 56.40317850000008], [24.840313253000033, 56.41436396900008], [24.88544981700005, 56.45041347500006], [24.915266365000036, 56.405800741000064], [24.955637350000075, 56.36973498300006], [24.970486531000063, 56.32016349200006], [25.015942205000044, 56.29174530500006], [25.05917599000003, 56.25817193000006], [25.075391679000063, 56.20540026500004], [25.122348470000077, 56.18484547800006], [25.187504510000053, 56.176719485000035], [25.238635421000026, 56.186685099000044], [25.297448802000076, 56.15361041600005], [25.352626590000057, 56.15301879700007], [25.40407508900006, 56.15821592000003], [25.454965557000037, 56.15265945500005], [25.504739199000028, 56.14454281800005], [25.56536667200004, 56.13986485800007], [25.623731835000058, 56.13608495300008], [25.67294712000006, 56.149484560000076], [25.69924430100008, 56.101119459000074], [25.751970982000046, 56.07057525500005], [25.802000372000066, 56.05853620400006], [25.85034410000003, 56.03049732200003], [25.89287459800005, 56.00083150200004], [25.944818997000027, 55.98787112200006], [25.997412920000045, 55.96620164700005], [26.045279667000045, 55.945029487000056], [26.084184153000024, 55.909733637000045], [26.151146750000066, 55.876790087000074], [26.203748930000074, 55.85888218100007], [26.23559603800004, 55.819791388000056], [26.26862146900004, 55.76772606800006], [26.313351468000064, 55.74284051600006], [26.365529438000067, 55.73155178400003], [26.41795574300005, 55.70872560300006], [26.470885671000076, 55.70268951700007], [26.521266216000072, 55.678630715000054], [26.57239209900007, 55.680073959000026], [26.59752476500006, 55.674681365000026]]]}}]}