{"type": "FeatureCollection", "features": [{"type": "Feature", "properties": {"code": "MAR", "name": "Morocco", "tier": "country"}, "geometry": {"type": "Polygon", "coordinates": [[[-5.401291499999987, 35.922312], [-5.4495722, 35.90578109999996], [-5.500240199999988, 35.8874739], [-5.542873800000018, 35.85932], [-5.588954299999964, 35.8329167], [-5.642848800000026, 35.831486], [-5.693441899999955, 35.835114200000014], [-5.744201299999967, 35.8194706], [-5.781718, 35.7768503], [-5.835823, 35.7947179], [-5.888371399999974, 35.799423], [-5.934147, 35.77509960000001], [-5.968648599999986, 35.671302899999986], [-5.995301199999973, 35.57778029999997], [-6.018731900000011, 35.4977225], [-6.050141, 35.455359100000024], [-6.075383, 35.40088340000001], [-6.113387199999957, 35.2981376], [-6.15098980000001, 35.20385260000003], [-6.181148600000023, 35.1592394], [-6.208737300000015, 35.09795620000001], [-6.243835599999985, 34.99920760000005], [-6.301392699999957, 34.87207779999997], [-6.2514519, 34.85847819999997], [-6.277226982480004, 34.812519740139535], [-6.2863369, 34.8638865], [-6.390255399999971, 34.69813280000001], [-6.453714899999989, 34.5884816], [-6.52583410000002, 34.46915040000001], [-6.643777, 34.311221], [-6.675494900000027, 34.265248699999965], [-6.7024189, 34.20346260000003], [-6.766900300000016, 34.11097940000003], [-6.802496300000042, 34.07192720000003], [-6.83324710000001, 34.03238], [-6.9063373, 33.97448059999997], [-6.951771300000013, 33.932115], [-6.996229099999988, 33.9012973], [-7.0403642, 33.87638790000001], [-7.120244400000024, 33.83302209999997], [-7.169503299999961, 33.8184333], [-7.218146600000034, 33.80103739999996], [-7.271892200000034, 33.7772857], [-7.313984699999969, 33.74635709999998], [-7.3575662, 33.712581400000026], [-7.411995, 33.704534], [-7.463991199999979, 33.666581800000024], [-7.505335800000028, 33.63821030000001], [-7.559292, 33.6157429], [-7.6114355, 33.608946399999965], [-7.672506800000038, 33.597457299999974], [-7.7242671, 33.56647830000004], [-7.786165299999974, 33.536876700000036], [-7.84173860000003, 33.524167399999975], [-7.889553599999958, 33.505602500000016], [-7.9416262, 33.481408100000024], [-7.996766600000031, 33.465829699999986], [-8.055652900000025, 33.4423449], [-8.122998200000035, 33.41635060000004], [-8.173963400000021, 33.403971699999964], [-8.226986500000015, 33.38218130000002], [-8.281439600000022, 33.36881910000003], [-8.327395300000033, 33.333280599999966], [-8.393819699999964, 33.28023809999996], [-8.446844199999985, 33.25212610000002], [-8.499149, 33.252263800000044], [-8.549865199999955, 33.2355507], [-8.590632799999957, 33.19964349999998], [-8.626906, 33.16416579999997], [-8.632296600000037, 33.11132160000004], [-8.666669699999956, 33.0740208], [-8.703444299999978, 33.035939699999965], [-8.741092399999976, 32.9992612], [-8.775666900000038, 32.959737599999976], [-8.844086600000038, 32.89634220000002], [-8.885314400000015, 32.856425399999985], [-8.923988099999962, 32.823918], [-8.967236, 32.79308609999996], [-9.03870589999997, 32.743327599999986], [-8.99527880000001, 32.771161099999986], [-9.038389399999984, 32.73422820000001], [-9.0898144, 32.68985759999997], [-9.179129699999981, 32.617424], [-9.271193099999968, 32.5531861], [-9.24766, 32.49538720000001], [-9.238415199999965, 32.442115200000025], [-9.267832099999966, 32.392467199999956], [-9.2807504, 32.3299295], [-9.252216200000023, 32.272971], [-9.250907199999984, 32.2186082], [-9.275534199999973, 32.16141910000002], [-9.31853930000001, 32.11805119999998], [-9.329532900000041, 32.0665997], [-9.3790895, 32.002439], [-9.424371, 31.9577935], [-9.461118, 31.92196], [-9.49552260000001, 31.88316220000003], [-9.532051899999987, 31.844308899999966], [-9.5841833, 31.798015199999966], [-9.621842599999956, 31.75117079999997], [-9.668168699999972, 31.70295650000004], [-9.675982299999967, 31.652820900000037], [-9.6878196, 31.6038882], [-9.722273500000027, 31.5586507], [-9.761895900000043, 31.519353], [-9.798472400000017, 31.446546699999985], [-9.834769599999975, 31.410482600000037], [-9.802814800000041, 31.367171], [-9.797855400000037, 31.2935263], [-9.81770680000004, 31.2433982], [-9.81623390000003, 31.19008330000002], [-9.838515, 31.134489], [-9.81746730000003, 31.084963], [-9.815386299999977, 31.034166899999967], [-9.821562699999957, 30.98337530000004], [-9.816981199999956, 30.92407479999997], [-9.8129949, 30.874070299999985], [-9.804818, 30.82432290000004], [-9.828894499999967, 30.777366600000015], [-9.851684700000034, 30.73239570000004], [-9.88157040000001, 30.67406569999998], [-9.872587900000022, 30.6239431], [-9.819371, 30.625189700000014], [-9.767180500000043, 30.592539800000033], [-9.730342500000015, 30.548629599999984], [-9.687281100000027, 30.5077591], [-9.6662947, 30.457976299999963], [-9.632376, 30.420248500000028], [-9.6059098, 30.371165900000022], [-9.618159699999966, 30.314956099999975], [-9.627590099999976, 30.26533120000004], [-9.642395, 30.205255200000018], [-9.654712, 30.134464699999967], [-9.681107899999956, 30.0675535], [-9.708278299999977, 30.024043500000012], [-9.7327317, 29.973243], [-9.761780900000032, 29.928259799999964], [-9.783711600000037, 29.88190360000003], [-9.824841099999963, 29.823021700000048], [-9.894949100000032, 29.75055270000003], [-9.9520381, 29.705207900000026], [-9.985234199999963, 29.66089409999997], [-10.022304799999963, 29.61646729999999], [-10.054493100000032, 29.5726082], [-10.071459499999984, 29.519927], [-10.101505900000022, 29.4729103], [-10.136267700000039, 29.42641019999997], [-10.173940599999957, 29.3858052], [-10.207135900000035, 29.3357479], [-10.25124529999996, 29.284395400000037], [-10.2965712, 29.258657699999986], [-10.335901, 29.22548440000004], [-10.3817454, 29.18006359999997], [-10.424004500000043, 29.128622899999982], [-10.453400299999986, 29.08580819999998], [-10.491000099999985, 29.0492101], [-10.531723200000036, 29.0139323], [-10.62055069999998, 28.961280900000034], [-10.70350020000003, 28.917198400000025], [-10.844300099999986, 28.848441500000014], [-10.974322400000018, 28.791232], [-11.041039099999976, 28.762568600000023], [-11.088959, 28.716483699999976], [-11.129277799999963, 28.6800822], [-11.169385499999988, 28.6416719], [-11.212544399999963, 28.6147443], [-11.2706616, 28.5528394], [-11.3197463, 28.518374899999984], [-11.357615299999985, 28.483651899999977], [-11.388943400000024, 28.438439800000033], [-11.4187561, 28.3934285], [-11.4520503, 28.349343300000037], [-11.495501700000016, 28.3187613], [-11.56747531587094, 28.285564281351945], [-11.614177599999959, 28.266510400000037], [-11.662083, 28.251719100000024], [-11.713624605639556, 28.237843855581616], [-11.765481, 28.21841], [-11.837618700000036, 28.192010800000048], [-11.9189195, 28.161891600000025], [-11.981919400000013, 28.132383800000056], [-12.029847200000038, 28.11284440000002], [-12.081249800000066, 28.0882589], [-12.137132300000037, 28.0751327], [-12.1902463, 28.064386800000037], [-12.2494868, 28.05414270000002], [-12.307238100000045, 28.043282800000043], [-12.473563800000015, 28.01365740000002], [-12.55909, 27.996393], [-12.659336, 27.982708], [-12.714175, 27.978487], [-12.824507, 27.965876], [-12.915385, 27.954681], [-12.95916, 27.921775], [-12.98892, 27.878233], [-13.001532, 27.829806], [-13.043128, 27.760701], [-13.111744, 27.721916], [-13.158389, 27.69811], [-13.185176399999982, 27.643176700000012], [-13.205605100000056, 27.58036959999997], [-13.228163, 27.510606], [-13.251250500000062, 27.461423599999975], [-13.275674, 27.395964], [-13.300648, 27.345852], [-13.322782, 27.291585], [-13.354191, 27.250799], [-13.388818, 27.194736], [-13.418644799999985, 27.110874300000013], [-13.430592, 27.059240500000044], [-13.461097, 26.989425100000027], [-13.478723, 26.939125], [-13.509289, 26.851981], [-13.531032, 26.800754], [-13.563594099999982, 26.74421780000005], [-13.599698, 26.707029], [-13.66391, 26.654133], [-13.720125, 26.620173], [-13.770801, 26.592575], [-13.825471, 26.563833], [-13.884442, 26.531244], [-13.976131300000056, 26.471824], [-14.0383242, 26.445607], [-14.109204, 26.429513], [-14.179821, 26.426333], [-14.209304, 26.377738], [-14.249386800000025, 26.3333319], [-14.292126899999985, 26.304196], [-14.347957600000022, 26.27120769999998], [-14.404449, 26.261854], [-14.446045, 26.216987], [-14.477777, 26.170785], [-14.5005764, 26.123287099999985], [-14.489039, 26.073036], [-14.492418, 26.016432], [-14.510132, 25.96837], [-14.528829, 25.920308], [-14.562169300000022, 25.865269500000036], [-14.594362, 25.813963], [-14.633153, 25.773918], [-14.651077100000037, 25.714995800000032], [-14.664588400000017, 25.6653868], [-14.686306500000018, 25.617789200000022], [-14.690261, 25.563273], [-14.718053, 25.50658], [-14.764824200000021, 25.45279540000003], [-14.793677900000052, 25.397175600000036], [-14.81025710000003, 25.340294300000025], [-14.8283057, 25.2796976], [-14.845079200000061, 25.205848600000017], [-14.838791, 25.14039], [-14.841544, 25.088402], [-14.818560100000017, 25.040426700000044], [-14.825158, 24.984143], [-14.830319, 24.927781], [-14.840967, 24.878117], [-14.859504, 24.828459], [-14.882405, 24.769793], [-14.884711, 24.714198], [-14.92123, 24.66892], [-14.978417, 24.636249], [-15.00165, 24.583999], [-15.031617, 24.542425], [-15.10279, 24.516653], [-15.155933, 24.492283], [-15.199476, 24.45671], [-15.251539, 24.405924], [-15.289785, 24.351801], [-15.327037, 24.306164], [-15.370745, 24.269254], [-15.415881, 24.24105269999997], [-15.464258, 24.194864], [-15.502833899999974, 24.1554163], [-15.5428783, 24.1140637], [-15.582894099999972, 24.078263300000028], [-15.619476, 24.026998], [-15.708303499999982, 23.97636170000004], [-15.766101900000024, 23.94712439999998], [-15.807229, 23.912352], [-15.875939, 23.845565], [-15.9153566, 23.799554499999957], [-15.936079299999978, 23.74111579999996], [-15.970754899999967, 23.689054699999982], [-16.005404799999962, 23.648097500000013], [-15.96014, 23.669642], [-15.922420499999962, 23.710176700000044], [-15.907670299999971, 23.7584461], [-15.88478, 23.80518], [-15.8460867, 23.8609565], [-15.795339, 23.891049], [-15.738136899999983, 23.9030058], [-15.739545800000027, 23.841316399999982], [-15.74101420000002, 23.787322], [-15.778976, 23.752903], [-15.806378, 23.706686], [-15.8379069, 23.66749519999996], [-15.876858, 23.628408], [-15.90066719999998, 23.58139220000002], [-15.931668100000035, 23.54074830000004], [-15.9753474, 23.509242200000017], [-15.9722742, 23.437376099999966], [-15.997109299999973, 23.389634199999957], [-16.04808009999998, 23.341002400000036], [-16.073896100000024, 23.29099589999997], [-16.114655200000033, 23.232547], [-16.1301609, 23.18247070000004], [-16.1629289, 23.1422748], [-16.1982424, 23.106418500000018], [-16.1491834, 23.06078559999998], [-16.143385299999963, 23.009579200000022], [-16.16905, 22.959145], [-16.210490199999978, 22.920278600000014], [-16.268560699999973, 22.896631], [-16.303173600000015, 22.859817600000024], [-16.308170500000013, 22.802393500000044], [-16.3366373, 22.750346299999972], [-16.339805400000035, 22.69098019999998], [-16.346959199999972, 22.640365200000016], [-16.359877, 22.57810620000003], [-16.406056700000033, 22.534153899999957], [-16.4413578, 22.4899293], [-16.45276460000002, 22.430492400000016], [-16.46881080000004, 22.37738279999997], [-16.4957571, 22.3337634], [-16.549116199999986, 22.290230299999973], [-16.614423400000028, 22.269611200000043], [-16.658218499999972, 22.2949484], [-16.706830899999975, 22.2726808], [-16.748755, 22.230163], [-16.770959400000013, 22.180652900000023], [-16.812227, 22.151429599999965], [-16.830327399999984, 22.1035047], [-16.848685599999985, 22.0512587], [-16.87190619999996, 22.000052100000026], [-16.89677619999998, 21.942914], [-16.9168919, 21.871801600000044], [-16.953159700000015, 21.834162299999974], [-16.96402559999996, 21.78442609999998], [-16.967421199999983, 21.732772100000023], [-16.97803380000002, 21.679826200000022], [-16.98329060000003, 21.61774630000002], [-16.981912, 21.560234599999987], [-16.99284359999997, 21.498781100000034], [-17.0104895, 21.444468800000042], [-17.0153736, 21.394113399999974], [-17.03057740000004, 21.338618600000018], [-17.0357929, 21.274023800000034], [-17.050478499999983, 21.184728], [-17.054019499999956, 21.127152299999977], [-17.0641814, 21.073218899999983], [-17.065682, 21.01898450000004], [-17.0845554, 20.958746699999956], [-17.08528230000001, 20.902252900000033], [-17.103014199999972, 20.849402300000012], [-17.072260799999967, 20.804978199999983], [-17.068327799999977, 20.915491900000042], [-17.040556, 20.993333], [-17.038056, 21.043333], [-17.010556, 21.091667], [-16.960556, 21.300556], [-16.513056, 21.339722], [-16.036111, 21.339444], [-15.757222, 21.338056], [-15.482222, 21.337778], [-15.040565599999972, 21.3370952], [-14.687222, 21.338611], [-14.448889, 21.341389], [-14.028889, 21.3425], [-13.56, 21.341111], [-12.999637100000022, 21.336717600000025], [-13.021111, 21.644722], [-13.043889, 21.985], [-13.075629100000036, 22.45730620000002], [-13.083986, 22.536674100000024], [-13.150290199999976, 22.757512499999958], [-13.105278, 22.893056], [-12.998333, 23.024722], [-12.571389, 23.291389], [-12.365833, 23.318611], [-12.155833, 23.416389], [-12.000278, 23.454444], [-12.000833, 23.799722], [-12.000278, 24.099722], [-12.0, 24.399722], [-12.000833, 24.733056], [-12.000278, 24.999722], [-12.000278, 25.366389], [-12.0, 25.699167], [-12.000556, 26.0], [-11.598542900000059, 25.998399299999967], [-11.261657299999989, 25.99908539999998], [-10.733333, 25.999444], [-10.333889, 25.999444], [-9.933611, 25.999444], [-9.4, 25.999444], [-8.966944, 25.999722], [-8.666944, 26.000278], [-8.666944, 26.333333], [-8.66688290000001, 26.72943920000002], [-8.666667, 27.033333], [-8.668091199999976, 27.388143100000043], [-8.667496, 27.832437], [-8.668009, 28.043115], [-8.668908, 28.30392], [-8.668909, 28.714092], [-8.590197800000025, 28.74264049999998], [-8.536732, 28.768103], [-8.463874, 28.795753], [-8.415135, 28.835475], [-8.370548499999979, 28.874235], [-8.32121730000001, 28.917979], [-8.278206, 28.946785], [-8.2356479, 28.974131], [-8.187349899999978, 29.0038975], [-8.1392552, 29.02574759999999], [-8.07770490000003, 29.067535699999965], [-8.000643, 29.106018], [-7.956560300000019, 29.137078800000012], [-7.904255, 29.186880700000025], [-7.838312399999962, 29.2119338], [-7.786455, 29.255923], [-7.709503, 29.287323], [-7.651169, 29.298879], [-7.624917, 29.345548], [-7.564714, 29.373295], [-7.495034, 29.364807], [-7.412, 29.381451], [-7.340684799999979, 29.3961318], [-7.267155, 29.465536], [-7.220785, 29.493969], [-7.156506, 29.520606], [-7.080967, 29.514287], [-7.022626, 29.493585], [-6.9718, 29.495179], [-6.915404, 29.497439], [-6.862761, 29.484756], [-6.812709, 29.464544], [-6.756979, 29.467087], [-6.720969, 29.505695], [-6.659331, 29.517673], [-6.576001, 29.522982299999974], [-6.522957599999961, 29.52477479999996], [-6.468197599999963, 29.5601692], [-6.409146099999978, 29.563080900000045], [-6.345473, 29.566635], [-6.289677, 29.570458], [-6.234599, 29.570468], [-6.165324, 29.582295], [-6.103861, 29.570347], [-6.048926, 29.56565], [-5.998108, 29.57846], [-5.92226, 29.59625], [-5.869649, 29.604816], [-5.799863, 29.614681], [-5.745759, 29.600687], [-5.744158, 29.548108], [-5.694465, 29.536989], [-5.650809, 29.504543], [-5.598923, 29.488242], [-5.54208, 29.512175], [-5.334689, 29.768411], [-5.329453, 29.82834], [-5.286074, 29.89761], [-5.240797, 29.93393], [-5.186331, 29.970197], [-5.138751, 30.001193], [-4.936618, 30.140473], [-4.607478, 30.282621], [-4.321267, 30.528866], [-4.146572, 30.585303], [-3.995902, 30.592865], [-3.9270058, 30.60382529999997], [-3.865585300000022, 30.60520669999996], [-3.816799200000036, 30.590355], [-3.7678687, 30.626146899999988], [-3.7202933, 30.6458931], [-3.671679299999957, 30.664066], [-3.640131699999964, 30.706099399999957], [-3.6354507, 30.764484699999976], [-3.650873400000025, 30.839257099999976], [-3.613136, 30.873281], [-3.586577, 30.919145], [-3.540543, 30.955089], [-3.538008, 31.005984], [-3.548606, 31.061497], [-3.603061, 31.073545], [-3.636938, 31.111301], [-3.638993, 31.169772], [-3.644183, 31.110038], [-3.680926, 31.165213], [-3.733906, 31.146092], [-3.774395, 31.116206], [-3.761262, 31.172117], [-3.772305, 31.223], [-3.754446, 31.279126], [-3.764633, 31.334038], [-3.714989, 31.346882], [-3.673603, 31.377], [-3.664666, 31.633535], [-3.318531, 31.699824], [-3.2517668, 31.71361990000002], [-3.00062, 31.758667], [-2.870211, 31.787886], [-2.8219199, 31.814402499999964], [-2.8379788, 31.86471070000004], [-2.8623676, 31.910731], [-2.885198599999974, 31.966122], [-2.916475300000023, 32.00831429999998], [-2.923654400000011, 32.0593895], [-2.873435, 32.111359], [-2.819822, 32.115259], [-2.763658, 32.113142], [-2.697331, 32.115603], [-2.600034, 32.112911], [-2.546689, 32.145227], [-2.485793, 32.152159], [-2.436002, 32.159606], [-2.371946799999982, 32.156334300000026], [-2.314322200000021, 32.1583208], [-2.259353, 32.162414], [-2.190332, 32.14311], [-2.132496, 32.14649], [-2.014916, 32.182183], [-1.968579, 32.157321], [-1.9098323, 32.164710799999966], [-1.859795199999983, 32.146664500000014], [-1.801561199999959, 32.136351800000014], [-1.748861099999957, 32.12108230000004], [-1.696785500000022, 32.118736099999985], [-1.6466797, 32.108487500000045], [-1.580311, 32.09224], [-1.504776, 32.103871], [-1.449828, 32.093271], [-1.382336, 32.086452], [-1.280701799999964, 32.08455880000001], [-1.229689199999964, 32.0763672], [-1.182905800000036, 32.10337450000003], [-1.183153, 32.163625], [-1.232882, 32.174], [-1.287745899999972, 32.158542], [-1.2567632, 32.19833589999999], [-1.248160800000022, 32.25068579999997], [-1.2367217, 32.30481909999999], [-1.218124, 32.360716], [-1.177701, 32.41285], [-1.122403, 32.414746], [-1.079504, 32.442874], [-1.032207299999968, 32.48441519999999], [-1.00517220000004, 32.526623700000016], [-1.105634, 32.586907], [-1.271116, 32.695935], [-1.382258, 32.739706], [-1.498276, 32.898751], [-1.543783, 32.957761], [-1.485929, 32.975354], [-1.468941, 33.03293], [-1.484217, 33.080829], [-1.534599, 33.107526], [-1.57333689999998, 33.1458016], [-1.600287, 33.195245], [-1.6416732, 33.2459953], [-1.66481209999997, 33.290439700000015], [-1.6599143, 33.34591920000003], [-1.652826, 33.403789], [-1.6212669, 33.4481823], [-1.60618, 33.4982192], [-1.598884400000014, 33.5507604], [-1.5990153, 33.60191849999997], [-1.643982, 33.660521], [-1.701939200000027, 33.67562929999997], [-1.730151700000029, 33.734177100000025], [-1.67132, 33.773102], [-1.698746600000014, 33.86968760000003], [-1.6647104, 34.01774729999998], [-1.65296310000004, 34.08035820000004], [-1.671093799999959, 34.15458969999997], [-1.706718100000018, 34.230231], [-1.710893800000015, 34.2885002], [-1.734193399999953, 34.34533770000004], [-1.775948400000029, 34.381874], [-1.74202109999996, 34.433628], [-1.70135979999996, 34.47654770000002], [-1.741365100000039, 34.507819099999985], [-1.779546799999956, 34.550212799999976], [-1.812239700000031, 34.59475139999997], [-1.8166502, 34.6560792], [-1.7752214, 34.6989636], [-1.7392661, 34.74367359999997], [-1.790084500000013, 34.766185], [-1.842037099999985, 34.788082], [-1.890159699999963, 34.82642589999996], [-1.9298918, 34.8576885], [-1.974524699999982, 34.889530800000045], [-2.0120538, 34.931954899999965], [-2.0849907, 34.95083679999996], [-2.123852599999978, 34.98828370000001], [-2.17276339999998, 35.0128011], [-2.213529200000011, 35.04431280000003], [-2.265962499999965, 35.09919009999996], [-2.340115200000028, 35.1243909], [-2.418584600000031, 35.14250480000004], [-2.464025099999958, 35.11761140000003], [-2.5134238, 35.092278], [-2.56461680000001, 35.081264799999985], [-2.625407500000012, 35.086573700000045], [-2.680178500000032, 35.09873419999999], [-2.729218199999952, 35.11879039999997], [-2.839904900000025, 35.1927365], [-2.800922400000019, 35.1570603], [-2.760520800000013, 35.120744099999975], [-2.810921199999985, 35.102329800000035], [-2.8577957, 35.12102590000002], [-2.902161099999958, 35.14853110000003], [-2.926991499999989, 35.19269840000004], [-2.930811699999971, 35.24488359999998], [-2.880473, 35.22224740000004], [-2.9225367, 35.26402260000002], [-2.968242400000012, 35.2849086], [-2.9605509, 35.33840630000001], [-2.9635523, 35.3914531], [-2.9768761, 35.43976850000004], [-3.0102648, 35.40154759999999], [-3.02724290000004, 35.351479100000034], [-3.059603399999968, 35.303605799999985], [-3.1027565, 35.2729267], [-3.159574, 35.251297499999986], [-3.20272559999996, 35.22373280000002], [-3.2590759, 35.21283449999997], [-3.3109377, 35.20027670000002], [-3.36481069999998, 35.18943309999996], [-3.4258699, 35.19244620000005], [-3.488522500000039, 35.19940530000004], [-3.537800100000014, 35.218213300000045], [-3.5931042, 35.2285834], [-3.6398948, 35.25614389999997], [-3.685195100000042, 35.28371080000002], [-3.743106099999986, 35.273662699999974], [-3.76962219999996, 35.227883099999964], [-3.817395900000024, 35.200219199999964], [-3.869672100000036, 35.202578400000036], [-3.914293400000039, 35.22543110000004], [-3.965737, 35.24472510000001], [-4.018080299999964, 35.2363274], [-4.0696859, 35.223836199999965], [-4.116082800000013, 35.204264700000024], [-4.1760704, 35.1979439], [-4.226540100000024, 35.1856989], [-4.282758900000021, 35.177921300000044], [-4.33267059999997, 35.15660609999998], [-4.383108600000034, 35.152662], [-4.4666925, 35.164844500000044], [-4.519939300000024, 35.17517669999997], [-4.571900399999988, 35.18701240000004], [-4.6336637, 35.19695040000005], [-4.722439099999979, 35.21724969999998], [-4.783579799999986, 35.23877229999997], [-4.840491700000042, 35.27646119999997], [-4.889599, 35.303962800000036], [-4.9363161, 35.32673080000005], [-4.97250150000003, 35.365347499999984], [-5.016284200000014, 35.403407599999966], [-5.07099979999998, 35.4196333], [-5.1064776, 35.47721409999998], [-5.153163600000036, 35.5045778], [-5.193216699999985, 35.535275799999965], [-5.242745100000016, 35.55267349999998], [-5.2652617, 35.60210589999998], [-5.284278499999965, 35.665977], [-5.326489500000024, 35.69342859999996], [-5.341930499999973, 35.74791409999999], [-5.3533964, 35.83987610000002], [-5.3753088, 35.8881962], [-5.401291499999987, 35.922312]]]}}]}