{"type": "FeatureCollection", "features": [{"type": "Feature", "properties": {"code": "MDA", "name": "Republic of Moldova", "tier": "country"}, "geometry": {"type": "Polygon", "coordinates": [[[28.187801618000037, 46.35240067900003], [28.19767242900008, 46.33363838100007], [28.19593094000004, 46.30729893500006], [28.17990923800005, 46.29009327600005], [28.15779232400007, 46.28648301100003], [28.13776519700008, 46.28106716700006], [28.12836115500005, 46.260602481000035], [28.111991155000055, 46.24482742200007], [28.106418389000055, 46.22133706000005], [28.12557477200005, 46.20603280200004], [28.132889027000033, 46.178305574000035], [28.12348498500006, 46.155872454000075], [28.119305410000038, 46.13403359200004], [28.102238815000078, 46.10965070900005], [28.110086401000046, 46.08896357700007], [28.092127293000033, 46.069522224000025], [28.10110684700004, 46.04743004800008], [28.089950431000034, 46.03005221400008], [28.088317785000072, 46.00907820400005], [28.098755836000066, 45.98854242500005], [28.10955307000006, 45.96663726200006], [28.116344878000064, 45.944723433000036], [28.112535371000035, 45.91677376300004], [28.110358509000037, 45.89253730200005], [28.113623801000074, 45.870942795000076], [28.106004786000028, 45.82810782000007], [28.122440091000044, 45.80868854600004], [28.14281551600004, 45.78586224600008], [28.14664679200007, 45.76035372700005], [28.16097054200003, 45.73968023500004], [28.16015421900005, 45.71270660700003], [28.169677989000036, 45.68020699400006], [28.16341951100003, 45.65872027700004], [28.170222204000027, 45.63988885200007], [28.151718880000033, 45.629043644000035], [28.12722918700007, 45.62409601000007], [28.10328370900004, 45.62295418700006], [28.072807646000058, 45.61229604400006], [28.086957246000054, 45.595733841000026], [28.129678156000068, 45.57135757100008], [28.155069206000064, 45.54779251700006], [28.166973918000053, 45.52188218200007], [28.169950096000036, 45.49894008700005], [28.186106491000032, 45.47569050900006], [28.21543562000005, 45.46824337000004], [28.228496790000065, 45.487292652000065], [28.246782428000074, 45.50877641900007], [28.263152427000023, 45.522321625000075], [28.308725025000058, 45.546017891000076], [28.344099027000027, 45.53648874000004], [28.402874291000046, 45.51513758100003], [28.424642908000067, 45.48385876200007], [28.485050818000047, 45.48691111900007], [28.51062894200004, 45.49301533700003], [28.50790786500005, 45.52581417300007], [28.50437046500008, 45.551734606000025], [28.518792173000065, 45.57269092200005], [28.54545872800003, 45.581071259000055], [28.53539074300005, 45.610011893000035], [28.523962220000044, 45.65415566400003], [28.487227680000046, 45.66081226700004], [28.530764912000052, 45.72695486400005], [28.588723853000033, 45.73227328200005], [28.59471022300005, 45.765122277000046], [28.618111485000043, 45.765122277000046], [28.65103651800007, 45.77347385100006], [28.71027754000005, 45.782240166000065], [28.70508749800007, 45.80901780800008], [28.776710085000047, 45.83288971500008], [28.780862119000062, 45.871208024000055], [28.768406017000075, 45.89360838300007], [28.760101949000045, 45.92177665100007], [28.768406017000075, 45.95353907600003], [28.787090170000056, 45.96436301700004], [28.853522715000054, 45.98528330800008], [28.93344937100005, 45.99393766800006], [28.972978338000075, 46.00978613500007], [28.991965703000062, 46.03414027400004], [29.00467857500007, 46.05589787200006], [28.967769885000052, 46.08971844300004], [28.953620285000056, 46.110850491000065], [28.993075902000044, 46.13513290600008], [29.041970255000024, 46.18195828700004], [29.05132395700008, 46.19991216500006], [29.027939702000026, 46.21227044200003], [28.997141574000068, 46.23249376500007], [28.977876136000077, 46.24903458000006], [28.951967443000058, 46.26786665600008], [28.96126799900003, 46.29770913200008], [28.985848041000054, 46.320195022000064], [28.983190739000065, 46.35688682700004], [28.97521883400003, 46.37889009200006], [28.957946372000038, 46.40409127100003], [28.947981490000075, 46.425617603000035], [28.943995538000024, 46.45628938600004], [28.98784101700005, 46.458119991000046], [29.021057290000044, 46.48648650000007], [29.04563733200007, 46.49334714400004], [29.064504174000035, 46.514179901000034], [29.11339852800006, 46.513594717000046], [29.13508211000004, 46.51154652500003], [29.15931670300006, 46.512424331000034], [29.18397646300008, 46.52354198100005], [29.170796246000066, 46.54050663900006], [29.19375533400006, 46.543723476000025], [29.23287081600006, 46.55308046500005], [29.24009867700005, 46.524127057000044], [29.241374182000072, 46.50276768500004], [29.257105409000076, 46.485791240000026], [29.230319807000058, 46.462952493000046], [29.231595312000024, 46.442740996000055], [29.23074497500005, 46.415487545000076], [29.21543891700003, 46.390566558000046], [29.238398004000032, 46.37648850000005], [29.26050675500005, 46.384407854000074], [29.264758438000058, 46.40640003300007], [29.29962223800004, 46.41636690100006], [29.323856830000068, 46.41431504800005], [29.30940110800003, 46.44069013500007], [29.30940110800003, 46.465588222000065], [29.33873772000004, 46.47554427000006], [29.329809186000034, 46.49369472700005], [29.349792096000044, 46.49632896800006], [29.371050510000032, 46.47935051300004], [29.37615253000007, 46.45533744700003], [29.393584429000043, 46.43277894900007], [29.399961954000048, 46.45709486000004], [29.422921041000052, 46.475251471000036], [29.450556980000044, 46.49281661900005], [29.46926438500003, 46.48081438100007], [29.48924729400005, 46.47173776100004], [29.49860099700004, 46.43834620000007], [29.512631550000037, 46.414901300000054], [29.549196023000036, 46.40581369000006], [29.56280140800004, 46.38880699900005], [29.57938297100003, 46.36387382400005], [29.66059011400006, 46.355658050000045], [29.682273697000028, 46.35859239700005], [29.679297519000045, 46.37942172800007], [29.66866831200008, 46.420177281000065], [29.679297519000045, 46.44069013500007], [29.70480761600004, 46.42896945000007], [29.730742882000072, 46.43160682400003], [29.746899277000068, 46.45152952500007], [29.776235889000077, 46.46119526900003], [29.792392284000073, 46.44010416100008], [29.805147332000047, 46.41402192000004], [29.817052044000036, 46.38470114200004], [29.841711805000045, 46.370328208000046], [29.885504139000034, 46.35536460700007], [29.898259187000065, 46.37619516900003], [29.93756174400005, 46.39984435900004], [29.971575207000058, 46.392337790000056], [30.013479793000045, 46.37938653000003], [30.046132718000024, 46.396278867000035], [30.066540796000027, 46.40265905600006], [30.08722098100003, 46.387457966000056], [30.13837723000006, 46.40378489400007], [30.154431584000065, 46.41860626500005], [30.133207183000025, 46.41485440000008], [30.104091659000062, 46.42986031000004], [30.08232304300003, 46.43548646200003], [30.05919388800004, 46.42760968700003], [30.028445717000068, 46.44279959100004], [30.001779162000048, 46.45536088000006], [30.02300356300003, 46.467169598000055], [30.003139701000066, 46.47166748400008], [29.99416014600007, 46.49040467400005], [29.971303099000068, 46.49508796300006], [29.949534483000036, 46.49508796300006], [29.93021483600006, 46.50201849100006], [29.90762989600006, 46.513255308000055], [29.895385050000073, 46.53871682500005], [29.916065235000076, 46.55537268100005], [29.941099144000077, 46.555185565000045], [29.948990267000056, 46.58418085500006], [29.96667726800007, 46.59764436200004], [29.951777246000063, 46.62718485900007], [29.95111292000007, 46.65865493100006], [29.972371335000048, 46.68190365300006], [29.970378358000062, 46.70240892800007], [29.972371335000048, 46.72700498000006], [29.98632216900006, 46.76069247600003], [29.952441571000065, 46.78162274200008], [29.943141015000037, 46.804818529000045], [29.971707009000056, 46.81118425100004], [29.959084826000037, 46.83073140100004], [29.91856097300007, 46.823913435000065], [29.887337677000062, 46.84709099100007], [29.881358748000025, 46.87888704800008], [29.856167527000025, 46.87839662300007], [29.820453391000058, 46.87083988300003], [29.792817452000065, 46.86996788300007], [29.765606681000065, 46.86677042900004], [29.746474109000076, 46.88188399000006], [29.74392309900003, 46.908032019000075], [29.697154587000057, 46.91093656800007], [29.672494826000047, 46.91471224700007], [29.647835066000027, 46.93213501100007], [29.627426988000025, 46.946649653000065], [29.59468903000004, 46.93707043100005], [29.610845425000036, 46.96174070600006], [29.61424677100007, 47.030756987000075], [29.635505185000056, 47.04002968900005], [29.629552829000033, 47.06899649800005], [29.622936148000065, 47.08917344000008], [29.583740946000034, 47.082840694000026], [29.555174952000073, 47.07334016200008], [29.523287330000073, 47.105002013000046], [29.583076621000032, 47.12941400900007], [29.59835610600004, 47.14342324300003], [29.57311173900007, 47.22198722600007], [29.583076621000032, 47.24905129900003], [29.608985313000062, 47.280608580000035], [29.588432745000034, 47.36614111600005], [29.546912404000068, 47.36262572700008], [29.518886174000045, 47.361219505000065], [29.505392063000045, 47.343638577000036], [29.50435405500008, 47.323237361000054], [29.450377612000068, 47.295084821000046], [29.425465408000036, 47.30001259800008], [29.408857271000045, 47.31197814500007], [29.39951519500005, 47.34574859700007], [29.415085323000028, 47.374577094000074], [29.379793033000055, 47.374577094000074], [29.352804812000045, 47.36825023700004], [29.338272692000032, 47.412522300000035], [29.315810321000072, 47.43906521700006], [29.296572386000037, 47.43320303400003], [29.255659837000053, 47.41407087300007], [29.254299298000035, 47.44573239300007], [29.220557943000074, 47.44389212800007], [29.195524034000073, 47.43855499700004], [29.17729281800007, 47.45548472000007], [29.197156680000035, 47.47719095400004], [29.187802978000036, 47.50591952600007], [29.165880238000057, 47.507265792000055], [29.149936427000057, 47.52610989300007], [29.135985593000044, 47.548982919000025], [29.19909651100005, 47.56646732400003], [29.214375996000058, 47.59066686800003], [29.226998179000077, 47.61709432500004], [29.234970085000043, 47.64216566300007], [29.235634410000046, 47.665435423000076], [29.231648458000052, 47.69450804100006], [29.213711670000066, 47.72043608600006], [29.25290687200004, 47.74769132000006], [29.26287175400006, 47.77225348300004], [29.27947989000006, 47.79635777900006], [29.259550127000068, 47.80751339100004], [29.23098413200006, 47.79725031600003], [29.209061392000024, 47.824911361000034], [29.24360631600007, 47.86325551700003], [29.268186357000047, 47.88820856700005], [29.24360631600007, 47.89355408600005], [29.210390043000075, 47.88241696600005], [29.191788931000076, 47.929176779000045], [29.181159723000064, 47.96344046200005], [29.17252349300003, 47.98256484400008], [29.139971546000027, 47.99190208400006], [29.08350388200006, 47.97856265200005], [29.09346876400008, 47.95988165600005], [29.069553048000046, 47.945643981000046], [29.033679474000053, 47.94697893000006], [29.009099432000028, 47.958102161000056], [28.969904230000054, 47.97633907900007], [28.929380378000076, 47.962995625000076], [28.899485733000063, 47.97678380100007], [28.883541922000063, 47.996792345000074], [28.87402878100005, 48.01608212700006], [28.853620703000047, 48.02404483500004], [28.843416665000063, 48.04622018200007], [28.834062962000075, 48.074067987000035], [28.838739813000075, 48.11978525300003], [28.803450846000032, 48.131988576000026], [28.77581490700004, 48.128015720000064], [28.750304809000056, 48.13908219900003], [28.72224370200007, 48.13000218600007], [28.678026201000023, 48.136812346000056], [28.647414084000047, 48.14787693000005], [28.605747592000057, 48.16914827100004], [28.585339514000054, 48.17028249500004], [28.565781772000037, 48.175953238000034], [28.54452335800005, 48.17311794500006], [28.514336410000055, 48.15355015000006], [28.521989439000038, 48.13340737900006], [28.49350316300007, 48.11694685500004], [28.486700471000063, 48.06156675400007], [28.465867225000068, 48.07151116400007], [28.447159820000024, 48.082873851000045], [28.42717691100006, 48.10729513000007], [28.418248376000065, 48.128015720000064], [28.43100342500003, 48.14362160300004], [28.41909871300004, 48.17510266700003], [28.369354023000028, 48.176520278000055], [28.347670441000048, 48.140500806000034], [28.30898012600005, 48.13908219900003], [28.304303275000052, 48.16064079300003], [28.336616065000044, 48.18105637100007], [28.35277246000004, 48.19749634200008], [28.36000032100003, 48.22242967600005], [28.354738863000023, 48.24558130100007], [28.330823147000046, 48.250447473000065], [28.302257153000028, 48.241599542000074], [28.25841167300007, 48.226554547000035], [28.221873773000027, 48.21327587800005], [28.199951034000037, 48.21106243200006], [28.18201424600005, 48.22478425700007], [28.179356945000052, 48.24912038100007], [28.16009150700006, 48.261505234000026], [28.129532536000056, 48.250447473000065], [28.106945471000074, 48.23452009600004], [28.086351382000032, 48.24558130100007], [28.085022731000038, 48.266812110000046], [28.091665985000077, 48.29819985100005], [28.081701103000057, 48.316758168000035], [28.06044268900007, 48.32559309000004], [28.00796097800003, 48.32515138100007], [27.97341605500003, 48.324267950000035], [27.95149331500005, 48.33310157100004], [27.90299755700005, 48.36533130500004], [27.879746167000064, 48.39665848000004], [27.854501799000047, 48.414299103000076], [27.831250409000063, 48.425321385000075], [27.76614651500006, 48.45705220500008], [27.67579825300004, 48.44515547000003], [27.62464519400004, 48.45352753700007], [27.601393803000065, 48.47070798200008], [27.598736501000076, 48.490964622000035], [27.546919116000026, 48.47246975000007], [27.514367169000025, 48.46454131200005], [27.482479547000025, 48.45352753700007], [27.46454276000003, 48.43590052700006], [27.450591926000072, 48.421353639000074], [27.399438866000025, 48.417385583000055], [27.373530174000052, 48.41650375000006], [27.366222594000078, 48.43942641900003], [27.317726836000077, 48.44383343900006], [27.280524611000033, 48.393570742000065], [27.248636989000033, 48.37812924100007], [27.211393243000032, 48.38055607300004], [27.196861124000066, 48.39503192700005], [27.15222675800004, 48.38193490300006], [27.12004849400006, 48.38744985000005], [27.094098281000072, 48.42534893800007], [27.070224085000063, 48.43292536600006], [27.045311881000032, 48.42879290900004], [27.029741753000053, 48.41363769000003], [27.02351370200006, 48.38607116900005], [27.000677515000064, 48.36814492000008], [26.974727302000076, 48.36331754400004], [26.923864884000068, 48.37159276600005], [26.896876663000057, 48.38607116900005], [26.887534586000072, 48.41708245500007], [26.851204288000076, 48.41639352000004], [26.81902602400004, 48.41363769000003], [26.78477174300008, 48.41157071900005], [26.76297356500004, 48.40468020900005], [26.72560525800003, 48.412259719000076], [26.72041521500006, 48.38744985000005], [26.746365428000047, 48.37159276600005], [26.772315641000034, 48.35917942800006], [26.80864593900003, 48.344003462000046], [26.826292084000045, 48.31985056500008], [26.813835982000057, 48.293614465000076], [26.781657718000076, 48.29568622700003], [26.76089754800006, 48.31225729200003], [26.744289411000068, 48.32399187400006], [26.702769071000034, 48.35366141800006], [26.692388985000036, 48.32813284700006], [26.672666824000032, 48.316399217000026], [26.647754619000068, 48.30397243200008], [26.633222500000045, 48.283254397000064], [26.63945055100004, 48.26045485000003], [26.661248730000068, 48.26805582900005], [26.67993288300005, 48.25423502600006], [26.70692110500005, 48.27012862700008], [26.73702335200005, 48.253543887000035], [26.75770048100003, 48.25310155400007], [26.817489772000044, 48.25265921700003], [26.834097908000047, 48.23186505100006], [26.86664985500005, 48.22743967000008], [26.877943388000062, 48.21017702600005], [26.907838033000075, 48.19910816700008], [26.924446169000078, 48.183607746000064], [26.943047282000066, 48.19113710800008], [26.940389980000077, 48.169431830000065], [26.987557087000027, 48.15613834800007], [26.96895597400004, 48.14860384600007], [26.971613276000028, 48.12776740600003], [26.99885062000004, 48.125106826000035], [27.02741661400006, 48.12954104900007], [27.04668205200005, 48.11357605400008], [27.032731218000038, 48.09006300500005], [27.053325307000023, 48.06343147700005], [27.076576697000064, 48.05099871400006], [27.087205905000076, 48.02790133000008], [27.103814041000078, 48.004793591000066], [27.13570166200003, 48.00879374800007], [27.150316822000036, 47.99190208400006], [27.14832384600004, 47.971002111000075], [27.16161035500005, 47.95454298800007], [27.165596308000033, 47.93006703200007], [27.205455835000066, 47.90647014500007], [27.213427740000043, 47.861918407000076], [27.21010611300005, 47.84185762300007], [27.24797266300004, 47.832939227000054], [27.218742344000077, 47.82089696200006], [27.24465103600005, 47.80349764700003], [27.267902427000024, 47.77314643400007], [27.288496516000066, 47.754391242000054], [27.291818143000057, 47.73026748700005], [27.269231078000075, 47.728480098000034], [27.27321703100006, 47.70389727100007], [27.291818143000057, 47.68243369000004], [27.297797072000037, 47.65872405600004], [27.33101334500003, 47.63142227600008], [27.352271759000075, 47.624706538000055], [27.37436058000003, 47.60393825600005], [27.403424819000065, 47.58713846400008], [27.427299015000074, 47.571033603000046], [27.456363253000063, 47.535305152000035], [27.469857364000063, 47.48692788400007], [27.507225670000025, 47.48552498000004], [27.532137875000046, 47.47921144500003], [27.56016410500007, 47.47359877700006], [27.568468173000042, 47.44903630600004], [27.572620207000057, 47.423760077000054], [27.596494403000065, 47.412522300000035], [27.577810249000038, 47.39776907800007], [27.589595383000074, 47.37997203900005], [27.59767358000005, 47.356359316000066], [27.612129302000028, 47.34022747900008], [27.582367522000027, 47.33100707300008], [27.599374254000054, 47.31832638600008], [27.629136034000055, 47.324667110000064], [27.64529242900005, 47.307084141000075], [27.670377358000053, 47.307084141000075], [27.69163577200004, 47.29180238500004], [27.712894187000074, 47.30218292700005], [27.737979116000076, 47.27449695300004], [27.749883828000065, 47.25603158600006], [27.769135448000043, 47.23829877400004], [27.782468725000058, 47.22019040400005], [27.78600612500003, 47.19930266600005], [27.800972049000052, 47.18506471500007], [27.80559788000005, 47.16249806400003], [27.787094556000056, 47.15232143700007], [27.802060480000023, 47.13659009000003], [27.84015555900004, 47.13862617400008], [27.858114667000052, 47.11974313500008], [27.877706422000074, 47.10900273100003], [27.88777440700005, 47.090109175000066], [27.901651900000047, 47.07287685500006], [27.944372809000072, 47.06750219600008], [27.94981496300005, 47.04785227800005], [27.972944118000044, 47.044885624000074], [27.995801165000046, 47.03561376600004], [28.020562967000046, 47.032831894000026], [28.045868983000048, 47.02838059800007], [28.04124315200005, 47.00630410400004], [28.06654916900004, 46.99795347100007], [28.092127293000033, 46.982176493000054], [28.085052492000045, 46.96045232900008], [28.10301160100005, 46.948193779000064], [28.107365324000057, 46.92571247800004], [28.089950431000034, 46.90601035900005], [28.11233945300006, 46.89752506500008], [28.10885647400005, 46.87419660200004], [28.123136687000056, 46.85693177200005], [28.12069860200006, 46.83704056900007], [28.124704027000064, 46.81535434300008], [28.14281551600004, 46.802481457000056], [28.16336509000007, 46.78352410300005], [28.180779983000036, 46.768138700000065], [28.18495955700007, 46.74666335100005], [28.206956744000024, 46.71903854400006], [28.211038360000032, 46.696087936000026], [28.230630114000064, 46.68190219500008], [28.236344376000034, 46.66061659800005], [28.24532393000004, 46.636146480000036], [28.246055220000073, 46.60071759300007], [28.22734781500003, 46.58084952300004], [28.23542601300005, 46.56243584100008], [28.218844449000073, 46.54079908700004], [28.218419281000024, 46.51856857700005], [28.230749161000062, 46.48403475400005], [28.24945656600005, 46.46675961600005], [28.253400087000045, 46.43754923900008], [28.241035513000043, 46.419664244000046], [28.227277747000073, 46.40369482800003], [28.217873705000045, 46.38387664800007], [28.19889147200007, 46.37234275900005], [28.192970408000065, 46.353114196000035], [28.187801618000037, 46.35240067900003]]]}}]}