{"type": "FeatureCollection", "features": [{"type": "Feature", "properties": {"code": "MDG", "name": "Madagascar", "tier": "country"}, "geometry": {"type": "MultiPolygon", "coordinates": [[[[43.29974330000002, -22.2362708], [43.29974330000002, -22.2362708]]], [[[43.24796110000002, -22.1760061], [43.24796110000002, -22.1760061]]], [[[44.32151249999996, -19.22109370000002], [44.32151249999996, -19.22109370000002]]], [[[44.28471970000003, -19.170988499999957], [44.28471970000003, -19.170988499999957]]], [[[44.30221629999998, -19.167707700000015], [44.30221629999998, -19.167707700000015]]], [[[44.27466179999997, -19.146739100000033], [44.27466179999997, -19.146739100000033]]], [[[44.28881790000001, -19.1318563], [44.28881790000001, -19.1318563]]], [[[44.24842750000004, -19.075033799999964], [44.263177099999986, -19.13922439999999], [44.246306699999984, -19.085157399999957], [44.24842750000004, -19.075033799999964]]], [[[44.249761099999986, -19.01940730000004], [44.249761099999986, -19.01940730000004]]], [[[44.2365545, -19.005702699999965], [44.24398540000003, -19.068834400000036], [44.2373081, -19.0185836], [44.2365545, -19.005702699999965]]], [[[44.24969119999997, -18.97459219999999], [44.24969119999997, -18.97459219999999]]], [[[44.23384919999997, -18.945938499999983], [44.2353791, -18.996168399999974], [44.23384919999997, -18.945938499999983]]], [[[49.81276280000002, -17.108149], [49.81276280000002, -17.108149]]], [[[50.0121455, -16.7038317], [49.973661800000045, -16.736236], [49.95657049999998, -16.7992895], [49.91769270000002, -16.84467880000004], [49.880983100000044, -16.8796246], [49.857193, -16.9287962], [49.854478599999965, -16.9825708], [49.8311723, -17.031576699999967], [49.8187073, -17.080267299999953], [49.856661, -17.0428955], [49.88221860000004, -16.99546679999996], [49.90856229999996, -16.943673600000032], [49.931134, -16.89774729999997], [49.966206899999975, -16.826932400000032], [49.99977039999997, -16.75018749999998], [50.0121455, -16.7038317]]], [[[44.43148039999998, -16.36756360000004], [44.43148039999998, -16.36756360000004]]], [[[44.41040790000002, -16.3198438], [44.415528500000036, -16.373536100000024], [44.44023733244653, -16.430604858429078], [44.4191714, -16.37886580000002], [44.407587599999985, -16.326276799999974], [44.41040790000002, -16.3198438]]], [[[44.446229599999974, -16.24703019999997], [44.429542, -16.299800900000044], [44.44967810000002, -16.2537376], [44.446229599999974, -16.24703019999997]]], [[[44.4425416, -16.230789400000013], [44.4325262, -16.282547399999963], [44.4412028, -16.232717799999968], [44.4425416, -16.230789400000013]]], [[[44.6881969, -16.202179], [44.748987, -16.205737300000024], [44.69463379999996, -16.205694500000035], [44.6881969, -16.202179]]], [[[44.92605150000002, -16.181267800000015], [44.92605150000002, -16.181267800000015]]], [[[45.563158899999976, -16.05094330000002], [45.563158899999976, -16.05094330000002]]], [[[45.58813250000004, -16.026658099999985], [45.58813250000004, -16.026658099999985]]], [[[46.0945566, -15.785091499999973], [46.0945566, -15.785091499999973]]], [[[47.256454499999954, -15.473849299999967], [47.256454499999954, -15.473849299999967]]], [[[47.546369200000036, -14.989016899999955], [47.5020181, -15.024265600000023], [47.546369200000036, -14.989016899999955]]], [[[47.997764, -14.757251299999977], [47.99604739999999, -14.705785599999968], [47.99038259999997, -14.757915300000027], [47.997764, -14.757251299999977]]], [[[47.594932599999986, -14.506137200000039], [47.57733639999997, -14.553644299999982], [47.62925819999997, -14.5707608], [47.606748500000016, -14.5222256], [47.594932599999986, -14.506137200000039]]], [[[48.3512755, -13.5343061], [48.32870789999997, -13.579371499999985], [48.35681930000004, -13.53727279999998], [48.3512755, -13.5343061]]], [[[48.3462624, -13.440736700000025], [48.33082220000002, -13.4897031], [48.36084980000002, -13.448944], [48.3462624, -13.440736700000025]]], [[[48.47005039999996, -13.3030222], [48.4800468, -13.35320220000004], [48.47005039999996, -13.3030222]]], [[[48.26906049999997, -13.198873499999989], [48.2547484, -13.248126], [48.217131299999984, -13.282228], [48.17262130000004, -13.2531398], [48.18959330000001, -13.301339300000029], [48.19049290000002, -13.355798199999983], [48.207980900000045, -13.403031700000026], [48.260811, -13.4163691], [48.31419970000002, -13.42507], [48.35251719999998, -13.388912700000036], [48.30877780000002, -13.361352099999971], [48.34554660000001, -13.326303500000028], [48.3266751, -13.275559100000015], [48.3026062, -13.229984600000014], [48.26906049999997, -13.198873499999989]]], [[[48.9043622, -12.970861099999956], [48.9043622, -12.970861099999956]]], [[[49.245989700000024, -11.9520417], [49.20809240000001, -11.989071800000032], [49.1825408, -12.036343799999974], [49.20494889999998, -12.0820313], [49.155576399999966, -12.067282], [49.09311740000004, -12.097692100000016], [49.1505262, -12.11208620000003], [49.19896930000003, -12.142929500000013], [49.15954079999998, -12.1763856], [49.1596891, -12.230635], [49.13945180000003, -12.2809677], [49.09294, -12.262181099999983], [49.09219720000002, -12.316244], [49.0423726, -12.29963249999996], [49.012462599999964, -12.340631], [48.965233700000034, -12.3602379], [48.95264559999997, -12.418492200000012], [48.939881800000016, -12.475428599999963], [48.90355310000003, -12.511306599999964], [48.87836670000003, -12.465055500000025], [48.853569, -12.420816300000018], [48.80178960000001, -12.408166700000015], [48.752339599999985, -12.399649], [48.720259399999975, -12.442906], [48.77036340000003, -12.436884900000026], [48.78517590000002, -12.491630499999987], [48.819657, -12.52889390000004], [48.867858, -12.547908399999988], [48.8567899, -12.602165799999968], [48.855358400000036, -12.663711099999967], [48.89642129999996, -12.694174200000022], [48.902141, -12.748308300000014], [48.9270957, -12.793322099999985], [48.97438570000001, -12.819962600000038], [48.948792700000034, -12.868702600000029], [48.99069529999998, -12.89787570000002], [48.95704459999997, -12.935477800000031], [48.96148139999998, -12.9872843], [48.9145117, -13.013440500000032], [48.882714, -13.053566200000036], [48.843778299999975, -13.085612099999958], [48.83378019999998, -13.135983], [48.82891939999996, -13.1870056], [48.841349, -13.2402585], [48.889293, -13.259718500000043], [48.8458933, -13.291419600000035], [48.80249930000002, -13.32131], [48.81276529999998, -13.3726312], [48.77072950000003, -13.4016412], [48.74963390000002, -13.449354699999963], [48.704476, -13.480621900000026], [48.6882225, -13.5288862], [48.6586414, -13.485606399999975], [48.612845, -13.4510082], [48.58959720000002, -13.49589610000003], [48.568768100000035, -13.447929199999967], [48.51720739999998, -13.447683], [48.501393, -13.399761800000013], [48.48994980000003, -13.450502499999986], [48.51880730000002, -13.49662209999997], [48.563968799999955, -13.523159899999962], [48.528935599999954, -13.56058020000003], [48.48340209999997, -13.585616100000012], [48.43265449999996, -13.580721400000032], [48.38373629999997, -13.6013248], [48.354559700000046, -13.645042099999985], [48.34241450000003, -13.69511610000004], [48.350278799999955, -13.745147], [48.331574, -13.7920591], [48.278625700000035, -13.814905600000019], [48.22877369999996, -13.820268500000013], [48.195349799999974, -13.7735518], [48.1759044, -13.725963700000024], [48.15658270000003, -13.668594699999984], [48.14180140000004, -13.617198400000033], [48.0953322, -13.59709690000003], [48.07293610000003, -13.6421375], [48.08459170000003, -13.59311010000003], [48.06876949999999, -13.54221579999996], [48.01990269999998, -13.52632249999998], [48.0581166, -13.563455099999958], [48.014609499999985, -13.592023600000017], [47.97583480000003, -13.557753199999981], [47.97451890000004, -13.507019], [47.952205299999974, -13.562303499999976], [47.967975299999964, -13.6138531], [47.91998119999996, -13.595115799999983], [47.886789, -13.646470499999955], [47.87862989999998, -13.700622], [47.916689199999986, -13.733895899999974], [47.867660700000016, -13.751202800000032], [47.870432, -13.805612900000034], [47.88336980000003, -13.872259599999973], [47.91658729999999, -13.91600929999998], [47.96897259999997, -13.911902299999982], [48.0192105, -13.9145893], [48.018029100000035, -13.965537700000011], [47.98839840000002, -14.008442], [47.93426430000003, -14.00099559999998], [47.9688398, -14.045360099999963], [48.01886889999998, -14.061558499999963], [48.046123799999975, -14.107446599999976], [48.04296220000004, -14.168409099999982], [48.034271599999954, -14.217977400000029], [48.04601390000003, -14.268571200000016], [48.027055700000034, -14.315436599999979], [48.005209199999975, -14.3604607], [48.00427079999996, -14.411023099999968], [47.9662764, -14.3747183], [47.96268180000003, -14.322256800000025], [47.964399, -14.272045200000042], [47.97416670000003, -14.2219908], [47.99446460000003, -14.170389100000028], [47.9672028, -14.122725899999958], [47.92256289999997, -14.09676090000002], [47.936004, -14.147561499999975], [47.943687499999974, -14.2012622], [47.9298026, -14.24982279999997], [47.87719420000003, -14.2633336], [47.82305370000004, -14.239269599999963], [47.77323570000003, -14.244229900000041], [47.75377759999997, -14.315248], [47.71696660000004, -14.349653300000012], [47.69697210000001, -14.399824500000028], [47.69311880000004, -14.452771400000023], [47.7164271, -14.501158], [47.721030899999974, -14.5534921], [47.731163, -14.603572399999956], [47.780665300000045, -14.5880572], [47.83057679999998, -14.605218199999973], [47.87841609999997, -14.58455539999998], [47.92040439999998, -14.551860099999972], [47.9509228, -14.5118399], [47.9989974, -14.5307906], [47.95138050000003, -14.546323700000011], [47.955515300000016, -14.598777599999982], [48.00344090000004, -14.5807525], [48.007914800000016, -14.630998], [48.016989399999986, -14.683104499999958], [48.01154530000002, -14.7527828], [48.01111590000002, -14.8034798], [47.960554200000026, -14.815685], [47.9989329, -14.85533779999996], [47.96210440000004, -14.890561900000035], [47.911610200000034, -14.90459339999998], [47.8998769, -14.9572496], [47.87742859999997, -14.911718], [47.88464879999999, -14.857574600000026], [47.93488460000002, -14.83480289999998], [47.89791090000004, -14.8002669], [47.93608590000002, -14.766838299999977], [47.979082100000035, -14.738748199999977], [47.9881888, -14.6889575], [47.9758785, -14.629146699999987], [47.93705640000003, -14.66155570000002], [47.9340256, -14.711784099999972], [47.88240529999999, -14.72787619999997], [47.868335, -14.673225100000012], [47.8331039, -14.637363500000037], [47.79818920000003, -14.594283], [47.75247009999997, -14.619413100000026], [47.72631353994501, -14.662592836318359], [47.68619050000002, -14.7093853], [47.66187880000001, -14.754717600000037], [47.63053449999997, -14.7990991], [47.6209501, -14.849152400000035], [47.586804, -14.89330579999996], [47.584242899999964, -14.944824199999976], [47.56628580000002, -14.993427400000018], [47.5355043, -15.03342020000004], [47.49967659999999, -15.0733372], [47.466807, -15.118110499999974], [47.426599, -15.148154900000025], [47.397237, -15.106500199999987], [47.40425480000003, -15.047077099999987], [47.40102270000004, -14.994972699999979], [47.4275215, -14.948861199999955], [47.467249499999966, -14.898744600000017], [47.49748, -14.856965199999964], [47.49291130000004, -14.804749499999984], [47.485910399999966, -14.751786199999964], [47.47211390000001, -14.701469800000014], [47.41659889999998, -14.706212799999966], [47.362699, -14.759773500000032], [47.321768600000034, -14.80474729999998], [47.2790534, -14.861164200000024], [47.330614900000036, -14.877258700000043], [47.379957, -14.8620752], [47.37535610000001, -14.913362299999969], [47.3404021, -14.949899200000042], [47.2859438, -14.934357899999965], [47.25355940000004, -14.977939800000032], [47.272614, -15.026417900000025], [47.23528179999996, -14.990737500000032], [47.2089258, -15.042496100000028], [47.16716240000003, -15.078950500000024], [47.1143729, -15.1092784], [47.0695057, -15.153100599999961], [47.04346610000001, -15.1975334], [47.06753129999996, -15.244955600000024], [47.1034279, -15.2804169], [47.154923, -15.283274800000038], [47.15942209999997, -15.333960800000016], [47.165095499999985, -15.394839099999983], [47.211042199999966, -15.42293610000002], [47.25928730000004, -15.44124739999996], [47.21574719999997, -15.466020799999983], [47.27184709999999, -15.473177100000038], [47.22458120000002, -15.4976042], [47.1768338, -15.477221800000033], [47.11592640000002, -15.4500329], [47.066865, -15.46773], [47.00813749999999, -15.4902618], [46.95695719999997, -15.4768285], [46.954756300000035, -15.426242899999979], [46.99979920000001, -15.402792099999965], [47.043548499999986, -15.370332900000042], [47.04727519999996, -15.316991099999969], [46.99694769999998, -15.298389299999974], [46.95029190000004, -15.2743347], [46.96775929999997, -15.227052600000027], [46.90676130000004, -15.213284500000027], [46.843464, -15.254635199999958], [46.794161899999985, -15.290964199999971], [46.750394, -15.324666], [46.709509099999956, -15.355633199999966], [46.664379, -15.38842890000002], [46.6886641, -15.436926300000012], [46.73911829999997, -15.453020600000015], [46.68297640000003, -15.456029700000032], [46.663471600000015, -15.407881900000012], [46.60766630000004, -15.4362402], [46.56115829999998, -15.466967100000032], [46.51228289999998, -15.502853099999983], [46.4873576, -15.546297], [46.436933899999964, -15.555132], [46.43636670000002, -15.6074268], [46.369644100000016, -15.607417], [46.3357731, -15.653177800000032], [46.302392, -15.709837900000037], [46.361511600000014, -15.722662500000043], [46.3531117, -15.7795153], [46.3101962, -15.807598599999976], [46.23509140000004, -15.8392088], [46.23435429999998, -15.783570199999955], [46.23536649999998, -15.731012899999955], [46.191229499999984, -15.70658249999998], [46.1214199, -15.712116], [46.06670789999998, -15.7452765], [46.0277837, -15.786448], [46.0790067, -15.762627299999968], [46.129894, -15.776537900000035], [46.0882835, -15.806118299999975], [46.13787280000001, -15.82376880000004], [46.086225900000024, -15.819396300000014], [46.107508799999984, -15.867333500000017], [46.0674831, -15.898577700000041], [46.03400350000002, -15.858552], [45.97358279999999, -15.857801500000038], [45.94609789999997, -15.814127], [45.906767, -15.855515199999962], [45.905467, -15.802706899999977], [45.90093779999997, -15.86146510000003], [45.85849620000002, -15.83278279999997], [45.806368300000024, -15.84135549999998], [45.793268299999966, -15.894348100000025], [45.75176769999998, -15.866414099999973], [45.71318410000003, -15.832021], [45.75138779999999, -15.799558100000036], [45.6999987, -15.789939399999989], [45.65269180000002, -15.807477800000017], [45.6456658, -15.857481300000012], [45.63946710000004, -15.91753], [45.651609800000024, -15.967475800000011], [45.611486599999964, -15.997479499999981], [45.627357899999986, -16.0474156], [45.66558520000004, -16.086074], [45.61605150000001, -16.0961418], [45.5661939, -16.087777700000018], [45.51395690000004, -16.0853331], [45.539953700000034, -16.041470200000035], [45.56353840000003, -15.996322399999988], [45.52110930000004, -15.9662852], [45.47132650000001, -15.974644500000027], [45.421546500000034, -15.9864703], [45.36028770000002, -15.987741500000011], [45.3832893, -16.037685300000042], [45.41837489999998, -15.998328299999956], [45.41128569999997, -16.048454499999977], [45.3684466, -16.07944990000002], [45.35556970000001, -16.1298814], [45.312621300000046, -16.16559240000003], [45.25794060000003, -16.1432503], [45.2584006, -16.086825099999984], [45.269913299999985, -16.02806729999996], [45.263433699999965, -15.9626322], [45.21242090000004, -15.951222700000015], [45.16638160000004, -15.99042620000001], [45.15736479999997, -16.0408042], [45.09731069999998, -16.0406776], [45.0325324, -16.102863100000036], [45.0031036, -16.1493323], [45.0243012, -16.194677], [44.9724394, -16.20627060000001], [44.91910840000002, -16.20857589999997], [44.89801649999996, -16.259322900000022], [44.867049400000035, -16.29962660000001], [44.80862049999996, -16.304864], [44.80990530000004, -16.355620699999974], [44.7838059, -16.3081895], [44.77319750000004, -16.253300299999978], [44.72198190000003, -16.25813450000001], [44.6865716, -16.2181504], [44.63458680000003, -16.210338100000023], [44.592834299999986, -16.241090500000034], [44.608221899999954, -16.193286699999966], [44.50745939999998, -16.18418829999998], [44.54630739999996, -16.2181548], [44.52538870000002, -16.26783320000002], [44.51512789999996, -16.318822], [44.50325320000004, -16.266752], [44.49894190000001, -16.214529], [44.451981299999986, -16.1924262], [44.4731521, -16.25225149999997], [44.4670549, -16.303335700000034], [44.44807049999997, -16.351634500000024], [44.446328499999986, -16.401610599999977], [44.46335510000004, -16.47018479999997], [44.472086699999956, -16.52785880000002], [44.4293768, -16.572182], [44.43431529999997, -16.626720700000035], [44.4322687, -16.681669899999967], [44.404791199999984, -16.728125599999956], [44.37585389999996, -16.77387260000002], [44.34077740000002, -16.813867400000028], [44.30424770000001, -16.870830200000036], [44.27004550000002, -16.928931600000013], [44.23339160000004, -16.992169099999956], [44.20250339999998, -17.03399969999998], [44.17599459999999, -17.07746970000003], [44.1097712, -17.149941099999978], [44.096056, -17.1993706], [44.0760499, -17.24859730000003], [44.041753500000034, -17.2971214], [44.0064085, -17.337776600000034], [43.976133, -17.3867384], [43.963081, -17.435309899999986], [43.93260939999997, -17.4840887], [43.929939200000014, -17.539779800000026], [43.94029730000004, -17.603804900000036], [43.95134610000002, -17.65610250000004], [43.959632699999986, -17.730359500000027], [44.00564230000001, -17.750784], [44.03515480000002, -17.8096797], [44.028813499999984, -17.863481600000036], [44.067088399999975, -17.899729199999975], [44.0228239, -17.9257843], [44.02158420000002, -17.9798682], [44.020354, -18.03214880000003], [44.04861629999996, -18.0835464], [44.07370460000002, -18.126811300000035], [44.09146190000004, -18.183175499999983], [44.07261969999996, -18.230220399999965], [44.111248099999976, -18.26672089999996], [44.06206349999997, -18.288636699999977], [44.044532, -18.2403852], [44.05031330000004, -18.292442099999974], [44.040703800000045, -18.34828529999998], [44.080962, -18.3860882], [44.095677300000034, -18.43535350000002], [44.11169510000001, -18.49544149999997], [44.13630420000003, -18.540629100000018], [44.16429660000003, -18.586858899999974], [44.20320529826838, -18.684772597609694], [44.250596099999974, -18.7098232], [44.26798650000001, -18.757624], [44.23189449999998, -18.7210804], [44.251406499999966, -18.801776600000032], [44.2577875, -18.857693], [44.23358942986177, -18.919941824751398], [44.27304509999996, -18.958072300000033], [44.2796622, -19.02442], [44.279034, -19.075928700000027], [44.31790980000003, -19.108271299999984], [44.3516223, -19.148185299999966], [44.32245260000003, -19.19019069999998], [44.354558699999956, -19.229197300000024], [44.34674060000003, -19.2863466], [44.389873, -19.32126539999996], [44.42895649999996, -19.35564680000003], [44.404332500000045, -19.310841099999955], [44.45157339999999, -19.327385299999968], [44.4508308, -19.387135699999963], [44.465329399999966, -19.435341499999986], [44.44296370000003, -19.386081499999957], [44.410807, -19.346960599999953], [44.44738650000004, -19.402320899999975], [44.46566280000002, -19.45774949999996], [44.48261759999998, -19.505445800000015], [44.469882, -19.4546713], [44.459639299999985, -19.513877800000017], [44.481356, -19.560300500000032], [44.46231480000002, -19.60814889999997], [44.46282509999997, -19.65888730000002], [44.43332029999998, -19.699746300000037], [44.3961566, -19.738488], [44.38891310000002, -19.794201699999963], [44.42324819999999, -19.85326859999998], [44.467110900000016, -19.882962900000017], [44.484884499999964, -19.94302209999998], [44.517082500000036, -19.9816549], [44.5004102, -20.028826800000015], [44.46458979999996, -20.065292100000025], [44.43145110000004, -20.109484299999963], [44.39777, -20.148002099999978], [44.3589099, -20.18160119999998], [44.331978500000034, -20.2288858], [44.28990650000002, -20.270713200000017], [44.256249500000024, -20.31845610000002], [44.24686469999997, -20.36785960000002], [44.230647900000044, -20.416717], [44.18030319999997, -20.432453099999986], [44.14568070000002, -20.46885320000002], [44.13638409999998, -20.518764], [44.105793400000024, -20.56187010000003], [44.111013700000036, -20.51013820000002], [44.087994700000046, -20.566412399999983], [44.07391060000001, -20.634833199999985], [44.048337, -20.700356499999966], [44.00106860000004, -20.730859], [44.0470259, -20.756741], [43.986215100000024, -20.782914899999987], [43.946841900000024, -20.8146066], [43.9625045, -20.7668089], [43.9243484, -20.819874200000015], [43.894567, -20.88534330000004], [43.8781374, -20.9393073], [43.863428100000014, -21.036022], [43.84962920000004, -21.100812900000026], [43.8323816, -21.15548649999998], [43.80911820000004, -21.208928099999962], [43.776764399999955, -21.25349579999997], [43.72514319999996, -21.284008499999956], [43.755541200000046, -21.3277469], [43.70193080000004, -21.330945900000014], [43.651649200000044, -21.33055010000004], [43.599501900000035, -21.3242024], [43.552042300000025, -21.344653299999965], [43.52193039999999, -21.3878988], [43.4989221, -21.4337759], [43.50615909999998, -21.49253620000004], [43.4912255, -21.540285], [43.4854472, -21.59326350000003], [43.473341499999975, -21.6451539], [43.5074766, -21.6861383], [43.4555043, -21.678197100000023], [43.40808949999997, -21.6947388], [43.352243299999984, -21.74555860000004], [43.361338599999975, -21.8096056], [43.34643779999996, -21.8588802], [43.34418350000004, -21.9108546], [43.332567300000015, -21.96080260000001], [43.289445099999966, -21.99008970000002], [43.251494499999986, -22.023923299999975], [43.236792100000045, -22.074215300000038], [43.236576699999986, -22.135987399999973], [43.261731300000015, -22.179885299999984], [43.289628, -22.13552269999998], [43.3118624, -22.19392650000002], [43.310898700000024, -22.2513162], [43.262525299999986, -22.227640899999972], [43.2237181, -22.2686611], [43.22797130000002, -22.326105], [43.2585761, -22.367876500000044], [43.267290299999985, -22.424560399999976], [43.27367670000002, -22.4744461], [43.2888562, -22.5288895], [43.28765850000003, -22.579759800000037], [43.306879700000025, -22.630654799999988], [43.3246418, -22.67762], [43.34118249999999, -22.7291764], [43.35279890000003, -22.77831190000003], [43.370771, -22.84528780000003], [43.402043400000025, -22.886239499999988], [43.443982400000046, -22.934880599999968], [43.4742467, -22.9776644], [43.51928529999998, -23.011150699999988], [43.56400409999996, -23.042960800000028], [43.604837, -23.09170759999996], [43.61134180000001, -23.145278499999982], [43.621983, -23.206652800000043], [43.610272900000034, -23.26023529999996], [43.61744760000001, -23.313862099999987], [43.64014930000004, -23.3626399], [43.688026399999956, -23.382721400000033], [43.729504, -23.423187699999975], [43.76626959999999, -23.460378299999956], [43.746422, -23.52974079999998], [43.771595, -23.577789399999965], [43.707503099999954, -23.5942598], [43.65736750000004, -23.614341799999988], [43.63581509999999, -23.670464500000026], [43.63986570000002, -23.722840699999963], [43.64639719999999, -23.77781749999996], [43.6621781, -23.82893510000003], [43.6751402, -23.89564739999998], [43.66362650000002, -23.95809190000004], [43.6656808, -24.009828900000024], [43.67652459999998, -24.068816400000042], [43.67001829999997, -24.1326326], [43.6638829, -24.19158890000001], [43.66455019999997, -24.253804599999967], [43.6680284, -24.311290700000015], [43.68295989999997, -24.37389690000004], [43.7145702, -24.419323100000028], [43.75558710000003, -24.460471], [43.8162433, -24.498791199999975], [43.85344530000004, -24.536911499999963], [43.90821920000003, -24.595998400000035], [43.93766859999997, -24.65849260000003], [43.919312, -24.713359800000017], [43.950716, -24.78186350000004], [43.97243740000003, -24.831428299999974], [44.0189818, -24.87112559999997], [44.02205579999996, -24.923126], [44.0331504, -24.97496350000003], [44.06068160000003, -25.0184723], [44.10286610000003, -25.069699399999983], [44.155487199999975, -25.06822969999997], [44.20684959999996, -25.0879022], [44.25148870000002, -25.125654], [44.31548050000003, -25.170295500000044], [44.354620199999985, -25.2228383], [44.421874500000015, -25.26906939999997], [44.51859859999998, -25.29004430000003], [44.590803800000025, -25.295752399999987], [44.7081695, -25.312872400000035], [44.776297899999975, -25.330945900000017], [44.823972, -25.35447529999996], [44.89035859999997, -25.38631409999998], [44.9379215, -25.41936310000003], [44.96091610000001, -25.46399380000001], [45.02126770000001, -25.498372699999965], [45.08431559999999, -25.518386900000028], [45.12707859999998, -25.544533900000015], [45.138497899999976, -25.5950975], [45.190514199999974, -25.605707], [45.252013199999965, -25.591184299999952], [45.30957050000004, -25.58151760000002], [45.36885759999998, -25.5808807], [45.427740200000024, -25.5810836], [45.4803316, -25.5787854], [45.53349580000003, -25.569066199999984], [45.60371509999999, -25.543151899999977], [45.66036050000002, -25.50892420000001], [45.7118526, -25.464155599999987], [45.7644872, -25.434417599999975], [45.809263, -25.406607799999986], [45.85253, -25.378661199999957], [45.91116410000002, -25.348314699999957], [45.960885200000014, -25.32102080000002], [46.0878401, -25.267955800000024], [46.22620740000003, -25.2176353], [46.312524099999976, -25.19176], [46.38401860000001, -25.17754589999998], [46.48454919999998, -25.165591300000017], [46.535693799999976, -25.16945], [46.592506800000024, -25.181775700000014], [46.65338650000002, -25.194937], [46.70675819999999, -25.178288799999986], [46.75132779999998, -25.1458191], [46.806213100000036, -25.1211052], [46.86018070000002, -25.088280899999987], [46.928221, -25.06801260000004], [46.971078599999984, -25.03952579999999], [47.0055785, -24.995273200000028], [47.056579800000044, -24.973050400000012], [47.106201499999976, -24.965914499999958], [47.1389507, -24.921270300000014], [47.12658189999996, -24.862161700000012], [47.16353359999999, -24.8049937], [47.19181730000002, -24.75869349999999], [47.19957510000001, -24.70601550000004], [47.240688500000026, -24.622084], [47.26903109999996, -24.569820499999977], [47.291284, -24.502369], [47.3040284, -24.4500622], [47.31515280000003, -24.39604909999999], [47.33999230000001, -24.32732739999996], [47.358247700000035, -24.280453299999987], [47.388823, -24.225245499999975], [47.40142869999997, -24.169053499999976], [47.423079800000025, -24.123381299999973], [47.45724279999997, -24.0640905], [47.4924052, -24.006397200000034], [47.520081500000046, -23.947042], [47.549122699999955, -23.882019500000034], [47.57378160000001, -23.83453229999996], [47.5946988, -23.756981400000015], [47.603860900000015, -23.691251800000018], [47.613855, -23.64113389999997], [47.627195, -23.59053349999997], [47.64493550000002, -23.49376440000001], [47.6703191, -23.417305800000026], [47.6979068, -23.362176400000017], [47.720445799999965, -23.292330499999963], [47.74005110000004, -23.229736699999986], [47.7525285, -23.17987110000003], [47.7680828, -23.080003699999956], [47.79873809999997, -23.001430900000013], [47.812226700000025, -22.945897], [47.82763710000002, -22.881103600000035], [47.839596700000044, -22.8288304], [47.8524324, -22.7639498], [47.860312200000045, -22.699387300000023], [47.863321800000016, -22.647484199999973], [47.873093899999965, -22.597662700000026], [47.8851546, -22.5361632], [47.89352870000001, -22.483344899999985], [47.9096873, -22.434162900000015], [47.943517500000034, -22.34656390000002], [47.95809380000002, -22.295548599999975], [47.9925481, -22.2180595], [48.0261075, -22.14189220000004], [48.05089729999996, -22.080794], [48.084786, -22.002943], [48.13013710000003, -21.90135720000003], [48.1533512, -21.835902500000042], [48.172301500000046, -21.789322299999963], [48.19561069999998, -21.731661799999962], [48.21182040000003, -21.683568700000027], [48.249267900000035, -21.58128270000003], [48.292625, -21.462268], [48.30940250000002, -21.407822], [48.32412859999997, -21.353511], [48.34351680000002, -21.272259899999984], [48.36634949999996, -21.1882163], [48.38777, -21.14017440000004], [48.44245439999999, -20.992702599999962], [48.4541626, -20.91588869999998], [48.47593780000001, -20.84265210000004], [48.4941541, -20.747548799999976], [48.506614499999976, -20.6925722], [48.54055890000004, -20.589373200000043], [48.55950869999997, -20.5304572], [48.58045709999996, -20.472298299999963], [48.6067508, -20.391260199999966], [48.63946079999999, -20.3094175], [48.688245, -20.201564700000024], [48.7280863, -20.129314299999972], [48.75763110000002, -20.0569854], [48.7879547, -20.002084100000033], [48.8128459, -19.929409], [48.813219, -19.8499992], [48.83706040000004, -19.736515100000023], [48.86955519999998, -19.602275700000032], [48.90513840000001, -19.51825809999998], [48.92397259999996, -19.46776220000001], [48.96834250000004, -19.368102], [48.984082699999966, -19.315388599999984], [48.99283569999997, -19.251813800000022], [49.032491700000016, -19.13171869999998], [49.063229300000046, -19.062405599999956], [49.0829093, -19.010988499999975], [49.11046080000001, -18.9553915], [49.1349374, -18.89554079999997], [49.187681099999956, -18.759858599999973], [49.21195720000004, -18.6857994], [49.2291984, -18.6385857], [49.27367779999998, -18.54614269999996], [49.30402319999998, -18.461971800000015], [49.3321435, -18.419924800000025], [49.339003499999954, -18.3666653], [49.365261299999965, -18.279364700000016], [49.3724668, -18.220471299999964], [49.399606300000045, -18.17443060000003], [49.40640660000004, -18.11847419999998], [49.407539, -18.065542], [49.4231991, -18.00692390000004], [49.44573770000002, -17.922800600000038], [49.47051720000002, -17.85655460000003], [49.49387760000001, -17.7807641], [49.51308239999999, -17.71755679999997], [49.497531299999984, -17.664901], [49.486893399999985, -17.6037831], [49.482369, -17.53447079999996], [49.47353519999997, -17.484705], [49.4484575, -17.434026400000015], [49.424207699999954, -17.388802100000035], [49.4148455, -17.333837800000012], [49.431653299999965, -17.280659499999963], [49.45845060000003, -17.217253899999967], [49.48378, -17.16722449999996], [49.50616330000002, -17.115366099999967], [49.5216808, -17.0665448], [49.54415779999999, -17.016741400000036], [49.57072679999999, -16.97262929999998], [49.588379, -16.920937099999968], [49.650349, -16.8790299], [49.70129750000001, -16.866377600000042], [49.8044453, -16.850227799999978], [49.759082, -16.807560199999976], [49.7248758, -16.7541682], [49.72477970000004, -16.7011911], [49.772343, -16.679668], [49.799283, -16.63603490000002], [49.8220104, -16.58472959999996], [49.838828899999974, -16.533639799999968], [49.84710150000002, -16.4814705], [49.860777, -16.43082190000002], [49.82647539999996, -16.390816799999953], [49.8155761, -16.34177260000002], [49.82952910000002, -16.292306800000013], [49.844049199999986, -16.2439154], [49.835505499999975, -16.188656], [49.786118600000016, -16.173438699999977], [49.73843329999998, -16.15013670000002], [49.70463329999997, -16.11122789999998], [49.68040420000004, -16.056239], [49.68273059999997, -16.00380319999998], [49.709588, -15.942022899999989], [49.71285250000004, -15.890088600000022], [49.70048730000003, -15.841071700000034], [49.682654, -15.789889500000035], [49.6618834, -15.74331450000003], [49.6413344, -15.693317300000023], [49.650899499999966, -15.636266], [49.61693019999998, -15.579678], [49.631638, -15.523655900000014], [49.67311129999996, -15.478578799999957], [49.7231454, -15.44538579999998], [49.776598200000024, -15.44447480000001], [49.83485550000002, -15.4369444], [49.8884784, -15.4321321], [49.897613, -15.483730599999982], [49.8938533, -15.54452950000004], [49.92294610000001, -15.594052900000014], [49.963953500000045, -15.627956100000043], [49.9576754, -15.695479], [49.97087409999996, -15.748865699999973], [50.01858650000002, -15.786404499999987], [50.015936799999984, -15.839205199999965], [50.03872790000003, -15.88748320000001], [50.08007549999998, -15.925143400000033], [50.13042359999997, -15.938384300000022], [50.157124799999984, -15.984745099999978], [50.21111519999999, -15.990654499999982], [50.235804199999954, -15.942835800000013], [50.2609064, -15.892207199999989], [50.30322789999997, -15.855661], [50.339113100000034, -15.816865], [50.337982199999985, -15.752571800000018], [50.358938, -15.692831], [50.38869509999997, -15.638648400000013], [50.4064375, -15.588135699999986], [50.42627439999996, -15.54186840000004], [50.43442920000003, -15.4759827], [50.45350049999997, -15.4292822], [50.462929500000044, -15.377774], [50.48083990000003, -15.3301498], [50.47513489999997, -15.275512700000041], [50.464183300000045, -15.226655400000025], [50.4354272, -15.18549319999997], [50.422433, -15.1344435], [50.3870006, -15.09570129999999], [50.3476853, -15.04231], [50.32884870000003, -14.991927199999969], [50.301824, -14.94704380000004], [50.28116480000002, -14.900000500000013], [50.259235500000045, -14.833862100000031], [50.24092589999998, -14.779629299999955], [50.225935, -14.71284559999996], [50.21024310000004, -14.6594568], [50.192981900000035, -14.602969800000013], [50.184683100000036, -14.5376265], [50.17983469999998, -14.4856596], [50.18058040000004, -14.408414499999958], [50.20029190000002, -14.335023799999972], [50.188738600000036, -14.2826225], [50.14724510000001, -14.24568689999998], [50.1468391, -14.17791889999999], [50.16398160000004, -14.0756844], [50.1455928, -14.016098], [50.139198, -13.925890399999977], [50.14195210000003, -13.8586474], [50.139676400000035, -13.7960243], [50.1186288, -13.749053099999978], [50.0915445, -13.69742], [50.0859573, -13.64277240000004], [50.0550955, -13.585195799999964], [50.04015259999996, -13.534634700000018], [50.0229736, -13.466777], [50.02260110000001, -13.3880642], [49.97706760000003, -13.3627275], [49.963382599999974, -13.307472199999962], [49.9495879, -13.252451399999968], [49.93272320000002, -13.204934199999988], [49.927512, -13.134189], [49.93179, -13.08275589999998], [49.91307749999998, -13.0339775], [49.88448909999996, -12.9915974], [49.8703984, -12.940775100000016], [49.8451356, -12.892995199999971], [49.795014500000036, -12.883493199999988], [49.78239869999999, -12.83087070000001], [49.744488499999974, -12.797711199999965], [49.725429, -12.750209600000032], [49.70589550000004, -12.797524499999971], [49.65773720000004, -12.818926799999955], [49.65946909999999, -12.7643123], [49.63992469999998, -12.71293869999998], [49.60137359999997, -12.6596614], [49.55039610000003, -12.672786600000011], [49.5488446, -12.622278800000034], [49.555419199999974, -12.57258779999996], [49.5463457, -12.521088800000038], [49.5184477, -12.4786021], [49.514818199999986, -12.425248700000028], [49.4643919, -12.441456800000031], [49.496336100000036, -12.402602200000038], [49.477733, -12.356122199999989], [49.42673379999998, -12.338699600000039], [49.39817320000004, -12.295120700000043], [49.38327079999998, -12.246984099999972], [49.3574598, -12.290628699999987], [49.31342510000003, -12.3144488], [49.289041, -12.266909], [49.25954879999996, -12.307486], [49.20762929999998, -12.3086285], [49.2062653, -12.256447], [49.249895, -12.293697], [49.2835655, -12.252304299999986], [49.23284669999997, -12.238762599999978], [49.2225333, -12.179885600000043], [49.27364569999999, -12.186547599999967], [49.332665099999986, -12.171195099999968], [49.3661827, -12.213617700000038], [49.3520947, -12.1618071], [49.33565080000002, -12.1120816], [49.3377298, -12.0604302], [49.2867678, -12.0591034], [49.31110249999997, -12.015115299999982], [49.28380139999997, -11.9658332], [49.245989700000024, -11.9520417]]]]}}]}