{"type": "FeatureCollection", "features": [{"type": "Feature", "properties": {"code": "MDV", "name": "Maldives", "tier": "country"}, "geometry": {"type": "MultiPolygon", "coordinates": [[[[73.18722065391012, -0.689531592209164], [73.18722065391012, -0.689531592209164]]], [[[73.1537507364074, -0.689198233311743], [73.1537507364074, -0.689198233311743]]], [[[73.12591235107419, -0.679426949993683], [73.12591235107419, -0.679426949993683]]], [[[73.13691842334663, -0.68063827203855], [73.13691842334663, -0.68063827203855]]], [[[73.19422733672229, -0.673891784678062], [73.19422733672229, -0.673891784678062]]], [[[73.11638055991494, -0.660777084594713], [73.11638055991494, -0.660777084594713]]], [[[73.21688150457783, -0.660262657995247], [73.21688150457783, -0.660262657995247]]], [[[73.11192210072443, -0.656093914502492], [73.11192210072443, -0.656093914502492]]], [[[73.22571517091848, -0.625492245270834], [73.22571517091848, -0.625492245270834]]], [[[73.22526645238491, -0.615766579164244], [73.22526645238491, -0.615766579164244]]], [[[73.22472702463256, -0.614388929305619], [73.22472702463256, -0.614388929305619]]], [[[73.09029200437254, -0.593808386747583], [73.09029200437254, -0.593808386747583]]], [[[73.08431724324623, -0.589791233878316], [73.08431724324623, -0.589791233878316]]], [[[73.0888409266675, -0.590385665965641], [73.0888409266675, -0.590385665965641]]], [[[73.22319988856407, -0.592739532603275], [73.22319988856407, -0.592739532603275]]], [[[73.07677450963598, -0.585553010562933], [73.07677450963598, -0.585553010562933]]], [[[73.2225710682003, -0.585732673524035], [73.2225710682003, -0.585732673524035]]], [[[73.08791361771932, -0.582588570805854], [73.1062664874085, -0.647486229805622], [73.0873896735946, -0.600753486684027], [73.08791361771932, -0.582588570805854]]], [[[73.21453939297868, -0.577684331166893], [73.21453939297868, -0.577684331166893]]], [[[73.19708036486702, 0.193322068558643], [73.19708036486702, 0.193322068558643]]], [[[73.20094412936811, 0.193984575727654], [73.20094412936811, 0.193984575727654]]], [[[73.19475097417819, 0.19518045821161], [73.19475097417819, 0.19518045821161]]], [[[73.1899964392843, 0.200646144603922], [73.1899964392843, 0.200646144603922]]], [[[73.17505019341178, 0.20613218355345], [73.17505019341178, 0.20613218355345]]], [[[73.16358614768262, 0.20919066631626], [73.16358614768262, 0.20919066631626]]], [[[73.17176638640967, 0.20914645204715], [73.17176638640967, 0.20914645204715]]], [[[73.16010951793993, 0.208013733447103], [73.16010951793993, 0.208013733447103]]], [[[73.1569906367086, 0.22019432570761], [73.1569906367086, 0.22019432570761]]], [[[73.21789517901937, 0.224797489412651], [73.21789517901937, 0.224797489412651]]], [[[73.13671919743308, 0.225975124652336], [73.13671919743308, 0.225975124652336]]], [[[73.13084312790807, 0.225227698099843], [73.13084312790807, 0.225227698099843]]], [[[73.12847000588613, 0.227739472198948], [73.12847000588613, 0.227739472198948]]], [[[73.12778740876195, 0.22974804863361], [73.12778740876195, 0.22974804863361]]], [[[73.28271502597772, 0.23267880158545], [73.28271502597772, 0.23267880158545]]], [[[73.12640471370662, 0.230882171075393], [73.12640471370662, 0.230882171075393]]], [[[73.122225180148, 0.23637452686296], [73.122225180148, 0.23637452686296]]], [[[73.12124111228758, 0.237663047611591], [73.12124111228758, 0.237663047611591]]], [[[73.11764407951074, 0.243049429987252], [73.11764407951074, 0.243049429987252]]], [[[73.11329492661963, 0.242687296381689], [73.11329492661963, 0.242687296381689]]], [[[73.11206070783544, 0.244471996485515], [73.11206070783544, 0.244471996485515]]], [[[73.33221122926489, 0.251624830821356], [73.33221122926489, 0.251624830821356]]], [[[73.32785361015601, 0.249790302880228], [73.32785361015601, 0.249790302880228]]], [[[73.1050714385961, 0.249251313996979], [73.1050714385961, 0.249251313996979]]], [[[73.34825448975295, 0.254063616842473], [73.34825448975295, 0.254063616842473]]], [[[73.29770443301322, 0.255843403050676], [73.29770443301322, 0.255843403050676]]], [[[73.09972312901925, 0.256665922993989], [73.09972312901925, 0.256665922993989]]], [[[73.0967098695649, 0.260551136325944], [73.0967098695649, 0.260551136325944]]], [[[73.09391079354833, 0.261159605031821], [73.09391079354833, 0.261159605031821]]], [[[73.09193450007717, 0.262507077239889], [73.09193450007717, 0.262507077239889]]], [[[73.08975261978765, 0.266451242930543], [73.08975261978765, 0.266451242930543]]], [[[73.08777391433472, 0.264841995161987], [73.08777391433472, 0.264841995161987]]], [[[73.37694320296652, 0.265828738505547], [73.37694320296652, 0.265828738505547]]], [[[73.08411051608749, 0.269612891421843], [73.08411051608749, 0.269612891421843]]], [[[73.08158137338171, 0.267980484311977], [73.08158137338171, 0.267980484311977]]], [[[73.0780543015648, 0.271521108912111], [73.0780543015648, 0.271521108912111]]], [[[73.06572523213379, 0.273954981936924], [73.06572523213379, 0.273954981936924]]], [[[73.35811621788918, 0.275560019079649], [73.35811621788918, 0.275560019079649]]], [[[73.06264832765822, 0.278050035880483], [73.06264832765822, 0.278050035880483]]], [[[73.0594786077516, 0.281908580716447], [73.0594786077516, 0.281908580716447]]], [[[73.44648245010507, 0.284965659637521], [73.44648245010507, 0.284965659637521]]], [[[73.05737090084648, 0.286711058468597], [73.05737090084648, 0.286711058468597]]], [[[73.05592206065461, 0.286240144666976], [73.05592206065461, 0.286240144666976]]], [[[73.05054120551227, 0.288065548985969], [73.05054120551227, 0.288065548985969]]], [[[73.45339228402673, 0.284780382208908], [73.45339228402673, 0.284780382208908]]], [[[73.03875875751072, 0.296720956207196], [73.03875875751072, 0.296720956207196]]], [[[73.03473186588297, 0.299688203647747], [73.03473186588297, 0.299688203647747]]], [[[73.03186181896785, 0.29738837637251], [73.03186181896785, 0.29738837637251]]], [[[73.02797590416469, 0.300503705281812], [73.02797590416469, 0.300503705281812]]], [[[73.03019353250556, 0.29987488491804], [73.03019353250556, 0.29987488491804]]], [[[73.02651951956022, 0.303200756809531], [73.02651951956022, 0.303200756809531]]], [[[73.02633200461838, 0.304745437751819], [73.02633200461838, 0.304745437751819]]], [[[73.41416977121804, 0.308347120023598], [73.41416977121804, 0.308347120023598]]], [[[73.38076595568435, 0.318688272245993], [73.38076595568435, 0.318688272245993]]], [[[73.48840780337747, 0.321430940985181], [73.48840780337747, 0.321430940985181]]], [[[73.49317176946164, 0.32601164682012], [73.49317176946164, 0.32601164682012]]], [[[73.02678769829367, 0.33004845077545], [73.02678769829367, 0.33004845077545]]], [[[73.49718672978383, 0.32911223763972], [73.49718672978383, 0.32911223763972]]], [[[73.48622658229101, 0.327314905658397], [73.48622658229101, 0.327314905658397]]], [[[73.50065454167384, 0.334476162145222], [73.50065454167384, 0.334476162145222]]], [[[73.43677099598472, 0.333741368369488], [73.43677099598472, 0.333741368369488]]], [[[73.51964390744041, 0.341957443281444], [73.51964390744041, 0.341957443281444]]], [[[73.53892987591308, 0.347253994176526], [73.53892987591308, 0.347253994176526]]], [[[73.54174246244474, 0.352467731001013], [73.54174246244474, 0.352467731001013]]], [[[73.55261742705267, 0.366516538907206], [73.55261742705267, 0.366516538907206]]], [[[73.55373242631049, 0.379532986258369], [73.55373242631049, 0.379532986258369]]], [[[73.01538931476512, 0.382609715366129], [73.01538931476512, 0.382609715366129]]], [[[73.55723664455553, 0.377127887941697], [73.55723664455553, 0.377127887941697]]], [[[73.01191615100964, 0.384627416322246], [73.01191615100964, 0.384627416322246]]], [[[73.55771203248435, 0.390467868197618], [73.55771203248435, 0.390467868197618]]], [[[73.00901781232221, 0.392651896967493], [73.00901781232221, 0.392651896967493]]], [[[73.01698421924635, 0.391814639833797], [73.01698421924635, 0.391814639833797]]], [[[73.00886187977198, 0.396485177149259], [73.00886187977198, 0.396485177149259]]], [[[73.00715885249912, 0.400341615773016], [73.00715885249912, 0.400341615773016]]], [[[73.57305348453076, 0.413302619920046], [73.57305348453076, 0.413302619920046]]], [[[73.57012983712235, 0.415540688052374], [73.57012983712235, 0.415540688052374]]], [[[73.00449439240236, 0.427559163124954], [73.00449439240236, 0.427559163124954]]], [[[73.57019036779127, 0.43464111559507], [73.57019036779127, 0.43464111559507]]], [[[73.56980911010243, 0.44838042541636], [73.56980911010243, 0.44838042541636]]], [[[72.99958668767556, 0.448200762455258], [72.99958668767556, 0.448200762455258]]], [[[73.00522036922473, 0.450515327820199], [73.00522036922473, 0.450515327820199]]], [[[73.53531371815365, 0.451332934767152], [73.53531371815365, 0.451332934767152]]], [[[72.99929223434918, 0.451354691166102], [72.99929223434918, 0.451354691166102]]], [[[72.99916007537723, 0.455594317423845], [72.99916007537723, 0.455594317423845]]], [[[72.99916007537723, 0.455594317423845], [72.99916007537723, 0.455594317423845]]], [[[73.56558220385568, 0.459422684609251], [73.56558220385568, 0.459422684609251]]], [[[73.15510759573903, 0.46152319783738], [73.15510759573903, 0.46152319783738]]], [[[73.55880106471744, 0.480499404723787], [73.55880106471744, 0.480499404723787]]], [[[72.99580613114807, 0.496796808226179], [72.99580613114807, 0.496796808226179]]], [[[72.99129402739749, 0.497086655225019], [72.99129402739749, 0.497086655225019]]], [[[73.49760184964572, 0.506579320479318], [73.49760184964572, 0.506579320479318]]], [[[73.45525918306492, 0.504627590191205], [73.45525918306492, 0.504627590191205]]], [[[73.55343977162823, 0.496212902703348], [73.55343977162823, 0.496212902703348]]], [[[72.99083592174043, 0.505750483697909], [72.99083592174043, 0.505750483697909]]], [[[72.99223045906848, 0.517036270307699], [72.99223045906848, 0.517036270307699]]], [[[73.07508122022222, 0.522175616111838], [73.07508122022222, 0.522175616111838]]], [[[73.18974505988666, 0.535327512154993], [73.18974505988666, 0.535327512154993]]], [[[73.3464120657643, 0.540987599598111], [73.3464120657643, 0.540987599598111]]], [[[72.99940562087278, 0.523882415141372], [72.99940562087278, 0.523882415141372]]], [[[73.09554929716239, 0.538778306173924], [73.09554929716239, 0.538778306173924]]], [[[73.242064507571, 0.554498822462733], [73.242064507571, 0.554498822462733]]], [[[73.52767444232171, 0.55939955294707], [73.52767444232171, 0.55939955294707]]], [[[73.19279770874732, 0.570258639124916], [73.19279770874732, 0.570258639124916]]], [[[73.51649752404154, 0.581441260006216], [73.51649752404154, 0.581441260006216]]], [[[73.09363660554499, 0.58563456758128], [73.09363660554499, 0.58563456758128]]], [[[73.50094561714656, 0.594756677978353], [73.50094561714656, 0.594756677978353]]], [[[73.30956789554199, 0.603686492637564], [73.30956789554199, 0.603686492637564]]], [[[73.48491937542889, 0.605149763350937], [73.48491937542889, 0.605149763350937]]], [[[73.46269510959166, 0.622182662100215], [73.46269510959166, 0.622182662100215]]], [[[73.34465210511064, 0.63040645769189], [73.34465210511064, 0.63040645769189]]], [[[73.4423398490049, 0.642067009784739], [73.4423398490049, 0.642067009784739]]], [[[73.43973534850761, 0.658900594486909], [73.43973534850761, 0.658900594486909]]], [[[73.44155391078442, 0.695437460070764], [73.44155391078442, 0.695437460070764]]], [[[73.4399782625868, 0.707938077880044], [73.4399782625868, 0.707938077880044]]], [[[73.43432677176315, 0.741719642847272], [73.43432677176315, 0.741719642847272]]], [[[73.43833655648695, 0.763219554239072], [73.43833655648695, 0.763219554239072]]], [[[73.2039266850685, 0.818391547132251], [73.2039266850685, 0.818391547132251]]], [[[73.18609003972364, 0.838019734623117], [73.18609003972364, 0.838019734623117]]], [[[73.40936632939264, 0.846898317603348], [73.40936632939264, 0.846898317603348]]], [[[73.24349733803177, 0.847852777084029], [73.24349733803177, 0.847852777084029]]], [[[73.33693159441759, 0.885572892375137], [73.33693159441759, 0.885572892375137]]], [[[73.37092054394799, 1.786216352802512], [73.37092054394799, 1.786216352802512]]], [[[73.35333970806113, 1.787311174870865], [73.35333970806113, 1.787311174870865]]], [[[73.33980208020188, 1.789423970140149], [73.33980208020188, 1.789423970140149]]], [[[73.33396724189475, 1.788779007844994], [73.33396724189475, 1.788779007844994]]], [[[73.38305253594581, 1.790173852741134], [73.38305253594581, 1.790173852741134]]], [[[73.38623892298796, 1.792411920873519], [73.38623892298796, 1.792411920873519]]], [[[73.39080550497016, 1.801096101903624], [73.39080550497016, 1.801096101903624]]], [[[73.29457278680474, 1.801676498271831], [73.29457278680474, 1.801676498271831]]], [[[73.27979664140196, 1.81757702825729], [73.27979664140196, 1.81757702825729]]], [[[73.40288714302727, 1.819565252134737], [73.40288714302727, 1.819565252134737]]], [[[73.38871779988659, 1.821099757248021], [73.38871779988659, 1.821099757248021]]], [[[73.27380863416118, 1.820728851655247], [73.27380863416118, 1.820728851655247]]], [[[73.3946871219132, 1.821930699342374], [73.3946871219132, 1.821930699342374]]], [[[73.45337237033868, 1.820679022918625], [73.45337237033868, 1.820679022918625]]], [[[73.50572002166172, 1.835047154003007], [73.50572002166172, 1.835047154003007]]], [[[73.25664730412984, 1.848911035216133], [73.25664730412984, 1.848911035216133]]], [[[73.5242140867108, 1.869831251710934], [73.5242140867108, 1.869831251710934]]], [[[73.2464338817183, 1.886989072587653], [73.2464338817183, 1.886989072587653]]], [[[73.25524403798204, 1.906418999137543], [73.25524403798204, 1.906418999137543]]], [[[73.5384186958662, 1.898468207142116], [73.5384186958662, 1.898468207142116]]], [[[73.54160946890192, 1.958878151105864], [73.54160946890192, 1.958878151105864]]], [[[73.54286623368978, 1.961483966411947], [73.54286623368978, 1.961483966411947]]], [[[73.53821131130303, 1.989229274611375], [73.53821131130303, 1.989229274611375]]], [[[73.53546048391428, 1.999520948832753], [73.53546048391428, 1.999520948832753]]], [[[73.53488947466957, 2.006798003824883], [73.53488947466957, 2.006798003824883]]], [[[73.53328031503457, 2.03140868276455], [73.53328031503457, 2.03140868276455]]], [[[73.53333944276113, 2.034858774412953], [73.53333944276113, 2.034858774412953]]], [[[73.53397028120355, 2.052935262652284], [73.53397028120355, 2.052935262652284]]], [[[73.53689155979771, 2.057739494082455], [73.53689155979771, 2.057739494082455]]], [[[73.54209284011256, 2.07706064043623], [73.54209284011256, 2.07706064043623]]], [[[73.54115680234463, 2.078177919475479], [73.54115680234463, 2.078177919475479]]], [[[73.54226592363352, 2.084833172413028], [73.54226592363352, 2.084833172413028]]], [[[73.54232812164554, 2.116086821349768], [73.54232812164554, 2.116086821349768]]], [[[73.58568788458825, 2.126917836089319], [73.58568788458825, 2.126917836089319]]], [[[73.03356554771193, 2.168142433126832], [73.03356554771193, 2.168142433126832]]], [[[73.02703802458524, 2.169744311850536], [73.02703802458524, 2.169744311850536]]], [[[73.01312098174799, 2.169453412644941], [73.01312098174799, 2.169453412644941]]], [[[73.01698198263244, 2.17104757068887], [73.01698198263244, 2.17104757068887]]], [[[73.06958798759558, 2.17218485154973], [73.06958798759558, 2.17218485154973]]], [[[73.07987198610334, 2.167919609002809], [73.07987198610334, 2.167919609002809]]], [[[73.09620118963323, 2.190236776606014], [73.09620118963323, 2.190236776606014]]], [[[73.11635397955257, 2.19011711821048], [73.11635397955257, 2.19011711821048]]], [[[73.12846039932805, 2.200574419673785], [73.12846039932805, 2.200574419673785]]], [[[73.15153692388998, 2.208206940697778], [73.15153692388998, 2.208206940697778]]], [[[73.21509456786009, 2.252057355762418], [73.21509456786009, 2.252057355762418]]], [[[72.93539614401686, 2.266344778089092], [72.93539614401686, 2.266344778089092]]], [[[72.93102795517603, 2.273885713954598], [72.93102795517603, 2.273885713954598]]], [[[73.2552697415054, 2.281150486905517], [73.2552697415054, 2.281150486905517]]], [[[72.94375415982665, 2.294215007516641], [72.94375415982665, 2.294215007516641]]], [[[73.27705642961058, 2.294308348151787], [73.27705642961058, 2.294308348151787]]], [[[73.29160711857372, 2.305150591826418], [73.29160711857372, 2.305150591826418]]], [[[73.29838887194893, 2.311333877856214], [73.29838887194893, 2.311333877856214]]], [[[72.9435069038206, 2.312998217194036], [72.9435069038206, 2.312998217194036]]], [[[73.32106878649535, 2.327096853836792], [73.32106878649535, 2.327096853836792]]], [[[72.91814178091852, 2.326032209418997], [72.91814178091852, 2.326032209418997]]], [[[73.33974926931336, 2.341938003136363], [73.33974926931336, 2.341938003136363]]], [[[73.34185101101542, 2.342132754922773], [73.34185101101542, 2.342132754922773]]], [[[73.34404030351726, 2.344708393477617], [73.34404030351726, 2.344708393477617]]], [[[73.35592850459687, 2.357190413306967], [73.35592850459687, 2.357190413306967]]], [[[73.3610430237166, 2.359891323825593], [73.3610430237166, 2.359891323825593]]], [[[73.36138603323889, 2.381986018040323], [73.36138603323889, 2.381986018040323]]], [[[73.25768817496936, 2.506179148748743], [73.25768817496936, 2.506179148748743]]], [[[73.30706322788569, 2.507681369999261], [73.30706322788569, 2.507681369999261]]], [[[73.1546389626181, 2.545895910068225], [73.1546389626181, 2.545895910068225]]], [[[73.10329902053343, 2.560148242647301], [73.10329902053343, 2.560148242647301]]], [[[73.0814343881865, 2.563005656785663], [73.0814343881865, 2.563005656785663]]], [[[72.89303466002161, 2.676196531045093], [72.89303466002161, 2.676196531045093]]], [[[72.92945081500318, 2.67910412465568], [72.92945081500318, 2.67910412465568]]], [[[72.93627801022205, 2.683955027302716], [72.93627801022205, 2.683955027302716]]], [[[72.85991156786463, 2.688704517899225], [72.85991156786463, 2.688704517899225]]], [[[72.96548049263066, 2.697540641187686], [72.96548049263066, 2.697540641187686]]], [[[73.00189660264613, 2.723529320721639], [73.00189660264613, 2.723529320721639]]], [[[73.0145212657439, 2.735248825173187], [73.0145212657439, 2.735248825173187]]], [[[73.02118024637133, 2.748114032636522], [73.02118024637133, 2.748114032636522]]], [[[72.88759235240519, 2.749293071717943], [72.88759235240519, 2.749293071717943]]], [[[73.02255785306255, 2.754161869974382], [73.02255785306255, 2.754161869974382]]], [[[73.42078098525434, 2.763684010508712], [73.42078098525434, 2.763684010508712]]], [[[73.37124223504117, 2.782320542559034], [73.37124223504117, 2.782320542559034]]], [[[73.02624173516801, 2.779695076166888], [73.02624173516801, 2.779695076166888]]], [[[73.4267581151949, 2.782949362922807], [73.4267581151949, 2.782949362922807]]], [[[73.02571024663064, 2.788658577631281], [73.02571024663064, 2.788658577631281]]], [[[73.42792592534124, 2.785823972098683], [73.42792592534124, 2.785823972098683]]], [[[73.42876388484547, 2.794117948084875], [73.42876388484547, 2.794117948084875]]], [[[73.02655868953195, 2.793100324720285], [73.02655868953195, 2.793100324720285]]], [[[73.02563423143471, 2.796577787235151], [73.02563423143471, 2.796577787235151]]], [[[73.43156234662507, 2.796111435694229], [73.43156234662507, 2.796111435694229]]], [[[73.02615190368743, 2.80042405002996], [73.02615190368743, 2.80042405002996]]], [[[73.43305167249673, 2.801672217299028], [73.43305167249673, 2.801672217299028]]], [[[73.54034086184134, 2.854635267503625], [73.54034086184134, 2.854635267503625]]], [[[73.02566037382724, 2.855802726914362], [73.02566037382724, 2.855802726914362]]], [[[72.8473024108776, 2.860072180087116], [72.8473024108776, 2.860072180087116]]], [[[72.83800232644626, 2.886614938228888], [72.83800232644626, 2.886614938228888]]], [[[73.57578895959284, 2.883470835510707], [73.57578895959284, 2.883470835510707]]], [[[73.57744873666991, 2.891602342674048], [73.57744873666991, 2.891602342674048]]], [[[73.38087096322442, 2.896619923870446], [73.38087096322442, 2.896619923870446]]], [[[72.86765050116975, 2.910134304254768], [72.86765050116975, 2.910134304254768]]], [[[73.58054967912443, 2.915181361630573], [73.58054967912443, 2.915181361630573]]], [[[72.89824545876098, 2.923635701126727], [72.89824545876098, 2.923635701126727]]], [[[72.99109059085816, 2.938571244167633], [72.99109059085816, 2.938571244167633]]], [[[72.91609328897414, 2.946863465576541], [72.91609328897414, 2.946863465576541]]], [[[73.58877259697783, 2.945952167258781], [73.58877259697783, 2.945952167258781]]], [[[72.98599396734778, 2.956105234369147], [72.98599396734778, 2.956105234369147]]], [[[73.59829789593118, 2.950266536171739], [73.59829789593118, 2.950266536171739]]], [[[72.94763753134703, 2.962534503864333], [72.94763753134703, 2.962534503864333]]], [[[72.99224304777852, 2.972044714891751], [72.99224304777852, 2.972044714891751]]], [[[73.01686407881425, 2.980957686148372], [73.01686407881425, 2.980957686148372]]], [[[73.00527296157799, 2.996311155835201], [73.00527296157799, 2.996311155835201]]], [[[73.00014822166315, 3.002048442881403], [73.00014822166315, 3.002048442881403]]], [[[72.88914663990556, 3.059750457117957], [72.88914663990556, 3.059750457117957]]], [[[72.93030088118076, 3.064163430398025], [72.93030088118076, 3.064163430398025]]], [[[72.96574687272005, 3.080706466630204], [72.96574687272005, 3.080706466630204]]], [[[73.63877568155254, 3.078802459765768], [73.63877568155254, 3.078802459765768]]], [[[73.63892183307621, 3.085766858253976], [73.63892183307621, 3.085766858253976]]], [[[73.5743894652017, 3.107055875927983], [73.5743894652017, 3.107055875927983]]], [[[73.56411051099133, 3.111193741198235], [73.56411051099133, 3.111193741198235]]], [[[72.98743618493205, 3.115427051517258], [72.98743618493205, 3.115427051517258]]], [[[73.45169531009054, 3.177146218623136], [73.45169531009054, 3.177146218623136]]], [[[73.03949442812541, 3.211625381406293], [73.03949442812541, 3.211625381406293]]], [[[72.81965853721175, 3.257289971854789], [72.81965853721175, 3.257289971854789]]], [[[73.0036663892925, 3.268129407845947], [73.0036663892925, 3.268129407845947]]], [[[73.46992628387096, 3.316148566403285], [73.46992628387096, 3.316148566403285]]], [[[73.521818111117, 3.342381476623871], [73.521818111117, 3.342381476623871]]], [[[73.55256426542854, 3.463137849032535], [73.55256426542854, 3.463137849032535]]], [[[73.5471731463237, 3.470299457154283], [73.5471731463237, 3.470299457154283]]], [[[72.82870015828576, 3.476572925400262], [72.82870015828576, 3.476572925400262]]], [[[72.85594615119396, 3.478078305069744], [72.85594615119396, 3.478078305069744]]], [[[72.84250918894799, 3.481138190774914], [72.84250918894799, 3.481138190774914]]], [[[72.79883578384442, 3.48489286841118], [72.79883578384442, 3.48489286841118]]], [[[72.88237909761733, 3.487138656323964], [72.88237909761733, 3.487138656323964]]], [[[73.5402569083297, 3.487815901582621], [73.5402569083297, 3.487815901582621]]], [[[72.78459757511803, 3.490892279954778], [72.78459757511803, 3.490892279954778]]], [[[73.52979487013721, 3.499715068995272], [73.52979487013721, 3.499715068995272]]], [[[72.89262427778823, 3.494678187448415], [72.89262427778823, 3.494678187448415]]], [[[72.92024119787305, 3.520783718593805], [72.92024119787305, 3.520783718593805]]], [[[72.72050269684206, 3.542474872617333], [72.72050269684206, 3.542474872617333]]], [[[72.72027827192477, 3.569117288232292], [72.72027827192477, 3.569117288232292]]], [[[72.90326238255295, 3.578082192639101], [72.90326238255295, 3.578082192639101]]], [[[73.49862333200122, 3.59251103065958], [73.49862333200122, 3.59251103065958]]], [[[72.90097422308196, 3.608501041390014], [72.90097422308196, 3.608501041390014]]], [[[72.9560409449337, 3.603650138742978], [72.9560409449337, 3.603650138742978]]], [[[72.72818662581221, 3.610249247005186], [72.72818662581221, 3.610249247005186]]], [[[72.72377821389352, 3.616095313348069], [72.72377821389352, 3.616095313348069]]], [[[72.95923167480203, 3.634509020375049], [72.95923167480203, 3.634509020375049]]], [[[72.82223338526256, 3.653115725510361], [72.82223338526256, 3.653115725510361]]], [[[72.95372431832271, 3.65317257165691], [72.95372431832271, 3.65317257165691]]], [[[73.41552917473166, 3.679467942491613], [73.41552917473166, 3.679467942491613]]], [[[72.70913460158067, 3.703546299222353], [72.70913460158067, 3.703546299222353]]], [[[72.97022235068101, 3.758636532050389], [72.97022235068101, 3.758636532050389]]], [[[72.92679688147098, 3.776136835446664], [72.92679688147098, 3.776136835446664]]], [[[72.96158869985868, 3.79288690460703], [72.96158869985868, 3.79288690460703]]], [[[73.41112743038667, 3.811969435641004], [73.41112743038667, 3.811969435641004]]], [[[72.9522277115397, 3.850487858427982], [72.9522277115397, 3.850487858427982]]], [[[73.45537199851896, 3.853608802704116], [73.45537199851896, 3.853608802704116]]], [[[73.45768849382898, 3.854834511203762], [73.45768849382898, 3.854834511203762]]], [[[73.36779696825556, 3.876168093882484], [73.36779696825556, 3.876168093882484]]], [[[72.72732989296026, 3.883924483927842], [72.72732989296026, 3.883924483927842]]], [[[72.81682046659131, 3.886886819271353], [72.81682046659131, 3.886886819271353]]], [[[73.46889541439191, 3.89791679642309], [73.46889541439191, 3.89791679642309]]], [[[73.35744809625271, 3.902838931671397], [73.35744809625271, 3.902838931671397]]], [[[73.4743221511464, 3.901578132524833], [73.4743221511464, 3.901578132524833]]], [[[73.45632900218175, 3.91362678524797], [73.45632900218175, 3.91362678524797]]], [[[73.47086539192435, 3.917701135898767], [73.47086539192435, 3.917701135898767]]], [[[72.74645282154052, 3.919236694118183], [72.74645282154052, 3.919236694118183]]], [[[73.4565821802235, 3.920575745074643], [73.4565821802235, 3.920575745074643]]], [[[73.49103511248052, 3.939403518857375], [73.49103511248052, 3.939403518857375]]], [[[73.50609347233592, 3.968136622607119], [73.50609347233592, 3.968136622607119]]], [[[73.50176743561872, 3.972408532727627], [73.50176743561872, 3.972408532727627]]], [[[72.718182911812, 3.987732175499559], [72.718182911812, 3.987732175499559]]], [[[73.50908370374998, 3.988448371295362], [73.50908370374998, 3.988448371295362]]], [[[72.949702866694, 4.005336697730456], [72.949702866694, 4.005336697730456]]], [[[72.81131420638559, 4.006152199364578], [72.81131420638559, 4.006152199364578]]], [[[73.39614732234111, 4.014572852055551], [73.39614732234111, 4.014572852055551]]], [[[73.38241862721793, 4.015039905067624], [73.38241862721793, 4.015039905067624]]], [[[72.72691113264273, 4.05306881697237], [72.72691113264273, 4.05306881697237]]], [[[72.75285099247935, 4.096831504969998], [72.75285099247935, 4.096831504969998]]], [[[73.39960706461437, 4.098233368175443], [73.39960706461437, 4.098233368175443]]], [[[73.4699456714556, 4.120490180477475], [73.4699456714556, 4.120490180477475]]], [[[73.51874129387568, 4.119083755910651], [73.51874129387568, 4.119083755910651]]], [[[73.51498784561267, 4.121249186700652], [73.51498784561267, 4.121249186700652]]], [[[73.50455809038363, 4.122359799065521], [73.50455809038363, 4.122359799065521]]], [[[73.43853604500254, 4.122858082834284], [73.43853604500254, 4.122858082834284]]], [[[73.48941226786195, 4.121217955943962], [73.48941226786195, 4.121217955943962]]], [[[73.46560261596801, 4.12366095259091], [73.46560261596801, 4.12366095259091]]], [[[73.47375114190174, 4.124942104294746], [73.47375114190174, 4.124942104294746]]], [[[73.46327129443472, 4.122565429051349], [73.46327129443472, 4.122565429051349]]], [[[73.48587348417402, 4.176227480913553], [73.48587348417402, 4.176227480913553]]], [[[73.50931328268189, 4.18072782962571], [73.50931328268189, 4.18072782962571]]], [[[72.76752616470077, 4.18050676007897], [72.76752616470077, 4.18050676007897]]], [[[73.51897517156698, 4.18464041382407], [73.51897517156698, 4.18464041382407]]], [[[73.45963645146111, 4.184770248048551], [73.45963645146111, 4.184770248048551]]], [[[73.43916635734155, 4.187459930531418], [73.43916635734155, 4.187459930531418]]], [[[73.43668195410896, 4.185895598503123], [73.43668195410896, 4.185895598503123]]], [[[72.77381362549846, 4.187182715410017], [72.77381362549846, 4.187182715410017]]], [[[72.74876611526406, 4.189819410737243], [72.74876611526406, 4.189819410737243]]], [[[72.82003602224466, 4.194202558001678], [72.82003602224466, 4.194202558001678]]], [[[73.51461334273165, 4.197436492200382], [73.51461334273165, 4.197436492200382]]], [[[73.48474936219338, 4.212190617702902], [73.48474936219338, 4.212190617702902]]], [[[72.8643695890853, 4.216617276865861], [72.8643695890853, 4.216617276865861]]], [[[73.54003566341521, 4.195999188511792], [73.54003566341521, 4.195999188511792]]], [[[73.52036598120515, 4.225262858993801], [73.52036598120515, 4.225262858993801]]], [[[73.49617252833957, 4.2304822102858], [73.49617252833957, 4.2304822102858]]], [[[73.53666785793536, 4.229370721081978], [73.53666785793536, 4.229370721081978]]], [[[73.54659336419246, 4.221601171257078], [73.54659336419246, 4.221601171257078]]], [[[73.36728605170998, 4.250264796083513], [73.36728605170998, 4.250264796083513]]], [[[73.54789925444709, 4.251024328410097], [73.54789925444709, 4.251024328410097]]], [[[73.38061418969318, 4.260527696496069], [73.38061418969318, 4.260527696496069]]], [[[72.97195836238859, 4.2607335018497], [72.97195836238859, 4.2607335018497]]], [[[73.50019205002314, 4.262971920717632], [73.50019205002314, 4.262971920717632]]], [[[72.99201351291333, 4.260368385192862], [72.99201351291333, 4.260368385192862]]], [[[73.4914083868876, 4.267384718629899], [73.4914083868876, 4.267384718629899]]], [[[73.42756659851977, 4.283764584567962], [73.42756659851977, 4.283764584567962]]], [[[73.55440870659658, 4.28214761701895], [73.55440870659658, 4.28214761701895]]], [[[73.55751184159828, 4.292374549046258], [73.55751184159828, 4.292374549046258]]], [[[73.42428081840512, 4.308526151760532], [73.42428081840512, 4.308526151760532]]], [[[73.57055802773084, 4.312218893986824], [73.57055802773084, 4.312218893986824]]], [[[73.57971522877483, 4.319019420709765], [73.57971522877483, 4.319019420709765]]], [[[73.59227181499233, 4.316509050452339], [73.59227181499233, 4.316509050452339]]], [[[73.6029440454314, 4.336700615541019], [73.6029440454314, 4.336700615541019]]], [[[73.60606183128851, 4.34062793692982], [73.60606183128851, 4.34062793692982]]], [[[73.6198427230633, 4.349749169588563], [73.6198427230633, 4.349749169588563]]], [[[73.625669227353, 4.359961013689883], [73.625669227353, 4.359961013689883]]], [[[73.41606298801656, 4.366454323907988], [73.41606298801656, 4.366454323907988]]], [[[73.65454207855413, 4.372516372332768], [73.65454207855413, 4.372516372332768]]], [[[73.66305580837889, 4.374543546747304], [73.66305580837889, 4.374543546747304]]], [[[73.38405147319696, 4.431949924149706], [73.38405147319696, 4.431949924149706]]], [[[72.96129113307938, 4.443075874252258], [72.96129113307938, 4.443075874252258]]], [[[73.71242235191005, 4.438184968861265], [73.71242235191005, 4.438184968861265]]], [[[73.71740545759587, 4.45871392720602], [73.71740545759587, 4.45871392720602]]], [[[73.3936023012053, 4.480921262406355], [73.3936023012053, 4.480921262406355]]], [[[73.36886503369442, 4.502642418712696], [73.36886503369442, 4.502642418712696]]], [[[73.36790030935185, 4.519120362015144], [73.36790030935185, 4.519120362015144]]], [[[73.5801270148499, 4.579942267421757], [73.5801270148499, 4.579942267421757]]], [[[73.59262315853198, 4.590558879288892], [73.59262315853198, 4.590558879288892]]], [[[73.49183771873578, 4.604152037586516], [73.49183771873578, 4.604152037586516]]], [[[73.50210535587752, 4.677408064030999], [73.50210535587752, 4.677408064030999]]], [[[73.49907248940394, 4.737952754316211], [73.49907248940394, 4.737952754316211]]], [[[73.42755063285546, 4.786382120638393], [73.42755063285546, 4.786382120638393]]], [[[72.99899980000083, 4.879435470070916], [72.99899980000083, 4.879435470070916]]], [[[72.96771904279962, 4.882222176812036], [72.96771904279962, 4.882222176812036]]], [[[72.95932804165585, 4.884700790209365], [72.95932804165585, 4.884700790209365]]], [[[72.93650035230945, 4.88574543280555], [72.93650035230945, 4.88574543280555]]], [[[73.4671376471847, 4.96584619934265], [73.4671376471847, 4.96584619934265]]], [[[72.90570844948542, 4.999433012523582], [72.90570844948542, 4.999433012523582]]], [[[72.85728886508912, 5.008498100506984], [72.85728886508912, 5.008498100506984]]], [[[72.92223003598741, 5.010431934286373], [72.92223003598741, 5.010431934286373]]], [[[72.94581879370241, 5.009480632325392], [72.94581879370241, 5.009480632325392]]], [[[72.95338920484801, 5.011443065445178], [72.95338920484801, 5.011443065445178]]], [[[72.83907890127034, 5.025215886703847], [72.83907890127034, 5.025215886703847]]], [[[72.88264859295828, 5.040505316567135], [72.88264859295828, 5.040505316567135]]], [[[72.85619149883865, 5.063459025213888], [72.85619149883865, 5.063459025213888]]], [[[73.06592945827794, 5.092882708470256], [73.06592945827794, 5.092882708470256]]], [[[73.0729272818686, 5.103274039265557], [73.0729272818686, 5.103274039265557]]], [[[73.08260627675833, 5.109013957727996], [73.08260627675833, 5.109013957727996]]], [[[72.91296519598706, 5.133440762181465], [72.91296519598706, 5.133440762181465]]], [[[73.11077319612616, 5.133074242582268], [73.11077319612616, 5.133074242582268]]], [[[73.11571735127478, 5.142240391880648], [73.11571735127478, 5.142240391880648]]], [[[73.12982173278681, 5.160027909960149], [73.12982173278681, 5.160027909960149]]], [[[73.05098720449593, 5.16405752023843], [73.05098720449593, 5.16405752023843]]], [[[72.99727865768398, 5.173361048173888], [72.99727865768398, 5.173361048173888]]], [[[73.12230821275386, 5.189156482485714], [73.12230821275386, 5.189156482485714]]], [[[73.13480567214413, 5.190074799112722], [73.13480567214413, 5.190074799112722]]], [[[73.08719496587503, 5.205435989479383], [73.08719496587503, 5.205435989479383]]], [[[73.12780855092393, 5.212702166271981], [73.12780855092393, 5.212702166271981]]], [[[72.87739923848414, 5.233424298092928], [72.87739923848414, 5.233424298092928]]], [[[73.11612540876064, 5.233649052162093], [73.11612540876064, 5.233649052162093]]], [[[73.16355175850691, 5.252777201306856], [73.16355175850691, 5.252777201306856]]], [[[73.15620281171044, 5.262064587310931], [73.15620281171044, 5.262064587310931]]], [[[72.87696600357827, 5.264306515333487], [72.87696600357827, 5.264306515333487]]], [[[73.12922602905803, 5.266418959867167], [73.12922602905803, 5.266418959867167]]], [[[73.58850617282167, 5.274595207402967], [73.58850617282167, 5.274595207402967]]], [[[73.03405628796736, 5.273217205909361], [73.03405628796736, 5.273217205909361]]], [[[73.04312927109902, 5.273127374428839], [73.04312927109902, 5.273127374428839]]], [[[73.0098076544997, 5.276922580013093], [73.0098076544997, 5.276922580013093]]], [[[73.60282789619049, 5.275055418372915], [73.60282789619049, 5.275055418372915]]], [[[73.62110790910276, 5.279972816892041], [73.62110790910276, 5.279972816892041]]], [[[73.13676674458964, 5.279686127412901], [73.13676674458964, 5.279686127412901]]], [[[73.50319815986722, 5.286795976852886], [73.50319815986722, 5.286795976852886]]], [[[73.11615449013766, 5.286354539230672], [73.11615449013766, 5.286354539230672]]], [[[72.96937921557839, 5.296302327090757], [72.96937921557839, 5.296302327090757]]], [[[73.05598430183414, 5.297923329897799], [73.05598430183414, 5.297923329897799]]], [[[73.07202541384186, 5.298647597108982], [73.07202541384186, 5.298647597108982]]], [[[73.48043069452098, 5.30896506298734], [73.48043069452098, 5.30896506298734]]], [[[73.47353015958925, 5.320401211746571], [73.47353015958925, 5.320401211746571]]], [[[73.46470859902269, 5.331338199898028], [73.46470859902269, 5.331338199898028]]], [[[72.9539281937312, 5.33313325119866], [72.9539281937312, 5.33313325119866]]], [[[73.65115725430388, 5.332367929036764], [73.65115725430388, 5.332367929036764]]], [[[72.97090999210252, 5.341333184179177], [72.97090999210252, 5.341333184179177]]], [[[72.99051980104804, 5.352779685034477], [72.99051980104804, 5.352779685034477]]], [[[73.65430135792138, 5.347729118504049], [73.65430135792138, 5.347729118504049]]], [[[73.43210809121547, 5.358379066440818], [73.43210809121547, 5.358379066440818]]], [[[72.91981195415843, 5.357847972705827], [72.91981195415843, 5.357847972705827]]], [[[72.90604636974422, 5.366545488883276], [72.90604636974422, 5.366545488883276]]], [[[73.34069951816826, 5.366503906929836], [73.34069951816826, 5.366503906929836]]], [[[73.41161237990747, 5.369229731367057], [73.41161237990747, 5.369229731367057]]], [[[73.65188959203113, 5.369116915912969], [73.65188959203113, 5.369116915912969]]], [[[72.95492138521382, 5.376792949734863], [72.95492138521382, 5.376792949734863]]], [[[72.97885815178233, 5.393453362782509], [72.97885815178233, 5.393453362782509]]], [[[72.99239674461415, 5.399821224769767], [72.99239674461415, 5.399821224769767]]], [[[73.65011822707459, 5.390210831065076], [73.65011822707459, 5.390210831065076]]], [[[73.64122999436881, 5.421507465796935], [73.64122999436881, 5.421507465796935]]], [[[73.62898132612736, 5.432822202482726], [73.62898132612736, 5.432822202482726]]], [[[72.91138796857996, 5.44028032427758], [72.91138796857996, 5.44028032427758]]], [[[72.94202389478698, 5.446277982143215], [72.94202389478698, 5.446277982143215]]], [[[73.36742614989697, 5.440568241331334], [73.36742614989697, 5.440568241331334]]], [[[73.02629586176465, 5.450323382718011], [73.02629586176465, 5.450323382718011]]], [[[72.98056495081187, 5.45696424830146], [72.98056495081187, 5.45696424830146]]], [[[72.95488028529701, 5.46061347862917], [72.95488028529701, 5.46061347862917]]], [[[72.88529366547033, 5.460787000120035], [72.88529366547033, 5.460787000120035]]], [[[73.03185874868234, 5.465857568472074], [73.03185874868234, 5.465857568472074]]], [[[73.37110415403356, 5.460605757949395], [73.37110415403356, 5.460605757949395]]], [[[72.91467181874947, 5.462310978668768], [72.91467181874947, 5.462310978668768]]], [[[73.55502656152663, 5.472963031918425], [73.55502656152663, 5.472963031918425]]], [[[72.95796701576523, 5.474863704996039], [72.95796701576523, 5.474863704996039]]], [[[73.0401106597792, 5.477736734962377], [73.0401106597792, 5.477736734962377]]], [[[73.3842579800218, 5.472768103864951], [73.3842579800218, 5.472768103864951]]], [[[72.97615820533696, 5.48598912809581], [72.97615820533696, 5.48598912809581]]], [[[72.89571806973316, 5.487816463259207], [72.89571806973316, 5.487816463259207]]], [[[72.9394382989384, 5.490276654044408], [72.9394382989384, 5.490276654044408]]], [[[73.04056385333922, 5.49190555199965], [73.04056385333922, 5.49190555199965]]], [[[72.99826667266888, 5.494401710270779], [72.99826667266888, 5.494401710270779]]], [[[72.88363796771807, 5.493272499925979], [72.88363796771807, 5.493272499925979]]], [[[73.41292406089673, 5.496849443646965], [73.41292406089673, 5.496849443646965]]], [[[72.96884934941801, 5.508939152220137], [72.96884934941801, 5.508939152220137]]], [[[72.98207182155738, 5.511441100326579], [72.98207182155738, 5.511441100326579]]], [[[73.04039015558129, 5.51158777795365], [73.04039015558129, 5.51158777795365]]], [[[72.82558436892356, 5.51211062580478], [72.82558436892356, 5.51211062580478]]], [[[73.4429362982716, 5.520832705165276], [73.4429362982716, 5.520832705165276]]], [[[72.84141592450538, 5.523619236538593], [72.84141592450538, 5.523619236538593]]], [[[73.04268173697267, 5.532915044693596], [73.04268173697267, 5.532915044693596]]], [[[73.5045988827323, 5.53561349916373], [73.5045988827323, 5.53561349916373]]], [[[73.04782792481893, 5.547771283717793], [73.04782792481893, 5.547771283717793]]], [[[73.4691620148152, 5.552844308118381], [73.4691620148152, 5.552844308118381]]], [[[73.04371817685245, 5.564893486944925], [73.04371817685245, 5.564893486944925]]], [[[73.04663717476586, 5.583570723210357], [73.04663717476586, 5.583570723210357]]], [[[72.95347741305221, 5.606826559997785], [72.95347741305221, 5.606826559997785]]], [[[73.04682951367118, 5.603438929862762], [73.04682951367118, 5.603438929862762]]], [[[72.8559253157008, 5.616800140414171], [72.8559253157008, 5.616800140414171]]], [[[73.04209954196034, 5.635549311651459], [73.04209954196034, 5.635549311651459]]], [[[72.98656730133996, 5.644151907984224], [72.98656730133996, 5.644151907984224]]], [[[73.32907300361626, 5.644230861265271], [73.32907300361626, 5.644230861265271]]], [[[73.29889145447709, 5.649513201073432], [73.29889145447709, 5.649513201073432]]], [[[73.27665052060507, 5.660033839989751], [73.27665052060507, 5.660033839989751]]], [[[72.84639659572639, 5.67017445059048], [72.84639659572639, 5.67017445059048]]], [[[73.0315417943184, 5.664702096624524], [73.0315417943184, 5.664702096624524]]], [[[73.38851857397304, 5.672917996168621], [73.38851857397304, 5.672917996168621]]], [[[73.25882247277895, 5.685370189083017], [73.25882247277895, 5.685370189083017]]], [[[73.02705021849283, 5.689046526775826], [73.02705021849283, 5.689046526775826]]], [[[73.34260756029073, 5.692347922718511], [73.34260756029073, 5.692347922718511]]], [[[73.40815570881898, 5.691675063453488], [73.40815570881898, 5.691675063453488]]], [[[73.31257172470538, 5.693673376824904], [73.31257172470538, 5.693673376824904]]], [[[73.02457822860242, 5.714547361871325], [73.02457822860242, 5.714547361871325]]], [[[73.41595789234293, 5.710179040830099], [73.41595789234293, 5.710179040830099]]], [[[72.93542290064642, 5.728751269555517], [72.93542290064642, 5.728751269555517]]], [[[73.35788339330401, 5.737450101441084], [73.35788339330401, 5.737450101441084]]], [[[73.21665205694694, 5.741105296971909], [73.21665205694694, 5.741105296971909]]], [[[73.32358915721392, 5.746808194842345], [73.32358915721392, 5.746808194842345]]], [[[73.0170298805246, 5.747665717299071], [73.0170298805246, 5.747665717299071]]], [[[72.96281440835833, 5.74915267435648], [72.96281440835833, 5.74915267435648]]], [[[73.25171885204344, 5.749233645716231], [73.25171885204344, 5.749233645716231]]], [[[73.2624095932282, 5.75228712824844], [73.2624095932282, 5.75228712824844]]], [[[72.96430544474055, 5.768320300141795], [72.96430544474055, 5.768320300141795]]], [[[73.41398396768602, 5.767966149817994], [73.41398396768602, 5.767966149817994]]], [[[73.34406644590979, 5.764773709439169], [73.34406644590979, 5.764773709439169]]], [[[73.01501038182374, 5.758963697816455], [73.01501038182374, 5.758963697816455]]], [[[73.36099573916209, 5.77904411299545], [73.36099573916209, 5.77904411299545]]], [[[73.27611065488287, 5.787184919148729], [73.27611065488287, 5.787184919148729]]], [[[73.36463628473683, 5.788490810302676], [73.36463628473683, 5.788490810302676]]], [[[73.00765169806749, 5.796125700140976], [73.00765169806749, 5.796125700140976]]], [[[73.2270334754146, 5.794518382317563], [73.2270334754146, 5.794518382317563]]], [[[73.34586149721036, 5.795677331443756], [73.34586149721036, 5.795677331443756]]], [[[73.29756784308154, 5.803389157383776], [73.29756784308154, 5.803389157383776]]], [[[73.16858232411505, 5.808744484370493], [73.16858232411505, 5.808744484370493]]], [[[73.4585707548365, 5.808583945492728], [73.4585707548365, 5.808583945492728]]], [[[73.00490929282967, 5.807846169565096], [73.00490929282967, 5.807846169565096]]], [[[73.31909249302419, 5.813912340482148], [73.31909249302419, 5.813912340482148]]], [[[73.32709153364743, 5.816247346537864], [73.32709153364743, 5.816247346537864]]], [[[73.37677020757906, 5.8191233586561], [73.37677020757906, 5.8191233586561]]], [[[73.38817293303447, 5.820559873639297], [73.38817293303447, 5.820559873639297]]], [[[73.21032634708331, 5.832964255895718], [73.21032634708331, 5.832964255895718]]], [[[73.30557539308995, 5.83659225592794], [73.30557539308995, 5.83659225592794]]], [[[73.45981611532153, 5.809552967695367], [73.45981611532153, 5.809552967695367]]], [[[73.4465605265471, 5.843919226890876], [73.4465605265471, 5.843919226890876]]], [[[73.33648638503871, 5.854232745644765], [73.33648638503871, 5.854232745644765]]], [[[72.98940962665301, 5.861660162786336], [72.98940962665301, 5.861660162786336]]], [[[73.36863668233707, 5.85892977608836], [73.36863668233707, 5.85892977608836]]], [[[73.14347107982655, 5.871315472231288], [73.14347107982655, 5.871315472231288]]], [[[73.34397257827192, 5.875887756814564], [73.34397257827192, 5.875887756814564]]], [[[73.4005704723495, 5.88065637149441], [73.4005704723495, 5.88065637149441]]], [[[73.37936865384034, 5.882522042058667], [73.37936865384034, 5.882522042058667]]], [[[73.46727660503137, 5.877101797510022], [73.46727660503137, 5.877101797510022]]], [[[73.45558517291744, 5.905148005376191], [73.45558517291744, 5.905148005376191]]], [[[73.3177501082809, 5.915057545069715], [73.3177501082809, 5.915057545069715]]], [[[73.43668274371373, 5.918834767810324], [73.43668274371373, 5.918834767810324]]], [[[73.30660757827718, 5.948118966217351], [73.30660757827718, 5.948118966217351]]], [[[73.1321107259293, 5.951396939317362], [73.1321107259293, 5.951396939317362]]], [[[73.38700433328341, 5.960877498797572], [73.38700433328341, 5.960877498797572]]], [[[73.36970395817121, 5.966763480650172], [73.36970395817121, 5.966763480650172]]], [[[73.4075341693665, 5.968554760194081], [73.4075341693665, 5.968554760194081]]], [[[73.394101813448, 5.965547947979474], [73.394101813448, 5.965547947979474]]], [[[73.40459745121149, 5.970394551867116], [73.40459745121149, 5.970394551867116]]], [[[72.9557986459908, 5.970321739156986], [72.9557986459908, 5.970321739156986]]], [[[73.125056407827, 5.966895421086861], [73.125056407827, 5.966895421086861]]], [[[73.34608940969855, 5.970441222184718], [73.34608940969855, 5.970441222184718]]], [[[72.93991772212524, 5.978187261033327], [72.93991772212524, 5.978187261033327]]], [[[73.32646911735594, 5.981094328540451], [73.32646911735594, 5.981094328540451]]], [[[73.20995675719865, 5.990094762463343], [73.20995675719865, 5.990094762463343]]], [[[73.305692595437, 6.001786896048486], [73.305692595437, 6.001786896048486]]], [[[73.11578862884221, 6.007428912514342], [73.11578862884221, 6.007428912514342]]], [[[73.29611018593641, 6.016747090405943], [73.29611018593641, 6.016747090405943]]], [[[73.28563095360568, 6.034517327113008], [73.28563095360568, 6.034517327113008]]], [[[73.05504716779262, 6.055616593231264], [73.05504716779262, 6.055616593231264]]], [[[73.04540791304481, 6.058109154214151], [73.04540791304481, 6.058109154214151]]], [[[73.28510187705007, 6.077346170789212], [73.28510187705007, 6.077346170789212]]], [[[73.20361661681346, 6.087401862006402], [73.20361661681346, 6.087401862006402]]], [[[73.28914017298064, 6.107710453174946], [73.28914017298064, 6.107710453174946]]], [[[73.22818220464507, 6.112243611853273], [73.22818220464507, 6.112243611853273]]], [[[73.25341056224772, 6.127121080273696], [73.25341056224772, 6.127121080273696]]], [[[73.2531137850732, 6.166902758255731], [73.2531137850732, 6.166902758255731]]], [[[73.28931588791795, 6.158728089929468], [73.28931588791795, 6.158728089929468]]], [[[73.24702340080938, 6.186869042272519], [73.24702340080938, 6.186869042272519]]], [[[73.03212017260796, 6.199305268623277], [73.03212017260796, 6.199305268623277]]], [[[73.29344813782137, 6.180377486631755], [73.29344813782137, 6.180377486631755]]], [[[72.99772277078932, 6.204631997168974], [72.99772277078932, 6.204631997168974]]], [[[73.06388623006552, 6.211865979131687], [73.06388623006552, 6.211865979131687]]], [[[73.24174676450161, 6.227317789684321], [73.24174676450161, 6.227317789684321]]], [[[73.26906712594717, 6.239539789429784], [73.26906712594717, 6.239539789429784]], [[73.26748682825456, 6.236162861227115], [73.26748682825456, 6.236162861227115]]], [[[73.21933305377746, 6.260835737279479], [73.21933305377746, 6.260835737279479]]], [[[73.19575302578158, 6.27690478942452], [73.19575302578158, 6.27690478942452]]], [[[73.15176540654835, 6.281054058098334], [73.15176540654835, 6.281054058098334]]], [[[73.01301939432966, 6.283093865289686], [73.01301939432966, 6.283093865289686]]], [[[73.24314178476561, 6.294822142627822], [73.24314178476561, 6.294822142627822]]], [[[73.10845621788019, 6.296127857514648], [73.10845621788019, 6.296127857514648]]], [[[73.22506191867268, 6.326897610036724], [73.22506191867268, 6.326897610036724]]], [[[73.15169970028097, 6.324021773286233], [73.15169970028097, 6.324021773286233]]], [[[73.22886923093034, 6.331843344394883], [73.22886923093034, 6.331843344394883]]], [[[72.97907816822294, 6.337070152865294], [72.97907816822294, 6.337070152865294]]], [[[73.21018260844068, 6.344557749940236], [73.21018260844068, 6.344557749940236]]], [[[73.05293248664498, 6.360167029984495], [73.05293248664498, 6.360167029984495]]], [[[72.69472701633879, 6.395395372998109], [72.69472701633879, 6.395395372998109]]], [[[72.71034366452858, 6.415507018933852], [72.71034366452858, 6.415507018933852]]], [[[72.9374458203684, 6.430737935307491], [72.9374458203684, 6.430737935307491]]], [[[72.90775233600158, 6.435009099890124], [72.90775233600158, 6.435009099890124]]], [[[73.06866493334007, 6.431448955504948], [73.06866493334007, 6.431448955504948]]], [[[72.91840153750098, 6.444302495164095], [72.91840153750098, 6.444302495164095]]], [[[73.05943527122082, 6.448177663968067], [73.05943527122082, 6.448177663968067]]], [[[72.90208996697845, 6.479634530908925], [72.90208996697845, 6.479634530908925]]], [[[73.05623747987585, 6.513275996789844], [73.05623747987585, 6.513275996789844]]], [[[72.90461025046272, 6.543547333342815], [72.90461025046272, 6.543547333342815]]], [[[72.98282613421878, 6.548297438176292], [72.98282613421878, 6.548297438176292]]], [[[72.95878637728953, 6.552357094804108], [72.95878637728953, 6.552357094804108]]], [[[73.05175024597713, 6.580675077792648], [73.05175024597713, 6.580675077792648]]], [[[73.01168902812623, 6.596973708869598], [73.01168902812623, 6.596973708869598]]], [[[73.06729017839905, 6.631702013537165], [73.06729017839905, 6.631702013537165]], [[73.06641370632752, 6.627259126107845], [73.06641370632752, 6.627259126107845]]], [[[72.92232412216055, 6.643608638128171], [72.92232412216055, 6.643608638128171]]], [[[72.93784751784875, 6.654915039897219], [72.93784751784875, 6.654915039897219]]], [[[73.02794853329823, 6.654555713975071], [73.02794853329823, 6.654555713975071]]], [[[72.99827720013275, 6.662197315453795], [72.99827720013275, 6.662197315453795]]], [[[73.0868899859841, 6.664928711191124], [73.0868899859841, 6.664928711191124]], [[73.08656614551126, 6.658909999297066], [73.08656614551126, 6.658909999297066]]], [[[72.91343532018391, 6.671451760190621], [72.91343532018391, 6.671451760190621]]], [[[72.9488061742656, 6.700460410819346], [72.9488061742656, 6.700460410819346]]], [[[73.12392254798726, 6.708666880072485], [73.12392254798726, 6.708666880072485]]], [[[72.94805931788329, 6.711517846971105], [72.94805931788329, 6.711517846971105]]], [[[73.15017681890515, 6.726203765191656], [73.15017681890515, 6.726203765191656]]], [[[73.02683498284824, 6.720995203965515], [73.02683498284824, 6.720995203965515]]], [[[73.03657073665022, 6.739590942767848], [73.03657073665022, 6.739590942767848]]], [[[72.93530047863425, 6.743564583738589], [72.93530047863425, 6.743564583738589]]], [[[73.0567152357196, 6.747124552755963], [73.0567152357196, 6.747124552755963]]], [[[73.08885351537748, 6.767384894397424], [73.08885351537748, 6.767384894397424]]], [[[73.18079941086415, 6.773894345647591], [73.18079941086415, 6.773894345647591]]], [[[73.11987258515177, 6.784821201137561], [73.11987258515177, 6.784821201137561]]], [[[73.05498703192603, 6.782386757942561], [73.05498703192603, 6.782386757942561]]], [[[73.2134082526888, 6.825277975897905], [73.2134082526888, 6.825277975897905]]], [[[73.15590695544171, 6.833029190344917], [73.15590695544171, 6.833029190344917]]], [[[73.11496417895376, 6.837390690927691], [73.11496417895376, 6.837390690927691]]], [[[73.0094299500322, 6.840556681345788], [73.0094299500322, 6.840556681345788]]], [[[73.16992979632312, 6.836506916361145], [73.16992979632312, 6.836506916361145]]], [[[72.99342331533381, 6.847529195316156], [72.99342331533381, 6.847529195316156]]], [[[73.05458612405045, 6.838393377452462], [73.05458612405045, 6.838393377452462]]], [[[73.15317450749757, 6.84733332477316], [73.15317450749757, 6.84733332477316]]], [[[72.98605195473397, 6.851242355750173], [72.98605195473397, 6.851242355750173]]], [[[73.10614941636254, 6.894807573310914], [73.10614941636254, 6.894807573310914]]], [[[73.12859019038501, 6.894439781171002], [73.12859019038501, 6.894439781171002]]], [[[73.16705676725604, 6.900509506208778], [73.16705676725604, 6.900509506208778]]], [[[73.23565629210424, 6.901844609141449], [73.23565629210424, 6.901844609141449]]], [[[73.23400094508759, 6.921996214653632], [73.23400094508759, 6.921996214653632]]], [[[72.98483528172295, 6.944795480926757], [72.98483528172295, 6.944795480926757]]], [[[72.92810540404122, 6.957352681381167], [72.92810540404122, 6.957352681381167]]], [[[73.21870524245304, 6.963355032808579], [73.21870524245304, 6.963355032808579]]], [[[72.90766496056955, 6.957283685393804], [72.90766496056955, 6.957283685393804]]], [[[72.8869639268438, 6.987696787476807], [72.8869639268438, 6.987696787476807]]], [[[72.87476973683397, 6.994395409320759], [72.87476973683397, 6.994395409320759]]], [[[72.94085490023349, 6.998844547937608], [72.94085490023349, 6.998844547937608]]], [[[72.86094436728877, 7.003948901120964], [72.86094436728877, 7.003948901120964]]], [[[72.93685858195806, 7.012026763724236], [72.93685858195806, 7.012026763724236]]], [[[72.8307856267553, 7.020541525071394], [72.8307856267553, 7.020541525071394]]], [[[72.99269150370998, 7.023535441007823], [72.99269150370998, 7.023535441007823]]], [[[72.98240982994975, 7.041640538480124], [72.98240982994975, 7.041640538480124]]], [[[72.97221061862518, 7.044916044739693], [72.97221061862518, 7.044916044739693]]], [[[72.95469347272564, 7.05246189270224], [72.95469347272564, 7.05246189270224]]], [[[72.81127573878439, 7.071552800921097], [72.81127573878439, 7.071552800921097]]], [[[72.93259912924646, 7.079029520695883], [72.93259912924646, 7.079029520695883]]], [[[72.8799872894819, 7.091206648767866], [72.8799872894819, 7.091206648767866]]], [[[72.90052506567929, 7.105990085873827], [72.90052506567929, 7.105990085873827]]]]}}]}