{"type": "FeatureCollection", "features": [{"type": "Feature", "properties": {"code": "MHL", "name": "Marshall Islands", "tier": "country"}, "geometry": {"type": "MultiPolygon", "coordinates": [[[[168.7501, 4.596985109170306], [168.7006782, 4.5793307], [168.7524791, 4.5984312], [168.7501, 4.596985109170306]]], [[[168.6568862, 4.6246576], [168.6568862, 4.6246576]]], [[[168.1297255, 5.6250014], [168.1297255, 5.6250014]]], [[[168.0877062, 5.6395027], [168.0877062, 5.6395027]]], [[[169.5679329, 5.8123383], [169.5679329, 5.8123383]]], [[[169.6407526, 5.9251797], [169.6279752, 5.8760796], [169.6159026, 5.8235409], [169.6306641, 5.8766271], [169.6407526, 5.9251797]]], [[[172.1474236, 5.90759], [172.1474236, 5.90759]]], [[[172.1394561, 5.9139213], [172.1394561, 5.9139213]]], [[[172.1135782, 5.975066], [172.0716775, 6.0090473], [172.1120248, 5.9708163], [172.1135782, 5.975066]]], [[[169.7174963, 6.0209714], [169.6736398, 6.0566883], [169.7105419, 6.0221087], [169.7174963, 6.0209714]]], [[[171.7627719, 6.0723388], [171.7336884, 6.1148292], [171.7627719, 6.0723388]]], [[[171.9139625, 6.066513765413883], [171.8583061, 6.0657508], [171.8134589, 6.040814], [171.7636013, 6.0730458], [171.8095933, 6.0388868], [171.8652596, 6.0659977], [171.9231908, 6.059071], [171.9720803, 6.0374602], [172.0485186, 6.0166961], [171.9996377, 6.0398597], [171.9435011, 6.0397021], [171.9139625, 6.066513765413883]]], [[[169.4489381, 5.9408882], [169.4489381, 5.9408882]]], [[[169.71357054438747, 5.9764625], [169.6700365, 5.9499702], [169.7218205, 5.9882406], [169.71357054438747, 5.9764625]]], [[[169.5632684, 6.121228], [169.5420121, 6.1731051], [169.5632684, 6.121228]]], [[[171.727237, 6.1586779], [171.7198168, 6.2083869], [171.727237, 6.1586779]]], [[[169.5070741, 6.2343485], [169.5070741, 6.2343485]]], [[[171.8629825, 7.0807558], [171.914156, 7.0943198], [171.8629825, 7.0807558]]], [[[171.5626, 7.052650130217122], [171.5889964, 7.007731], [171.6428052, 6.9977713], [171.6937569, 6.9901594], [171.7384023, 6.9583459], [171.6941791, 6.9906741], [171.6416208, 6.9988971], [171.5770324, 7.0358457], [171.5626, 7.052650130217122]]], [[[171.7738537, 7.0312495], [171.7505394, 6.9825477], [171.7833956, 7.0370445], [171.8372696, 7.0711169], [171.7894045, 7.054215], [171.7738537, 7.0312495]]], [[[171.3551802, 7.0827861], [171.3551802, 7.0827861]]], [[[171.1043932, 7.0988707], [171.1884687, 7.0656457], [171.2451946, 7.0553446], [171.2995888, 7.0682248], [171.3550753, 7.0828274], [171.3026037, 7.0703001], [171.2429718, 7.0557279], [171.1903124, 7.0674431], [171.1346523, 7.0889567], [171.0805336, 7.1087792], [171.038099, 7.1501272], [171.0724443, 7.1097024], [171.1043932, 7.0988707]]], [[[171.6553502, 7.2561152], [171.6553502, 7.2561152]]], [[[168.7501, 7.286422742365683], [168.8077636, 7.2773574], [168.7541624, 7.2821677], [168.7501, 7.286422742365683]]], [[[168.6713651, 7.3129178], [168.7254967, 7.296273], [168.6745922, 7.311598], [168.6713651, 7.3129178]]], [[[168.6228448, 7.3395347], [168.6228448, 7.3395347]]], [[[168.5541469, 7.4071822], [168.5541469, 7.4071822]]], [[[168.9559036, 7.5554676], [168.9345299, 7.6008988], [168.9559036, 7.5554676]]], [[[168.2282886, 7.7631948], [168.2282886, 7.7631948]]], [[[168.1796951, 8.1590661], [168.1796951, 8.1590661]]], [[[171.1584681, 8.3046622], [171.1584681, 8.3046622]]], [[[167.3813488, 8.3059427], [167.3813488, 8.3059427]]], [[[171.2363993, 8.7045747], [171.2363993, 8.7045747]]], [[[167.7381094, 8.7439148], [167.7381094, 8.7439148]]], [[[167.7348943, 8.794212], [167.7472405, 8.8562198], [167.7324089, 8.7985962], [167.7348943, 8.794212]]], [[[170.849814, 8.8984534], [170.849814, 8.8984534]]], [[[165.7673772, 8.9302254], [165.7673772, 8.9302254]]], [[[166.833729, 9.3208603], [166.833729, 9.3208603]]], [[[167.4656717, 9.4019796], [167.4656717, 9.4019796]]], [[[170.2310638, 9.4652434], [170.2310638, 9.4652434]]], [[[160.964027, 9.7697375], [160.964027, 9.7697375]]], [[[169.2931008, 9.8174746], [169.2931008, 9.8174746]]], [[[166.0265684, 10.0150657], [166.0265684, 10.0150657]]], [[[166.0132203, 10.1536375], [166.0132203, 10.1536375]]], [[[169.0180197, 10.0326989], [169.0180197, 10.0326989]]], [[[169.001284, 10.0463224], [169.001284, 10.0463224]]], [[[170.8733227, 10.269042], [170.8733227, 10.269042]]], [[[166.8563743, 11.1550831], [166.8563743, 11.1550831]]], [[[169.8390177, 11.2185319], [169.8390177, 11.2185319]]], [[[162.3224249, 11.33654], [162.3224249, 11.33654]]], [[[165.5619902, 11.5143127], [165.5619902, 11.5143127]]], [[[165.5514831, 11.611265], [165.5514831, 11.611265]]], [[[162.2434554, 11.6584431], [162.2434554, 11.6584431]]], [[[168.9854157, 14.6020612], [168.9854157, 14.6020612]]]]}}]}