{"type": "FeatureCollection", "features": [{"type": "Feature", "properties": {"code": "MKD", "name": "Republic of Macedonia", "tier": "country"}, "geometry": {"type": "Polygon", "coordinates": [[[22.29907099996336, 42.364933999412415], [22.273327000370273, 42.36139499920023], [22.252646500167828, 42.352825499009185], [22.23045050009523, 42.336245499375394], [22.198697499994864, 42.340747999320705], [22.1669415002749, 42.31303449928178], [22.14424100026093, 42.319746499361045], [22.12327000010515, 42.311124999320086], [22.100637000298544, 42.30629999913333], [22.06680799999458, 42.299871499295506], [22.04158450026216, 42.30613399935265], [21.997115500140126, 42.31962899934976], [21.978098500072807, 42.32691349913956], [21.94836300017613, 42.343378499269434], [21.92958650025821, 42.3142434992793], [21.894251000291664, 42.300658499005664], [21.87474550020221, 42.310478499252035], [21.855145500182232, 42.32360999941127], [21.834232500014934, 42.32164649910364], [21.824164000334004, 42.29930849935423], [21.803606500269783, 42.29366399915761], [21.786111500222713, 42.280181498998985], [21.767966500027004, 42.264033998995636], [21.7390090000826, 42.260628999175054], [21.71507050030158, 42.25389799910715], [21.70183900008487, 42.23495149931664], [21.67593450038828, 42.24068499931728], [21.620863999986796, 42.252398499156314], [21.597582500066153, 42.25629499906818], [21.575267999959063, 42.25407749919928], [21.544907000028957, 42.253628999200025], [21.520562500329447, 42.24731549931592], [21.500968499998237, 42.271333499131345], [21.475595999977774, 42.27922799904693], [21.45024500000329, 42.27673149904023], [21.432902500325042, 42.258422999121684], [21.442517500341125, 42.235051999385746], [21.399251000066666, 42.24919049938149], [21.37107450014389, 42.226604999321204], [21.345760500123504, 42.205579499257944], [21.32653050009134, 42.17701799900159], [21.31652049996046, 42.156362499375774], [21.302389500137565, 42.14130799939319], [21.318631500071717, 42.11155349905857], [21.29339850012019, 42.107880999365264], [21.27261150016028, 42.09593149903098], [21.25091250030573, 42.09229749932609], [21.22584550013488, 42.09606749901916], [21.21337350034321, 42.11188349902334], [21.21462750002951, 42.131985499376455], [21.181139999955576, 42.166394499114396], [21.16778600006199, 42.1898794992305], [21.125360000281827, 42.202195999033954], [21.097037500140175, 42.201775999242194], [21.072545000175698, 42.18707499931661], [21.051884999996393, 42.17049049912945], [21.026780500309883, 42.15249499923321], [20.999447500051023, 42.14497449939774], [20.96936200017791, 42.13645099936789], [20.9454449999933, 42.137852999319044], [20.921351000224153, 42.12774699922329], [20.89076450004086, 42.09731049935094], [20.851747000161822, 42.09866099901397], [20.83414500034559, 42.08596899909614], [20.809938000219233, 42.08229399934541], [20.784647500290816, 42.078891499132844], [20.771287500258836, 42.05960199907769], [20.76141900024328, 42.039269999266715], [20.751898500157722, 42.015279999197645], [20.7481085000037, 41.98639999924179], [20.763764000354, 41.96671749911805], [20.75474350010626, 41.94678149899504], [20.77215750008429, 41.92107299932132], [20.755675500012103, 41.9060679991311], [20.74046600005289, 41.89279949941039], [20.72797250021523, 41.86427699915405], [20.70593150011922, 41.864659498980345], [20.683482500058574, 41.85772799923571], [20.670554000083428, 41.873411999343894], [20.646694500325342, 41.872301999380696], [20.622159500280194, 41.85279899934889], [20.60131150026262, 41.868247998984856], [20.57506600034759, 41.87523649914436], [20.563383000312456, 41.84425349926163], [20.566656000237064, 41.80191049914706], [20.546938000194192, 41.789641499090145], [20.534771000240653, 41.77212649903156], [20.519407000316278, 41.74648449909246], [20.514514500371718, 41.721475499359755], [20.527491500116184, 41.70045599898505], [20.521201000312832, 41.66738799914101], [20.525690499958333, 41.639412499356304], [20.541831000250173, 41.62420149936259], [20.55524650021283, 41.60063949926961], [20.539782000219528, 41.57545999920272], [20.522073000184264, 41.564912499269], [20.484885500232675, 41.55892749931529], [20.45600650029974, 41.553800499359674], [20.473376000151116, 41.5329884992731], [20.45487450027889, 41.52370099916409], [20.470529000156432, 41.50946899926073], [20.487930000284564, 41.4937604990372], [20.50310849997868, 41.475439499279986], [20.51252100027199, 41.44984049898348], [20.53131800021271, 41.435949499298445], [20.557374000254924, 41.416757499243005], [20.54894450014416, 41.386311999163404], [20.5395070001739, 41.36614399908708], [20.52574999998137, 41.34324549900424], [20.505837000388453, 41.34513849903526], [20.50554450038914, 41.31248649934027], [20.51104150033234, 41.28883149935115], [20.51441799994541, 41.25605849911446], [20.515534000047012, 41.23283699922838], [20.531160000166775, 41.2120139993377], [20.547528000308375, 41.194458499244654], [20.561654500027487, 41.18021999919143], [20.579568000281313, 41.15986649933424], [20.593580000058523, 41.137435499239146], [20.58229000009157, 41.11356099913525], [20.595609500089097, 41.092411999371954], [20.632866000282657, 41.08651299915285], [20.633571500362, 41.10713349932056], [20.641477500093114, 41.133040999086205], [20.65025200006488, 41.1591639993241], [20.67603250004987, 41.1740154991227], [20.732775500344417, 41.16624699941435], [20.75461550030241, 41.150716999259735], [20.76929750023965, 41.128464499233424], [20.78701349998653, 41.11761749913903], [20.80747500008556, 41.106225499068714], [20.796732500152416, 41.08871699916006], [20.80129400010901, 41.04759799938906], [20.805953000065358, 41.02662599921057], [20.80335350038177, 41.00083749904104], [20.78699850009025, 40.9739999994157], [20.774544000252607, 40.95216299907719], [20.77684700029431, 40.927057999379144], [20.755989500057638, 40.92428099920001], [20.732456000172135, 40.911558999040096], [20.759953000165297, 40.902093499323655], [20.798295000206906, 40.898961499052824], [20.826405999968475, 40.90583199918944], [20.83960300028895, 40.930330999303735], [20.88617799995728, 40.925028999359945], [20.9151465001554, 40.92261349942233], [20.937357000112627, 40.924123499165844], [20.97482900032884, 40.90218549919661], [20.99143200004329, 40.91338649935949], [20.967088000355375, 40.919508999336166], [20.944568000006537, 40.93609699915425], [20.915573000096913, 40.93766049923193], [20.897143000074607, 40.954585999187756], [20.91636550038362, 40.9803264991497], [20.932966500051865, 40.99414349937681], [20.947640000242814, 41.00781149931592], [20.989737500092755, 41.00697599938674], [21.038370499999246, 40.99750749915121], [21.052027000122905, 40.977177999398], [21.06993700029597, 40.955715999162564], [21.083007499948167, 40.92449649922282], [21.10219350031474, 40.910580999422464], [21.10958200025442, 40.87971799915908], [21.119297000328007, 40.8611804993562], [21.152443000172013, 40.85694349923766], [21.170256500368343, 40.86781849907833], [21.193482000346876, 40.877192999394595], [21.214055000318922, 40.88310799908337], [21.242826500021465, 40.874185999307954], [21.259722500196577, 40.859411499036845], [21.30275249996384, 40.86584249938187], [21.322728000098554, 40.870484499395936], [21.344231000380088, 40.873873999308806], [21.36578350000417, 40.881999999166325], [21.416158500057296, 40.91693849942173], [21.440980499975016, 40.91685849937567], [21.46471900009084, 40.90682899924523], [21.490606500294803, 40.91226849921174], [21.51876350021752, 40.90847449941495], [21.551213500201353, 40.88172399909744], [21.566519500137247, 40.86641949919618], [21.593235500109014, 40.866002499024205], [21.62117649999772, 40.88853549922278], [21.645403000124134, 40.90016149929261], [21.670638000121816, 40.89837899911154], [21.67041850000686, 40.92611199915041], [21.686552000137166, 40.93956599910148], [21.73539100029717, 40.93085799931411], [21.756417500383463, 40.92660349924171], [21.776994499998068, 40.929814999097275], [21.804147500153416, 40.9447324990683], [21.80151200008936, 40.97606449935398], [21.830377000149042, 40.992416999138065], [21.851461000212396, 41.01126849898642], [21.883805000000393, 41.02850099927598], [21.90542300023566, 41.04272599901814], [21.90819700034547, 41.064883499102166], [21.912516000106677, 41.09043249914532], [21.933862000365426, 41.10489899905969], [21.964134500053607, 41.119144499274434], [21.99629400008388, 41.12733449925873], [22.02323350026273, 41.133034999397495], [22.04617700003428, 41.146520999187004], [22.0668955002136, 41.15758349930399], [22.087092500059324, 41.13941849909696], [22.111981500172984, 41.134133999107206], [22.140207500337684, 41.1251714992974], [22.172, 41.156737999144354], [22.203936000273018, 41.16214849934132], [22.22927549998218, 41.16490699909407], [22.257951000169214, 41.165478999242985], [22.276532000075917, 41.155971499007585], [22.30233400010684, 41.147741999011856], [22.32339200002042, 41.1508964993517], [22.325846499958118, 41.130255999172164], [22.349388500039595, 41.13561399905823], [22.373908500188463, 41.137675499377124], [22.3958130002847, 41.13750849912387], [22.4142075003877, 41.123314999208816], [22.446970000382468, 41.118930499286414], [22.481968000211342, 41.11983899910011], [22.506953500301734, 41.12595049927286], [22.538223000045722, 41.13029399914922], [22.56210800039184, 41.131152999170574], [22.58771100033118, 41.117295999370185], [22.61766400029649, 41.1335974993273], [22.642144999995935, 41.16050949932154], [22.648107000318877, 41.17999799901868], [22.673024000178717, 41.17932949934301], [22.711090000151668, 41.139528999396546], [22.74739200037015, 41.16303349906307], [22.72378850021948, 41.18144699915438], [22.710904500371157, 41.20131699910459], [22.70607250002286, 41.22818749904141], [22.7207715003521, 41.245303499342704], [22.745262000270483, 41.24961099928838], [22.760927499952118, 41.267439499380735], [22.76604850021897, 41.292463499009706], [22.76247800017967, 41.32023399901384], [22.790577500125778, 41.32888849936626], [22.816746500075343, 41.33804949925645], [22.84032550011085, 41.33724949924626], [22.87074249998324, 41.34082349936644], [22.896824500175228, 41.337944999095235], [22.927591500023823, 41.338539499312965], [22.953208500285882, 41.35237799913649], [22.962014000072994, 41.37880349915482], [22.951979500276707, 41.41748749898793], [22.97226000024926, 41.436257499205624], [22.96656750029484, 41.46072699908925], [22.96186250017695, 41.480555498982035], [22.965655999962223, 41.50127899927642], [22.96023250036467, 41.53047099923178], [22.96900949994426, 41.55332349915305], [22.964278000114803, 41.579314499045395], [22.949313499959146, 41.59866399913495], [22.95278549997533, 41.627309999091324], [22.96296150033629, 41.64776499904057], [22.983546500135446, 41.646785499388315], [22.994251000091705, 41.67232899930452], [23.009806999946534, 41.686766499], [23.022339500233727, 41.702811499338054], [23.032498000191197, 41.72487999916857], [23.017737500242674, 41.748583499376764], [23.001874500054047, 41.76941399899083], [22.964774000309887, 41.77321149931779], [22.940678000044727, 41.817115499002654], [22.922208500011152, 41.869100499306036], [22.902543500291014, 41.87581749905104], [22.898134500253434, 41.90473949907609], [22.883853000107877, 41.92090899913723], [22.87661149996046, 41.94585949931989], [22.877033000236224, 41.972049499303814], [22.87537700027417, 41.99437149913414], [22.867214000013007, 42.02219949911518], [22.832654000390733, 42.020911999106], [22.813221500186046, 42.03054549909909], [22.79245450023734, 42.0379584991539], [22.762902000063605, 42.043048999167226], [22.74044400024519, 42.04488099914065], [22.717137000186028, 42.06598049911158], [22.69610200035339, 42.063573999381425], [22.67411050004978, 42.06573349926188], [22.650270000280045, 42.07734549900902], [22.62684350016354, 42.09421449901094], [22.60283450010599, 42.09788949921163], [22.58331000002812, 42.109219499201345], [22.551333500170415, 42.13111649912462], [22.528740999948635, 42.13927199921263], [22.510412000006852, 42.155158499043615], [22.505762000257846, 42.175852499107485], [22.50086250015215, 42.19621299912603], [22.474402000225897, 42.200913499140135], [22.459127000105465, 42.21909099918587], [22.44827350031073, 42.236864999370695], [22.434948500186465, 42.25578649903444], [22.414689000248533, 42.267311999035385], [22.397162000362925, 42.29210449917205], [22.378475500271975, 42.30914599910483], [22.35080150024442, 42.31798049911086], [22.326332000360704, 42.32995499912226], [22.306725500190797, 42.340199999275534], [22.29088099997904, 42.352616499136325], [22.29907099996336, 42.364933999412415]], [[20.55731600026644, 41.51631449927059], [20.54172650008894, 41.50082299910428], [20.52270050026391, 41.49360699909517], [20.53345550003553, 41.47558199941803], [20.538221000199428, 41.45455199925106], [20.556888500301966, 41.446266499313225], [20.56720600032821, 41.422781999208574], [20.549869000326908, 41.44692149912746], [20.52998450004236, 41.45443099915917], [20.516064500138157, 41.46912399934967], [20.50403450019599, 41.49786349921379], [20.522049500092066, 41.5101824990748], [20.548330000364384, 41.51009149922487], [20.55731600026644, 41.51631449927059]]]}}]}