{"type": "FeatureCollection", "features": [{"type": "Feature", "properties": {"code": "MLI", "name": "Mali", "tier": "country"}, "geometry": {"type": "Polygon", "coordinates": [[[-4.833489648999969, 24.999511983000012], [-5.244141024999973, 24.99788235800009], [-5.60144877499993, 24.99876173300002], [-6.00829865, 24.99847035800007], [-6.298901400999981, 24.99857410800004], [-6.565789525999979, 24.99776723300007], [-6.501212650999968, 24.375219108000024], [-6.45913215099996, 23.99651048200002], [-6.402705400999989, 23.553458607000067], [-6.341707900999928, 23.072691981000013], [-6.321150400999944, 22.849229356000023], [-6.275519400999976, 22.46828710600004], [-6.249610400999963, 22.232783106], [-6.20845252599991, 21.89251823000002], [-6.186826651, 21.68952323000004], [-6.143109525999925, 21.311662355000017], [-6.108738149999972, 20.995674855000047], [-6.099456149999984, 20.927564604000068], [-6.07768839999996, 20.730898229000047], [-6.032102274999975, 20.334754354000026], [-6.001711524999955, 20.069390854000055], [-5.995980024999927, 19.94871985400006], [-5.972123149999977, 19.750664353000033], [-5.951549274999969, 19.562847603000023], [-5.915741149999977, 19.260672978000024], [-5.903539024999962, 19.14378847800007], [-5.852709275, 18.69977597700003], [-5.799747774999943, 18.24952172700003], [-5.77258389999993, 17.996152477000017], [-5.747553149999931, 17.785053227000056], [-5.723160274999952, 17.557297601000045], [-5.66949527499996, 17.080515476000066], [-5.608452524999976, 16.495293725000046], [-5.333427024999928, 16.32879322500009], [-5.397682024999952, 16.01415597500002], [-5.445253899999926, 15.7811866], [-5.505982274999923, 15.506065099], [-5.729420774999962, 15.49914422400007], [-5.899708649999937, 15.49574222400005], [-6.257070525999932, 15.496930349000035], [-6.324702900999981, 15.49596322400004], [-6.604911525999982, 15.49649697400006], [-6.910798900999951, 15.495509974000019], [-7.166743900999919, 15.496149474000084], [-7.270377401999942, 15.49496622400006], [-7.804349401999969, 15.495916224000059], [-7.930047401999965, 15.495478724], [-8.00102390199995, 15.496927474000064], [-8.167246901999949, 15.497226349000012], [-8.343912902999985, 15.495537474000074], [-8.395602527999959, 15.496706849000017], [-8.842697527999956, 15.495820849000072], [-8.98330802799996, 15.495672849000083], [-9.329340652999953, 15.496799474000042], [-9.332757903, 15.565822474000043], [-9.308648027999979, 15.689245850000042], [-9.443711278999924, 15.603476474000086], [-9.40158527899997, 15.433884224000025], [-9.694135028999941, 15.422042599000083], [-9.750796403999964, 15.436476849000044], [-9.880778028999917, 15.432284349000078], [-9.931419153999911, 15.42163059900001], [-9.983201778999941, 15.442854974000017], [-10.042901653999927, 15.449475849000091], [-10.095069153999916, 15.449434724000064], [-10.14697002899996, 15.465093974000041], [-10.20289677899995, 15.455519224000078], [-10.257997153999955, 15.473703849000017], [-10.307814528999916, 15.448468349000041], [-10.370984904, 15.429051224000087], [-10.459790654999916, 15.434950724000071], [-10.530352029999927, 15.433208474000068], [-10.595794654999983, 15.423466974000075], [-10.657084904999929, 15.420216224000047], [-10.704672779999983, 15.440081599000052], [-10.722088404999978, 15.38130909900006], [-10.737135654999944, 15.33309309900008], [-10.781420029999959, 15.301617349000082], [-10.827272029999916, 15.27440947400007], [-10.836742654999968, 15.211562349], [-10.87162927999992, 15.175666224000015], [-10.885103279999923, 15.126037099000087], [-10.945942779999966, 15.154855349000027], [-10.98013777999998, 15.199973724000035], [-11.009898904999952, 15.243803474000092], [-11.059652154999936, 15.284211349000085], [-11.140800029999957, 15.347043724000084], [-11.188699279999929, 15.376114474000044], [-11.252753904999983, 15.416020599000088], [-11.298248404999937, 15.466429599000062], [-11.333972279999974, 15.510275349000022], [-11.368295529999942, 15.568828849000013], [-11.40282715499992, 15.608210725000024], [-11.449411154999959, 15.639434975000086], [-11.514971030999947, 15.63634610000004], [-11.547435655999964, 15.591692724000048], [-11.582609530999969, 15.544371349000016], [-11.641540530999931, 15.52225422400004], [-11.697530530999915, 15.537438599000073], [-11.713445280999983, 15.48314847400005], [-11.748065655999932, 15.43874284900004], [-11.754302280999921, 15.387213349000081], [-11.776145655999985, 15.329318849000082], [-11.804682155999972, 15.276134349000056], [-11.809680030999962, 15.208787099000062], [-11.838134030999962, 15.162244974000025], [-11.832686905999926, 15.112167974000076], [-11.831547405999968, 15.062149974000036], [-11.791649530999985, 15.025020599000058], [-11.804477280999985, 14.973488724000081], [-11.81031465599998, 14.915909599000063], [-11.836998780999911, 14.869266349], [-11.885522655999962, 14.82766522400005], [-11.936509030999924, 14.811155724000066], [-11.979236405999986, 14.761160724000064], [-12.03309190599993, 14.762069349000015], [-12.071260905999951, 14.72570334900005], [-12.11399240599991, 14.753321349000068], [-12.164468405999921, 14.760344099000086], [-12.231691280999927, 14.758030099000027], [-12.212628530999984, 14.70416047400007], [-12.160265030999943, 14.683528224000028], [-12.144223530999957, 14.630677474000084], [-12.173724530999989, 14.583029724000049], [-12.216265531, 14.543496099], [-12.222227780999932, 14.493698723000012], [-12.197986781, 14.445599598000022], [-12.180423405999944, 14.392659098000024], [-12.129614530999925, 14.383886973000035], [-12.100719156, 14.34062847300008], [-12.076298405999934, 14.295211098000024], [-12.026806905999935, 14.283491723000072], [-12.001931655999924, 14.213563473000043], [-11.978316655999913, 14.158233723000066], [-11.975589905999987, 14.097548848000027], [-12.000976780999965, 14.053168348000053], [-12.005208780999913, 14.000495223000062], [-11.936729906, 13.922051973000091], [-11.94387240599997, 13.862455348000033], [-11.950464405999965, 13.805310973000015], [-11.987586906, 13.771479348000046], [-12.03757715599996, 13.73438922300003], [-12.056958905999918, 13.685612473000017], [-12.040296030999945, 13.624055348000017], [-11.998254030999925, 13.58463322300005], [-11.971159530999968, 13.539004473000091], [-11.927544280999983, 13.509471223000055], [-11.892165655999912, 13.473122098000065], [-11.88388753099994, 13.395998972000076], [-11.847662406, 13.34992834700006], [-11.826014280999923, 13.304343097000057], [-11.783411530999958, 13.332197472], [-11.741908031, 13.384162847000056], [-11.692433405999973, 13.391774597000047], [-11.631052280999969, 13.39123909700006], [-11.595136655999964, 13.348903472000082], [-11.578979280999983, 13.300927972000018], [-11.538020030999933, 13.263958472000034], [-11.543252030999932, 13.211351472], [-11.499825529999933, 13.184768347000084], [-11.495446904999932, 13.115815972000064], [-11.442436904999957, 13.093041347000042], [-11.41783615499992, 13.034171097000044], [-11.41016828, 12.979052722000059], [-11.357154154999941, 12.978166347000084], [-11.383378779999957, 12.921858097000058], [-11.403793279999922, 12.87141409700003], [-11.387586029999989, 12.811131222000036], [-11.383162529999916, 12.75900084700001], [-11.421356779999984, 12.72227172200002], [-11.446577154999952, 12.672860097000058], [-11.409172279999916, 12.634850097000047], [-11.415213154999963, 12.564654472000012], [-11.382962154999946, 12.521975347000033], [-11.351390154999978, 12.469323347000014], [-11.36646727999993, 12.419436222000055], [-11.403158029999942, 12.38187784600002], [-11.44633452999995, 12.350911221000047], [-11.428441779999913, 12.299696596000029], [-11.446514904999953, 12.252819346000063], [-11.484768279999939, 12.220504971000043], [-11.486930654999975, 12.169098846000079], [-11.446214279999948, 12.131198846000022], [-11.398285779999954, 12.113907346000083], [-11.357800529999954, 12.084498596000046], [-11.328844404999975, 12.041536846000042], [-11.272160904999987, 12.00185247100005], [-11.22010503, 11.995483846000063], [-11.17132427999992, 12.027408346000065], [-11.137418654999957, 12.065324346000025], [-11.105658779999986, 12.11875859600002], [-11.067480404999989, 12.154341846000058], [-11.04593628, 12.21167209600009], [-10.990001654999974, 12.209744721000046], [-10.93692690499997, 12.226093971], [-10.892393154999928, 12.203133596000068], [-10.858259029999976, 12.143380096000087], [-10.807459654999944, 12.115563596000076], [-10.784727654999985, 12.064222721000093], [-10.782317779999987, 12.011956721000036], [-10.76400827999993, 11.961666346000019], [-10.73352402999999, 11.918165221000063], [-10.684324404999982, 11.900352971000025], [-10.634280529999932, 11.909830721000045], [-10.614983029999928, 11.970011221], [-10.568220029999912, 11.988239471000092], [-10.536650904999915, 12.03120722100006], [-10.518312904999986, 12.079880846000066], [-10.484931654999977, 12.117557096000084], [-10.437204279999927, 12.133013471000062], [-10.408553903999932, 12.176253846000026], [-10.357610403999963, 12.194402346000086], [-10.310779028999974, 12.217112221000079], [-10.26052090399996, 12.211025721000077], [-10.204353653999966, 12.197816971000083], [-10.156388403999951, 12.174036471000058], [-10.099482153999919, 12.17245447100008], [-10.067770278999923, 12.133478096000047], [-10.012783278999972, 12.127843846000072], [-9.971157653999942, 12.097195596000063], [-9.91442865399992, 12.097031096000041], [-9.881058528999944, 12.058268096000077], [-9.827244153999938, 12.050656721000028], [-9.781118153999959, 12.030925346], [-9.725640778999935, 12.02403859600005], [-9.69064390399992, 12.06046059600003], [-9.679876903999986, 12.11300309600005], [-9.648626153999952, 12.160960971000076], [-9.595981778999942, 12.182597471000076], [-9.535579153999986, 12.189876096000038], [-9.49413402899997, 12.22517409600001], [-9.449878903999977, 12.253932096000028], [-9.39300252899993, 12.255276721000083], [-9.344483152999985, 12.242274971000075], [-9.325241653, 12.293645721000043], [-9.312676152999934, 12.348105221000047], [-9.341125152999965, 12.393220347000053], [-9.381972403999985, 12.42505234700004], [-9.385975653999925, 12.475003722000075], [-9.33673002799993, 12.491184222000015], [-9.285576528, 12.484390597000036], [-9.237862277999966, 12.500097972000088], [-9.185611652999938, 12.490546347000084], [-9.133097777999978, 12.473758597000081], [-9.083820777999964, 12.437315597000051], [-9.014631402999964, 12.415774597000048], [-8.962060402999985, 12.351879346000036], [-8.950624902999984, 12.301232346000088], [-8.984016903, 12.245338221000043], [-8.96910027799991, 12.194667471000084], [-8.91679427799992, 12.195846846000055], [-8.88958227799992, 12.151967096000035], [-8.897807652999969, 12.098390721], [-8.909816027999941, 12.046360471000092], [-8.86482940299991, 12.018419471000083], [-8.813745527999963, 12.01437347100007], [-8.773320152999943, 11.971005096000084], [-8.783775277999919, 11.920671971000083], [-8.789743027999954, 11.865256971000068], [-8.820487027999981, 11.81621859600008], [-8.848847527999972, 11.65055722100001], [-8.789285277999916, 11.625067096000016], [-8.70106652799998, 11.64046272100003], [-8.678297902999923, 11.587790346000013], [-8.640142027999921, 11.544633221], [-8.627131902999931, 11.492843846000042], [-8.579639152999931, 11.461799971000072], [-8.531009777999945, 11.486092721000027], [-8.507097028, 11.433120721000087], [-8.457966527999929, 11.409061846000032], [-8.402298152999911, 11.388909596], [-8.350535777999958, 11.370571346000055], [-8.402338652999976, 11.354331221000066], [-8.36530340299997, 11.31992759600002], [-8.394478652999961, 11.273506845000078], [-8.44331965299996, 11.292058595000018], [-8.485415527999908, 11.263632720000036], [-8.515157777999917, 11.213701720000088], [-8.559307152999953, 11.184046345000073], [-8.562390527999987, 11.133937095000032], [-8.609159152999936, 11.11535072000007], [-8.631178652999917, 11.06426822000006], [-8.666263027999978, 11.01413197], [-8.670625027999936, 10.947695095000018], [-8.613050277999925, 10.958845720000074], [-8.556189902999957, 10.973020220000038], [-8.504589777999929, 10.99982447000005], [-8.480398652999945, 11.051891095000041], [-8.430742027999962, 11.060405095000078], [-8.376456402999956, 11.06458334500002], [-8.327601527999963, 11.038489220000056], [-8.27843927699994, 10.991560720000024], [-8.257801651999987, 10.899127345000068], [-8.304012652999983, 10.851635345000041], [-8.328130277999925, 10.78797247000007], [-8.29008790299999, 10.752222220000071], [-8.290149902999968, 10.699971845000064], [-8.32081215299998, 10.656224345000062], [-8.328802777999968, 10.600558845000016], [-8.275802026999958, 10.578879470000022], [-8.260812777, 10.530636345000019], [-8.243013526999967, 10.48334697000006], [-8.232260401999937, 10.424086470000013], [-8.182600651999962, 10.415776720000089], [-8.132047026999924, 10.440148345000086], [-8.10457340199995, 10.393953095000061], [-8.077419401999954, 10.343478595000086], [-7.998757526999925, 10.345794970000075], [-7.966029276999945, 10.277865595000055], [-7.954852526999947, 10.228873969000027], [-7.979455151999962, 10.166324219000053], [-7.927779776999924, 10.156471219000071], [-7.894775901999965, 10.195739469], [-7.844861901999914, 10.204961719000025], [-7.809255901999948, 10.240157970000016], [-7.775612651999933, 10.279909470000057], [-7.755116276999943, 10.34023359500009], [-7.724246151999961, 10.381522470000057], [-7.677139401999924, 10.40671472], [-7.631964027, 10.45331022000002], [-7.586838151999989, 10.422701595000092], [-7.536150651999976, 10.431492720000055], [-7.486813526999961, 10.451621470000092], [-7.439692276999968, 10.418470595000048], [-7.440472026999914, 10.36767497000006], [-7.390203901999961, 10.349058720000023], [-7.356809526999933, 10.298491345000091], [-7.386438401999976, 10.254901095000044], [-7.340254151999972, 10.234829594000036], [-7.286600276999924, 10.254661095000081], [-7.149401275999925, 10.247073470000043], [-7.101084400999949, 10.208350094000071], [-7.082759775999972, 10.160251344000024], [-7.023520900999938, 10.146279219000018], [-6.978488150999909, 10.209295719000064], [-7.012176025999975, 10.249560345000017], [-6.981428525999925, 10.300436595000015], [-6.946194401, 10.34570284500009], [-6.874533400999952, 10.34715772000003], [-6.824664150999962, 10.360759595000044], [-6.742550400999961, 10.35627872000002], [-6.692776275999937, 10.338188470000073], [-6.645192775999978, 10.360381470000021], [-6.634519651, 10.41153647000008], [-6.668967900999914, 10.46057784500005], [-6.680541650999985, 10.51882822], [-6.662584400999941, 10.581407845000054], [-6.646105025999963, 10.630173595000045], [-6.588870525999948, 10.618780095000055], [-6.540241025999951, 10.592433970000023], [-6.48447265099992, 10.576287470000054], [-6.42810615099996, 10.557619220000067], [-6.404401775999927, 10.614327970000012], [-6.415216275999971, 10.68986809500003], [-6.342271400999923, 10.684536220000027], [-6.285796525999967, 10.707583970000087], [-6.236059526, 10.73022622000008], [-6.227201275999985, 10.676586845000077], [-6.195331025999941, 10.63315822000008], [-6.214406400999952, 10.579903220000084], [-6.244840275999987, 10.531578595000088], [-6.205171025999913, 10.50008147], [-6.186439525999933, 10.443989470000023], [-6.183891025999923, 10.392898845000051], [-6.193327900999936, 10.338701595000074], [-6.231949525999926, 10.303787095000036], [-6.21003527599995, 10.256667345000078], [-6.170688650999924, 10.220109844000078], [-6.097878649999934, 10.204459969000077], [-6.04486627499994, 10.198661469000012], [-5.985892024999952, 10.192275094000067], [-5.953651774999937, 10.24265147], [-5.899456899999979, 10.256972845000043], [-5.873565774999935, 10.30768122], [-5.869967399999922, 10.362724345000071], [-5.821612774999931, 10.38617997000004], [-5.787516024999963, 10.424928095000016], [-5.728720899999963, 10.424089345000073], [-5.674586149999918, 10.44343697000005], [-5.622108024999985, 10.44495434500001], [-5.570475149999911, 10.449502595000013], [-5.520892899999954, 10.426418720000072], [-5.498644524999953, 10.471870845000073], [-5.477645274999922, 10.518841470000037], [-5.465307149999934, 10.581761220000072], [-5.460667899999951, 10.63924659500006], [-5.46496764999991, 10.693328345000072], [-5.454818149999909, 10.745436720000054], [-5.427742774999935, 10.791268845000054], [-5.40269665, 10.84616109500007], [-5.43843214999993, 10.886584220000081], [-5.456990899999916, 10.938054595000033], [-5.480108274999964, 10.990331970000053], [-5.490275649999933, 11.077539220000052], [-5.382508649999941, 11.101607970000035], [-5.331482274999956, 11.13575522], [-5.327674399999928, 11.188615720000048], [-5.264955525, 11.232617220000016], [-5.257662524999908, 11.333780221000087], [-5.244421024999959, 11.389473596000041], [-5.204380649999909, 11.419479346000092], [-5.204062274999945, 11.477087471000022], [-5.20000802499996, 11.52962184600008], [-5.224083024999928, 11.585792096000056], [-5.27540302499996, 11.60102897100008], [-5.275136649999947, 11.654840971000066], [-5.265743524999912, 11.707762721000023], [-5.260426274999965, 11.759729221000079], [-5.304922774999945, 11.790119471000057], [-5.356309149999962, 11.800343971000046], [-5.403805149999965, 11.821519471], [-5.338043774999914, 11.82234847100003], [-5.286918649999929, 11.846892471000078], [-5.236649524999983, 11.864945596000062], [-5.187009899999985, 11.892258596000069], [-5.150763274999949, 11.932755596000064], [-5.108228899999958, 11.960411346], [-5.058328648999979, 11.970716846000037], [-5.008521273999957, 11.983311596000032], [-4.954560273999988, 11.993774346000016], [-4.902579023999955, 11.998804971000052], [-4.848834898999989, 12.01180947100002], [-4.795272648999973, 12.003075721], [-4.743574523999918, 11.99711759600006], [-4.714035148999908, 12.039694846000046], [-4.630710148999963, 12.05354672100005], [-4.628398398999913, 12.109476971000063], [-4.557113773999923, 12.133732971000086], [-4.580663398999942, 12.191744596], [-4.538286773999946, 12.227122971000057], [-4.47155602399998, 12.279889471000047], [-4.440772273999951, 12.330387971000054], [-4.396694898999922, 12.306330596000034], [-4.416327148999912, 12.354262971000082], [-4.440317398999973, 12.39900122200008], [-4.425025398999917, 12.457914847000026], [-4.398772899, 12.50220184700008], [-4.402852773999967, 12.555118347000047], [-4.41231289899995, 12.604356347000031], [-4.461461523999912, 12.628202222000048], [-4.479302773999951, 12.676790722000028], [-4.443728024, 12.716423472000013], [-4.363529648999933, 12.735518222000028], [-4.307788273999915, 12.702378597000028], [-4.25821189899991, 12.709185347000027], [-4.224275398999968, 12.759050847000061], [-4.21139327399991, 12.809437347000038], [-4.226430773999958, 12.859191597000017], [-4.215543898999965, 12.912071347000051], [-4.227411648999936, 12.970718847], [-4.269586398999927, 13.002887472000044], [-4.308951148999942, 13.072576972000036], [-4.345490023999911, 13.108386847000084], [-4.313340273999923, 13.157687347000088], [-4.25369827399993, 13.177521722000016], [-4.260327398999976, 13.229565347000058], [-4.213206648999936, 13.261243097000072], [-4.157986398999959, 13.282620722000058], [-4.115892398999989, 13.317838347000041], [-4.100272649, 13.382963347000018], [-4.051157398999951, 13.403419597000063], [-4.011151773999934, 13.434674097000052], [-3.960187148, 13.469751598000077], [-3.905373772999933, 13.443946847000074], [-3.945668897999923, 13.409963847000014], [-3.896941022999957, 13.37504284700006], [-3.840373022999934, 13.35665734700002], [-3.784935647999934, 13.357415097000011], [-3.743325772999963, 13.321092222000061], [-3.673124772999927, 13.269974597000076], [-3.617744647999956, 13.22003597200003], [-3.556342772999923, 13.192880472000088], [-3.515141522999922, 13.16325284700006], [-3.456526772999926, 13.154778472000014], [-3.428227147999909, 13.202391472000016], [-3.448589897999945, 13.25336309700009], [-3.383899647999968, 13.272152347000052], [-3.233182647999968, 13.283861847000075], [-3.236649022999984, 13.346517847000047], [-3.264713147999966, 13.484709848000051], [-3.278769022999974, 13.551911348000065], [-3.246402147999962, 13.675793848000037], [-3.192985398, 13.677831598000065], [-3.130843397999918, 13.678021973], [-3.081711022999968, 13.663251098000082], [-3.044345772999925, 13.612658848000045], [-3.011373272999986, 13.650440598000088], [-2.957921772999985, 13.636111348000021], [-2.87699152199994, 13.648313348000027], [-2.893191647, 13.69704622300005], [-2.906785646999978, 13.81846059800009], [-2.879070896999949, 13.86172597300008], [-2.863132271999948, 13.91578622300009], [-2.836170521999961, 13.988267223000037], [-2.839677396999953, 14.048484223000088], [-2.676923521999932, 14.130827973000024], [-2.594140271999958, 14.206735848], [-2.473680022, 14.294509473000058], [-2.378681271999962, 14.268836348000022], [-2.295212021999983, 14.243555348000012], [-2.174639146999937, 14.185651348000025], [-2.106344396999972, 14.143481098000052], [-2.053096646999954, 14.164371848000076], [-2.012562521999907, 14.219407598000064], [-1.999606021999913, 14.273960348000056], [-2.000765146999985, 14.33370134800007], [-1.979269896999948, 14.49994822300009], [-1.924291771999933, 14.514345348000088], [-1.864867896999957, 14.523664348000029], [-1.709696145999963, 14.560072474000016], [-1.630006020999943, 14.591750474000051], [-1.567646895999932, 14.629285349], [-1.507569520999976, 14.664959724000035], [-1.454380645999944, 14.691300474000066], [-1.374015270999919, 14.726095224000055], [-1.306087145999914, 14.74598122400008], [-1.219259270999952, 14.748560224000038], [-1.138509020999969, 14.771089349000086], [-1.071398020999982, 14.806084224000024], [-0.849565145999922, 14.986182724000027], [-0.743812019999936, 15.062298599000076], [-0.694163144999973, 15.080436224000035], [-0.44503977, 15.078521974000012], [-0.38480627, 14.998748849000052], [-0.258114894999963, 15.06823709900009], [-0.034076019999986, 15.003839349000067], [0.050458480000025, 14.972569099000019], [0.123839230000076, 14.972722349000087], [0.227628480000018, 14.99347997400002], [0.349389231000028, 14.969685849000022], [0.519884231000088, 14.994391474000032], [0.576908231, 14.98316109900004], [0.682747106000068, 14.941323849000085], [0.750365981000066, 14.958074349000025], [0.887203481000086, 14.965932224000042], [0.966780981000024, 14.975902724000065], [1.213812981000071, 15.188467724000063], [1.308676606000024, 15.272837474000031], [1.471605232000027, 15.281667724000034], [1.591942357000018, 15.289240349000075], [1.917900732000044, 15.30522972400001], [2.129122982000053, 15.316060599000078], [2.595181483000042, 15.340779974000071], [2.672743108000075, 15.342204974000026], [3.017673733000015, 15.332828349000025], [3.021499608000022, 15.40680859900003], [3.198912483000038, 15.397176099000085], [3.494562483000019, 15.353324474000082], [3.535292484000019, 15.39485272400005], [3.533986359000041, 15.46443509900006], [3.58755185900006, 15.510606474000063], [3.648383984000025, 15.585928599000074], [3.704616234000069, 15.645551975000036], [3.796983734000081, 15.658902100000091], [3.846948609000078, 15.676098725000084], [3.890225984000084, 15.720850600000055], [3.917459609000096, 15.807455850000071], [3.922707734, 15.877305475000078], [3.941893234000071, 15.932658600000035], [3.990539734000054, 15.97043535000002], [3.994796109000065, 16.033988350000048], [4.015679359000091, 16.136060725000043], [4.063962359000017, 16.221921350000088], [4.087766859000075, 16.283731975000016], [4.113450859000034, 16.343669225000014], [4.199820359000084, 16.393478600000023], [4.196408734000068, 16.807852226000072], [4.205869609000024, 16.87946710100003], [4.214283734000057, 16.99785285100004], [4.243029609000049, 17.28645122600001], [4.24404535900007, 17.724082476000078], [4.241721109000052, 18.074777977000053], [4.242086609000095, 18.583055477000052], [4.242464859000039, 19.140415103000016], [4.017145484000073, 19.09706160300002], [3.84915123400007, 19.05750760300007], [3.731964859000092, 19.035201603000097], [3.678714609000044, 19.026881728000042], [3.588609984000035, 19.01017410300001], [3.356664983000046, 18.964986978000084], [3.310439108000063, 18.99503710300008], [3.253397233000088, 19.04250985300002], [3.21044735800009, 19.071071853000078], [3.169315608000067, 19.103940228000013], [3.120504233000032, 19.12822135300007], [3.121082108000062, 19.18182572800002], [3.160874233000088, 19.21541810300009], [3.208258733000013, 19.25641785300003], [3.240775108000049, 19.33079810300009], [3.287978108000056, 19.355232103], [3.285991358000073, 19.406624228000055], [3.265385483000083, 19.452989603000034], [3.257351358000049, 19.50560160300003], [3.240965108000049, 19.557556353000095], [3.232911358000079, 19.60821397800003], [3.23930973300004, 19.662308603000042], [3.232311733000026, 19.716991603000068], [3.243459608000032, 19.765972603000016], [3.258923233000077, 19.816570978000023], [3.214678983, 19.84068985300007], [3.146429233000037, 19.85451035300005], [3.094223733000012, 19.890424228000093], [3.046520483000092, 19.910023354000096], [2.997185108000044, 19.953788729000067], [2.947030483000068, 19.968623729000058], [2.879505983000064, 19.97884710400004], [2.82316435800003, 19.982746604000013], [2.767310108000087, 19.99644347900007], [2.723331108000027, 20.020778479000057], [2.702064733, 20.07546935400002], [2.631838983000057, 20.058244354000074], [2.578232108000078, 20.046350604000082], [2.53330910800007, 20.076424229000068], [2.488376733000086, 20.105536979000036], [2.430211857, 20.092979354000093], [2.391626357000076, 20.056573354000015], [2.36943098200002, 20.10648597900004], [2.385435482000053, 20.158386979], [2.344726482000015, 20.191740729000053], [2.314076482000038, 20.231430229000026], [2.301232357000016, 20.280711854000067], [2.252572857000024, 20.314833979000092], [2.20590173200006, 20.334621354000035], [2.174033607000014, 20.28867110400003], [2.124169607000015, 20.26102285400009], [2.069926107000031, 20.259663229000033], [2.024180982000034, 20.283030979000017], [1.97042935700007, 20.25828785400001], [1.930574732000023, 20.22194447900005], [1.89751760700001, 20.27143797900004], [1.851651107, 20.295047104000098], [1.800079107000085, 20.29509822900006], [1.774048982000087, 20.339726854000048], [1.722140982000075, 20.36529672900007], [1.673015482000073, 20.401799604000082], [1.667620357000077, 20.459765354000027], [1.66266473200003, 20.511986479], [1.642511607000019, 20.561487854000028], [1.593745232000064, 20.59742472900001], [1.545406607000064, 20.612242604000095], [1.485587607000081, 20.63047335400003], [1.401824107000092, 20.659655604000072], [1.350895106000081, 20.686834979000032], [1.319142981000041, 20.737825104000038], [1.263401231000081, 20.736980729000074], [1.215178856000019, 20.720125604000096], [1.166581106000073, 20.735617479000076], [1.167008106000054, 20.792910104000015], [1.180494231000083, 20.843151479000063], [1.192750856000078, 20.91761310400002], [1.19185823100003, 20.991460230000023], [1.183868106000084, 21.079723355000077], [1.120616731000055, 21.15023073000006], [1.002944731000042, 21.22192273000001], [0.885648981000074, 21.295516605000017], [0.812191356000056, 21.34627623000005], [0.664755856000053, 21.456894980000094], [0.594166981000075, 21.503060105000024], [0.526851981000085, 21.552202355000084], [0.363242856000088, 21.659821230000077], [0.244654855000046, 21.74572910500003], [0.109911105000069, 21.831763480000063], [-0.022424894999908, 21.911641855000028], [-0.270940269999944, 22.076917981000022], [-0.785877021, 22.41865223100008], [-1.000630771, 22.55931860600009], [-1.150133145999945, 22.658846231000027], [-1.424246020999977, 22.836349731000084], [-1.667925645999937, 22.994798981000095], [-1.823226770999977, 23.092442356], [-1.994211396999958, 23.201142482000023], [-2.326844021999943, 23.416159107000013], [-2.523309146999921, 23.54071498200001], [-2.923458022999938, 23.793722982000062], [-3.216392147999915, 23.978895232000028], [-3.258297272999979, 24.00785773200009], [-3.591408022999911, 24.217219483000086], [-3.99948902399996, 24.469392483000064], [-4.35362177399994, 24.68773610800008], [-4.58760014899995, 24.840816858000082], [-4.800154773999978, 24.975882733000066], [-4.833489648999969, 24.999511983000012]]]}}]}