{"type": "FeatureCollection", "features": [{"type": "Feature", "properties": {"code": "MLT", "name": "Malta", "tier": "country"}, "geometry": {"type": "MultiPolygon", "coordinates": [[[[14.503147674688194, 35.906000505400186], [14.503147674688194, 35.906000505400186]]], [[[14.429400670417238, 35.958978744900264], [14.429400670417238, 35.958978744900264]]], [[[14.36488217581882, 35.99617754489947], [14.34615476544542, 35.98657580696994], [14.324511164649039, 35.97934217590813], [14.337314290929271, 35.96175934507312], [14.327664666246108, 35.94069904863744], [14.344996321156486, 35.92906341374044], [14.333137713119811, 35.91293617759567], [14.336983748158673, 35.884509441226385], [14.35482379020658, 35.870367031403475], [14.36837758838584, 35.855330130437665], [14.39600648467433, 35.842935451835785], [14.41664610042028, 35.83398253473496], [14.446709087267209, 35.82014801264489], [14.474800003719395, 35.81413225619207], [14.497235208113011, 35.81331810095105], [14.530482559202312, 35.807102063672744], [14.547955760558864, 35.81912660276765], [14.528510114726657, 35.82634107830734], [14.547403568781249, 35.83405516386114], [14.565622035963429, 35.84518917385918], [14.577418088008415, 35.86414294538355], [14.557004755046819, 35.88473907810908], [14.531105029933485, 35.897232323112405], [14.515065596458385, 35.883628547651995], [14.520442708699022, 35.9030597025332], [14.490689997880907, 35.89465123248527], [14.51318312448899, 35.90584343068696], [14.497698585828232, 35.9186973544829], [14.481171447307759, 35.93326886324655], [14.45728818755299, 35.94099129940628], [14.433536218151005, 35.954667851705494], [14.408181010121837, 35.95262335764255], [14.389145115688109, 35.94639577425863], [14.395098697911465, 35.968184495150865], [14.371828786995763, 35.96922784664423], [14.349383928899726, 35.971327577443105], [14.372741061873285, 35.98426986612952], [14.36488217581882, 35.99617754489947]]], [[[14.31866876778173, 36.012349072723], [14.31866876778173, 36.012349072723]]], [[[14.340748175545741, 36.01729444462643], [14.32474492574039, 36.0047392781143], [14.348179991857592, 36.00582175531429], [14.340748175545741, 36.01729444462643]]], [[[14.234092024643132, 36.0809051020687], [14.209981492299562, 36.08111141801612], [14.18959577137133, 36.07354472491397], [14.187018678681511, 36.05087609814859], [14.187110496179628, 36.029909853448544], [14.207373807842544, 36.03067750227149], [14.225092770555818, 36.018168494282236], [14.25176351737258, 36.01817361363851], [14.279360076562739, 36.01617608378643], [14.29888222354117, 36.024631416890315], [14.321066824789682, 36.02584763273376], [14.32044098051989, 36.04856989890936], [14.299680774161857, 36.056620833211696], [14.273030070227094, 36.06575314350795], [14.251227633996848, 36.07789299810116], [14.234092024643132, 36.0809051020687]]]]}}]}