{"type": "FeatureCollection", "features": [{"type": "Feature", "properties": {"code": "MNE", "name": "Montenegro", "tier": "country"}, "geometry": {"type": "Polygon", "coordinates": [[[19.005237, 43.5584011], [18.981571, 43.543972299999965], [18.9533025, 43.52267380000004], [18.92743070000004, 43.51136629999997], [18.921485700000023, 43.49026649999997], [18.9499093, 43.5036742], [18.9594577, 43.48531889999997], [18.961082, 43.46055559999998], [18.9798212, 43.45344040000004], [18.99800790000003, 43.44461960000002], [19.018462700000043, 43.43078710000002], [19.02056330000003, 43.40856570000003], [19.04270559999996, 43.39649770000001], [19.03692959999998, 43.3759528], [19.048202700000044, 43.35817140000003], [19.07087040000001, 43.33975950000003], [19.08339150000004, 43.3191596], [19.0424185, 43.28935130000003], [19.02588889999996, 43.2739437], [19.008783599999973, 43.25060539999997], [18.9910322, 43.260054], [18.981818599999983, 43.2807666], [18.954894800000027, 43.288309299999966], [18.952107499999975, 43.31134339999996], [18.958389100000044, 43.330696], [18.931185, 43.344308], [18.914463300000033, 43.35985250000004], [18.878447099999967, 43.35644750000004], [18.849329300000022, 43.3493924], [18.853467400000017, 43.324072299999955], [18.829097399999977, 43.31411370000003], [18.8062675, 43.30735720000001], [18.769563, 43.29460959999999], [18.733154100000043, 43.28103310000003], [18.68812490000004, 43.25471369999999], [18.705437, 43.23611149999996], [18.687488499999965, 43.2213918], [18.66773130000003, 43.203913599999986], [18.64839640000004, 43.147130700000034], [18.65313680000004, 43.120702599999966], [18.65688229999997, 43.0741431], [18.6606944, 43.0373332], [18.623030700000037, 43.02945870000002], [18.5921072, 43.03283150000002], [18.543749900000044, 43.03231620000002], [18.5187003, 43.01994719999996], [18.51043549999997, 42.9992858], [18.49411950000001, 42.98646109999998], [18.486540599999984, 42.965364], [18.484569499999964, 42.943055800000046], [18.49469769999998, 42.91537860000002], [18.50408350000003, 42.89267249999998], [18.49117679999998, 42.877119], [18.468657699999962, 42.85347040000001], [18.477001699999967, 42.8317489], [18.448332, 42.8153638], [18.46349520000003, 42.79503], [18.467346199999984, 42.77325050000003], [18.4735165, 42.75409279999996], [18.4927839, 42.747471799999964], [18.513858799999976, 42.73471519999999], [18.55737720000003, 42.72190539999997], [18.554774599999984, 42.698091700000035], [18.550426, 42.677389100000035], [18.5642835, 42.66185639999996], [18.57489570000001, 42.642750099999965], [18.537620100000012, 42.636818199999965], [18.52029429999999, 42.618395499999956], [18.5343513, 42.602617], [18.554809899999974, 42.580251], [18.52778459999997, 42.58352510000002], [18.499916, 42.588134099999984], [18.474873900000038, 42.5694433], [18.45411860000003, 42.562410400000026], [18.43592929999997, 42.552367799999985], [18.4370558, 42.52758880000003], [18.440573700000023, 42.50193550000004], [18.442701200000016, 42.481043700000015], [18.461523, 42.4712901], [18.49353460000002, 42.4416007], [18.51637680000004, 42.42659869999997], [18.504081200000016, 42.44847149999998], [18.5347442, 42.4503545], [18.557682, 42.45129540000004], [18.5786656, 42.443952900000035], [18.59785830000004, 42.43301269999998], [18.631903600000015, 42.440706900000045], [18.65291169999998, 42.45033809999997], [18.67635340000004, 42.4599223], [18.6869018, 42.47888789999999], [18.667645400000026, 42.4864388], [18.67648210000003, 42.50517639999996], [18.695149400000027, 42.5130485], [18.692539099999966, 42.49035080000004], [18.729051399999957, 42.48439549999997], [18.75354569999998, 42.49004629999998], [18.762730099999974, 42.467341400000045], [18.761855700000012, 42.441710799999974], [18.771155, 42.4231468], [18.75370649999996, 42.43946480000003], [18.738266600000014, 42.460880100000026], [18.716981100000012, 42.4700803], [18.6903582, 42.4774797], [18.68129630000001, 42.45943630000003], [18.68436770000003, 42.43915939999999], [18.70028280000004, 42.42652320000003], [18.714315299999978, 42.4097309], [18.70258860000004, 42.39333750000004], [18.677996199999985, 42.405069], [18.6505225, 42.40930449999998], [18.616046700000027, 42.422162], [18.59006439999999, 42.42759689999996], [18.566849899999987, 42.4319749], [18.5463987, 42.4213531], [18.562097599999976, 42.40303649999998], [18.575130399999978, 42.38645870000003], [18.595892700000032, 42.37360349999997], [18.615923699999975, 42.365328], [18.63676950000001, 42.36875740000002], [18.658733500000018, 42.37207929999998], [18.676386, 42.382888600000044], [18.69658990000002, 42.36796669999997], [18.696673099999977, 42.346097], [18.714532, 42.328017], [18.7252615, 42.310294300000045], [18.741938900000015, 42.295048900000026], [18.760249499999986, 42.28268060000003], [18.7773228, 42.26768680000004], [18.804208800000016, 42.27273749999996], [18.82861319999997, 42.273467], [18.846914399999964, 42.28479259999998], [18.8746463, 42.28083019999996], [18.8921704, 42.26917670000004], [18.897074200000013, 42.24840569999998], [18.9064227, 42.22487119999997], [18.924343400000037, 42.212267300000015], [18.9454632, 42.20109639999997], [18.966721, 42.19203969999997], [18.97750150000001, 42.167166600000044], [19.002327, 42.1584529], [19.01075239999998, 42.13402619999998], [19.0310624, 42.13642720000004], [19.060465500000017, 42.134207499999974], [19.082951, 42.11338870000004], [19.089536, 42.09178980000004], [19.069339199999973, 42.08891089999996], [19.085907600000034, 42.0768973], [19.1030587, 42.06397860000003], [19.12899949999997, 42.049595], [19.142842899999984, 42.033108499999955], [19.151104600000018, 42.0133371], [19.14813760000002, 41.993098899999964], [19.138444699999962, 41.97549209999996], [19.1543549, 41.9610245], [19.16200780000003, 41.942305399999974], [19.180651799999964, 41.934106399999976], [19.200450100000015, 41.92456569999999], [19.222993099999968, 41.91548370000003], [19.260926, 41.90414470000002], [19.306324700000015, 41.88741920000002], [19.3255598, 41.87666179999999], [19.341834099999982, 41.862575300000024], [19.37031, 41.84637040000002], [19.374999299999967, 41.87558980000002], [19.36515770000004, 41.898460099999966], [19.342946800000032, 41.90552410000002], [19.364808500000013, 41.91748949999999], [19.351873700000038, 41.93945260000001], [19.35897460000004, 41.960219800000026], [19.382560200000015, 41.9614561], [19.3818257, 41.98557480000003], [19.3740133, 42.00475390000001], [19.3691665, 42.0288324], [19.379592, 42.05200940000001], [19.37844509999997, 42.07228410000004], [19.40630920000001, 42.10178460000003], [19.283998699999987, 42.178960600000046], [19.351723300000028, 42.239240399999964], [19.3767773, 42.26981679999998], [19.387828, 42.291468], [19.407380199999984, 42.312074], [19.425552100000026, 42.32725050000004], [19.413706700000038, 42.35035730000001], [19.425279699999958, 42.37175580000004], [19.447520899999986, 42.3852067], [19.47235670000002, 42.3920072], [19.487310100000037, 42.4108171], [19.499262099999964, 42.43256819999997], [19.519595, 42.4427364], [19.532175199999962, 42.45966820000003], [19.5480197, 42.4866114], [19.562744, 42.501114399999956], [19.601559, 42.53028290000001], [19.60977419999998, 42.56340279999998], [19.63693960000003, 42.6008827], [19.661331500000017, 42.6275945], [19.68512460000002, 42.63401920000001], [19.69900230000003, 42.65022469999998], [19.723087799999977, 42.660975399999984], [19.7378898, 42.64275539999996], [19.757039400000014, 42.63570690000003], [19.75116460000003, 42.613821599999966], [19.76829079999997, 42.59761230000004], [19.7518577, 42.58133469999997], [19.748352100000027, 42.55582539999999], [19.747697899999988, 42.535736200000024], [19.759247500000015, 42.51604079999996], [19.77843550000002, 42.494415], [19.796011200000024, 42.478511], [19.8215332, 42.4681277], [19.841371100000032, 42.48009729999996], [19.864437, 42.48087330000004], [19.87797839999998, 42.49583419999997], [19.895331699999968, 42.4851708], [19.906319300000035, 42.50728750000002], [19.94014729999997, 42.517877400000046], [19.96693849999997, 42.509297200000034], [19.9955001, 42.5113921], [20.012099300000024, 42.52570319999998], [20.027125500000025, 42.54344780000002], [20.04968249999998, 42.549886], [20.073139399999967, 42.555542], [20.0895905, 42.57542260000001], [20.075624200000036, 42.60089729999997], [20.077944900000027, 42.62381989999998], [20.095072399999985, 42.64084550000003], [20.11207760000004, 42.65620039999996], [20.08844139999996, 42.6688505], [20.067150599999966, 42.6801517], [20.043682300000015, 42.69540030000002], [20.02647920000002, 42.70952959999997], [20.01289859999999, 42.728474899999966], [20.0178559, 42.74844810000001], [20.0296425, 42.765825300000024], [20.051491299999984, 42.7766101], [20.084629, 42.77396689999998], [20.104649, 42.77241650000004], [20.126016200000024, 42.762607499999966], [20.145746500000044, 42.755389599999965], [20.1680404, 42.76234879999997], [20.192677600000025, 42.747122099999984], [20.2134787, 42.750538300000024], [20.2336747, 42.753136499999975], [20.255308, 42.77032740000003], [20.262726800000024, 42.803985400000016], [20.27601869999997, 42.82208339999998], [20.297915199999988, 42.83599619999997], [20.3200391, 42.82605010000001], [20.33925029999996, 42.836181400000015], [20.3493928, 42.85604140000002], [20.346776299999963, 42.87615670000001], [20.351064400000023, 42.89599760000003], [20.330275299999972, 42.91354870000004], [20.31170359999998, 42.921032600000025], [20.288540100000024, 42.9276436], [20.25259230000002, 42.94046190000001], [20.23031720000003, 42.944615499999955], [20.209715300000013, 42.959410199999986], [20.180984500000026, 42.9652852], [20.16214259999997, 42.97330990000004], [20.1473024, 42.98967369999996], [20.13359219999999, 42.9714954], [20.108495, 42.97220410000003], [20.087178700000024, 42.98619440000003], [20.05941759999998, 42.9946787], [20.05629640000001, 43.0173983], [20.02763029999996, 43.0376853], [19.9921962, 43.051796500000044], [19.976333399999973, 43.072729500000015], [19.973699299999986, 43.10319159999999], [19.950337599999973, 43.10208850000002], [19.931219299999963, 43.09590210000001], [19.906851700000033, 43.09109139999997], [19.88638310000003, 43.10132870000004], [19.862071500000027, 43.110082099999985], [19.84131119999996, 43.095081], [19.837942400000024, 43.115361], [19.811856, 43.11546480000002], [19.791477, 43.1237935], [19.776969499999957, 43.1378192], [19.77093779999996, 43.16292919999999], [19.746736500000022, 43.15889340000002], [19.70426889999996, 43.170647199999976], [19.68200410000002, 43.1723413], [19.664880799999967, 43.186459], [19.641886599999985, 43.1886675], [19.634678099999963, 43.20981290000004], [19.619798199999988, 43.22514180000004], [19.5911523, 43.238340700000016], [19.566477, 43.24191850000002], [19.54508259999998, 43.246390700000035], [19.533692600000013, 43.26965570000004], [19.537989, 43.3024213], [19.52154929999998, 43.319746299999956], [19.4860537, 43.326295499999965], [19.460800200000044, 43.34458060000004], [19.4567162, 43.36501619999998], [19.449248899999965, 43.387338], [19.428512099999978, 43.39252170000002], [19.400279099999967, 43.39941340000003], [19.3832073, 43.412026799999964], [19.3607925, 43.41063730000002], [19.338617700000043, 43.42836110000002], [19.322460800000012, 43.4406444], [19.29964729999997, 43.4438369], [19.277436399999964, 43.4535913], [19.254188799999977, 43.4611206], [19.2231009, 43.48193889999999], [19.223788599999974, 43.503572099999985], [19.2238426, 43.524361], [19.199542100000027, 43.53275550000003], [19.179116400000023, 43.53279569999998], [19.15264610000002, 43.536776500000016], [19.131945199999983, 43.5260128], [19.111062, 43.52216470000002], [19.09168260000002, 43.51281190000003], [19.06384509999996, 43.5106722], [19.0421757, 43.50330090000001], [19.0435595, 43.52441619999997], [19.02548090000004, 43.538903599999976], [19.008169599999974, 43.550842100000025], [19.005237, 43.5584011]]]}}]}