{"type": "FeatureCollection", "features": [{"type": "Feature", "properties": {"code": "MNG", "name": "Mongolia", "tier": "country"}, "geometry": {"type": "Polygon", "coordinates": [[[99.00460930000004, 52.074732300000036], [98.898, 52.1451], [98.8268, 52.039], [98.77454150000003, 51.9154487], [98.6805, 51.8203], [98.5546, 51.7902], [98.4176, 51.7365], [98.2918, 51.637], [98.2563, 51.5117], [98.1376, 51.4658], [98.0211, 51.3941], [97.9618, 51.2849], [97.9186, 51.1702], [97.86703510000001, 51.059506699999986], [97.88704379999997, 50.93011840000001], [97.99656240000003, 50.87934540000003], [97.9708, 50.7499], [98.0367, 50.6471], [98.1397979, 50.5817047], [98.257946, 50.54166149999999], [98.2858047, 50.42447], [98.2638107, 50.30260469999998], [98.175426, 50.20714090000002], [98.1204, 50.1002], [98.0098, 50.0273], [97.8978, 49.984], [97.7621, 50.0005], [97.62446109999996, 49.943946], [97.55770630000005, 49.84359319999998], [97.42162350000004, 49.78069629999997], [97.292494, 49.7517327], [97.15307680000004, 49.782563099999976], [97.0313125, 49.83396590000002], [96.9125415, 49.89556759999998], [96.78056950000003, 49.910769600000044], [96.6572562, 49.89845519999998], [96.52536280000004, 49.9441836], [96.4244611, 49.87581], [96.32509, 49.9486759], [96.2066178, 49.9820838], [96.08293969999997, 50.009941200000014], [95.967566, 49.9711389], [95.86087329999995, 50.04362469999999], [95.77419390000001, 49.960550900000044], [95.652985, 49.956106700000035], [95.5319595, 49.89722470000004], [95.42591619999999, 49.9576412], [95.30124969999999, 49.95800010000002], [95.08157910000004, 49.96291210000001], [94.99032849999998, 50.0474119], [94.76065220000004, 50.0549165], [94.61484310000004, 50.0353979], [94.53483479999998, 50.13138459999997], [94.4207507, 50.191869], [94.341509, 50.501224499999985], [94.24040689999995, 50.58776], [94.0310165, 50.59673430000002], [93.85617449999997, 50.60105180000003], [93.70341389999999, 50.5862228], [93.57925880000002, 50.604821], [93.45664089999997, 50.63111429999998], [93.3226, 50.6148], [93.201, 50.5971], [93.0711, 50.6125], [92.9594, 50.6619], [93.0231, 50.7779], [92.8997, 50.8021], [92.7679, 50.7928], [92.6465, 50.7055], [92.565, 50.7961], [92.4273, 50.8062], [92.3326, 50.8803], [92.306, 50.7616], [92.17214190000001, 50.70625780000004], [92.02223580000005, 50.7051388], [91.8559, 50.7354], [91.7391, 50.6992], [91.6502, 50.6002], [91.5292, 50.5834], [91.44136619999996, 50.49441810000001], [91.32, 50.4709], [91.16, 50.4201], [91.0383, 50.4351], [90.9069, 50.4139], [90.8061, 50.3421], [90.7308, 50.2434], [90.5981, 50.2326], [90.4748, 50.2057], [90.35867530000002, 50.1633986], [90.247782, 50.104310199999986], [90.11886429999996, 50.09759349999998], [90.0023, 50.0542], [89.92019150000002, 49.962409399999984], [89.79935, 49.95337519999998], [89.6761044, 49.93576140000002], [89.64357529999998, 49.81906870000003], [89.6608, 49.6999], [89.53666769999995, 49.68077949999998], [89.4273522, 49.619380600000014], [89.2989, 49.6114], [89.2068, 49.5307], [89.0749, 49.4845], [88.9379, 49.5112], [88.8319, 49.4446], [88.7, 49.4601], [88.5729, 49.4978], [88.445, 49.4726], [88.32127, 49.482206], [88.196029, 49.463955], [88.164678, 49.344887], [88.083995, 49.255705], [87.988438, 49.18302], [87.861318, 49.177937], [87.83563, 49.060592], [87.80853, 48.943031], [87.815461, 48.82287], [87.932879, 48.753662], [88.052293, 48.712616], [87.972869, 48.608589], [88.079698, 48.546575], [88.19354, 48.49567], [88.312706, 48.474317], [88.42191, 48.403471], [88.539936, 48.360159], [88.594428, 48.247085], [88.712886, 48.173233], [88.814294, 48.106398], [88.937993, 48.095967], [89.035664, 48.013561], [89.156938, 47.993315], [89.281074, 47.986773], [89.401843, 48.028853], [89.527481, 48.035082], [89.620008, 47.949625], [89.727052, 47.895038], [89.832236, 47.830694], [89.95388, 47.834658], [90.085874, 47.864342], [90.119579, 47.744187], [90.235443, 47.703537], [90.356277, 47.664776], [90.399595, 47.537597], [90.457222, 47.429839], [90.485027, 47.312463], [90.556386, 47.215336], [90.645853, 47.132559], [90.730222, 47.024465], [90.852365, 46.986898], [90.930991, 46.890676], [90.990155, 46.775464], [91.014556, 46.609629], [91.033333, 46.490072], [90.974767, 46.362755], [90.951148, 46.229358], [91.011819, 46.123814], [90.84791, 45.887327], [90.71282, 45.725378], [90.6685055, 45.551965800000026], [90.741932, 45.449503], [90.811567, 45.324992], [90.864547, 45.204098], [90.995151, 45.213834], [91.122238, 45.214054], [91.2316, 45.144842], [91.365353, 45.111668], [91.490614, 45.11651], [91.608798, 45.070018], [91.800752, 45.081648], [92.05758, 45.08275], [92.188041, 45.037787], [92.313272, 45.02681], [92.453255, 45.008253], [92.578872, 45.017399], [92.71868, 45.032261], [92.847933, 45.037368], [92.971238, 45.014004], [93.098219, 45.006749], [93.288074, 44.981912], [93.408391, 44.968743], [93.531136, 44.955426], [93.675537, 44.907907], [94.060917, 44.732823], [94.192405, 44.67436], [94.31735, 44.58774], [94.415113, 44.515048], [94.531111, 44.469446], [94.675545, 44.388418], [94.793752, 44.327932], [94.921805, 44.297221], [95.136439, 44.267196], [95.298198, 44.282971], [95.423958, 44.282307], [95.352124, 44.172462], [95.334624, 44.050238], [95.522625, 44.003374], [95.622143, 43.851402], [95.707797, 43.656058], [95.796612, 43.505857], [95.866724, 43.345255], [95.913223, 43.231528], [96.169431, 43.043123], [96.359415, 42.899481], [96.385808, 42.724006], [96.59404830000001, 42.74188], [96.749521, 42.754869], [96.966091, 42.753796], [97.17259689999997, 42.7949997], [97.77926069999998, 42.71076290000002], [98.19227249999999, 42.652009600000014], [98.53150230000003, 42.6375866], [99.05866380000002, 42.59793069999997], [99.50347660000001, 42.566121], [99.97121760000003, 42.64382], [100.14665019999998, 42.640341], [100.26780470000001, 42.63525840000002], [100.84508839999995, 42.67149950000004], [101.28823420000005, 42.58207919999999], [101.59221220000003, 42.52059010000002], [101.769443, 42.5029433], [102.074512, 42.222635500000045], [102.4424471, 42.14191270000003], [102.6207766, 42.1487868], [102.9897189, 42.03085540000002], [103.38569640000003, 41.887989], [103.84377290000003, 41.80061339999998], [104.05312349999998, 41.80198289999996], [104.52493290000001, 41.87338259999997], [104.51834870000003, 41.66220090000003], [104.67765049999998, 41.64268489999998], [104.91575619999998, 41.652259800000046], [105.22872920000002, 41.7470322], [105.61383819999998, 41.89830780000003], [106.028224, 42.03852569999997], [106.50708770000004, 42.19395829999996], [106.78600309999997, 42.29142760000004], [107.04105380000003, 42.31425860000002], [107.25698090000003, 42.36276250000002], [107.45317839999998, 42.45666119999998], [107.56593320000002, 42.41157910000004], [107.72736360000005, 42.412067400000026], [107.91879269999998, 42.4022675], [108.05715939999996, 42.433338199999966], [108.24079130000003, 42.46064], [108.39396669999995, 42.438716900000024], [108.53904719999997, 42.44061280000004], [108.69989779999999, 42.4102669], [108.82914730000002, 42.39788060000002], [108.97154239999998, 42.44558720000004], [109.10613470000004, 42.449038499999965], [109.28394320000001, 42.4345055], [109.469223, 42.453476], [109.6022034, 42.512775400000024], [109.72273249999998, 42.57169339999997], [109.85748289999998, 42.618606599999985], [110.10083009999997, 42.63910680000002], [110.293602, 42.720848100000026], [110.43293, 42.777195], [110.52664179999996, 42.87310030000004], [110.65512090000003, 42.977272], [110.73304749999997, 43.084041599999985], [110.848671, 43.17734909999997], [110.98059079999996, 43.301040600000036], [111.09636690000005, 43.3598213], [111.21314239999995, 43.39929580000003], [111.34488680000001, 43.43072129999996], [111.45337679999997, 43.489337900000024], [111.60495760000003, 43.513443], [111.7416, 43.62802890000001], [111.87980650000003, 43.67118070000002], [111.9647827, 43.772045099999985], [111.906723, 43.886310599999966], [111.81508639999998, 43.9740562], [111.6931381, 44.03536990000003], [111.599617, 44.124813100000026], [111.51923370000002, 44.248951], [111.41861720000004, 44.3239403], [111.46365360000001, 44.47141649999999], [111.54917140000003, 44.55933], [111.56497959999999, 44.67955019999998], [111.62980649999999, 44.790344199999964], [111.7039413, 44.891590099999966], [111.79067230000003, 44.99464039999996], [111.89866639999997, 45.050396], [112.05233, 45.0930786], [112.2147522, 45.068393700000016], [112.37428280000005, 45.06159589999996], [112.49739069999995, 45.0238571], [112.58496089999997, 44.9360733], [112.70195009999998, 44.880867], [112.8243637, 44.8471184], [112.97170260000001, 44.829937], [113.12761689999998, 44.795387299999966], [113.25817109999997, 44.78607939999996], [113.39314269999997, 44.781055400000035], [113.52773280000002, 44.76055150000004], [113.6805878, 44.768779799999976], [113.7813034, 44.8417587], [113.88725279999997, 44.89823149999996], [114.056154, 44.9255814], [114.1604919, 44.99561690000002], [114.2982995, 45.099915], [114.4037339, 45.16548540000002], [114.514679, 45.274231], [114.744751, 45.43503189999998], [114.94432070000003, 45.3749275], [115.1718063, 45.39065930000003], [115.3567429, 45.387165100000026], [115.56162259999996, 45.4309006], [115.68744659999999, 45.45267490000004], [115.891983, 45.59627529999999], [116.02622220000003, 45.65649029999996], [116.14549259999995, 45.68087770000002], [116.26835630000002, 45.76598779999996], [116.23585650000001, 45.88216559999998], [116.39028929999998, 46.1080246], [116.53343959999998, 46.224727600000044], [116.65841, 46.321135], [116.812362, 46.355738], [117.01345, 46.361078], [117.245398, 46.36451], [117.36834, 46.360697], [117.439034, 46.525552], [117.53823, 46.595419], [117.655803, 46.539554], [117.792024, 46.528687], [117.892642, 46.595479], [118.009548, 46.629121], [118.126114, 46.681692], [118.258886, 46.716245], [118.402381, 46.727041], [118.575476, 46.693442], [118.701174, 46.693694], [118.821044, 46.754706], [118.942364, 46.721231], [119.074403, 46.666744], [119.197396, 46.644146], [119.331615, 46.611225], [119.472015, 46.629728], [119.591516, 46.616767], [119.715449, 46.60196], [119.83278490000004, 46.67025789999999], [119.905011, 46.766828], [119.921322, 46.901621], [119.824499, 46.977423], [119.754679, 47.129376], [119.66643, 47.214629], [119.55227110000001, 47.25338609999998], [119.47055839999996, 47.342525399999964], [119.3632993, 47.40266359999998], [119.19019560000001, 47.52211089999998], [119.12168119999998, 47.66403959999998], [118.75482180000002, 47.7720795], [118.55493159999997, 47.993461599999975], [118.43464860000003, 48.001063899999984], [118.30344329999998, 48.0110257], [118.18062560000001, 48.038939300000045], [118.0589412, 48.01934779999996], [117.93837509999999, 48.01507789999999], [117.8049667, 48.01418989999997], [117.52217750000001, 47.788805899999986], [117.3751831, 47.64004139999997], [117.0869064, 47.8203011], [116.87078860000003, 47.89093780000002], [116.67637629999999, 47.889198299999975], [116.4555435, 47.83911509999996], [116.2534181, 47.87827560000004], [116.11147560000002, 47.81924989999997], [115.96545730000004, 47.695148], [115.84394939999999, 47.743913099999986], [115.643296, 47.87167939999996], [115.56487270000002, 47.97021689999996], [115.533326, 48.100993200000026], [115.81340790000002, 48.2588654], [115.78697010000005, 48.519881], [116.071373, 48.81937789999997], [116.20688420000003, 49.1141117], [116.279194, 49.227215], [116.60884839999997, 49.707061], [116.7112958, 49.841832500000045], [116.6216, 49.9311], [116.3982, 49.9809], [116.2819, 50.0152], [116.1255, 50.024], [115.9829, 49.9707], [115.84350049999998, 49.92612539999996], [115.68248220000002, 49.886103700000035], [115.5277, 49.9047], [115.3608, 49.9402], [115.2239, 49.9884], [115.0893, 50.0763], [114.986, 50.1744], [114.8567, 50.217], [114.7002, 50.2428], [114.5142, 50.2291], [114.3388, 50.2827], [114.1784, 50.243], [114.06213910000001, 50.18363069999998], [113.8958, 50.1116], [113.7724, 50.0805], [113.6519, 49.9997], [113.4888, 49.9736], [113.21842090000004, 49.83705750000002], [113.1327, 49.7388], [113.0686, 49.6348], [112.9475, 49.5847], [112.836, 49.5253], [112.7115, 49.5183], [112.5692, 49.5168], [112.4322, 49.5095], [112.295, 49.4887], [112.128, 49.4311], [112.0074, 49.3944], [111.8417, 49.3742], [111.7056, 49.3859], [111.5451, 49.3265], [111.4215, 49.3477], [111.2975, 49.3193], [111.1818, 49.2854], [110.9551, 49.2215], [110.8193, 49.182], [110.6836, 49.1709], [110.5518, 49.1938], [110.4252, 49.223], [110.2939, 49.1863], [110.1751, 49.1583], [110.0306, 49.1851], [109.9026, 49.2057], [109.7581, 49.2204], [109.6221, 49.2234], [109.4996, 49.2362], [109.3900023, 49.3002688], [109.1946, 49.3523], [109.0758, 49.3281], [108.9554, 49.3448], [108.8331, 49.3398], [108.7094, 49.3366], [108.5815, 49.3348], [108.4452, 49.3634], [108.3515, 49.4413], [108.281, 49.5449], [108.1611, 49.5618], [108.0513, 49.6175], [107.9339, 49.7042], [107.9319, 49.8319], [107.86477979999998, 49.93650159999998], [107.7297546, 49.980193199999974], [107.60732739999999, 49.97015649999998], [107.48544370000002, 49.9781722], [107.36085049999996, 49.98960490000004], [107.23586639999996, 49.99862710000002], [107.117613, 50.046969], [107.03090120000003, 50.13101649999998], [106.87543969999996, 50.26313430000002], [106.73202930000002, 50.31634560000004], [106.59161450000003, 50.33846439999998], [106.46871079999997, 50.31813790000001], [106.3256211, 50.30766039999996], [106.20178289999996, 50.3294734], [106.08077330000002, 50.33540240000003], [105.9887557, 50.416039], [105.8601079, 50.426925299999965], [105.72398179999996, 50.42755], [105.60275589999998, 50.43077980000003], [105.47872929999998, 50.44438719999997], [105.36030479999997, 50.473409700000026], [105.23158819999996, 50.42806559999999], [105.11290309999997, 50.3918636], [104.98740760000004, 50.39139380000004], [104.85190040000003, 50.367094], [104.72337910000003, 50.357456], [104.6088466, 50.32041920000003], [104.4791823, 50.311744899999965], [104.36630079999996, 50.26955519999998], [104.26307170000001, 50.1986561], [104.14598339999998, 50.14697280000002], [104.019975, 50.14932060000003], [103.8999302, 50.1818823], [103.77812070000004, 50.1645139], [103.65014990000002, 50.142319600000036], [103.53018, 50.181221], [103.41140269999997, 50.21178079999997], [103.29408050000002, 50.185899799999966], [103.25855240000001, 50.30324520000004], [103.12826640000002, 50.31059639999997], [102.98996539999996, 50.30409439999996], [102.87079040000003, 50.32765010000004], [102.75356810000001, 50.38691210000003], [102.62506640000002, 50.43339890000002], [102.546919, 50.52684530000004], [102.44993170000004, 50.615167], [102.3249009, 50.675763900000014], [102.27377370000002, 50.79313249999997], [102.24114960000004, 50.91745319999996], [102.20362409999997, 51.039491899999966], [102.12332459999999, 51.139101400000015], [102.11388029999998, 51.25934550000004], [102.07991360000003, 51.376934], [101.96125940000002, 51.409112699999966], [101.84015920000003, 51.419595500000014], [101.71654030000002, 51.45410820000002], [101.5981136, 51.4755534], [101.4595599, 51.4911656], [101.314983, 51.49545870000003], [101.1934716, 51.52238730000003], [101.0786775, 51.5598484], [100.957916, 51.6158622], [100.82284510000002, 51.648543700000026], [100.7058193, 51.69885850000002], [100.59156919999997, 51.737294], [100.46082130000003, 51.738259900000045], [100.3318939, 51.73822259999998], [100.20097820000004, 51.7430212], [100.08052549999998, 51.74137829999996], [99.95086629999997, 51.7428129], [99.83017880000003, 51.806016399999976], [99.76853609999996, 51.91296349999998], [99.625723, 51.8926936], [99.51991079999998, 51.96845759999997], [99.38954790000001, 51.963859700000036], [99.265308, 51.973529599999964], [99.1568919, 52.028636499999976], [99.02546779999997, 52.065671300000034], [99.00460930000004, 52.074732300000036]]]}}]}