{"type": "FeatureCollection", "features": [{"type": "Feature", "properties": {"code": "MNP", "name": "Northern Mariana Islands", "tier": "country"}, "geometry": {"type": "MultiPolygon", "coordinates": [[[[145.24984391773228, 14.200176353896666], [145.2198401897242, 14.189845728983983], [145.20369255712876, 14.176800507796258], [145.17362917537616, 14.166716919565886], [145.1455911040406, 14.151536094328662], [145.1327036143714, 14.133880691411946], [145.16638896532766, 14.128913990833837], [145.17558454616415, 14.111138578619148], [145.19563669178297, 14.11526591592326], [145.21858805324302, 14.120104185498462], [145.22936941483067, 14.141091074587962], [145.25455915146006, 14.154649317977658], [145.28281208593285, 14.16100981074834], [145.2905379037786, 14.187755742503384], [145.24984391773228, 14.200176353896666]], [[145.23933362977732, 14.174664201937617], [145.23933362977732, 14.174664201937617]]], [[[145.57454328391486, 14.865966180701719], [145.5407183826735, 14.852802353833852], [145.56480187131706, 14.84492104148535], [145.57851407400267, 14.86277224904535], [145.57454328391486, 14.865966180701719]]], [[[145.6549675848571, 15.089102766160465], [145.63283481751864, 15.087325435481944], [145.61619265099557, 15.071869852115924], [145.6022769237701, 15.056921325577378], [145.59237672694098, 15.03673800751534], [145.58263948133242, 15.017770573126029], [145.58497216205387, 14.997201962056351], [145.60838274768798, 14.990863225356918], [145.61727641916957, 14.969565785891916], [145.63203036923005, 14.952271814485357], [145.63258365770946, 14.924884429525832], [145.65236826067087, 14.93761559129473], [145.66152098731038, 14.958134724847184], [145.66808289919447, 14.98280154815751], [145.6737943943167, 15.004887118857255], [145.65649393117906, 15.019361573579715], [145.64794283009724, 15.046653512548232], [145.6552356758025, 15.070426231501244], [145.6549675848571, 15.089102766160465]]], [[[145.71285206938137, 15.241968995235368], [145.71285206938137, 15.241968995235368]]], [[[145.81426527711346, 15.28705775158545], [145.79503141857447, 15.275908817660934], [145.78187443434228, 15.257355099534266], [145.7649378590454, 15.245725426611102], [145.74700603120414, 15.236809999057755], [145.73021973070763, 15.221994114374354], [145.71700353136134, 15.196671450779888], [145.7084886611567, 15.165024086661617], [145.69729472374593, 15.138376759036817], [145.70250495196262, 15.11457140597662], [145.7317950281904, 15.10525103477022], [145.7490786479177, 15.091982287493124], [145.7564369372899, 15.112015067576635], [145.7411325059851, 15.139275074246768], [145.7498461635205, 15.159038008862865], [145.76995903752834, 15.158897647111303], [145.7892505321115, 15.150461554939795], [145.78677577897963, 15.173386138009334], [145.77754594110309, 15.194207049327588], [145.78237710486508, 15.213942613401912], [145.79857046468726, 15.228820608160277], [145.8092207634894, 15.249988213004997], [145.82833627952664, 15.261978966534116], [145.81906635082464, 15.286199439474615], [145.81426527711346, 15.28705775158545]], [[145.7111972043308, 15.150004326534258], [145.7111972043308, 15.150004326534258]], [[145.77786193049633, 15.161929811849063], [145.77786193049633, 15.161929811849063]]]]}}]}