{"type": "FeatureCollection", "features": [{"type": "Feature", "properties": {"code": "MOZ", "name": "Mozambique", "tier": "country"}, "geometry": {"type": "MultiPolygon", "coordinates": [[[[32.9915311, -25.9701194], [32.9512981, -26.00136609999997], [32.90105179999998, -26.0313672], [32.94813090000004, -26.058141500000012], [32.974187, -26.012019700000025], [32.9915311, -25.9701194]]], [[[32.91030990000004, -25.9691596], [32.91030990000004, -25.9691596]]], [[[32.69285349999998, -25.919181699999985], [32.69285349999998, -25.919181699999985]]], [[[35.420682699999986, -23.812566300000018], [35.420682699999986, -23.812566300000018]]], [[[35.53041810000004, -22.160814300000034], [35.53041810000004, -22.160814300000034]]], [[[35.43097130000004, -21.9604808], [35.43097130000004, -21.9604808]]], [[[35.46230159999999, -21.808392300000026], [35.42795729999997, -21.850997], [35.426310599999965, -21.904315], [35.456839699999975, -21.850917599999978], [35.46230159999999, -21.808392300000026]]], [[[35.45106620000003, -21.5036667], [35.466369300000025, -21.5592125], [35.46314179999997, -21.6146713], [35.431907200000026, -21.65798570000004], [35.438922799999986, -21.71655220000004], [35.4369779, -21.769543900000013], [35.46695489999998, -21.72862109999996], [35.4960994, -21.648426799999967], [35.491335, -21.592082599999987], [35.49342680000003, -21.53295339999997], [35.45106620000003, -21.5036667]]], [[[34.8030528, -19.798469], [34.8030528, -19.798469]]], [[[34.761737, -19.76229470000004], [34.761737, -19.76229470000004]]], [[[34.75732859999996, -19.751732099999963], [34.75732859999996, -19.751732099999963]]], [[[36.421058399999964, -18.65488040000003], [36.421058399999964, -18.65488040000003]]], [[[40.828951, -14.8520819], [40.828951, -14.8520819]]], [[[40.614654, -12.593365899999952], [40.614654, -12.593365899999952]]], [[[40.60230239999998, -12.529889599999965], [40.60230239999998, -12.529889599999965]]], [[[40.597768600000016, -12.405433499999962], [40.5982675, -12.460090799999989], [40.597768600000016, -12.405433499999962]]], [[[40.600769, -12.3311768], [40.600769, -12.3311768]]], [[[40.58896459999997, -12.186535099999961], [40.58582489999998, -12.243130799999967], [40.5965542, -12.186406], [40.58896459999997, -12.186535099999961]]], [[[40.58441490000002, -11.976297499999976], [40.58441490000002, -11.976297499999976]]], [[[40.592609199999984, -11.178813200000025], [40.645237199999976, -11.1906917], [40.592609199999984, -11.178813200000025]]], [[[40.68635149999997, -11.147092899999954], [40.6530512, -11.185415900000017], [40.693220200000034, -11.147803400000033], [40.68635149999997, -11.147092899999954]]], [[[40.70931139999996, -11.000276500000016], [40.66081050000003, -11.028119099999966], [40.597158499999985, -11.024884300000014], [40.645243, -11.043196699999957], [40.6957831, -11.0275818], [40.70931139999996, -11.000276500000016]]], [[[40.67643580000004, -10.8447546], [40.67643580000004, -10.8447546]]], [[[40.64812670000004, -10.771089399999955], [40.64812670000004, -10.771089399999955]]], [[[40.46310889999998, -10.4801199], [40.39442, -10.50933], [40.35206, -10.565456], [40.299571, -10.566001], [40.253347, -10.589662], [40.20715, -10.624114], [40.176891, -10.664465], [40.134277, -10.692561], [40.090395, -10.730076], [40.046864, -10.761448], [40.007016, -10.800044], [39.954963, -10.819966], [39.905347, -10.836858], [39.854337, -10.85751], [39.810943, -10.887245], [39.763603, -10.914043], [39.711668, -10.926321], [39.658837, -10.941923], [39.607175, -10.947659], [39.541192, -10.972851], [39.499797, -11.004417], [39.455218, -11.035343], [39.410807, -11.06057], [39.356715, -11.082438], [39.31801, -11.119425], [39.273679, -11.158128], [39.223193, -11.172087], [39.170429, -11.153362], [39.10866, -11.146883], [39.04849, -11.159866], [38.993944, -11.164003], [38.939782, -11.167213], [38.889901, -11.17287], [38.849593, -11.208365], [38.803728, -11.234399], [38.752408, -11.273193], [38.694042, -11.271622], [38.636391, -11.286101], [38.602286, -11.324534], [38.552199, -11.357551], [38.51283, -11.391647], [38.467335, -11.419062], [38.425395, -11.391331], [38.368672, -11.37373], [38.335297, -11.335712], [38.284052, -11.328712], [38.25257, -11.288889], [38.200355, -11.270863], [38.145032, -11.268609], [38.085407, -11.26845], [38.032006, -11.270969], [37.979406, -11.267229], [37.919905, -11.266027], [37.87218, -11.285197], [37.830509, -11.323148], [37.824605, -11.375297], [37.788129, -11.422904], [37.788437, -11.478704], [37.76766, -11.525837], [37.725078, -11.55567], [37.672024, -11.576273], [37.626577, -11.604364], [37.567954, -11.622763], [37.510872, -11.617395], [37.451174, -11.636706], [37.415231, -11.685122], [37.359784, -11.680524], [37.307007, -11.652649], [37.256679, -11.638286], [37.199307, -11.646028], [37.148992, -11.630777], [37.09567, -11.628631], [37.0506, -11.596694], [36.999283, -11.58841], [36.940342, -11.596992], [36.889737, -11.58692], [36.836279, -11.583999], [36.790125, -11.613717], [36.756385, -11.652465], [36.70793, -11.680273], [36.657438, -11.724971], [36.604914, -11.721831], [36.546145, -11.732689], [36.510051, -11.694113], [36.454958, -11.682232], [36.401059, -11.689582], [36.35577, -11.713096], [36.290284, -11.721039], [36.238866, -11.696767], [36.187842, -11.675958], [36.188277, -11.616515], [36.17536, -11.5668], [36.125259, -11.543155], [36.062893, -11.540585], [36.042192, -11.494471], [35.991291, -11.474967], [35.952192, -11.437584], [35.888857, -11.429848], [35.833754, -11.413331], [35.79174, -11.440945], [35.7473, -11.474397], [35.708709, -11.508886], [35.662587, -11.543003], [35.605887, -11.559179], [35.554491, -11.56287], [35.504968, -11.580578], [35.451917, -11.575647], [35.399243, -11.579445], [35.349418, -11.569748], [35.251099, -11.570362], [35.134949, -11.571139], [35.000299, -11.571139], [34.63689660000002, -11.573566], [34.64351489999997, -11.655833299999973], [34.63442589999997, -11.73924169999998], [34.59075569999997, -11.8560077], [34.521022, -11.939594700000033], [34.37823059999998, -12.171651799999971], [34.41725990000004, -12.265442699999983], [34.42970980000004, -12.342143], [34.43017860000002, -12.400767199999962], [34.451981600000025, -12.521092499999952], [34.5205641, -12.682318799999969], [34.53502319999997, -12.736354], [34.530364499999976, -12.8800524], [34.544814199999976, -12.969928600000035], [34.55548720000004, -13.071684699999976], [34.5688265, -13.178131199999955], [34.5761163, -13.232241899999964], [34.5615271, -13.348166900000026], [34.60717380000003, -13.48311], [34.86689829999998, -13.483110500000018], [34.92705559999998, -13.5464621], [35.0895755, -13.69930810000002], [35.22743940000004, -13.8810134], [35.48678489999999, -14.170656700000018], [35.5206288, -14.259227500000039], [35.87209819999997, -14.675620600000029], [35.87211209999997, -14.895362900000043], [35.79006519999999, -15.169963500000017], [35.8422372, -15.370087400000033], [35.853111, -15.419138099999975], [35.826752100000036, -15.731568499999971], [35.813817299999975, -15.934791800000015], [35.80659, -15.992415199999966], [35.793617, -16.0428613], [35.75208839999997, -16.07566039999997], [35.7076886, -16.098787400000013], [35.657672500000025, -16.101781], [35.61274330000004, -16.124433200000013], [35.56112359999999, -16.129059], [35.5239597, -16.16805090000002], [35.4880001, -16.131356599999982], [35.43715039999997, -16.113331700000025], [35.39291679999999, -16.145542700000014], [35.349556, -16.178912699999984], [35.30797730000004, -16.21573839999997], [35.29913979999997, -16.265559299999957], [35.2833131, -16.313746], [35.2920243, -16.36473630000002], [35.26366019999998, -16.40722140000002], [35.262257, -16.46248920000002], [35.21294130000003, -16.499883100000034], [35.178276400000044, -16.538157299999966], [35.147342400000014, -16.578495200000035], [35.171739100000046, -16.623601400000013], [35.214725300000026, -16.654266299999975], [35.258929, -16.679780700000023], [35.281566399999974, -16.733993499999954], [35.289959799999984, -16.7896525], [35.31046530000002, -16.83773150000001], [35.278655199999974, -16.879704900000036], [35.266776499999985, -16.929865599999985], [35.29577090000002, -16.9740415], [35.2919513, -17.034534], [35.3080596, -17.085399600000017], [35.097419, -17.12952170000002], [35.09672319999997, -17.0779624], [35.05573860000004, -17.04260919999998], [35.07429119999996, -16.992317], [35.12235240000001, -16.97437260000003], [35.155098699999975, -16.9352278], [35.1533665, -16.8843384], [35.15136289999996, -16.83207819999997], [35.101568500000035, -16.82058880000004], [35.04843670000002, -16.83038490000002], [35.004207400000034, -16.799586799999958], [34.98322020000002, -16.751584499999986], [34.91965990000001, -16.7473672], [34.910069700000015, -16.693700100000022], [34.8623031, -16.67691609999997], [34.84796019999996, -16.62713669999996], [34.80589230000002, -16.59483009999996], [34.7771986, -16.54919620000002], [34.742952600000024, -16.5098744], [34.6925794, -16.505234499999965], [34.681098400000046, -16.45375], [34.6304298, -16.43506819999996], [34.58739169999998, -16.3991971], [34.57824789999997, -16.34863150000003], [34.54967090000001, -16.304935500000028], [34.50095990000002, -16.291731], [34.448639, -16.277262399999984], [34.418427500000014, -16.235954], [34.4013026, -16.187431299999957], [34.40616660000002, -16.132536800000018], [34.422944, -16.0832716], [34.41207580000001, -16.03023849999998], [34.37309590000004, -15.9959838], [34.33136860000003, -15.962736], [34.291518800000034, -15.931589199999975], [34.251476, -15.89662679999997], [34.2496753, -15.846423300000035], [34.27211590000001, -15.79939220000004], [34.311489699999974, -15.756006200000018], [34.3644616, -15.742514399999964], [34.38868650000002, -15.698664], [34.42659489999998, -15.66295520000003], [34.44186909999998, -15.612190600000032], [34.4385846, -15.560204300000025], [34.4281947, -15.506465], [34.44444160000002, -15.455274699999967], [34.482955100000034, -15.419490199999975], [34.521526300000026, -15.3860298], [34.5326566, -15.336784600000032], [34.575509200000035, -15.305373300000037], [34.59756789999997, -15.25860969999997], [34.5830873, -15.210255899999959], [34.578261400000024, -15.159580399999962], [34.58261779999996, -15.107724099999965], [34.583846500000014, -15.0558597], [34.61971060000002, -15.013574400000019], [34.59785239999997, -14.964430600000012], [34.577966799999984, -14.913607100000027], [34.57665770000003, -14.844083], [34.5734199, -14.7883607], [34.5431893, -14.7391075], [34.5205512, -14.687210700000032], [34.5499693, -14.641288500000039], [34.538152, -14.5915915], [34.4979176, -14.55357540000002], [34.45140339999997, -14.499485799999979], [34.42471639999998, -14.4497905], [34.3945269, -14.405404800000033], [34.325912499999966, -14.399932400000038], [34.273713500000035, -14.4251923], [34.223672599999965, -14.43129750000003], [34.11283009999997, -14.451717199999981], [33.9401925, -14.479709], [33.883763799999954, -14.499516], [33.839121, -14.5264823], [33.77920270000001, -14.53090410000002], [33.727877900000024, -14.49865460000004], [33.70919379999997, -14.559354499999989], [33.6874073, -14.605677600000023], [33.63746120000004, -14.5896646], [33.62722140000003, -14.538248700000024], [33.6079001, -14.492111], [33.5585447, -14.4732057], [33.5361301, -14.428115], [33.48211640000003, -14.4061525], [33.44954150000004, -14.3652734], [33.433075700000025, -14.316185099999968], [33.404878, -14.272144499999962], [33.385674, -14.221912], [33.337088899999955, -14.208415699999955], [33.3137944, -14.162371900000027], [33.30406739999996, -14.1109156], [33.30232009999998, -14.056478499999981], [33.26073669999998, -14.022048399999965], [33.205833, -14.018611], [32.8175, -14.153889], [32.372778, -14.308333], [32.238611, -14.339722], [32.186389, -14.347222], [32.131667, -14.359167], [32.082222, -14.385833], [32.021944, -14.4075], [31.950833, -14.423611], [31.900278, -14.441667], [31.851111, -14.468056], [31.7825, -14.486944], [31.730833, -14.495], [31.663333, -14.523056], [31.611944, -14.546944], [31.548333, -14.579444], [31.499444, -14.614167], [31.408056, -14.636944], [31.312778, -14.663611], [31.247222, -14.678611], [31.185278, -14.689444], [31.121111, -14.705833], [31.045833, -14.716389], [30.951944, -14.743611], [30.860556, -14.758333], [30.808056, -14.778056], [30.504722, -14.884722], [30.343611, -14.967778], [30.21671229999996, -14.9965525], [30.228968700000024, -15.059517300000037], [30.230685300000037, -15.1122244], [30.2578078, -15.163924200000013], [30.264331, -15.22356220000003], [30.301066499999973, -15.2788779], [30.338832, -15.3139809], [30.3714477, -15.357685800000032], [30.376597500000035, -15.411642199999976], [30.382434, -15.46393], [30.376597500000035, -15.52546720000001], [30.38998709999998, -15.574088400000031], [30.425125299999966, -15.62804130000004], [30.4258053, -15.6840514], [30.4246953, -15.746911399999975], [30.423845300000018, -15.902691600000042], [30.4245653, -15.999771699999977], [30.922465299999956, -15.999771699999977], [30.95717530000004, -16.03844179999998], [31.00670879999996, -16.0586572], [31.0435942, -16.0137204], [31.096083100000026, -16.0058896], [31.1464127, -15.987777600000031], [31.19346350000003, -16.0048999], [31.24978650000003, -16.01147730000003], [31.3018807, -16.015269600000018], [31.3445656, -16.047333], [31.370203100000026, -16.093858100000013], [31.4026233, -16.134543399999956], [31.451725, -16.1576028], [31.5010148, -16.17156489999998], [31.552994700000013, -16.176840300000016], [31.60772070000004, -16.1879032], [31.6624501, -16.1888777], [31.73314, -16.2284], [31.78575, -16.2564], [31.8254, -16.29431], [31.87276, -16.32588], [31.90551, -16.36758], [32.03754, -16.44237], [32.27438, -16.43423], [32.34418, -16.44917], [32.41203, -16.46957], [32.48766, -16.49942], [32.57563, -16.53668], [32.70916, -16.59997], [32.7066, -16.65133], [32.770932099999975, -16.7082505], [32.824691599999966, -16.7045245], [32.875015, -16.71336319999999], [32.923133, -16.696047299999982], [32.9786818, -16.70687729999998], [32.96669, -16.77252], [32.94226, -16.82513], [32.91221, -16.89422], [32.86175, -16.91109], [32.8628, -16.96387], [32.90301, -17.01808], [32.93801, -17.06857], [32.98652, -17.17928], [32.99352, -17.24382], [32.99741, -17.30857], [33.049446600000046, -17.335529399999963], [33.02117720000004, -17.3792366], [33.00976459999998, -17.428212], [32.97633929999997, -17.476806499999967], [32.97124090000001, -17.52844059999996], [33.007053800000044, -17.565508099999974], [33.046406599999955, -17.597914499999966], [33.036458099999976, -17.6471552], [33.017979400000044, -17.69571339999996], [33.011859700000045, -17.74723809999996], [33.01831349999998, -17.801131600000033], [32.9674171, -17.806663200000038], [32.96395369999996, -17.859520399999987], [32.954365, -17.91038249999997], [32.9682812, -17.962418199999973], [32.94485269999996, -18.0096623], [32.95353130000003, -18.061766700000014], [32.974317099999986, -18.109366], [32.986729099999955, -18.159454699999976], [33.00624210000003, -18.20775960000003], [33.01843880000004, -18.25752280000004], [33.02542590000004, -18.310519], [33.06834130000003, -18.34865990000003], [33.03389019999996, -18.389636900000042], [33.023266399999976, -18.444007200000037], [33.02047620000004, -18.497590600000024], [32.9719341, -18.47475520000004], [32.92540959999999, -18.501038700000038], [32.89463, -18.54268], [32.90287, -18.60096], [32.93695, -18.6616], [32.94866, -18.71428], [32.92779, -18.76628], [32.8776, -18.79718], [32.82705, -18.77753], [32.77722, -18.79982], [32.71191, -18.83363], [32.72401, -18.89115], [32.6991216, -18.937334500000013], [32.712588699999955, -18.99748860000001], [32.7572566, -19.026731299999987], [32.83346, -19.01639], [32.85127, -19.06484], [32.87753, -19.1128], [32.86356, -19.17151], [32.84883, -19.23367], [32.84984, -19.29363], [32.80908, -19.33515], [32.78574019999996, -19.3867265], [32.77932290000003, -19.4468], [32.82964229999996, -19.4768836], [32.84515289999999, -19.53026660000001], [32.85041589999997, -19.60205009999998], [32.8466644, -19.65516930000002], [32.89209760000003, -19.68414029999999], [32.9427234, -19.668401199999977], [32.958720200000016, -19.723096300000023], [33.01996019999998, -19.75633629999998], [33.05871169999997, -19.7938849], [33.03566020000004, -19.887826300000036], [33.024362199999956, -19.965911], [33.02652769999999, -20.0235263], [32.973370299999985, -20.039679299999968], [32.94147740000002, -20.08045649999997], [32.91451470000004, -20.124278199999978], [32.86164490000003, -20.13648629999996], [32.875543900000025, -20.187259899999987], [32.8689151, -20.2491232], [32.807844699999954, -20.339189599999962], [32.78101, -20.39512], [32.6681332, -20.55617519999997], [32.61518, -20.55943], [32.55725, -20.5656], [32.51176, -20.59966], [32.48458, -20.65776], [32.4978, -20.8074], [32.51529, -20.8721], [32.48109, -20.9926], [32.4498, -21.0371], [32.40202, -21.08718], [32.36672, -21.13668], [32.40583, -21.16989], [32.42216, -21.227], [32.45766, -21.28244], [32.48001530000002, -21.32810820000002], [32.42224, -21.31337], [32.15965, -21.57338], [31.95485, -21.78687], [31.91575950000003, -21.831716], [31.6124424, -22.141378], [31.574496699999987, -22.181870100000037], [31.52865, -22.2211], [31.4867, -22.26662], [31.3815, -22.37178], [31.307377399999957, -22.424109600000033], [31.47525560000004, -22.9255938], [31.54579, -23.13719], [31.5636, -23.19823], [31.55586, -23.26905], [31.55073, -23.41028], [31.56102, -23.48196], [31.6623643, -23.58620420000002], [31.69739, -23.72189], [31.76776920000004, -23.8848619], [31.88059120000004, -23.952489099999966], [31.908179299999983, -24.181792100000024], [31.98128, -24.29734], [31.9961941, -24.37483059999999], [32.009052599999976, -24.4557691], [32.00891, -24.57515], [31.99827, -24.68974], [32.01548, -24.92512], [32.03036880000003, -25.06576639999996], [32.033716099999964, -25.132539399999956], [32.0281077, -25.2554544], [32.01528, -25.3825], [31.990010300000037, -25.4302845], [31.97738, -25.5098], [32.00565, -25.62599], [31.99594, -25.67669], [31.93055, -25.84077], [31.97519049999997, -25.952646200000043], [32.00629890000004, -26.0004101], [32.08711270000004, -26.00893], [32.10534950000004, -26.161684199999982], [32.0743831, -26.305709], [32.07741839999996, -26.4056457], [32.134992299999986, -26.52725], [32.134622, -26.8402618], [32.186330099999985, -26.8629901], [32.236899900000026, -26.838949899999978], [32.287899899999964, -26.852960100000026], [32.33874990000001, -26.859990100000022], [32.56572989999997, -26.8644801], [32.68294989999998, -26.868139900000035], [32.77249990000002, -26.862750100000035], [32.8573399, -26.863959900000037], [32.893374, -26.795726], [32.9026021, -26.74248709999996], [32.901758500000014, -26.68899580000004], [32.8995684, -26.6190073], [32.909487, -26.551407900000015], [32.9172246, -26.48925280000001], [32.92074930000004, -26.437819500000018], [32.925342899999976, -26.38264979999996], [32.9304518, -26.31770519999999], [32.942364, -26.261673099999985], [32.94795270000004, -26.188810099999962], [32.9605846, -26.110810099999984], [32.910674, -26.116118], [32.883808, -26.187898], [32.86963660000002, -26.2508571], [32.89296849999997, -26.300491800000028], [32.83657249999996, -26.288486400000036], [32.796696199999985, -26.2441781], [32.7562787, -26.213702200000036], [32.70264989999998, -26.187491800000043], [32.666094, -26.1486323], [32.649543, -26.096438599999974], [32.60167070000002, -26.026647899999958], [32.56046659999996, -25.993874200000036], [32.512706300000026, -25.97459979999999], [32.5038939, -26.0303077], [32.467568, -26.06650510000004], [32.46052849999999, -26.119900600000026], [32.43190779999996, -26.074822399999967], [32.41585459999998, -26.025813800000044], [32.4691411, -25.990339300000034], [32.505706899999986, -25.949484099999978], [32.55317350000004, -25.966927699999978], [32.60389869999998, -25.962488600000036], [32.64779979999999, -25.914879800000026], [32.6853084, -25.88095650000002], [32.7423507, -25.869397600000024], [32.73304049999999, -25.8050718], [32.747676300000016, -25.735217599999974], [32.769416, -25.682578], [32.803597, -25.62165130000003], [32.86249649999997, -25.555065499999976], [32.901893, -25.523715800000016], [32.988525299999985, -25.465419900000022], [33.05257719999999, -25.42676329999998], [33.132774, -25.383767], [33.204045599999986, -25.343222400000023], [33.2526967, -25.32033479999998], [33.298245199999975, -25.2973374], [33.36218940000004, -25.268247499999966], [33.453449700000014, -25.230874199999967], [33.510176500000036, -25.208613800000037], [33.59152920000004, -25.1785469], [33.69703550000003, -25.131461899999977], [33.76786109999996, -25.1077143], [33.8342974, -25.08259419999999], [33.90388880000004, -25.05800930000002], [33.9966625, -25.0329741], [34.04938960000001, -25.0113354], [34.10148670000004, -24.99515020000003], [34.2371834, -24.941901899999966], [34.34010330000004, -24.91551090000004], [34.389019, -24.892585599999986], [34.45404280000004, -24.86907689999998], [34.504523099999965, -24.855544600000037], [34.557460300000045, -24.8316288], [34.721799799999985, -24.780139299999984], [34.80987529999997, -24.749628299999962], [34.87998330000004, -24.7190374], [35.00386419999997, -24.666489100000025], [35.06423959999998, -24.635158499999957], [35.120156300000026, -24.602035099999966], [35.163319199999975, -24.55835580000001], [35.200675, -24.52511489999998], [35.22621689999996, -24.461070200000037], [35.26692190000003, -24.422626600000033], [35.3278347, -24.349750399999984], [35.40950120000004, -24.252069], [35.46944309999998, -24.168754], [35.4990428, -24.1098813], [35.4932021, -24.059949199999966], [35.49793559999996, -24.005591799999973], [35.51649669999997, -23.952632099999985], [35.5498234, -23.87730359999998], [35.5361489, -23.826207800000024], [35.5045409, -23.785142], [35.49001589999998, -23.8348036], [35.47018369999997, -23.88264690000004], [35.438263, -23.843770700000036], [35.388282599999975, -23.83681550000001], [35.3949103, -23.9053016], [35.3599265, -23.95642549999997], [35.3326479, -23.998995100000034], [35.326564100000034, -23.947942800000035], [35.336664300000045, -23.890814], [35.35063449999998, -23.841876299999967], [35.36396689999999, -23.775640800000033], [35.36791579999996, -23.724359600000014], [35.35029490000004, -23.6762386], [35.396718400000026, -23.70012039999996], [35.432524600000036, -23.654218], [35.42101070000003, -23.602011199999964], [35.42524029999996, -23.4989603], [35.44781079999997, -23.439091299999973], [35.4636479, -23.38695550000003], [35.48793930000003, -23.3300116], [35.49273740000001, -23.272934400000025], [35.488490399999975, -23.221158800000044], [35.4955584, -23.149974600000014], [35.51197380000002, -23.09567229999996], [35.541799, -23.047469800000034], [35.585172, -22.981829], [35.60327989999996, -22.926032200000027], [35.554097, -22.900675300000042], [35.583217, -22.942302600000033], [35.543568, -22.9055687], [35.52186419999999, -22.850923299999984], [35.513230900000025, -22.7871185], [35.514158500000036, -22.721900200000025], [35.512480799999956, -22.65141569999998], [35.50292140000002, -22.59248580000002], [35.5288954, -22.489447799999976], [35.53994009999999, -22.427020199999983], [35.54403209999999, -22.324699699999975], [35.534858700000015, -22.269805499999975], [35.534988900000045, -22.1980433], [35.546922, -22.147468], [35.52719689999997, -22.197759699999978], [35.497288100000034, -22.150045], [35.48366050000003, -22.1005557], [35.44173460000002, -22.130224], [35.41379810000003, -22.176042300000034], [35.38107260000001, -22.21426360000003], [35.34601190000004, -22.169843100000033], [35.333600799999964, -22.091812199999985], [35.324092, -22.036439199999982], [35.32389159999998, -21.9835794], [35.32056169999998, -21.921229400000033], [35.30159670000004, -21.868255], [35.2842847, -21.8173199], [35.280498, -21.744846299999956], [35.2697544, -21.688349499999962], [35.269486699999966, -21.63378770000002], [35.25079, -21.5850174], [35.21130359999998, -21.54504249999996], [35.15205170000002, -21.44581560000003], [35.12170049999999, -21.37459879999997], [35.11111260000004, -21.2949489], [35.06706059999998, -21.270031], [35.09801349999997, -21.23064], [35.078059299999985, -21.18431280000002], [35.06224550000001, -21.12827489999998], [35.02367740000001, -21.091908299999965], [35.07339, -21.0778293], [35.07698469999998, -21.022231699999974], [35.12697849999997, -20.9607125], [35.10418149999997, -20.89992960000002], [35.0522591, -20.900343299999967], [35.038588199999964, -20.850809700000042], [35.00245740000001, -20.815198099999968], [35.014789400000026, -20.763346299999988], [35.000412, -20.711271], [34.950407399999975, -20.690228799999957], [34.933177200000046, -20.637503199999976], [34.88652529999998, -20.618417099999967], [34.8311836, -20.6195252], [34.79798239999996, -20.5821252], [34.75510579999999, -20.54892560000001], [34.71013950000004, -20.518842499999955], [34.71451719999996, -20.46333610000002], [34.66916460000002, -20.440962100000014], [34.68286850000004, -20.38955279999997], [34.690767199999975, -20.338225300000026], [34.7247369, -20.25990210000004], [34.711741, -20.204876299999988], [34.72909709999998, -20.157499], [34.78011650000001, -20.147038100000024], [34.755884, -20.070124100000022], [34.752366800000026, -20.0198316], [34.760500699999966, -19.96657670000002], [34.76073240000004, -19.901994800000033], [34.775047099999966, -19.8486631], [34.7555311, -19.789559699999984], [34.696478099999986, -19.756581700000034], [34.74505660000003, -19.7330545], [34.807834100000015, -19.768642900000025], [34.834953, -19.815960199999985], [34.87685429999996, -19.85222840000003], [34.93230369999998, -19.815444500000034], [34.98907720000004, -19.792016100000012], [35.030476700000015, -19.756014], [35.07125149999999, -19.72455820000001], [35.11679469999998, -19.699030500000013], [35.20832630000002, -19.625719599999968], [35.256683400000036, -19.58924369999997], [35.30118750000002, -19.547862], [35.407062599999975, -19.452377100000028], [35.45607270000002, -19.3961065], [35.502646, -19.33494929999997], [35.567903, -19.2641908], [35.61108839999998, -19.218928], [35.65906910000003, -19.16447180000003], [35.69614029999999, -19.130693], [35.7322814, -19.091758899999988], [35.777236, -19.04587260000004], [35.82473549999998, -19.016132699999957], [35.89272440000004, -18.98033229999998], [35.950681, -18.9556357], [36.03269070000004, -18.928923499999975], [36.114335400000044, -18.9147167], [36.22406819999997, -18.88987439999996], [36.2786224, -18.884750899999972], [36.360774, -18.816453200000026], [36.386454599999965, -18.771673499999977], [36.336037799999964, -18.769491800000026], [36.3618354, -18.715388], [36.38457480000004, -18.66756569999997], [36.42231730000003, -18.630740400000015], [36.47573430000002, -18.608171799999987], [36.469818899999964, -18.558013399999965], [36.523198499999964, -18.52769130000003], [36.59165809999998, -18.450714399999967], [36.62853820000003, -18.415329800000023], [36.696525599999966, -18.3552558], [36.74783420000003, -18.302590699999953], [36.788778, -18.262208200000018], [36.83039570000004, -18.216390300000043], [36.87786189999998, -18.1864941], [36.90698589999999, -18.1243993], [36.9652037, -18.0665304], [36.97768019999999, -18.0176271], [37.105855, -17.85953429999998], [37.144670699999985, -17.81757030000002], [37.18503979999996, -17.784340400000012], [37.2528867, -17.729649300000027], [37.29423860000003, -17.70148549999997], [37.3453398, -17.672587], [37.4199739, -17.629789100000018], [37.48041590000002, -17.5975693], [37.572533200000024, -17.55218559999998], [37.63863459999997, -17.51720330000002], [37.68322640000002, -17.488452499999973], [37.74711730000002, -17.45990529999999], [37.80739209999997, -17.426062], [37.908604899999986, -17.38045129999997], [37.97339350000002, -17.3511304], [38.0433555, -17.329627300000027], [38.10788950000001, -17.29983289999997], [38.15931780000004, -17.291678700000034], [38.198662800000015, -17.2576499], [38.247432, -17.2342508], [38.296700200000025, -17.2157068], [38.393662499999984, -17.179792], [38.498071500000044, -17.14295410000004], [38.579674499999975, -17.119083500000023], [38.67256, -17.0906], [38.73065339999997, -17.076198], [38.79157309999999, -17.068909300000023], [38.8472725, -17.057231799999983], [38.908047, -17.040092], [38.9860367, -17.01153149999997], [39.039533, -17.009966], [39.098685, -16.9714696], [39.126778, -16.9195564], [39.159373, -16.870918], [39.20469419999997, -16.830799], [39.26178809999998, -16.795835], [39.30611590000004, -16.7664626], [39.414739, -16.711365], [39.47359079999997, -16.683044299999963], [39.5349444, -16.645412199999953], [39.5957703, -16.602895199999978], [39.67192020000001, -16.556973500000026], [39.712276900000035, -16.526786], [39.78881840000004, -16.486480299999975], [39.86097560000002, -16.440727300000034], [39.90994460000004, -16.40969060000004], [39.914994200000045, -16.35501730000002], [39.9495943, -16.31221079999998], [39.91010880000003, -16.27459579999997], [39.856248599999965, -16.2863955], [39.8072126, -16.2763588], [39.86082569999996, -16.257034900000036], [39.8933991, -16.218074900000026], [39.93907, -16.242271500000015], [39.99154290000002, -16.214298], [40.03484190000004, -16.16375739999996], [40.073503599999974, -16.112646099999964], [40.103659, -16.072178800000025], [40.13349339999996, -16.00586540000004], [40.1558969, -15.939666300000011], [40.1872211, -15.89962], [40.23119870000003, -15.8605592], [40.301411, -15.794442799999976], [40.349801, -15.746364899999966], [40.37703150000003, -15.701986499999988], [40.41984270000001, -15.63686150000001], [40.47036070000003, -15.586622299999965], [40.517672399999974, -15.548514400000025], [40.56646350000002, -15.494605], [40.574739299999976, -15.4378616], [40.59695969999997, -15.386976399999975], [40.633085699999974, -15.350786500000014], [40.65485319999998, -15.300517800000014], [40.6795847, -15.255116400000036], [40.6599534, -15.1971388], [40.625535, -15.153804], [40.58210610000004, -15.1860973], [40.53141059999999, -15.195593699999966], [40.523912, -15.1400451], [40.57537689999997, -15.137302], [40.61405420000004, -15.099407], [40.6707213, -15.092240500000043], [40.6958196, -15.042187200000013], [40.65915620000003, -15.001992900000017], [40.712883600000026, -14.989472599999965], [40.76424180000002, -15.0018102], [40.74046729999996, -14.951081300000025], [40.69616709999997, -14.927355099999962], [40.646881300000025, -14.9070373], [40.7063986, -14.887756499999961], [40.769347, -14.862538700000028], [40.814532599999986, -14.8294739], [40.82256389999996, -14.778651099999985], [40.834955, -14.7295548], [40.83216680000004, -14.66820769999997], [40.7986876, -14.628432199999986], [40.82331920000002, -14.57750480000002], [40.80953989999998, -14.527149200000023], [40.770875900000036, -14.56255529999997], [40.79940869999999, -14.519145899999964], [40.826121, -14.457015300000032], [40.804820799999966, -14.409557], [40.74749810000002, -14.428573599999984], [40.691187499999984, -14.451202500000027], [40.67809520000003, -14.4997373], [40.67220510000003, -14.555816199999972], [40.63231010000001, -14.594898399999968], [40.6321897, -14.541730399999976], [40.64691169999997, -14.491934700000032], [40.6434749, -14.441547399999989], [40.64815179999999, -14.390749900000023], [40.6321607, -14.335805499999955], [40.66560919999998, -14.376901300000023], [40.71016570000003, -14.347411899999974], [40.73328909999996, -14.296853299999968], [40.71299630000003, -14.247871899999987], [40.704541, -14.18895360000001], [40.6511833, -14.1986425], [40.615412399999975, -14.238396499999984], [40.57230689999998, -14.2117568], [40.53110850000004, -14.183403399999973], [40.5721815, -14.15330589999997], [40.61304979999998, -14.122662099999973], [40.6266614, -14.07237680000002], [40.63652, -14.017830600000037], [40.58701839999996, -14.006072299999973], [40.618523, -13.952983400000042], [40.5934596, -13.9002539], [40.585174, -13.834406899999975], [40.57603680000004, -13.7831177], [40.5730263, -13.714615700000033], [40.53834120000002, -13.67309680000004], [40.54051070000002, -13.620934200000013], [40.58816709999997, -13.585371099999955], [40.54467460000002, -13.545769200000036], [40.527179799999956, -13.493553100000023], [40.54007969999998, -13.439749700000037], [40.57583930000004, -13.400821900000027], [40.580658, -13.3507911], [40.562624, -13.295445], [40.56016, -13.240243200000036], [40.5609855, -13.174667900000015], [40.55012680000003, -13.099643699999964], [40.57262420000003, -13.024031500000023], [40.5873773, -12.972150400000015], [40.5350015, -12.968049], [40.48403640000002, -12.960521700000015], [40.513190400000035, -13.006738599999968], [40.46230770000003, -13.029621599999986], [40.40963880000004, -12.972336100000014], [40.41378029999996, -12.9216335], [40.45396130000001, -12.886461699999984], [40.503684299999975, -12.892131399999961], [40.543126, -12.8584297], [40.56247409999998, -12.810043699999984], [40.618847, -12.7901624], [40.6061897, -12.74022309999998], [40.57232609999997, -12.702555499999967], [40.57760620000004, -12.6492011], [40.56084710000001, -12.597718899999965], [40.569168900000044, -12.531608900000023], [40.51444730000002, -12.53027980000001], [40.48470789999998, -12.488963800000018], [40.4971461, -12.438888400000025], [40.4540362, -12.40794319999996], [40.4866994, -12.36699], [40.511415800000016, -12.32085079999996], [40.48790610000002, -12.275523499999984], [40.50922170000002, -12.22971469999996], [40.49487310000004, -12.1678253], [40.49945970000002, -12.113872], [40.499111, -12.056687], [40.54071040000002, -12.000205399999974], [40.4953406, -11.958661899999989], [40.48175479999998, -11.9028403], [40.51155039999996, -11.8575397], [40.4631843, -11.814735900000016], [40.4652152, -11.763268799999981], [40.43850309999997, -11.70760780000004], [40.44459560000002, -11.657066400000037], [40.45540970000003, -11.600725], [40.419948699999985, -11.560833400000025], [40.44151180000004, -11.5138598], [40.4588734, -11.4656833], [40.47527109999998, -11.4087905], [40.42547440000004, -11.392517200000029], [40.388996, -11.3518287], [40.4220946, -11.2769619], [40.44602919999998, -11.231441300000021], [40.50842769999996, -11.19714890000003], [40.489954200000014, -11.149613], [40.53141579999997, -11.099424], [40.55923959999996, -11.0558242], [40.522780899999965, -11.014818], [40.48231770000002, -10.984496900000028], [40.505056299999985, -10.92918679999999], [40.54599349999999, -10.88669670000002], [40.608896100000024, -10.846461700000031], [40.52610180000003, -10.789388400000032], [40.48301059999997, -10.762303], [40.56326160000003, -10.696615799999986], [40.613320399999985, -10.696728499999985], [40.572626200000016, -10.6566836], [40.58368539999997, -10.604192599999983], [40.54112849999998, -10.577290200000022], [40.53910880000002, -10.519019900000014], [40.4827286, -10.485270199999984], [40.46310889999998, -10.4801199]]]]}}]}