{"type": "FeatureCollection", "features": [{"type": "Feature", "properties": {"code": "MRT", "name": "Mauritania", "tier": "country"}, "geometry": {"type": "Polygon", "coordinates": [[[-7.144200000999945, 26.38299999900005], [-8.194, 27.0277], [-8.6691, 27.3632], [-8.6621, 25.992699999000024], [-10.033600000999968, 25.992699999000024], [-11.772700000999976, 25.986500001000024], [-12.035, 25.9891], [-12.032099998999968, 25.0132], [-12.0229, 23.9198], [-12.0108, 23.468800001000034], [-12.5429, 23.455800001000057], [-12.68060000099996, 23.421], [-12.8399, 23.3389], [-12.9169, 23.243899999000064], [-12.9661, 23.1954], [-12.995300000999976, 23.1479], [-13.0286, 22.954299999000057], [-13.0218, 22.7413], [-13.013800000999936, 22.418299999000055], [-13.001800000999935, 22.280400001000032], [-13.017200000999935, 21.46749999900004], [-13.0, 21.3333], [-13.1667, 21.3333], [-13.414999998999974, 21.33709999900003], [-13.6491, 21.331499999000073], [-14.637499998999942, 21.343800001000034], [-15.5734, 21.342], [-16.8357, 21.3312], [-16.94879999899996, 21.3335], [-16.993799998999975, 21.1722], [-17.0197, 21.073000001000025], [-17.042300000999944, 20.9969], [-17.08, 20.9537], [-17.076400000999968, 20.884], [-17.10040000099997, 20.8387], [-17.06499999899995, 20.792199999000047], [-17.0264, 20.8423], [-17.059800000999928, 20.8804], [-17.015900000999977, 20.90609999900005], [-16.9921, 20.9663], [-17.0206, 21.017000001000042], [-16.96849999899996, 21.058800001000066], [-16.9407, 21.1011], [-16.926899998999943, 21.158299999000064], [-16.8884, 21.125600001000066], [-16.8727, 21.0624], [-16.8412, 21.0123], [-16.8084, 20.958699999000032], [-16.7706, 20.9223], [-16.748, 20.86449999900003], [-16.7152, 20.8079], [-16.67479999899996, 20.7333], [-16.668199998999967, 20.6743], [-16.619100000999936, 20.6468], [-16.547499998999967, 20.56739999900003], [-16.52470000099993, 20.6139], [-16.52480000099996, 20.6735], [-16.5154, 20.731899999000063], [-16.4869, 20.6897], [-16.457599998999967, 20.648499999000023], [-16.424699998999927, 20.5908], [-16.384500000999935, 20.5474], [-16.3576, 20.45670000100006], [-16.330800000999943, 20.3869], [-16.3002, 20.3391], [-16.255000000999928, 20.27150000100005], [-16.2086, 20.245100001000026], [-16.1876, 20.1753], [-16.216800000999967, 20.1325], [-16.236500000999968, 20.0842], [-16.211100000999977, 20.037599999000065], [-16.2193, 19.9792], [-16.3017, 19.89839999900005], [-16.247199998999974, 19.8792], [-16.23630000099996, 19.8105], [-16.2585, 19.7552], [-16.273, 19.705700001000025], [-16.3243, 19.6642], [-16.353399998999976, 19.613], [-16.39320000099997, 19.543299999000055], [-16.433499998999935, 19.4606], [-16.455600000999937, 19.4111], [-16.419, 19.4772], [-16.376, 19.5045], [-16.3804, 19.450300001000073], [-16.3431, 19.501399999000057], [-16.297599998999942, 19.5341], [-16.3007, 19.475099999000065], [-16.3323, 19.4334], [-16.3835, 19.39420000100006], [-16.434, 19.3664], [-16.4893, 19.385], [-16.519300000999976, 19.3386], [-16.4619, 19.2597], [-16.4003, 19.2214], [-16.3473, 19.1896], [-16.3126, 19.1492], [-16.2585, 19.0813], [-16.20570000099997, 18.966499999000064], [-16.16939999899995, 18.8412], [-16.1625, 18.78150000100004], [-16.1373, 18.731899999000063], [-16.1248, 18.63759999900003], [-16.1021, 18.568399999000064], [-16.082699998999942, 18.5054], [-16.0591, 18.4487], [-16.0551, 18.3917], [-16.052300000999935, 18.3035], [-16.0383, 18.226500001000034], [-16.0448, 18.1764], [-16.0436, 17.976], [-16.0338, 17.924000001000024], [-16.03790000099997, 17.8696], [-16.0426, 17.71979999900003], [-16.0528, 17.64650000100005], [-16.0646, 17.5766], [-16.0997, 17.4504], [-16.1592, 17.293400001000066], [-16.2752, 17.0209], [-16.3115, 16.94239999900003], [-16.372300000999928, 16.796800001000065], [-16.444700000999944, 16.60370000100005], [-16.4482, 16.5339], [-16.452500000999976, 16.4803], [-16.478, 16.399700001000042], [-16.4969, 16.35019999900004], [-16.51700000099993, 16.2886], [-16.509500000999935, 16.201400001000025], [-16.5087, 16.106699999000057], [-16.5099, 16.0459], [-16.469900000999928, 16.078299999000023], [-16.4529, 16.13340000100004], [-16.4517, 16.188899999000057], [-16.401900000999944, 16.210200001000032], [-16.36900000099996, 16.250600001000066], [-16.367699998999967, 16.303300001000025], [-16.332699998999942, 16.345799999000064], [-16.329700000999935, 16.4001], [-16.3047, 16.46130000100004], [-16.28329999899995, 16.510199999000065], [-16.230699998999967, 16.526000001000057], [-16.1744, 16.5262], [-16.1162, 16.558599999000023], [-16.0902, 16.51569999900005], [-16.0549, 16.479900001000033], [-16.00510000099996, 16.5053], [-15.9549, 16.4858], [-15.902100000999951, 16.5133], [-15.8563, 16.489700001000074], [-15.799799998999958, 16.501], [-15.7163, 16.478499999000064], [-15.660700000999952, 16.480900001000066], [-15.630000000999928, 16.5283], [-15.554099998999959, 16.511399999000048], [-15.517999998999926, 16.56090000100005], [-15.463400000999968, 16.57970000100005], [-15.420700000999943, 16.5383], [-15.3541, 16.559800001000042], [-15.293400000999952, 16.5723], [-15.22770000099996, 16.554500001000065], [-15.170700000999943, 16.581599999000048], [-15.1031, 16.5813], [-15.085000000999969, 16.62989999900003], [-15.0232, 16.6303], [-14.984200000999977, 16.6633], [-14.941400000999977, 16.6348], [-14.889599998999927, 16.643200001000025], [-14.8246, 16.636700001000065], [-14.7688, 16.655999999000073], [-14.7191, 16.643300001000057], [-14.664100000999952, 16.6468], [-14.6083, 16.626], [-14.5546, 16.6208], [-14.4968, 16.614], [-14.4429, 16.6306], [-14.380799998999976, 16.636700001000065], [-14.3301, 16.636399999000048], [-14.33390000099996, 16.579299999000057], [-14.2772, 16.583000001000073], [-14.263800000999936, 16.5263], [-14.2119, 16.536], [-14.171800000999951, 16.4957], [-14.1403, 16.4562], [-14.1019, 16.423], [-14.04020000099996, 16.3695], [-13.988600000999952, 16.340299999000024], [-13.9882, 16.27999999900004], [-13.973200000999952, 16.22289999900005], [-13.9198, 16.228], [-13.8795, 16.195800001000066], [-13.8716, 16.1447], [-13.797499998999967, 16.146400001000075], [-13.742000000999951, 16.15839999900004], [-13.7094, 16.120200001000057], [-13.6425, 16.108200001000057], [-13.579500000999928, 16.13529999900004], [-13.5242, 16.127], [-13.499, 16.07939999900003], [-13.457900000999928, 16.109999999000024], [-13.39399999899996, 16.063999999000032], [-13.3783, 16.015799999000023], [-13.350400000999969, 15.9484], [-13.33390000099996, 15.8957], [-13.296700000999977, 15.860099999000056], [-13.283199998999976, 15.8049], [-13.2666, 15.7468], [-13.2237, 15.710100001000058], [-13.2513, 15.668299999000055], [-13.229599998999959, 15.6185], [-13.168, 15.6208], [-13.115700000999936, 15.5967], [-13.0847, 15.551999999000031], [-13.103399998999976, 15.5042], [-13.057600000999969, 15.48100000100004], [-13.0021, 15.4959], [-12.9592, 15.449999999000056], [-12.942, 15.3935], [-12.913899998999966, 15.342800001000057], [-12.8529, 15.3189], [-12.83379999899995, 15.27], [-12.893100000999937, 15.264799999000047], [-12.854800000999944, 15.2183], [-12.7958, 15.2127], [-12.7892, 15.1558], [-12.7445, 15.1329], [-12.7015, 15.10019999900004], [-12.626800000999935, 15.092800001000057], [-12.5847, 15.064099999000064], [-12.480799998999942, 15.0087], [-12.447000000999935, 14.9055], [-12.3935, 14.8474], [-12.32960000099996, 14.8298], [-12.276799998999934, 14.7852], [-12.2118, 14.758300001000066], [-12.1327, 14.7777], [-12.0483, 14.719699999000056], [-11.9845, 14.761], [-11.932700000999944, 14.7871], [-11.886499998999966, 14.8298], [-11.8233, 14.8835], [-11.8155, 14.9364], [-11.790899998999976, 15.0162], [-11.839400000999944, 15.041300001000025], [-11.839199998999959, 15.091800001000024], [-11.806, 15.137], [-11.8343, 15.1864], [-11.8017, 15.2356], [-11.7872, 15.295600001000025], [-11.758099998999967, 15.3531], [-11.742799998999942, 15.414000001000034], [-11.7104, 15.490499999000065], [-11.667199998999934, 15.5178], [-11.578500000999952, 15.5524], [-11.4618, 15.607999999000072], [-11.3939, 15.594599999000025], [-11.358100000999968, 15.5514], [-11.3081, 15.4891], [-11.264, 15.439099999000064], [-11.203600000999927, 15.398399999000048], [-11.1577, 15.3621], [-11.0746, 15.292300001000058], [-11.0385, 15.257099999000047], [-10.98619999899995, 15.2194], [-10.9548, 15.1766], [-10.9112, 15.1185], [-10.8715, 15.1887], [-10.823999998999966, 15.250499999000056], [-10.79020000099996, 15.3082], [-10.7454, 15.332599999000024], [-10.7215, 15.390900001000034], [-10.7181, 15.441099999000073], [-10.656199998999966, 15.418], [-10.605, 15.4232], [-10.527799998999967, 15.4323], [-10.23189999899995, 15.4597], [-10.0362, 15.472999999000024], [-9.8495, 15.4353], [-9.7904, 15.4342], [-9.740900000999943, 15.410700001000066], [-9.686899998999934, 15.425100001000033], [-9.6349, 15.429400001000033], [-9.4, 15.4377], [-9.445699998999942, 15.6055], [-9.3684, 15.68590000100005], [-9.311000000999968, 15.6873], [-9.330700000999968, 15.500600001000066], [-8.723300000999927, 15.5], [-8.352399998999942, 15.500800001000073], [-7.659600000999944, 15.5066], [-7.148399998999935, 15.507200001000058], [-6.2577, 15.500499999000056], [-5.5, 15.5], [-5.4353, 15.833699999000032], [-5.3333, 16.3333], [-5.6096, 16.4893], [-6.0549, 20.102700001000073], [-6.3422, 22.8704], [-6.4932, 24.2763], [-6.5756, 25.0], [-6.3551, 25.003900001000034], [-4.8333, 25.0], [-6.021, 25.6832], [-7.144200000999945, 26.38299999900005]]]}}]}