{"type": "FeatureCollection", "features": [{"type": "Feature", "properties": {"code": "MSR", "name": "Montserrat", "tier": "country"}, "geometry": {"type": "Polygon", "coordinates": [[[-62.231594644244524, 16.717974223991348], [-62.21171674458151, 16.693081670473532], [-62.193978583060016, 16.677160064161058], [-62.16102282810169, 16.676310086029275], [-62.14436275448986, 16.696661531151847], [-62.147508875424194, 16.716803168353124], [-62.14946450939067, 16.73831526260591], [-62.154621915532914, 16.761894507139857], [-62.17073851502255, 16.780607267193375], [-62.18151174001474, 16.799950396807674], [-62.19430518731059, 16.822228361798693], [-62.20736481750919, 16.805182564772508], [-62.21569446503088, 16.7844495495184], [-62.22279115518836, 16.76351880512948], [-62.23237051301635, 16.74005584701672], [-62.23222346489143, 16.71824371855422], [-62.231594644244524, 16.717974223991348]], [[-62.21205749192313, 16.733169754315156], [-62.21205749192313, 16.733169754315156]]]}}]}