{"type": "FeatureCollection", "features": [{"type": "Feature", "properties": {"code": "MTQ", "name": "Martinique", "tier": "country"}, "geometry": {"type": "MultiPolygon", "coordinates": [[[[-60.867015328766456, 14.391724483309645], [-60.867015328766456, 14.391724483309645]]], [[[-60.82586275456009, 14.431900095862318], [-60.82586275456009, 14.431900095862318]]], [[[-61.038592919760106, 14.442233177105948], [-61.038592919760106, 14.442233177105948]]], [[[-60.97866571118914, 14.474833904558864], [-60.97866571118914, 14.474833904558864]]], [[[-60.98347549171524, 14.485481264536702], [-60.98347549171524, 14.485481264536702]]], [[[-61.01999533858617, 14.546794611198948], [-61.01999533858617, 14.546794611198948]]], [[[-60.83719683440739, 14.566763855658223], [-60.83719683440739, 14.566763855658223]]], [[[-61.02120473052781, 14.600285948352223], [-61.02120473052781, 14.600285948352223]]], [[[-60.863245826202956, 14.605457620950688], [-60.863245826202956, 14.605457620950688]]], [[[-60.8524611748868, 14.612552929422293], [-60.8524611748868, 14.612552929422293]]], [[[-60.860687513965956, 14.618787842288441], [-60.860687513965956, 14.618787842288441]]], [[[-60.84732108368257, 14.62729505839144], [-60.84732108368257, 14.62729505839144]]], [[[-60.85268079716485, 14.626606584000115], [-60.85268079716485, 14.626606584000115]]], [[[-60.888804889691016, 14.63472920890382], [-60.888804889691016, 14.63472920890382]]], [[[-60.88875148643092, 14.641430276305812], [-60.88875148643092, 14.641430276305812]]], [[[-60.900740946000326, 14.686535218120241], [-60.900740946000326, 14.686535218120241]]], [[[-60.90954577287948, 14.684708190608887], [-60.90954577287948, 14.684708190608887]]], [[[-60.88298827677596, 14.688196750354166], [-60.88298827677596, 14.688196750354166]]], [[[-60.894954752108504, 14.695274557469816], [-60.894954752108504, 14.695274557469816]]], [[[-60.9878340530733, 14.788164418463339], [-60.9878340530733, 14.788164418463339]]], [[[-61.03144552391984, 14.823966435598436], [-61.05157774153167, 14.832547873460442], [-61.07097833447938, 14.843161349234265], [-61.09161029475547, 14.854630036549622], [-61.11376160519728, 14.870309679214927], [-61.13490125831504, 14.874481928167143], [-61.16559822533793, 14.87708367715743], [-61.187579089460655, 14.868042827332545], [-61.20979402325264, 14.858340211600193], [-61.222596725651556, 14.83826576710453], [-61.228655150063844, 14.811937225142458], [-61.214535314371915, 14.782367127220539], [-61.198262658384124, 14.76737257737949], [-61.17658778836267, 14.745132323643418], [-61.18439010336306, 14.70839818385457], [-61.17569492313646, 14.686672092759466], [-61.16144696622456, 14.666209608332792], [-61.139053213754266, 14.642232882346434], [-61.1227314119634, 14.629258324527939], [-61.105060744706066, 14.619646351782876], [-61.09081081395709, 14.599028877278158], [-61.069455584927425, 14.602218576150335], [-61.04837966481756, 14.596488351506878], [-61.02938459670838, 14.608318237309959], [-61.00764017085953, 14.602711399418922], [-61.02421075288913, 14.585184581025317], [-61.010514889188585, 14.566880136596865], [-60.99180716790272, 14.55382629632021], [-61.00549785576368, 14.538079330730795], [-61.02716740739072, 14.534847018908124], [-61.043921929109445, 14.546845470402388], [-61.065524819870234, 14.540701200523358], [-61.0871324149428, 14.534096587962495], [-61.09635131995492, 14.513962242992875], [-61.09014707832449, 14.493298098205969], [-61.082384733526, 14.473544550281815], [-61.06669272833483, 14.460055654370308], [-61.04523799598218, 14.46989882923799], [-61.018971246088086, 14.480807218210714], [-60.999930121779244, 14.470525895362925], [-60.98066783998564, 14.48267508221926], [-60.96125594133741, 14.46891984988406], [-60.941297070488815, 14.464262296063737], [-60.91898589020508, 14.467345648977528], [-60.89998544887254, 14.451735316780514], [-60.8830438512569, 14.466436982088624], [-60.86224956480834, 14.462812885526944], [-60.878012891314484, 14.446631675768685], [-60.88591845992835, 14.426372123730403], [-60.88469099641122, 14.405727190957975], [-60.86373007424572, 14.397985363099906], [-60.846572253738145, 14.413526216229798], [-60.83266565002651, 14.429508770246798], [-60.82254486593206, 14.446759492688557], [-60.81890414527555, 14.467335297298405], [-60.8142803660017, 14.489594784980795], [-60.82235445644346, 14.51058970100803], [-60.824432117407525, 14.531077077714258], [-60.83857724837071, 14.549800633560267], [-60.82596087619703, 14.568243180793274], [-60.845151354182065, 14.559621350547616], [-60.85312995476983, 14.580523013736126], [-60.872533563302, 14.596153698387127], [-60.875869764752224, 14.616125443040175], [-60.8965185794043, 14.620767535136338], [-60.89338088017473, 14.64081088621424], [-60.88495358254414, 14.659618768768723], [-60.90629308667144, 14.66662218415604], [-60.92327376626224, 14.655170968040807], [-60.94218130566048, 14.66770689538572], [-60.924334988830026, 14.678378972190728], [-60.90653977244966, 14.695826749373055], [-60.913837333432696, 14.715761846449993], [-60.932451187797255, 14.7072752898423], [-60.945925915944656, 14.728116202710282], [-60.93815720003852, 14.74873424743464], [-60.91313741078602, 14.745274023217974], [-60.89563658124814, 14.733925073797536], [-60.89082634015983, 14.756196426434315], [-60.8736735639028, 14.768347181394574], [-60.89759655765613, 14.769798028446132], [-60.91944868921763, 14.758722510297105], [-60.941089620206355, 14.756660091742049], [-60.95419041587502, 14.737728175455345], [-60.96734821157372, 14.754824467073263], [-60.98212801890048, 14.772942131680452], [-60.99865701876132, 14.790189783708968], [-61.00817505879053, 14.809278082725427], [-61.03144552391984, 14.823966435598436]], [[-61.01820394980069, 14.61348363749255], [-61.01820394980069, 14.61348363749255]], [[-60.95526839412685, 14.60630466025816], [-60.95526839412685, 14.60630466025816]], [[-60.937767783904064, 14.601305676477295], [-60.937767783904064, 14.601305676477295]], [[-60.873252215469904, 14.588248524540745], [-60.873252215469904, 14.588248524540745]], [[-61.0122215784296, 14.592111279942856], [-61.0122215784296, 14.592111279942856]], [[-60.97427273927036, 14.59530527739355], [-60.97427273927036, 14.59530527739355]], [[-61.00752649977221, 14.59647806562225], [-61.00752649977221, 14.59647806562225]], [[-61.010424948009984, 14.583936611533488], [-61.010424948009984, 14.583936611533488]], [[-61.01200000424592, 14.570555311677026], [-61.01200000424592, 14.570555311677026]], [[-60.99542308400595, 14.572258513805878], [-60.99542308400595, 14.572258513805878]], [[-60.98347549171524, 14.540637818420066], [-60.98347549171524, 14.540637818420066]], [[-61.0084070723795, 14.529989449591938], [-61.0084070723795, 14.529989449591938]], [[-60.82904120256052, 14.52796306453024], [-60.82904120256052, 14.52796306453024]], [[-60.82661452332866, 14.497831212560754], [-60.82661452332866, 14.497831212560754]], [[-60.983565323236235, 14.48539143301582], [-60.983565323236235, 14.48539143301582]], [[-60.99299763293931, 14.471108221179634], [-60.99299763293931, 14.471108221179634]], [[-60.967343079597185, 14.475873721959374], [-60.967343079597185, 14.475873721959374]], [[-60.96982110052596, 14.473174346162182], [-60.96982110052596, 14.473174346162182]], [[-60.862062401185256, 14.455079084606552], [-60.862062401185256, 14.455079084606552]], [[-60.86411808676257, 14.452475417978633], [-60.86411808676257, 14.452475417978633]], [[-60.846448516081466, 14.434663423982613], [-60.846448516081466, 14.434663423982613]], [[-60.86435889489263, 14.40068030872942], [-60.86435889489263, 14.40068030872942]], [[-60.91082446843603, 14.658878777228324], [-60.91082446843603, 14.658878777228324]]]]}}]}