{"type": "FeatureCollection", "features": [{"type": "Feature", "properties": {"code": "MUS", "name": "Mauritius", "tier": "country"}, "geometry": {"type": "MultiPolygon", "coordinates": [[[[57.80508710000004, -20.26503109999993], [57.80508710000004, -20.26503109999993]]], [[[57.618161, -19.98468689999993], [57.57871840000007, -20.016000899999938], [57.527188100000046, -20.046896599999968], [57.50866180000003, -20.095280699999932], [57.48589570000007, -20.14556559999994], [57.439216, -20.174031], [57.40179690000008, -20.215869699999928], [57.37896640000008, -20.261167], [57.36699150000004, -20.314650299999983], [57.371609, -20.366568899999947], [57.36401490000003, -20.4171], [57.31695220000006, -20.44296019999996], [57.35386250000005, -20.481399499999952], [57.39831820000006, -20.50452729999995], [57.45462560000004, -20.503163599999937], [57.50752860000006, -20.51957619999996], [57.55803990000004, -20.517295199999978], [57.60704220000008, -20.502567], [57.66104690000003, -20.48336779999994], [57.708740900000066, -20.44854689999994], [57.699771600000076, -20.398230299999966], [57.73842560000003, -20.36647339999996], [57.777755100000036, -20.333759399999963], [57.77457170000008, -20.280406399999947], [57.80217420000008, -20.236723499999982], [57.774110800000074, -20.188656399999957], [57.74389050000008, -20.148463499999934], [57.72292260000006, -20.10305009999996], [57.68686790000004, -20.06646989999996], [57.675021600000036, -20.017705099999944], [57.632183800000064, -19.990928], [57.618161, -19.98468689999993]]], [[[63.457022900000084, -19.667637599999978], [63.40967440000003, -19.691543499999966], [63.36454450000008, -19.713906599999973], [63.36005780000005, -19.76380949999998], [63.40704610000006, -19.74557669999996], [63.45813130000005, -19.736643799999968], [63.50202710000008, -19.71056779999998], [63.457022900000084, -19.667637599999978]]], [[[59.57323510000003, -16.757781699999953], [59.57323510000003, -16.757781699999953]]], [[[56.69070640000007, -10.490523399999972], [56.65819460000006, -10.443029799999977], [56.68656940000005, -10.490700699999934], [56.69070640000007, -10.490523399999972]]], [[[56.64420330000007, -10.425286899999946], [56.61816440000007, -10.381073199999946], [56.59198750000007, -10.337892199999942], [56.613343600000064, -10.398544699999945], [56.64420330000007, -10.425286899999946]]]]}}]}