{"type": "FeatureCollection", "features": [{"type": "Feature", "properties": {"code": "MWI", "name": "Malawi", "tier": "country"}, "geometry": {"type": "MultiPolygon", "coordinates": [[[[34.7129171, -12.136227700000017], [34.75732810000002, -12.107569700000013], [34.790739, -12.062647], [34.764270699999976, -12.00925980000002], [34.70912219999999, -12.0052105], [34.6875664, -12.0554846], [34.6936496, -12.118975200000019], [34.7129171, -12.136227700000017]]], [[[34.619268, -12.08481639999998], [34.6631066, -12.039062699999985], [34.6445037, -11.984801799999982], [34.593337199999965, -11.9786124], [34.575346, -12.0283723], [34.59775659999996, -12.080757599999973], [34.619268, -12.08481639999998]]], [[[33.03465, -9.409802199999975], [32.997403400000046, -9.3683371], [32.9513861, -9.403210900000039], [32.971298800000014, -9.455537499999958], [33.011111, -9.498889], [33.001667, -9.548889], [32.995278, -9.599167], [33.043056, -9.616667], [33.0875, -9.663333], [33.111667, -9.592222], [33.165833, -9.594444], [33.217222, -9.619167], [33.238611, -9.664444], [33.249722, -9.718333], [33.290587, -9.772169499999963], [33.322778, -9.815833], [33.380278, -9.864444], [33.389167, -9.9175], [33.345, -9.978889], [33.314722, -10.033889], [33.351111, -10.078611], [33.404722, -10.095278], [33.442222, -10.134444], [33.485, -10.1625], [33.533333, -10.198333], [33.560556, -10.245556], [33.542778, -10.330833], [33.564444, -10.388611], [33.614167, -10.4425], [33.63298059999996, -10.498538199999967], [33.66923549999997, -10.539825100000037], [33.690556, -10.585833], [33.637222, -10.621667], [33.569167, -10.69], [33.543056, -10.738611], [33.501111, -10.780278], [33.453611, -10.807778], [33.402222, -10.795556], [33.350833, -10.812222], [33.318759, -10.85079149999996], [33.259167, -10.889167], [33.29936120000004, -10.9300193], [33.306571, -10.986982799999982], [33.31601240000003, -11.0375329], [33.3458928, -11.085534], [33.3750499, -11.130155499999976], [33.3977092, -11.179670499999965], [33.381058, -11.230524], [33.347927400000046, -11.274803], [33.32442380000001, -11.323986599999973], [33.30227950000001, -11.369597599999974], [33.29032739999999, -11.420400400000023], [33.23985119999996, -11.404134400000025], [33.24598829999997, -11.4563651], [33.2542724, -11.5064394], [33.23871740000003, -11.559495499999965], [33.2884394, -11.590884599999988], [33.3317724, -11.6239395], [33.3270504, -11.697273700000014], [33.338161399999976, -11.75143979999999], [33.34038439999997, -11.8228289], [33.3281614, -11.883107099999972], [33.345939399999956, -11.942274200000018], [33.32427240000001, -12.000329299999983], [33.292864700000045, -12.044690499999959], [33.268488799999965, -12.096057499999972], [33.263124300000015, -12.148673400000025], [33.3018769, -12.182570199999969], [33.31143730000002, -12.2486523], [33.36190570000003, -12.315577599999987], [33.41683740000002, -12.344087], [33.475500500000024, -12.3254482], [33.531247, -12.3401684], [33.5176064, -12.390886], [33.4737839, -12.417501899999987], [33.45871739999996, -12.474775200000014], [33.41316139999998, -12.505330200000035], [33.38042590000002, -12.551524199999957], [33.3224044, -12.533092099999969], [33.27193589999998, -12.548508099999982], [33.23193879999996, -12.595253400000043], [33.18891460000003, -12.636035199999977], [33.152865700000014, -12.598511599999977], [33.1027406, -12.607558], [33.04871740000003, -12.59921940000001], [33.0262174, -12.6489415], [32.98930840000004, -12.695608], [32.952572899999964, -12.761580400000032], [32.953819399999986, -12.827228600000044], [32.97064220000004, -12.880449], [33.020401099999965, -12.903897600000029], [33.01713960000002, -12.954090399999966], [32.98984539999997, -13.0370537], [32.984008899999964, -13.112298700000029], [32.992420300000035, -13.166293799999977], [32.991562, -13.22579160000003], [32.96732840000004, -13.273109799999975], [32.93843940000002, -13.315609899999973], [32.9248569, -13.36599950000003], [32.9098284, -13.4242211], [32.8689954, -13.4642212], [32.84768780000004, -13.525849400000027], [32.7912174, -13.5517214], [32.74732840000002, -13.576721400000029], [32.697312399999966, -13.5592271], [32.67593940000001, -13.621166500000019], [32.7187174, -13.65088859999996], [32.773161399999964, -13.647832599999969], [32.8317724, -13.69672170000004], [32.7926064, -13.7547778], [32.80927239999997, -13.815888900000044], [32.86621740000001, -13.818389], [32.915106399999985, -13.848667], [32.942050400000014, -13.895333099999966], [32.97399540000002, -13.939222100000041], [32.99788439999997, -13.99616730000001], [33.0226064, -14.0497785], [33.065137100000044, -14.021592499999961], [33.09177240000002, -13.970889199999974], [33.142606399999984, -13.954222200000014], [33.19149539999996, -13.978667299999962], [33.242261199999966, -13.9982862], [33.28706839999999, -14.025233899999982], [33.318365699999966, -14.074493], [33.304535, -14.126223], [33.3232643, -14.175949], [33.351741, -14.219683900000028], [33.39405079999999, -14.250632600000028], [33.422514900000024, -14.2961637], [33.451397499999956, -14.348046100000015], [33.47136120000002, -14.399228300000015], [33.5180938, -14.42304669999998], [33.552905299999956, -14.4592621], [33.5962646, -14.48628130000004], [33.624913300000024, -14.528826], [33.634240500000026, -14.587151699999971], [33.67714860000003, -14.616549099999958], [33.70874169999997, -14.5775812], [33.7118164, -14.51707469999998], [33.76249030000004, -14.51943570000002], [33.81414040000003, -14.5498367], [33.857936, -14.511635200000043], [33.902422499999965, -14.486210899999989], [34.0870492, -14.489602699999963], [34.1873098, -14.438147], [34.24204550000004, -14.425644], [34.29041960000004, -14.407981599999957], [34.34621, -14.397775900000013], [34.4028118, -14.419179600000025], [34.43759820000002, -14.466066299999973], [34.4646361, -14.519512399999972], [34.511338, -14.55252070000003], [34.542204200000036, -14.601213500000025], [34.5458921, -14.654933300000021], [34.529141300000035, -14.710230599999978], [34.5627819, -14.765780400000043], [34.584002400000045, -14.811327399999989], [34.57705890000001, -14.87378350000003], [34.581099400000014, -14.924501], [34.59872770000002, -14.973456199999983], [34.60605019999997, -15.023920800000027], [34.57319079999998, -15.066861], [34.56989580000002, -15.118437799999988], [34.57707080000002, -15.168338099999971], [34.59021980000004, -15.21952029999997], [34.60217780000002, -15.269936700000024], [34.570857, -15.309439199999979], [34.53159, -15.341691800000039], [34.51800850000003, -15.3910122], [34.47792570000002, -15.422228799999964], [34.44260089999997, -15.4588629], [34.4341746, -15.5122103], [34.443216, -15.56692250000004], [34.433392, -15.61914319999999], [34.42173690000002, -15.6692177], [34.38772350000002, -15.709153199999985], [34.34989239999998, -15.742628699999976], [34.29985219999997, -15.760010800000039], [34.27015639999998, -15.800927799999968], [34.251797500000016, -15.8534973], [34.259366800000045, -15.909658799999963], [34.3080032, -15.931031900000018], [34.35537710000002, -15.9641508], [34.379009500000045, -16.012296700000032], [34.42729550000004, -16.042843], [34.41623440000002, -16.09182469999996], [34.40069979999997, -16.147614900000022], [34.40355509999996, -16.199296799999978], [34.419524799999955, -16.2501648], [34.46148810000004, -16.281402600000032], [34.511348, -16.288593899999963], [34.567992700000026, -16.31283530000002], [34.585070699999974, -16.360213100000013], [34.5938948, -16.414135], [34.64206540000004, -16.436710099999978], [34.6842989, -16.46994710000004], [34.722869899999985, -16.50266470000003], [34.7645038, -16.53266030000004], [34.77247340000002, -16.5859159], [34.8205617, -16.603414], [34.8541263, -16.641691900000037], [34.8803337, -16.689092499999962], [34.91640330000004, -16.72473180000002], [34.9674132, -16.739173], [34.99286720000002, -16.78311140000001], [35.0361508, -16.81646260000002], [35.08834030000004, -16.81844], [35.13869680000003, -16.81903519999998], [35.14915579999997, -16.86929580000002], [35.16721420000003, -16.920151700000023], [35.13789019999999, -16.96583040000003], [35.08722710000004, -16.98456630000002], [35.05988080000003, -17.028568400000037], [35.0861166, -17.078020299999956], [35.097419, -17.129521699999987], [35.295663699999956, -17.12783519999998], [35.30758789999998, -17.074542], [35.297274600000016, -17.017527], [35.2946648, -16.967508300000038], [35.273912399999965, -16.916546499999978], [35.296258499999965, -16.86385159999996], [35.30448349999998, -16.8063001], [35.28889540000003, -16.7548011], [35.27409729999999, -16.704643799999978], [35.23567680000003, -16.6704706], [35.19748780000004, -16.636875200000027], [35.155577100000045, -16.6005567], [35.16409829999997, -16.547091500000015], [35.20590580000004, -16.518133599999977], [35.255866, -16.482922199999976], [35.26832170000004, -16.433387499999956], [35.2777161, -16.377023], [35.2783302, -16.32581450000003], [35.29380479999998, -16.276595], [35.30710709999999, -16.22527329999998], [35.34550759999998, -16.189578], [35.383539, -16.156328599999974], [35.42279020000002, -16.11830579999997], [35.47443129999998, -16.121915899999976], [35.5125993, -16.1560188], [35.55583710000002, -16.128889899999958], [35.61274329999996, -16.12443319999998], [35.65767250000004, -16.101781], [35.71229090000004, -16.101206699999963], [35.760034600000026, -16.074479], [35.8005527, -16.041761299999983], [35.807079700000024, -15.983462099999983], [35.82675209999996, -15.73156850000003], [35.853111, -15.419138100000033], [35.8422372, -15.3700874], [35.7900652, -15.169963499999987], [35.91857309999996, -14.895350300000036], [35.87209819999998, -14.6756206], [35.52062880000001, -14.2592275], [35.4867849, -14.170656699999988], [35.22743939999996, -13.88101339999998], [35.08957550000002, -13.699308099999989], [34.92705559999999, -13.54646209999996], [34.8668983, -13.483110499999988], [34.86475, -13.534], [34.8525, -13.58525], [34.85725, -13.63725], [34.84575, -13.692], [34.882, -13.72925], [34.9705, -13.7265], [35.039, -13.73025], [35.07275, -13.7695], [35.08475, -13.81825], [35.11075, -13.86375], [35.1235, -13.915], [35.123, -13.96675], [35.1525, -14.008], [35.182, -14.0575], [35.1805, -14.10875], [35.19475, -14.16275], [35.22725, -14.209], [35.234, -14.26325], [35.2675, -14.318], [35.295, -14.363], [35.24386869999997, -14.4173877], [35.20425, -14.3815], [35.16625, -14.346], [35.138581100000046, -14.30280240000003], [35.09575, -14.2685], [35.07575, -14.21325], [35.035, -14.184], [34.9875, -14.16575], [34.93793540000002, -14.145593200000032], [34.92925, -14.09025], [34.91025, -14.041], [34.87125, -14.00625], [34.82758609999998, -14.031979], [34.8485, -14.082], [34.82925, -14.13225], [34.80875, -14.17825], [34.80875, -14.23225], [34.76125, -14.27375], [34.709, -14.28725], [34.69125, -14.23375], [34.639, -14.21825], [34.5995, -14.1855], [34.575, -14.1375], [34.54625, -14.088], [34.533, -14.038], [34.518463, -13.9891575], [34.5435, -13.9365], [34.57975, -13.899], [34.59025, -13.84625], [34.621, -13.7775], [34.62675, -13.723], [34.59725, -13.6725], [34.549, -13.63525], [34.52725, -13.57775], [34.47575, -13.59175], [34.41925, -13.572], [34.392, -13.528], [34.36975, -13.4815], [34.33725, -13.43725], [34.30325, -13.38175], [34.30625, -13.323], [34.343, -13.286], [34.34225, -13.23275], [34.3345, -13.17625], [34.3325, -13.12475], [34.32675, -13.075], [34.33275, -13.02325], [34.31125, -12.966], [34.301, -12.91575], [34.27075, -12.852], [34.2715, -12.7955], [34.24975, -12.746], [34.20325, -12.69575], [34.17675, -12.6335], [34.17425, -12.57325], [34.20275, -12.5215], [34.17925, -12.4615], [34.1645, -12.40575], [34.1125, -12.398], [34.072, -12.3685], [34.04375, -12.32275], [34.02325, -12.2725], [34.02025, -12.21425], [34.03475, -12.149], [34.054512100000025, -12.10120540000003], [34.05176879999997, -12.0488227], [34.0785, -11.99425], [34.1281914, -11.948542100000019], [34.1805, -11.92375], [34.1693132, -11.875000200000045], [34.17698980000002, -11.823095300000023], [34.23625, -11.7865], [34.2645, -11.745], [34.314, -11.71075], [34.324, -11.65675], [34.300992299999976, -11.6120705], [34.29025, -11.548], [34.276, -11.498], [34.275, -11.44175], [34.2755, -11.39125], [34.2595, -11.33775], [34.2265, -11.2905], [34.2335, -11.23875], [34.20725, -11.19575], [34.22675, -11.1455], [34.233, -11.09275], [34.218, -11.04375], [34.22075, -10.9895], [34.223, -10.93625], [34.21625, -10.88425], [34.2075, -10.83175], [34.20375, -10.777], [34.1985, -10.7255], [34.19375, -10.6755], [34.191184, -10.6174718], [34.18025, -10.568], [34.22625, -10.537], [34.20725, -10.48775], [34.25711269999997, -10.445625300000032], [34.25295849999998, -10.395677], [34.2245, -10.3535], [34.18925, -10.31675], [34.15975, -10.26775], [34.11675, -10.24175], [34.08975, -10.19875], [34.0565, -10.16125], [34.01825, -10.12375], [34.00696670000002, -10.070983], [33.971642700000025, -10.031169], [33.946892699999985, -9.985669100000019], [33.950112300000015, -9.90779110000001], [33.91439269999997, -9.868169100000026], [33.90614270000002, -9.813169099999977], [33.8885, -9.76125], [33.9237449, -9.722820400000023], [33.89149289999999, -9.681283100000018], [33.850836799999975, -9.652177600000025], [33.8136914, -9.6170218], [33.7733574, -9.586362599999978], [33.72248690000003, -9.583660200000024], [33.67529780000002, -9.609722799999956], [33.623857, -9.597352200000033], [33.57198260000004, -9.5873461], [33.52360210000004, -9.619043], [33.47248620000002, -9.61928590000002], [33.42518470000003, -9.597548899999966], [33.4034092, -9.54981850000002], [33.35819, -9.522313], [33.3139306, -9.491304600000019], [33.2630017, -9.4937378], [33.21334029999997, -9.506250200000013], [33.1554655, -9.493375200000012], [33.1117814, -9.46614859999996], [33.06720770000003, -9.439256100000017], [33.03465, -9.409802199999975]]]]}}]}