{"type": "FeatureCollection", "features": [{"type": "Feature", "properties": {"code": "MYS", "name": "Malaysia", "tier": "country"}, "geometry": {"type": "MultiPolygon", "coordinates": [[[[103.42659649999997, 1.309022800000012], [103.42659649999997, 1.309022800000012]]], [[[103.25862, 1.47301049999998], [103.25862, 1.47301049999998]]], [[[104.07001319999998, 1.485671200000013], [104.07001319999998, 1.485671200000013]]], [[[104.01044350000002, 1.538248599999989], [104.01044350000002, 1.538248599999989]]], [[[110.3018119, 1.663883], [110.3018119, 1.663883]]], [[[102.3248741, 2.117456100000035], [102.3248741, 2.117456100000035]]], [[[104.065582, 2.231974], [104.065582, 2.231974]]], [[[104.11836860000004, 2.316101400000012], [104.11836860000004, 2.316101400000012]]], [[[103.97498039999998, 2.458893], [103.97498039999998, 2.458893]]], [[[104.5402907, 2.4452557], [104.5402907, 2.4452557]]], [[[104.50321190000003, 2.476469199999962], [104.50321190000003, 2.476469199999962]]], [[[104.34339510000002, 2.564446299999976], [104.34339510000002, 2.564446299999976]]], [[[103.7789941, 2.659100099999976], [103.7789941, 2.659100099999976]]], [[[103.90916359999996, 2.6963448], [103.90916359999996, 2.6963448]]], [[[103.8919975, 2.6817696], [103.8919975, 2.6817696]]], [[[111.39569780000004, 2.720327499999962], [111.39569780000004, 2.720327499999962]]], [[[111.41964459999996, 2.376255800000036], [111.39723910000002, 2.456930299999969], [111.38041629999995, 2.518155599999958], [111.37835639999996, 2.5750909], [111.37954450000004, 2.698482300000014], [111.364155, 2.753017399999966], [111.33898950000004, 2.800340300000035], [111.29555909999998, 2.761316199999961], [111.28166319999997, 2.710690900000032], [111.28129409999998, 2.64944910000001], [111.2958557, 2.566079], [111.31079410000002, 2.513091099999962], [111.2997319, 2.453158], [111.3356421, 2.410352299999983], [111.35020390000004, 2.361399399999962], [111.412615, 2.368451900000044], [111.41964459999996, 2.376255800000036]]], [[[104.169215, 2.8967048], [104.15985110000004, 2.834273499999971], [104.12260259999998, 2.791529300000026], [104.1318657, 2.74038409999998], [104.18426670000004, 2.721938699999957], [104.22139119999996, 2.755972699999973], [104.20579270000003, 2.805084099999964], [104.19068390000004, 2.857909699999959], [104.169215, 2.8967048]]], [[[104.10678580000001, 2.914547199999959], [104.10678580000001, 2.914547199999959]]], [[[101.2587255, 2.93907129999996], [101.2587255, 2.93907129999996]]], [[[101.27203790000004, 2.9165561], [101.30072140000001, 2.9637826], [101.26422610000002, 2.918101], [101.27203790000004, 2.9165561]]], [[[101.36137, 2.993966200000018], [101.30942210000005, 2.957880200000038], [101.28211090000002, 2.903821], [101.34126849999998, 2.895743], [101.35778940000003, 2.94463370000003], [101.390055, 2.989722499999989], [101.36137, 2.993966200000018]]], [[[101.2607587, 3.015476100000023], [101.21887710000001, 2.985907900000027], [101.2607587, 3.015476100000023]]], [[[101.26918130000003, 3.0546492], [101.21377080000003, 3.018495600000013], [101.26571129999998, 3.02731410000002], [101.26918130000003, 3.0546492]]], [[[101.32286150000003, 2.989854100000042], [101.33807880000003, 3.054460900000042], [101.28238639999998, 3.009373], [101.26186450000002, 2.9541506], [101.31114030000002, 2.986393200000035], [101.32286150000003, 2.989854100000042]]], [[[100.65043189999996, 4.168217399999983], [100.65043189999996, 4.168217399999983]]], [[[117.6388057, 4.185634900000044], [117.6388057, 4.185634900000044]]], [[[100.54547209999998, 4.201486899999982], [100.54547209999998, 4.201486899999982]]], [[[117.81647789999997, 4.199128599999988], [117.7793991, 4.241242800000031], [117.70146209999999, 4.261816700000041], [117.63228260000001, 4.226722699999983], [117.65786010000004, 4.182210799999972], [117.89976747764366, 4.166088442164804], [117.834328, 4.19573580000002], [117.81647789999997, 4.199128599999988]]], [[[100.5404883, 4.2661765], [100.54330159999998, 4.2147669], [100.54711740000005, 4.266030299999977], [100.5404883, 4.2661765]]], [[[118.65349880000002, 4.382633700000036], [118.65349880000002, 4.382633700000036]]], [[[118.69589920000004, 4.473685], [118.64525910000003, 4.49045630000001], [118.65217549999997, 4.434915299999962], [118.7170135, 4.436033600000031], [118.69589920000004, 4.473685]]], [[[118.613845, 4.5577091], [118.613845, 4.5577091]]], [[[118.5826, 4.577589800000035], [118.52183450000003, 4.541281499999958], [118.5762485, 4.549013200000016], [118.5826, 4.577589800000035]]], [[[118.41797939999996, 4.70502690000004], [118.37575069999995, 4.6608861], [118.32305069999995, 4.6600306], [118.40973969999997, 4.632141699999957], [118.46810449999998, 4.605791799999968], [118.53367919999997, 4.597065200000015], [118.58637919999995, 4.6249555], [118.53299249999998, 4.64548750000001], [118.484584, 4.66738759999997], [118.44235529999996, 4.696301600000017], [118.41797939999996, 4.70502690000004]]], [[[118.46020809999999, 4.726583], [118.46020809999999, 4.726583]]], [[[118.38832160000001, 4.7667735], [118.38832160000001, 4.7667735]]], [[[118.36579430000003, 4.803905700000031], [118.41282960000002, 4.782352], [118.36579430000003, 4.803905700000031]]], [[[118.311186, 4.80963590000004], [118.311186, 4.80963590000004]]], [[[103.68210279999997, 4.813536800000038], [103.68210279999997, 4.813536800000038]]], [[[118.34024730000004, 4.991850900000014], [118.30628809999999, 4.9539418], [118.36093460000002, 4.9670626], [118.34024730000004, 4.991850900000014]]], [[[103.26768489999998, 5.231178400000034], [103.26768489999998, 5.231178400000034]]], [[[115.12862360000001, 5.228949800000025], [115.12862360000001, 5.228949800000025]]], [[[115.32293170000004, 5.278057599999983], [115.32293170000004, 5.278057599999983]]], [[[100.3222094, 5.3361433], [100.3222094, 5.3361433]]], [[[115.25381960000004, 5.386988299999982], [115.2100459, 5.359472199999957], [115.18358250000003, 5.316509], [115.16683469999995, 5.268210699999973], [115.2185906, 5.2762233], [115.26961239999996, 5.288882], [115.249496, 5.33531730000004], [115.25381960000004, 5.386988299999982]]], [[[119.13941090000003, 5.46187969999997], [119.13941090000003, 5.46187969999997]]], [[[100.25704279999997, 5.481494400000018], [100.210436, 5.4603955], [100.18897070000004, 5.4136165], [100.19599740000002, 5.338460799999987], [100.1801744, 5.289745700000013], [100.2389147, 5.282743099999974], [100.2826375, 5.257852600000033], [100.2999694, 5.315503799999974], [100.317637, 5.362466099999961], [100.33756980000004, 5.410722], [100.314644, 5.4557753], [100.27008859999998, 5.47919019999997], [100.25704279999997, 5.481494400000018]]], [[[103.0652375, 5.6271972], [103.0652375, 5.6271972]]], [[[115.645254, 5.734168100000034], [115.645254, 5.734168100000034]]], [[[118.10360409999998, 5.781558900000037], [118.10360409999998, 5.781558900000037]]], [[[117.93287979999997, 5.790997099999982], [117.96719059999997, 5.744513], [118.01804720000003, 5.768612399999982], [117.97282819999995, 5.791609799999962], [117.93287979999997, 5.790997099999982]]], [[[102.89860810000005, 5.7969925], [102.89860810000005, 5.7969925]]], [[[103.00015230000004, 5.817753899999976], [102.99545670000002, 5.7580691], [103.043958, 5.789386699999963], [103.00015230000004, 5.817753899999976]]], [[[118.209475, 5.848343700000034], [118.1584674, 5.838339100000032], [118.20639339999997, 5.819230400000017], [118.209475, 5.848343700000034]]], [[[118.14496269999995, 5.8559422], [118.14496269999995, 5.8559422]]], [[[118.101363, 5.904908399999962], [118.101363, 5.904908399999962]]], [[[102.77106, 5.911370300000027], [102.77106, 5.911370300000027]]], [[[118.11423529999996, 5.916389900000039], [118.11423529999996, 5.916389900000039]]], [[[117.6501596, 5.920042700000026], [117.6501596, 5.920042700000026]]], [[[102.72236870000005, 5.9383544], [102.72236870000005, 5.9383544]]], [[[117.69950140000003, 5.956855500000011], [117.69950140000003, 5.956855500000011]]], [[[117.7049305, 6.017541599999974], [117.68810770000003, 5.967178200000043], [117.71162529999998, 6.015834500000037], [117.7049305, 6.017541599999974]]], [[[117.72278330000002, 6.0352957], [117.72278330000002, 6.0352957]]], [[[116.01876959999998, 6.028065699999972], [116.06055550000004, 5.998446099999986], [116.01876959999998, 6.028065699999972]]], [[[116.08024609999997, 6.076701], [116.08024609999997, 6.076701]]], [[[118.021811, 6.109930399999972], [118.021811, 6.109930399999972]]], [[[115.60489420000002, 6.2116295], [115.60489420000002, 6.2116295]]], [[[117.6468719, 6.206156300000019], [117.6468719, 6.206156300000019]]], [[[99.74321390000001, 6.2293963], [99.72408001591221, 6.178154653094023], [99.751578, 6.221276], [99.74321390000001, 6.2293963]]], [[[99.71582390000003, 6.2310708], [99.71582390000003, 6.2310708]]], [[[99.849609, 6.262197], [99.849609, 6.262197]]], [[[117.72645220000001, 6.226036700000024], [117.72645220000001, 6.226036700000024]]], [[[99.8344, 6.295671], [99.797016, 6.259294], [99.76922099706533, 6.215489986384868], [99.804666, 6.178439], [99.8332183415829, 6.220877297280123], [99.835127, 6.274754], [99.8344, 6.295671]]], [[[99.69429140000001, 6.3042556], [99.69429140000001, 6.3042556]]], [[[99.92885240000001, 6.323483], [99.92885240000001, 6.323483]]], [[[99.91508450000002, 6.423369699999957], [99.91508450000002, 6.423369699999957]]], [[[99.8932814, 6.452099599999959], [99.8932814, 6.452099599999959]]], [[[99.8261369, 6.477139099999971], [99.79263609999995, 6.424706800000011], [99.73959130000003, 6.426106600000012], [99.68898689999997, 6.432828], [99.64134130000002, 6.415160900000036], [99.652454, 6.3649069], [99.70373890000002, 6.359085600000012], [99.71932579999996, 6.305285699999961], [99.76745419999997, 6.283679399999973], [99.80653260000001, 6.317084800000026], [99.853622, 6.299452500000045], [99.90466159999995, 6.328812100000012], [99.911346, 6.382263099999972], [99.88013620000002, 6.422221299999973], [99.85110160000004, 6.464125], [99.8261369, 6.477139099999971]]], [[[116.34788010000004, 6.7204084], [116.34788010000004, 6.7204084]]], [[[100.204976, 6.725736], [100.175205, 6.682878], [100.169005, 6.632642], [100.18087, 6.583344], [100.155723, 6.536769], [100.154387, 6.485143], [100.134183, 6.439069], [100.13632310000003, 6.385042800000016], [100.15650520000004, 6.331743900000029], [100.18410880000002, 6.2652217], [100.235623, 6.220482], [100.26365409999995, 6.174856700000029], [100.27920840000004, 6.112498600000014], [100.31107059999995, 6.069906300000025], [100.33745519999998, 6.016395199999978], [100.35400950000002, 5.9418151], [100.3567475, 5.879503], [100.36858219999998, 5.813691600000035], [100.36151090000003, 5.751967], [100.3511635, 5.702756800000039], [100.33131160000005, 5.655360400000018], [100.338663, 5.581189799999984], [100.3660405, 5.538847499999986], [100.380514, 5.452947599999978], [100.36307380000002, 5.398737600000012], [100.39032469999997, 5.350600100000045], [100.41215320000003, 5.305570199999985], [100.42192050000003, 5.236914099999965], [100.41913619999997, 5.176315300000032], [100.38998110000004, 5.133103600000042], [100.3608267, 5.087814], [100.38977690000002, 5.035020299999968], [100.42181689999998, 4.986463], [100.43131740000003, 4.930949800000026], [100.48494270000002, 4.923885500000034], [100.48570820000003, 4.866433200000029], [100.5426491, 4.882702400000025], [100.55297370000001, 4.82561], [100.58787710000001, 4.78718], [100.5778, 4.734338300000016], [100.59139729999995, 4.682885099999976], [100.64827959999997, 4.684757900000034], [100.60541410000002, 4.641259500000037], [100.5874593, 4.588749500000042], [100.63076959999998, 4.5605709], [100.61857409999998, 4.5108002], [100.61608249999996, 4.451353199999972], [100.58691049999997, 4.4080892], [100.56661640000003, 4.330173800000012], [100.58706609999997, 4.2812617], [100.59665050000002, 4.224589400000043], [100.61386249999995, 4.174102800000044], [100.6647672, 4.1704375], [100.71802820000005, 4.137218199999979], [100.76248260000001, 4.085196], [100.76088289999998, 4.021461], [100.7096987, 4.000291400000031], [100.70447819999997, 3.909695200000027], [100.72681769999997, 3.860262099999976], [100.77809449999998, 3.848085500000029], [100.83030040000003, 3.856593899999958], [100.80959059999996, 3.802545300000024], [100.85651610000002, 3.77458979999997], [100.91702030000003, 3.725454899999989], [100.937908, 3.679153200000038], [100.9945, 3.6560649], [101.03257779999997, 3.621256300000018], [101.0646605, 3.569768], [101.09157459999996, 3.506436], [101.11851629999998, 3.4602103], [101.1560123, 3.412726300000011], [101.19195170000002, 3.347835599999969], [101.24681219999998, 3.313275799999968], [101.2948547, 3.255858600000026], [101.30693929999997, 3.177742600000042], [101.31269189999996, 3.1276429], [101.35670320000004, 3.075593700000021], [101.35660020000005, 3.0147341], [101.37662760000003, 2.968805800000038], [101.3390078, 2.922094599999956], [101.29554450000005, 2.883428800000041], [101.3112001, 2.8328439], [101.36183479999998, 2.811781399999966], [101.411838, 2.8018641], [101.44021059999997, 2.75514609999997], [101.46269450000001, 2.707677600000022], [101.5056721, 2.6767618], [101.55547440000004, 2.657904700000011], [101.60162940000002, 2.6362294], [101.66324379999996, 2.618453500000038], [101.71879910000004, 2.595201200000017], [101.77830240000002, 2.592088899999987], [101.79873419999998, 2.541612600000041], [101.83620159999995, 2.5020264], [101.85590680000003, 2.449452699999974], [101.8962962, 2.416486400000015], [101.95537950000005, 2.401560300000036], [101.99600940000002, 2.365262600000038], [102.04436569999997, 2.345845800000022], [102.07858240000002, 2.295358300000037], [102.12263080000004, 2.266302900000015], [102.15438169999997, 2.216758299999975], [102.20613040000005, 2.199750100000029], [102.2574924, 2.182032800000031], [102.3122664, 2.164726500000023], [102.37241719999999, 2.133235800000031], [102.43384160000002, 2.114885499999972], [102.509153, 2.087242800000042], [102.54602380000003, 2.043305200000032], [102.602494, 1.9762742], [102.64688359999997, 1.929554], [102.67574539999995, 1.883688300000039], [102.72763739999998, 1.866397299999964], [102.78202369999997, 1.865785599999978], [102.8305968, 1.8517246], [102.88548209999998, 1.815187], [102.91250910000004, 1.763324699999988], [102.98273730000001, 1.742517500000038], [103.0604626, 1.7124175], [103.10242909999998, 1.680717899999959], [103.1466609, 1.6455779], [103.19582879999996, 1.619040400000035], [103.24772809999996, 1.597723199999987], [103.29996530000004, 1.575589300000044], [103.35339080000001, 1.542484900000027], [103.38868429999997, 1.483882399999978], [103.41160989999996, 1.42893420000004], [103.43498640000004, 1.358010299999965], [103.4651, 1.311128], [103.50835780000003, 1.266518700000038], [103.5250228, 1.317700099999972], [103.5368684, 1.3673647], [103.49373, 1.398649800000026], [103.49247690000001, 1.450124299999964], [103.5239056413195, 1.40635], [103.55040590000003, 1.4510673], [103.54200129999998, 1.39728], [103.557832, 1.330564199999959], [103.60589820000004, 1.345980800000021], [103.641331, 1.382632199999975], [103.66658230000002, 1.426433100000044], [103.70911160000003, 1.4631576], [103.7599844, 1.453293], [103.79476829999999, 1.49622880000003], [103.8436115, 1.47782], [103.88759220000001, 1.440056499999973], [103.9378746, 1.43302930000003], [103.98846770000002, 1.432158], [104.0065573, 1.48026740000001], [103.99716270000002, 1.532229], [103.97901920000001, 1.580895], [104.03330319999998, 1.554858799999956], [104.0404526, 1.495851199999962], [104.05895190000004, 1.446264], [104.10256720000002, 1.417264400000015], [104.0882032, 1.368828699999977], [104.13574789999996, 1.3461662], [104.18892889999996, 1.347812], [104.24314469999996, 1.368332500000044], [104.27429260000001, 1.4090899], [104.2784876, 1.474381800000022], [104.2815898, 1.524436800000015], [104.25655659999998, 1.577092100000041], [104.24358729999999, 1.636312200000031], [104.21504030000003, 1.695965100000038], [104.197603, 1.749822499999962], [104.17098810000003, 1.8053923], [104.1509304, 1.8555161], [104.10584230000002, 1.885722599999959], [104.1177315, 1.9465921], [104.09655529999998, 1.997043700000031], [104.06178519999999, 2.041417900000018], [104.0292694, 2.0982152], [104.00582939999998, 2.1485214], [103.96067090000004, 2.2063493], [103.98076490000004, 2.2566427], [103.9513485, 2.301818300000034], [103.92140080000003, 2.342552400000018], [103.8819649, 2.386436200000017], [103.85298840000002, 2.430114599999986], [103.8199291, 2.4820807], [103.82443150000003, 2.534304699999965], [103.8188653, 2.584728700000025], [103.78063690000003, 2.619579400000025], [103.72192249999996, 2.633185899999977], [103.66113280000005, 2.666820100000042], [103.5756673, 2.720346500000024], [103.52875440000003, 2.766101599999957], [103.49297569999999, 2.813304699999972], [103.4610772, 2.851824299999959], [103.43108129999996, 2.932085299999962], [103.43421489999999, 3.057862300000012], [103.44350769999997, 3.168227699999968], [103.44304089999999, 3.231748099999963], [103.43122580000002, 3.28950280000003], [103.423605, 3.349197300000015], [103.42825660000001, 3.401814399999989], [103.443518, 3.454913100000021], [103.47527090000004, 3.5012249], [103.44169970000004, 3.552584500000031], [103.36877179999998, 3.645105300000027], [103.34040770000004, 3.694107599999961], [103.32590989999997, 3.7542245], [103.34180280000001, 3.805598799999985], [103.37078359999998, 3.854740700000012], [103.36821420000003, 3.9162128], [103.39436250000003, 3.960664199999973], [103.41012830000003, 4.0090385], [103.39160509999996, 4.067849200000038], [103.3933403, 4.1243339], [103.41627360000001, 4.171619600000018], [103.442151, 4.231272899999969], [103.47609630000004, 4.273309], [103.4921246, 4.321290100000028], [103.46808090000005, 4.367106599999979], [103.45773389999995, 4.41750150000003], [103.44458490000002, 4.4695388], [103.4657973, 4.517233099999971], [103.44658270000002, 4.615786799999975], [103.4464599, 4.671377599999968], [103.4252, 4.751785599999967], [103.42454150000003, 4.809086100000024], [103.3619181, 4.922039100000029], [103.29650569999995, 5.041304199999961], [103.23414090000001, 5.163769800000026], [103.2131409, 5.2110326], [103.1825261, 5.2566038], [103.15151239999996, 5.331100099999984], [103.11929939999997, 5.37863549999996], [103.04307290000001, 5.455869299999958], [103.00205469999997, 5.498770199999989], [102.96005230000003, 5.533807299999958], [102.88316820000001, 5.554880499999979], [102.84065059999999, 5.5826101], [102.78931469999998, 5.632484100000021], [102.7331606, 5.6703595], [102.6602259, 5.739575299999964], [102.63018460000002, 5.781772400000027], [102.57885840000002, 5.8205291], [102.507186, 5.8718477], [102.4695262, 5.918857800000041], [102.37254238815024, 6.129260207136764], [102.33240929999997, 6.172998500000024], [102.28223690000003, 6.191997700000038], [102.23749440000003, 6.218071199999984], [102.18450069999999, 6.226779899999966], [102.13385739999998, 6.2198157], [102.08431, 6.2301509], [102.07852040000003, 6.1708909], [102.07430229999999, 6.1194781], [102.043594, 6.0763048], [102.00422839999999, 6.0444341], [101.97226580000003, 6.005527699999988], [101.94128409999996, 5.959189400000029], [101.92219160000005, 5.909942899999963], [101.93798339999998, 5.861163], [101.89175910000004, 5.837940800000028], [101.86365820000003, 5.794481200000043], [101.821979, 5.759204], [101.776595, 5.781128], [101.725836, 5.782236], [101.674596, 5.786847], [101.659007, 5.835673], [101.623328, 5.877125], [101.589818, 5.918452], [101.537425, 5.915234], [101.496834, 5.883713], [101.447213, 5.870436], [101.396906, 5.872412], [101.362078, 5.830605], [101.317507, 5.805648], [101.263769, 5.800732], [101.255785, 5.751337], [101.251236, 5.698699], [101.21492, 5.663848], [101.167232, 5.641526], [101.119983, 5.663019], [101.091733, 5.704416], [101.06019559999997, 5.744327300000038], [101.007136, 5.770078], [100.999529, 5.822912], [101.00899, 5.873733], [101.037068, 5.918044], [101.086802, 5.910897], [101.109279, 5.959336], [101.111051, 6.010272], [101.1054, 6.060617], [101.126637, 6.106913], [101.07488, 6.135406], [101.100673, 6.178256], [101.110641, 6.227968], [101.066923, 6.255814], [101.015275, 6.246667], [100.976172, 6.27971], [100.930298, 6.243313], [100.880614, 6.254652], [100.83861, 6.282173], [100.835591, 6.338947], [100.821257, 6.399158], [100.803523, 6.446001], [100.753164, 6.457799], [100.741114, 6.506911], [100.703051, 6.469955], [100.652058, 6.442584], [100.609199, 6.469211], [100.562516, 6.495959], [100.51160659999996, 6.492266700000013], [100.46734140000002, 6.521632599999969], [100.41634180000004, 6.523162199999963], [100.3689452, 6.539101800000044], [100.3358766, 6.5823529], [100.32126620000004, 6.6356787], [100.29425629999997, 6.679750899999957], [100.25281029999998, 6.708577], [100.204335, 6.723553], [100.204976, 6.725736]]], [[[117.47585339999998, 6.749371099999988], [117.42438190000003, 6.749490800000033], [117.43554990000001, 6.6935452], [117.38695529999997, 6.678805399999974], [117.33083260000002, 6.672604099999977], [117.3670325, 6.636171099999975], [117.42134070000002, 6.623823700000018], [117.46901810000001, 6.641365300000044], [117.5129746, 6.673033599999987], [117.4896154, 6.72230010000002], [117.47585339999998, 6.749371099999988]]], [[[117.2681514, 6.8223177], [117.2681514, 6.8223177]]], [[[117.20151180000003, 6.980764], [117.20151180000003, 6.980764]]], [[[116.74184310000001, 7.03739089999996], [116.72688510000005, 6.988235499999971], [116.7061828, 6.9314705], [116.67887790000003, 6.8840928], [116.64349050000003, 6.839249], [116.64132110000003, 6.78871409999998], [116.6426324, 6.7382814], [116.62880560000002, 6.6873837], [116.5851651, 6.6561419], [116.55483129999998, 6.6154323], [116.52958239999995, 6.569659700000039], [116.49595650000005, 6.5289829], [116.48322889999999, 6.479499599999969], [116.403681, 6.424366900000043], [116.35737670000002, 6.393855299999971], [116.31482329999997, 6.363030800000034], [116.32271520000005, 6.313219799999978], [116.26931290000003, 6.2882001], [116.22274470000005, 6.254045499999958], [116.27241420000004, 6.266254], [116.204348, 6.235613499999979], [116.16574860000004, 6.178895], [116.2021779, 6.144010299999967], [116.15055069999997, 6.139316700000017], [116.1050594, 6.115136699999977], [116.12187259999999, 6.065849800000032], [116.10899969999997, 6.015329099999964], [116.0651913, 5.971823800000018], [116.04016840000003, 5.916630699999978], [116.04151780000004, 5.864934299999978], [116.01362869999997, 5.823410600000032], [115.977094, 5.783086], [115.91153069999999, 5.7554436], [115.89668410000002, 5.69640160000001], [115.88826220000004, 5.64557], [115.8760921, 5.58948170000003], [115.80698440000002, 5.540111500000031], [115.75193079999997, 5.529694199999988], [115.69725979999997, 5.53395070000001], [115.63930409999998, 5.5458766], [115.59003320000002, 5.554554700000023], [115.616588, 5.604015], [115.5701764, 5.578959700000028], [115.53634809999996, 5.531769500000014], [115.49332859999997, 5.499427099999985], [115.44645289999995, 5.45122019999996], [115.40537839999996, 5.412896], [115.3710971, 5.369966100000032], [115.36076469999998, 5.321023399999967], [115.39889709999999, 5.282262099999966], [115.4506345, 5.272243100000016], [115.46976969999999, 5.224274199999965], [115.51697660000005, 5.20581160000003], [115.56984580000001, 5.179131299999971], [115.555257, 5.12716810000001], [115.54888460000002, 5.077384900000035], [115.51665689999997, 5.038682600000031], [115.470113, 5.01346], [115.43454150000002, 4.976635], [115.3968942, 4.941883800000011], [115.3662579, 4.899219], [115.31346969999998, 4.8940528], [115.26573050000002, 4.915105899999959], [115.22282240000001, 4.9660857], [115.1874475, 4.925271499999959], [115.15250180000004, 4.886218100000037], [115.1903437, 4.840557500000018], [115.23486179999998, 4.80343169999998], [115.2412684, 4.7442934], [115.25161770000001, 4.691890199999968], [115.2808583, 4.640801200000042], [115.28233680000002, 4.578541700000014], [115.26788070000003, 4.5272884], [115.28006770000005, 4.473384400000033], [115.28655020000004, 4.423339499999988], [115.3277789, 4.386259600000018], [115.36304369999998, 4.346327300000028], [115.33478, 4.301209100000034], [115.295885, 4.338029700000043], [115.24582030000005, 4.3411775], [115.19969239999999, 4.363528100000011], [115.14500470000003, 4.381361], [115.09062990000001, 4.385356399999982], [115.09257750000005, 4.443895600000034], [115.09223419999998, 4.495413900000043], [115.07779050000002, 4.5458109], [115.0593354, 4.596095399999975], [115.04437139999999, 4.645335499999956], [115.03193070000005, 4.698957400000023], [115.02202829999997, 4.748179700000041], [115.05518189999998, 4.790446800000034], [115.0229508, 4.828875], [115.02083679999998, 4.879359600000019], [114.988128, 4.839039], [114.944912, 4.812643], [114.874767, 4.803261], [114.836928, 4.759978], [114.788974, 4.737456], [114.789558, 4.678311], [114.807748, 4.626001], [114.817097, 4.572471], [114.818317, 4.518967], [114.82125, 4.459705], [114.862761, 4.421281], [114.880175, 4.37068], [114.85571, 4.318154], [114.814042, 4.25711], [114.807165, 4.191615], [114.800559, 4.13806], [114.755718, 4.09327], [114.725116, 4.050245], [114.649205, 4.006242], [114.614449, 4.044554], [114.567423, 4.077937], [114.544863, 4.126005], [114.495056, 4.147168], [114.472775, 4.199859], [114.454051, 4.248155], [114.405265, 4.261951], [114.347874, 4.259105], [114.323459, 4.318351], [114.306565, 4.366241], [114.29498, 4.440807], [114.260148, 4.507013], [114.213346, 4.536247], [114.162633, 4.573385], [114.076944, 4.583588], [113.98823120000004, 4.59195609999997], [113.98820090000002, 4.522716], [113.99958510000005, 4.4624401], [113.9859519, 4.4070372], [113.961115, 4.3619017], [113.9467203, 4.28605439999997], [113.87651079999998, 4.187105200000016], [113.81741140000003, 4.1206497], [113.7841664, 4.063139099999966], [113.72778309999998, 3.995360100000043], [113.68390669999998, 3.944987200000036], [113.6289751, 3.897548299999962], [113.55451049999996, 3.837443499999957], [113.4929506, 3.798171], [113.43326390000004, 3.755777100000022], [113.41818559999999, 3.7024692], [113.39256089999996, 3.656858600000032], [113.36392989999997, 3.613716500000028], [113.30693829999998, 3.557350500000021], [113.28725790000001, 3.49595819999998], [113.227006, 3.4396452], [113.17149749999999, 3.391145], [113.12793730000001, 3.3209696], [113.06420919999998, 3.280268299999975], [113.05131240000004, 3.216969800000045], [113.02312389999999, 3.174028799999982], [112.95606710000004, 3.1290203], [112.8813791, 3.099319499999962], [112.80163279999995, 3.083726499999959], [112.70117959999999, 3.060747], [112.60731219999995, 3.03093], [112.47666569999997, 3.0039008], [112.4081713, 2.989126], [112.28469379999997, 2.9661969], [112.1773866, 2.931655500000017], [112.09846570000005, 2.914507599999969], [111.973195, 2.8852123], [111.88384390000004, 2.873362800000021], [111.68926709999998, 2.841321799999972], [111.72354339999997, 2.80177269999998], [111.67175770000004, 2.8258912], [111.61453840000004, 2.82183290000003], [111.54558659999998, 2.7653669], [111.49340150000005, 2.745477200000033], [111.4458513, 2.707068499999985], [111.41953109999999, 2.629961199999973], [111.3994707, 2.5632582], [111.4312041, 2.505974700000011], [111.4118303, 2.457959300000021], [111.43157140000002, 2.397417199999983], [111.38934270000001, 2.364486699999966], [111.32994789999995, 2.368603100000031], [111.29250169999996, 2.402214900000019], [111.25115530000004, 2.437721700000037], [111.205665, 2.405821199999978], [111.18469829999998, 2.35967960000004], [111.19207980000002, 2.292100699999975], [111.1905348, 2.233438300000032], [111.1661589, 2.18437969999997], [111.20340939999996, 2.1435534], [111.21789430000003, 2.086276600000034], [111.18384, 2.026901], [111.1682189, 1.964797200000032], [111.14521620000002, 1.91058330000001], [111.10624409999998, 1.830788500000033], [111.09406110000005, 1.7702367], [111.11174229999999, 1.716703200000044], [111.07187990000001, 1.675002700000036], [111.01664189999998, 1.650127300000012], [111.00256559999997, 1.58955509999997], [110.99896070000004, 1.5343006], [111.04513759999998, 1.491057099999957], [111.07861160000002, 1.437344600000032], [111.02110509999997, 1.442321200000038], [110.99346760000002, 1.486252200000035], [110.94080429999995, 1.5211251], [110.88240270000001, 1.533442599999976], [110.80910330000003, 1.574283], [110.76841950000004, 1.537389400000042], [110.69844819999999, 1.556381199999976], [110.64745789999998, 1.578827800000035], [110.59716109999995, 1.5994193], [110.54772259999999, 1.587236], [110.51184539999997, 1.628590099999969], [110.481745, 1.669002100000036], [110.513159, 1.720649599999988], [110.46063070000004, 1.738665800000025], [110.43247820000002, 1.69336759999997], [110.37691440000005, 1.6899973], [110.3572881, 1.737711799999961], [110.33809209999997, 1.7873692], [110.30610920000002, 1.7465619], [110.3077147, 1.694275699999967], [110.29906789999997, 1.641329899999974], [110.33149479999997, 1.602886800000011], [110.28800369999996, 1.63160209999996], [110.28122980000002, 1.6817178], [110.232321, 1.706408099999987], [110.24691209999997, 1.652402599999978], [110.20049660000002, 1.687193800000028], [110.15284180000003, 1.702633200000023], [110.08366230000004, 1.701260500000043], [110.00881790000004, 1.697828799999965], [109.918524, 1.710011399999964], [109.88178850000001, 1.74861760000001], [109.8140706, 1.7969378], [109.7199118, 1.837323099999985], [109.68098660000004, 1.871154700000041], [109.65073230000003, 1.915901799999972], [109.65087390000002, 1.9690939], [109.6550013, 2.025847899999964], [109.64705379999995, 2.080474600000035], [109.632775, 2.031795], [109.620415, 1.983211], [109.565834, 1.972441], [109.540275, 1.926549], [109.554156, 1.872826], [109.581569, 1.830308], [109.628894, 1.799731], [109.682706, 1.786147], [109.670328, 1.735553], [109.664488, 1.683088], [109.660275, 1.63265], [109.694061, 1.594229], [109.732909, 1.557737], [109.770049, 1.520479], [109.798108, 1.476675], [109.83451, 1.440801], [109.886649, 1.418706], [109.946314, 1.407245], [109.965828, 1.35845], [109.979186, 1.298646], [110.037264, 1.275927], [110.067197, 1.232575], [110.103833, 1.196655], [110.155489, 1.199143], [110.200132, 1.168012], [110.209244, 1.118425], [110.248414, 1.086189], [110.286464, 1.044174], [110.280719, 0.994458], [110.331233, 1.004287], [110.382133, 0.994673], [110.407998, 0.950705], [110.44599, 0.90795], [110.48965, 0.880122], [110.539332, 0.869061], [110.589232, 0.860194], [110.636502, 0.888988], [110.687515, 0.881637], [110.734651, 0.907261], [110.796014, 0.905677], [110.820627, 0.951093], [110.869887, 0.964883], [110.899841, 1.015185], [110.958934, 1.026455], [111.009337, 1.031023], [111.060132, 1.045553], [111.115195, 1.052356], [111.171699, 1.063369], [111.218863, 1.085394], [111.26643, 1.068788], [111.316477, 1.04561], [111.379265, 1.021856], [111.431965, 1.014014], [111.48916, 1.034425], [111.517621, 0.985381], [111.567472, 0.980679], [111.61609, 1.014416], [111.663521, 1.03998], [111.713783, 1.025919], [111.769614, 1.017109], [111.816497, 0.983738], [111.860962, 1.010078], [111.882691, 1.059336], [111.923914, 1.089739], [111.963859, 1.121239], [112.015931, 1.132666], [112.068312, 1.135302], [112.123036, 1.139305], [112.142368, 1.187732], [112.160223, 1.236941], [112.17172, 1.289297], [112.212824, 1.343558], [112.226444, 1.399063], [112.207967, 1.450102], [112.25726, 1.458962], [112.302343, 1.483957], [112.3516, 1.500336], [112.398904, 1.521864], [112.443401, 1.545784], [112.486678, 1.577467], [112.543807, 1.572439], [112.601265, 1.570681], [112.651522, 1.567728], [112.700755, 1.554328], [112.762497, 1.55794], [112.812047, 1.540829], [112.861962, 1.558037], [112.915418, 1.582422], [112.966847, 1.568484], [113.018423, 1.569241], [113.063847, 1.542928], [113.040757, 1.498041], [113.007317, 1.457815], [112.974682, 1.408681], [113.028992, 1.410828], [113.084497, 1.42767], [113.133754, 1.41283], [113.181474, 1.379463], [113.232756, 1.397501], [113.284442, 1.383076], [113.332478, 1.366526], [113.365918, 1.325617], [113.417226, 1.29042], [113.476368, 1.304187], [113.525771, 1.319124], [113.573686, 1.304211], [113.608907, 1.255589], [113.654186, 1.22066], [113.700464, 1.255491], [113.749551, 1.274262], [113.810023, 1.298865], [113.831015, 1.347243], [113.861355, 1.387835], [113.908586, 1.412903], [113.954206, 1.442389], [114.009756, 1.449821], [114.079378, 1.46516], [114.135847, 1.462876], [114.179967, 1.435092], [114.23322, 1.432905], [114.281843, 1.450689], [114.332942, 1.477122], [114.382529, 1.492429], [114.445173, 1.494552], [114.496207, 1.477476], [114.536987, 1.435199], [114.585832, 1.446654], [114.611, 1.500762], [114.609933, 1.553015], [114.648779, 1.589578], [114.686744, 1.631535], [114.714076, 1.686566], [114.709606, 1.744611], [114.708513, 1.794777], [114.725138, 1.845683], [114.778778, 1.849702], [114.816659, 1.884497], [114.864864, 1.903309], [114.847595, 1.952575], [114.871392, 2.002098], [114.830599, 2.032069], [114.800114, 2.080788], [114.785532, 2.13046], [114.782131, 2.192171], [114.803442, 2.239937], [114.851952, 2.260442], [114.902762, 2.261503], [114.954729, 2.282985], [114.951288, 2.345113], [115.001727, 2.360035], [115.04067, 2.392675], [115.09074, 2.405602], [115.110839, 2.457248], [115.165346, 2.480884], [115.221404, 2.490908], [115.211058, 2.543012], [115.185139, 2.588355], [115.133397, 2.5935], [115.084003, 2.612924], [115.112623, 2.662157], [115.098989, 2.712998], [115.141147, 2.74432], [115.146723, 2.798071], [115.095094, 2.818073], [115.135372, 2.856037], [115.150015, 2.908951], [115.192308, 2.939715], [115.238805, 2.96111], [115.268526, 3.016804], [115.322764, 3.01188], [115.363711, 2.980166], [115.412398, 2.992353], [115.453258, 3.028477], [115.503517, 3.036152], [115.515962, 3.090273], [115.539309, 3.143752], [115.521719, 3.1935], [115.527539, 3.247589], [115.522475, 3.299378], [115.542886, 3.347038], [115.55662, 3.397294], [115.579626, 3.450207], [115.615227, 3.412705], [115.63491, 3.460967], [115.610953, 3.512553], [115.605763, 3.568699], [115.576107, 3.610793], [115.574904, 3.6633], [115.580411, 3.714856], [115.593672, 3.769926], [115.612156, 3.8193], [115.619562, 3.868863], [115.558352, 3.919186], [115.609434, 3.940834], [115.646369, 3.978687], [115.653076, 4.035767], [115.675046, 4.084681], [115.684691, 4.136083], [115.698661, 4.185992], [115.742637, 4.216114], [115.788949, 4.246541], [115.839317, 4.268319], [115.864004, 4.321328], [115.869132, 4.371697], [115.920458, 4.367065], [115.974922, 4.358301], [116.022153, 4.334382], [116.047838, 4.290074], [116.098446, 4.311542], [116.149841, 4.339463], [116.171055, 4.393069], [116.223289, 4.383568], [116.271777, 4.363134], [116.321129, 4.386084], [116.374824, 4.377611], [116.416333, 4.332965], [116.440956, 4.288749], [116.483909, 4.321864], [116.537019, 4.323244], [116.536021, 4.375662], [116.586406, 4.374295], [116.619898, 4.335849], [116.678601, 4.338289], [116.733089, 4.351376], [116.785656, 4.342396], [116.840211, 4.327203], [116.891893, 4.356814], [116.942025, 4.359158], [117.004118, 4.346185], [117.054741, 4.341983], [117.106142, 4.333271], [117.156543, 4.35295], [117.205835, 4.342495], [117.245912, 4.37396], [117.284102, 4.334296], [117.32429, 4.302523], [117.372582, 4.282743], [117.411882, 4.247691], [117.441635, 4.201262], [117.483155, 4.17031], [117.535, 4.166416], [117.585956, 4.178304], [117.61542530000003, 4.22795259999996], [117.64616880000001, 4.27420970000004], [117.62902490000003, 4.342120500000033], [117.58263980000001, 4.363789699999985], [117.5625156, 4.4098657], [117.61182979999998, 4.424462700000018], [117.66056009999997, 4.4107254], [117.69933610000004, 4.377249699999983], [117.745372, 4.35359589999996], [117.79427870000004, 4.329507200000013], [117.79475, 4.37975], [117.81125, 4.33175], [117.84533610000001, 4.293444199999983], [117.87923160000003, 4.2447355], [117.9295, 4.249], [117.97625, 4.22575], [118.02625, 4.23575], [118.07275, 4.25575], [118.12175, 4.285], [118.17391460000002, 4.2990231], [118.23128349999996, 4.307715799999987], [118.3054412, 4.326887399999966], [118.3622611, 4.321752199999982], [118.41444620000001, 4.3277433], [118.48887280000001, 4.360071600000013], [118.551532, 4.35045509999997], [118.59633559999996, 4.3997495], [118.64512030000002, 4.438749500000037], [118.61607390000003, 4.480959500000012], [118.5709297, 4.52074649999997], [118.50157850000004, 4.516639399999964], [118.4350456, 4.601054500000044], [118.3826889, 4.5983167], [118.33895529999998, 4.627367900000032], [118.2953379, 4.656429500000034], [118.254091, 4.689821400000036], [118.217032, 4.7271491], [118.19782729999997, 4.777684], [118.17045160000002, 4.820473599999962], [118.129384, 4.849147899999982], [118.16107590000001, 4.893756199999975], [118.18983429999997, 4.937739799999972], [118.23291609999995, 4.9673448], [118.2828814, 4.963317899999962], [118.3168917, 5.000791299999983], [118.36582220000003, 5.0180686], [118.43686220000004, 5.000936099999973], [118.47528750000004, 4.923370100000022], [118.55067360000001, 4.9593798], [118.607193, 4.944292700000017], [118.65759490000002, 4.934843499999961], [118.70902569999998, 4.949436900000035], [118.787738, 4.974942399999969], [118.835693, 4.993844400000023], [118.88283210000002, 5.016245200000022], [118.92850010000004, 5.038420800000041], [119.03578869999996, 5.061812], [119.09552690000001, 5.076688200000032], [119.16298380000002, 5.1050365], [119.2101907, 5.13940260000004], [119.26404730000003, 5.2063749], [119.24693220000003, 5.264747200000017], [119.26457750000002, 5.312318400000025], [119.24345129999996, 5.386349599999982], [119.194679, 5.4333874], [119.14715729999998, 5.449453399999968], [119.10542190000001, 5.420524799999957], [119.05220690000003, 5.4007008], [118.95862130000003, 5.429338099999979], [118.90148819999997, 5.452652], [118.8501614, 5.4786259], [118.80964940000001, 5.508528699999968], [118.80717139999997, 5.455069899999985], [118.78458680000004, 5.523735800000016], [118.70373430000004, 5.568500499999982], [118.647601, 5.634957899999979], [118.5950726, 5.6245371], [118.58543020000003, 5.575317799999966], [118.56174020000003, 5.524587599999973], [118.57181389999998, 5.584391300000022], [118.60530490000002, 5.644864200000019], [118.57379520000005, 5.684653299999973], [118.50243439999997, 5.730533699999971], [118.45934379999997, 5.759030699999976], [118.40979559999998, 5.783584899999981], [118.35171209999999, 5.8271479], [118.30808020000003, 5.79849670000002], [118.2616, 5.8326828], [118.20828870000003, 5.816322600000032], [118.15659880000003, 5.804798100000039], [118.16734779999999, 5.748270499999983], [118.13559050000005, 5.708131500000033], [118.08031549999998, 5.697370399999966], [118.02212230000005, 5.695491400000017], [117.95259939999998, 5.679434700000017], [117.94762120000003, 5.73272769999996], [117.91260229999996, 5.7725233], [117.96272739999998, 5.796262800000016], [118.00755430000004, 5.829223300000028], [118.04233149999999, 5.791565600000035], [118.0854113, 5.817357699999968], [118.1295304, 5.843530200000022], [118.0964227, 5.8814744], [118.0597236, 5.916742299999975], [118.03722220000002, 5.9617514], [118.04278739999997, 6.012547799999965], [118.00995479999997, 6.055219899999984], [117.96048919999998, 6.030840100000021], [117.91668530000001, 5.99587130000002], [117.89135659999997, 5.9484524], [117.8355791, 5.9355462], [117.758763, 5.939449199999989], [117.72938889999998, 5.897311599999964], [117.6789947, 5.909454699999981], [117.6265525, 5.896266199999975], [117.64741750000003, 5.945023399999969], [117.67989880000002, 5.994897299999988], [117.62771369999999, 6.0228951], [117.6558662, 6.073765500000037], [117.62904090000002, 6.119126200000022], [117.59474369999998, 6.167973800000035], [117.5466404, 6.153056399999977], [117.5902954, 6.1851561], [117.6303321, 6.2167982], [117.67395589999998, 6.241425], [117.7229515, 6.2537593], [117.72972130000004, 6.321840300000034], [117.72483050000002, 6.394666899999977], [117.7262258, 6.44467], [117.6765741, 6.4781269], [117.6302096, 6.511572800000018], [117.57933839999997, 6.522198299999968], [117.5422596, 6.556818800000017], [117.52131690000003, 6.617185899999964], [117.48406639999999, 6.580693700000038], [117.42535819999998, 6.554090200000027], [117.39595490000004, 6.596705300000036], [117.3481106, 6.61513950000002], [117.29661210000003, 6.612240799999989], [117.28356589999999, 6.6622005], [117.27017630000003, 6.710450300000024], [117.24786030000004, 6.759888499999964], [117.22726090000005, 6.805571699999988], [117.24201789999998, 6.854409299999973], [117.25601540000004, 6.9078311], [117.2224544, 6.945321800000035], [117.18125570000002, 6.985023699999968], [117.138512, 7.012114499999975], [117.09144760000004, 6.992725699999967], [117.08134879999997, 6.940550499999962], [117.03099820000003, 6.944862499999958], [117.03281059999998, 6.891067200000021], [117.0510875, 6.8427101], [117.0944067, 6.811085899999978], [117.0514085, 6.836944], [117.0141059, 6.787524499999962], [116.9746717, 6.739489699999965], [116.95797340000003, 6.688595299999975], [116.9119445, 6.6636486], [116.879296, 6.625014100000013], [116.85510890000005, 6.579045], [116.804974, 6.562276], [116.7563755, 6.578175599999967], [116.75478260000001, 6.6290437], [116.78897420000001, 6.667732200000018], [116.8098505, 6.7170109], [116.84328590000004, 6.7577774], [116.8540576, 6.815527699999966], [116.83415639999997, 6.861476799999964], [116.78704459999996, 6.8825899], [116.83914530000001, 6.886034900000024], [116.83599060000003, 6.938982199999963], [116.8011975, 6.976163499999974], [116.76847790000002, 7.022718099999978], [116.74184310000001, 7.03739089999996]]], [[[117.302188, 7.077886600000025], [117.26571620000004, 7.041876099999986], [117.31814440000002, 7.0210072], [117.3157718, 7.072716099999963], [117.302188, 7.077886600000025]]], [[[117.04729940000001, 7.0909051], [117.04729940000001, 7.0909051]]], [[[117.14953530000004, 7.155312400000011], [117.14953530000004, 7.155312400000011]]], [[[117.19678469999997, 7.178741600000014], [117.19678469999997, 7.178741600000014]]], [[[117.34331710000004, 7.19872280000001], [117.34331710000004, 7.19872280000001]]], [[[117.32480779999997, 7.230209700000043], [117.32480779999997, 7.230209700000043]]], [[[117.321103, 7.2425475], [117.321103, 7.2425475]]], [[[117.34365850000005, 7.262317700000041], [117.34365850000005, 7.262317700000041]]], [[[117.29767910000002, 7.298133], [117.29767910000002, 7.298133]]], [[[117.0192006, 7.3068665], [117.0030644, 7.35794380000002], [116.9663289, 7.313336600000029], [116.92025560000005, 7.29290750000001], [116.87400189999997, 7.259274400000035], [116.85935469999998, 7.208448600000037], [116.89802760000003, 7.243826699999976], [116.95396920000002, 7.247609499999972], [116.97834520000002, 7.305163799999979], [117.0192006, 7.3068665]]], [[[117.24802780000005, 7.35599680000004], [117.19633479999996, 7.352350699999985], [117.14454949999998, 7.336394400000033], [117.0986553, 7.311958599999966], [117.0649963, 7.273993400000021], [117.05988710000004, 7.223508900000017], [117.0741946, 7.168078200000036], [117.07642360000004, 7.117866499999956], [117.12620819999995, 7.15647], [117.17118169999996, 7.185150100000013], [117.22121749999997, 7.1851339], [117.26599290000001, 7.20871890000002], [117.27223969999997, 7.2616389], [117.2927796, 7.316462500000029], [117.24802780000005, 7.35599680000004]]]]}}]}