{"type": "FeatureCollection", "features": [{"type": "Feature", "properties": {"code": "MYT", "name": "Mayotte", "tier": "country"}, "geometry": {"type": "MultiPolygon", "coordinates": [[[[45.137943680356614, -13.004542962187884], [45.137943680356614, -13.004542962187884]]], [[[45.19994748648736, -12.932576180446347], [45.19994748648736, -12.932576180446347]]], [[[45.14224253326637, -12.921696609510889], [45.14224253326637, -12.921696609510889]]], [[[45.23268002196551, -12.90027192371025], [45.23268002196551, -12.90027192371025]]], [[[45.2340335699933, -12.83668601045099], [45.2340335699933, -12.83668601045099]]], [[[45.236195163376124, -12.805290266832287], [45.236195163376124, -12.805290266832287]]], [[[45.259847916847946, -12.784332732969233], [45.259847916847946, -12.784332732969233]]], [[[45.26273123236052, -12.783357624154974], [45.26273123236052, -12.783357624154974]]], [[[45.257527034644966, -12.781482018780082], [45.257527034644966, -12.781482018780082]]], [[[45.268127154744434, -12.779236230867298], [45.268127154744434, -12.779236230867298]]], [[[45.251550716792224, -12.771917483305174], [45.251550716792224, -12.771917483305174]]], [[[45.289549450147035, -12.765359782527923], [45.26789794813186, -12.77745599409883], [45.27362179031343, -12.799334815948953], [45.28681985305383, -12.817473886210848], [45.29589731031268, -12.796411311532779], [45.294041025972604, -12.775420912844822], [45.289549450147035, -12.765359782527923]]], [[[45.05977663788161, -12.675415577366948], [45.05977663788161, -12.675415577366948]]], [[[45.114850268325256, -12.67433731991133], [45.114850268325256, -12.67433731991133]]], [[[45.21274350011248, -12.803897504765985], [45.227396213564475, -12.786141293885578], [45.236091119909304, -12.764583417590586], [45.22536735022311, -12.743483285425214], [45.2065093106562, -12.73408037430977], [45.18596820157131, -12.729496335587385], [45.166243055472705, -12.717695760850631], [45.155015398342016, -12.734762367988822], [45.133278681066315, -12.728122906247052], [45.12329842318371, -12.707454255309585], [45.111296242927324, -12.691298704571523], [45.09846126887254, -12.675469452153436], [45.10359820179565, -12.654687349041865], [45.085823409123066, -12.666611079637562], [45.06667744620722, -12.681187647491868], [45.06227570186218, -12.701759065528393], [45.04782101552752, -12.715913287468197], [45.054069759611764, -12.73529606076454], [45.051752864103435, -12.75592081669231], [45.0729826668167, -12.76176294670256], [45.0920706423463, -12.771236652449488], [45.09759186996888, -12.792070942320095], [45.10465023502036, -12.812177686051314], [45.1009216017506, -12.833897877385084], [45.09263875577403, -12.852226863778696], [45.11165433048302, -12.863956675360214], [45.123822071431505, -12.881725662009671], [45.13964929497905, -12.896284246121013], [45.14936483921599, -12.919340177107415], [45.13757435397332, -12.936936013686022], [45.106257113974664, -12.923824077219365], [45.09921683159155, -12.89869524399029], [45.07179784329588, -12.899568074706849], [45.083342175101336, -12.921816597058239], [45.10433301715506, -12.932986124709828], [45.095142962977434, -12.953252387487623], [45.11069489145615, -12.967570536051369], [45.10562112151757, -12.987041474384512], [45.12552486757863, -12.982999165678905], [45.142031398530264, -12.999443093024297], [45.15640819188462, -12.980374862110125], [45.175601576051974, -12.994785627354759], [45.19766094939337, -12.98168540185975], [45.1782914006277, -12.965910364171918], [45.16998369559116, -12.94376518291682], [45.17951964251756, -12.926000386208784], [45.19948354692821, -12.92001264157011], [45.19849410651784, -12.899309261513167], [45.2173281314881, -12.885928531176717], [45.212641188739894, -12.86312768569411], [45.19463665795547, -12.847965656489805], [45.195284734602865, -12.824675277641916], [45.21274350011248, -12.803897504765985]]], [[[45.029666860037594, -12.650375436177399], [45.029666860037594, -12.650375436177399]]]]}}]}