{"type": "FeatureCollection", "features": [{"type": "Feature", "properties": {"code": "NAM", "name": "Republic of Namibia", "tier": "country"}, "geometry": {"type": "Polygon", "coordinates": [[[13.197982704438289, -16.98092362132803], [13.137936706214077, -16.974814147155143], [13.027426517619745, -16.98214549152118], [12.978239901450365, -16.991920171578613], [12.889448478764336, -17.045671797715272], [12.818543097585916, -17.099407966304568], [12.685036568882595, -17.176931692243784], [12.603271804750023, -17.22086776413596], [12.536199147073035, -17.245882252164165], [12.450601660338407, -17.258693238602007], [12.389278087014134, -17.209884724400467], [12.31837270583577, -17.219037302929166], [12.228942495599767, -17.228189428199528], [12.117793519455404, -17.151907884541174], [12.069245690835999, -17.134816515469765], [12.009199692611787, -17.14153116952781], [11.908271311871601, -17.170828635632972], [11.849502887848018, -17.19707035291441], [11.797122336626558, -17.226969171390124], [11.72749452964888, -17.23612090365674], [11.720467870196103, -17.292851516983887], [11.70677386911882, -17.376809683520037], [11.705775764639895, -17.42728801572929], [11.699787134168957, -17.524395688809932], [11.707771974497064, -17.60527908226379], [11.727734074867726, -17.717504197060975], [11.748694280616633, -17.7906980236948], [11.760671540659132, -17.875261307163555], [11.774645011458176, -17.934146794139167], [11.785624166122432, -17.988266177342155], [11.801593846778644, -18.046165029792235], [11.839521837662744, -18.1315547524498], [11.870463093596925, -18.17897550031904], [11.930349395608175, -18.25103035176926], [11.938334235936281, -18.309789821243214], [11.97526412144208, -18.377054405036745], [11.987241382383957, -18.45092047489993], [12.031158002839618, -18.520969185279625], [12.0880499896154, -18.558821419073183], [12.149932501483818, -18.610854530712004], [12.278688050313349, -18.71203697352746], [12.34755729713163, -18.78197825179484], [12.437386749698817, -18.89439048583222], [12.46233937516206, -18.949152322221835], [12.496274946331766, -19.02559998684984], [12.54717830263661, -19.068999066353797], [12.612055129740497, -19.154820278333148], [12.697892161693972, -19.322561161768135], [12.713861842350184, -19.40448436845878], [12.766761408512252, -19.487307266816856], [12.816666660338171, -19.586074626143045], [12.885535907156452, -19.698877460026722], [12.945422208268326, -19.84258578560548], [12.98434830453067, -19.893275384751178], [13.021278190935789, -19.953330936473492], [13.03125924112112, -20.013363644516517], [13.05321755134895, -20.07056100238833], [13.110109538124732, -20.12305169358075], [13.157100322821691, -20.177435957703267], [13.197982704438289, -20.22179886852291], [13.21970147034665, -20.28172864825848], [13.254834766711156, -20.358404968214643], [13.254834766711156, -20.467363554684255], [13.30274380867985, -20.561891321027588], [13.363428594454092, -20.668912256095723], [13.383230997712417, -20.802731699408355], [13.40239461432003, -20.852883437420644], [13.485436952653288, -20.96089163384181], [13.536539930573383, -21.022916354606025], [13.563368993284485, -21.071206204602618], [13.57486716288929, -21.13437664456643], [13.66110343717395, -21.233845262848547], [13.796526327627987, -21.418904329770953], [13.861043836903605, -21.49084161374941], [13.875735942459812, -21.56511966304197], [13.944086175236862, -21.66845135784382], [13.981135833352084, -21.710000725253224], [13.954945558191014, -21.760437403563287], [13.997105514008297, -21.815600766562056], [14.06353938503463, -21.868371612759688], [14.148498085118604, -21.969115628883117], [14.240483443755977, -22.073932046826428], [14.285198548874007, -22.13193259371417], [14.32735850559061, -22.210018041599312], [14.40592933377178, -22.29692572184456], [14.434035970683567, -22.373737846624294], [14.467252906196734, -22.459953258436087], [14.497914692409154, -22.505991591838438], [14.511968011314707, -22.59448375971772], [14.52602133022026, -22.675256947550054], [14.52857647952095, -22.75068090489981], [14.539435861575782, -22.888457677279916], [14.501108629259875, -22.951411651326623], [14.437868694184942, -22.950823432655227], [14.45319958729118, -22.89669630808811], [14.414233567425242, -22.966116306922004], [14.411039631473841, -23.018451894739087], [14.434035970683567, -23.112487264275785], [14.485138948603662, -23.223481729697994], [14.508774075363362, -23.326758769101843], [14.47875107670086, -23.38833472726583], [14.442340205236349, -23.42585271093384], [14.472363203898794, -23.492069411873842], [14.487694097005033, -23.549469369016094], [14.517078309016824, -23.905021748454885], [14.454477162391186, -23.989672691541443], [14.457671098342587, -24.056186799181376], [14.513245586414712, -24.24795074722914], [14.536880713174412, -24.292790049621033], [14.561793414134797, -24.35507291718136], [14.587344903544533, -24.40103781014676], [14.618645477306984, -24.466755990796287], [14.616090328006294, -24.54754814083401], [14.64355817826737, -24.613770522791356], [14.691467219336744, -24.66892907171922], [14.74512534565821, -24.725223700913034], [14.780897430472066, -24.791351853705066], [14.808365280733142, -24.95883448872064], [14.852441598301198, -25.015576298607243], [14.881187023662278, -25.069977490668634], [14.862662193705319, -25.137077579466677], [14.840823656086911, -25.23379440628679], [14.814872925245368, -25.321340411830477], [14.820861555716249, -25.39980725859806], [14.862781966314742, -25.473717838607342], [14.884740277441892, -25.55118503945795], [14.86877059678568, -25.627702288229955], [14.848808496415018, -25.794968997820945], [14.895719433005468, -25.840791326658348], [14.913685323518905, -25.934177940559437], [14.958600049352867, -26.017624486380896], [14.993533725001441, -26.10190806810283], [14.979560255101717, -26.161049637930375], [14.96259246906726, -26.230010251371937], [14.958480276743444, -26.348240647587772], [15.000001445910073, -26.39803094806973], [15.086237720194674, -26.43064054082828], [15.125842527610587, -26.49811880174127], [15.135424336364053, -26.551272923706392], [15.169280058527931, -26.631814440783785], [15.141173420716825, -26.6877602391437], [15.094541953848136, -26.727134185194473], [15.11115042205438, -26.8035606069364], [15.127758889361303, -26.854862898903605], [15.219284322113822, -26.967737156044848], [15.235137523477988, -27.081102862107343], [15.249173375750729, -27.142182658902527], [15.255411532116568, -27.22403274171762], [15.280364157579868, -27.325221667745723], [15.328709869864667, -27.404168070799756], [15.369257887141828, -27.465070618414245], [15.430079912158249, -27.53838584812837], [15.500259171723428, -27.65586477354043], [15.562640735381706, -27.804950182504854], [15.625022299939246, -27.868387528661458], [15.654653543126585, -27.918008258374357], [15.687403864496787, -27.996527856675186], [15.787214367249305, -28.097004542125887], [16.228563934178283, -28.491116164579296], [16.450018486963643, -28.65136201354602], [16.48901445065644, -28.61147294482049], [16.53309076822444, -28.585112835388998], [16.607828872904236, -28.54808535365612], [16.65254397802221, -28.517219170428348], [16.719616635699253, -28.51048352889171], [16.758582656464455, -28.475114357441612], [16.78094020902347, -28.403778596704853], [16.754111145413106, -28.34757488087598], [16.767525677667948, -28.291341404682044], [16.814157144536637, -28.251960283839992], [16.870370419259473, -28.195676303518553], [16.87995222801294, -28.142742319402487], [16.95149639584207, -28.098798505246748], [17.015375117567658, -28.08865506717757], [17.085641712095367, -28.07231084676812], [17.162934965176532, -28.103306392076263], [17.19359675138901, -28.15569667126431], [17.16485132692725, -28.20806132516998], [17.185931305285578, -28.266026641116525], [17.249810027011165, -28.2694022904833], [17.30091300403194, -28.256461720731807], [17.362236577356214, -28.302590479167236], [17.403757746522842, -28.356569476400182], [17.39736987372072, -28.416139416700673], [17.33796266304654, -28.457706129334383], [17.332213577794448, -28.51778045440443], [17.37181838521036, -28.570527806712846], [17.42356014978111, -28.606986585062828], [17.406312894924213, -28.659128685540338], [17.405674107374182, -28.711805112815682], [17.500214616211622, -28.705081937681257], [17.563454550387235, -28.702840783974978], [17.59922663520109, -28.75885523208325], [17.66757686707882, -28.77117438019343], [17.754451928913454, -28.75549521203436], [17.840049415648082, -28.767814756745565], [17.91223237102713, -28.784051935348486], [17.958225051245165, -28.80700363401047], [17.996552284460392, -28.843380112701993], [18.08214977119502, -28.892608005954685], [18.1786066408838, -28.913299132748705], [18.257816256615, -28.893167279945942], [18.38557370006623, -28.897641363058426], [18.44498091074047, -28.896522860041898], [18.51844144121958, -28.88365921470097], [18.633423139966, -28.846737300785776], [18.70943881884648, -28.84002281580024], [18.91640587802891, -28.864081044804323], [18.97070279100103, -28.889252299953625], [19.057577852835664, -28.951315305756737], [19.105486893905095, -28.968641580444512], [19.19811104099182, -28.94572556688138], [19.23947251304611, -28.90609964788041], [19.291373974729197, -28.895614068134705], [19.24546114351699, -28.849290089366093], [19.240470618424354, -28.788950588398905], [19.296364499821834, -28.743454251212654], [19.356250800933765, -28.748704840455957], [19.440091623929334, -28.723324547789616], [19.490994980234177, -28.680426602006037], [19.49798171518404, -28.624370163652088], [19.546888861631714, -28.56302414414887], [19.596794112558314, -28.52619935611534], [19.65168988947687, -28.53233771471372], [19.705587561017182, -28.515675623531138], [19.772460597978238, -28.513044526483668], [19.825360164140307, -28.505150841438137], [19.869276785495288, -28.46567355698903], [19.974077813340443, -28.430570252115388], [19.999030438803743, -28.22586227822154], [20.00801338451015, -28.131722847231572], [20.00701527913185, -28.077136877764644], [19.999030438803743, -28.016355345622685], [20.000632134065768, -27.715662545390103], [20.008247071545156, -26.09276056534776], [20.004439602805462, -24.96586890392672], [19.99865225050098, -23.740624699969885], [20.001089031033985, -23.049567777430923], [19.997969952851065, -22.636635821286063], [19.999529491492865, -22.336915774543343], [20.002648569675785, -22.000405358620355], [20.52041555253578, -22.000405358620355], [21.00231313674192, -21.996067366315856], [21.003872675383718, -21.71236533968863], [21.00231313674192, -21.378735382132106], [21.00231313674192, -20.98465482406084], [20.997135467228077, -20.611487535221556], [20.999131677085302, -20.35342665411673], [21.00231313674192, -19.878375263307703], [20.99763451901788, -19.376004244000626], [21.0007535972008, -18.99746708164048], [20.99885220736354, -18.67384060156246], [21.0007685691142, -18.50976331602419], [20.998417832117298, -18.317999397654035], [21.456300509461016, -18.31722318110485], [21.899422411714966, -18.23112344099394], [22.533857891428624, -18.10647346278006], [23.09662943070373, -17.99897415223529], [23.298486191284724, -17.994113875055234], [23.317011020342363, -18.050606319126302], [23.34256250885278, -18.10222332704484], [23.37897338031729, -18.15321814709978], [23.429437570687412, -18.210872930741118], [23.49395507996303, -18.257589653339778], [23.534837461579627, -18.307326115008152], [23.54825199293515, -18.370992192036], [23.552084716436582, -18.445542580325764], [23.583385290199033, -18.492801686748408], [23.641514926672585, -18.48068520805589], [23.69261790459268, -18.429180627084236], [23.751386328616206, -18.403119488273717], [23.845926836554327, -18.31460342450839], [23.899584962875792, -18.264262445755207], [23.927052813136868, -18.21694074651822], [23.980710939458334, -18.17506851799766], [24.02925876807774, -18.13743562435451], [24.08227810774855, -18.11072349509317], [24.153822275577625, -18.052428354584833], [24.27774699552748, -18.02205863939463], [24.352485100207275, -17.966164683353384], [24.422112907184953, -17.95401148174443], [24.477048607707104, -17.99532895716561], [24.49748979851546, -18.045747467371655], [24.561368520241047, -18.06518207129551], [24.611832710611168, -18.03117010451666], [24.680821730038872, -17.952188429152613], [24.74022894161243, -17.92180145777104], [24.802191301587357, -17.882290601629904], [24.883317278169898, -17.85310771005271], [24.96763719070384, -17.82027123273116], [25.028321976478082, -17.822703772061402], [25.074314656696117, -17.84581123779833], [25.14266488857379, -17.85310771005271], [25.21357026975221, -17.822095640601276], [25.2633956725723, -17.792294645881157], [25.180353334239044, -17.71685767714007], [25.149052760476593, -17.6687804664453], [25.106892804659253, -17.6353013983408], [25.04945305791233, -17.580211760864017], [24.979953008624477, -17.557216246332644], [24.912088254169646, -17.53655676848001], [24.836047024650497, -17.531878823448892], [24.784126399313948, -17.5158949362023], [24.734249893417882, -17.49601057502798], [24.666793962671306, -17.50068944366285], [24.61487333823402, -17.526031222862628], [24.544146816922137, -17.50653786083359], [24.47628206336657, -17.478073794669854], [24.396250711900905, -17.473846696867497], [24.346014441213526, -17.48657448972085], [24.274846390548532, -17.489070031057054], [24.020034680855872, -17.51784426619986], [23.660269719571943, -17.590734157055635], [23.273113562640845, -17.668269196466213], [22.972219231532335, -17.72785885350322], [22.6635572481685, -17.788207264953257], [22.29357169148045, -17.861765800851003], [21.896194939145175, -17.938794494969898], [21.4297269612303, -18.027452683994113], [21.377014240015228, -18.00626431754415], [21.2914167532806, -17.969810480968874], [21.228815605755642, -17.933956871712212], [21.146412054972416, -17.93091809669278], [21.088921205149575, -17.94671915896197], [20.98288252670727, -17.966772321985047], [20.905589273626106, -17.988645903485633], [20.864068104459477, -18.028133002236245], [20.790607574879743, -18.029955269719892], [20.736949448558278, -18.012946703027865], [20.685846470638182, -18.000796721891163], [20.59577747285215, -17.979532240420497], [20.532537538676536, -17.979532240420497], [20.469297603601603, -17.93942653670524], [20.369237974253167, -17.89483777194556], [20.310776167785946, -17.858263702307966], [20.25967319076517, -17.883555085298894], [20.189764317769118, -17.8792752584464], [20.12476133017128, -17.90417462515876], [20.07406717685876, -17.888612930042655], [20.01969360837336, -17.895615861782574], [19.94160825941367, -17.865267830146195], [19.886825867220068, -17.87071529447519], [19.810375813093344, -17.874217147503316], [19.76090813090559, -17.906508761570024], [19.710213977593014, -17.876940764104916], [19.643984518870525, -17.84581123779833], [19.562219754737953, -17.865656940715212], [19.491084410617134, -17.857485448794364], [19.419540241888683, -17.86954799514382], [19.349264065983903, -17.85531179280497], [19.274406188694684, -17.826808606132204], [19.209529362490116, -17.820157206789588], [19.124690435015623, -17.815406054245955], [19.050830663104648, -17.837260304819154], [18.968986050865624, -17.82775878663864], [18.872169862449255, -17.799251190589928], [18.82026840166543, -17.77549138182178], [18.762378309511405, -17.739370423006562], [18.713471163063787, -17.71370110352308], [18.639611391152812, -17.6518895328756], [18.593698559940663, -17.597668069425822], [18.54578951887123, -17.554850148915193], [18.496882372423613, -17.49774384200464], [18.410047235091895, -17.391097417911453], [17.882049675252347, -17.39204989348775], [17.032662296927526, -17.3891924505711], [16.328000147189073, -17.39204989348775], [15.554468750632395, -17.39300236456745], [14.754702007591618, -17.390863018613345], [14.218125891196962, -17.39833611052302], [14.128056893410928, -17.439781629618494], [14.033516385472865, -17.431858949530863], [13.977941897400683, -17.445266360953724], [13.928755282130624, -17.40869837253183], [13.88787289961465, -17.358100590569734], [13.71348398929473, -17.272723297442155], [13.604890162451113, -17.19707035291441], [13.526319334269886, -17.15495974919304], [13.512904802914363, -17.089638905211245], [13.466912123595705, -17.024295159094265], [13.41580914567561, -17.0010834718247], [13.344264977846478, -16.98092362132803], [13.259306277762562, -16.998639968859436], [13.197982704438289, -16.98092362132803]]]}}]}