{"type": "FeatureCollection", "features": [{"type": "Feature", "properties": {"code": "NCL", "name": "New Caledonia", "tier": "country"}, "geometry": {"type": "MultiPolygon", "coordinates": [[[[166.87696225728644, -22.84643273076506], [166.87696225728644, -22.84643273076506]]], [[[166.7998868122836, -22.775570398693844], [166.7998868122836, -22.775570398693844]]], [[[167.57171924056433, -22.756062220656702], [167.57171924056433, -22.756062220656702]]], [[[167.5909937162852, -22.730858864551124], [167.5909937162852, -22.730858864551124]]], [[[166.91755627944792, -22.72330810412734], [166.91755627944792, -22.72330810412734]]], [[[166.85135465933638, -22.721167236511974], [166.85135465933638, -22.721167236511974]]], [[[166.79669428424518, -22.711008203840265], [166.79669428424518, -22.711008203840265]]], [[[166.81252358077438, -22.709114372907663], [166.81252358077438, -22.709114372907663]]], [[[167.46494675798056, -22.70560287278863], [167.46494675798056, -22.70560287278863]]], [[[166.85136027380656, -22.692551335322207], [166.85136027380656, -22.692551335322207]]], [[[166.96802755806482, -22.68451141419422], [166.96802755806482, -22.68451141419422]]], [[[166.8124583125599, -22.678493755001625], [166.8124583125599, -22.678493755001625]]], [[[167.45983899384214, -22.672648740763293], [167.45983899384214, -22.672648740763293]]], [[[167.42398779526502, -22.673099301985758], [167.42398779526502, -22.673099301985758]]], [[[167.43772078903544, -22.661888608890592], [167.43772078903544, -22.661888608890592]]], [[[167.39331383989338, -22.651408498712158], [167.39331383989338, -22.651408498712158]]], [[[167.53580838824303, -22.650637912696368], [167.53580838824303, -22.650637912696368]]], [[[167.41473795583886, -22.639889360668178], [167.41473795583886, -22.639889360668178]]], [[[167.53628632000687, -22.636535767519604], [167.53628632000687, -22.636535767519604]]], [[[167.31183665036235, -22.62499803154344], [167.31183665036235, -22.62499803154344]]], [[[167.41747851903767, -22.618260667469713], [167.41747851903767, -22.618260667469713]]], [[[167.41264165307962, -22.618250491242748], [167.41264165307962, -22.618250491242748]]], [[[166.82746508922514, -22.604336781717507], [166.82746508922514, -22.604336781717507]]], [[[168.95693954114063, -22.58434786468132], [168.95693954114063, -22.58434786468132]]], [[[167.51898813774767, -22.57792631454862], [167.51898813774767, -22.57792631454862]]], [[[166.74712553169036, -22.576070030384642], [166.74712553169036, -22.576070030384642]]], [[[167.51513450585924, -22.569238273033022], [167.51513450585924, -22.569238273033022]]], [[[167.51962467829094, -22.562915327030737], [167.51962467829094, -22.562915327030737]]], [[[166.79171214387418, -22.551246352816918], [166.79171214387418, -22.551246352816918]]], [[[167.43858892646836, -22.543251347449484], [167.42502436680013, -22.59256885246873], [167.41896424817753, -22.6445851630657], [167.46439513629696, -22.667859948705313], [167.51923587623924, -22.655586366246666], [167.52961141691264, -22.599147607763257], [167.54491295325636, -22.64740222341902], [167.5468583671326, -22.596069825456425], [167.50875576606074, -22.56190366970651], [167.45883751274482, -22.541948790395168], [167.43858892646836, -22.543251347449484]], [[167.46670619253598, -22.596251944829078], [167.46670619253598, -22.596251944829078]], [[167.46315153117848, -22.59683584971549], [167.46315153117848, -22.59683584971549]], [[167.45884242540637, -22.600073293514583], [167.45884242540637, -22.600073293514583]], [[167.46149596431906, -22.61143347187499], [167.46149596431906, -22.61143347187499]]], [[[167.41241988151228, -22.535034219610168], [167.41241988151228, -22.535034219610168]]], [[[167.44043608711854, -22.534756654246507], [167.44043608711854, -22.534756654246507]]], [[[167.426304465974, -22.536072896571568], [167.426304465974, -22.536072896571568]]], [[[167.42063314940333, -22.534885787057988], [167.42063314940333, -22.534885787057988]]], [[[166.83011090824164, -22.53314109048631], [166.83011090824164, -22.53314109048631]]], [[[167.41595138318098, -22.530854597553912], [167.41595138318098, -22.530854597553912]]], [[[167.43070971954603, -22.526691468003378], [167.43070971954603, -22.526691468003378]]], [[[167.42592268200985, -22.528429146487326], [167.42592268200985, -22.528429146487326]]], [[[167.42133636177857, -22.524897644818736], [167.42133636177857, -22.524897644818736]]], [[[166.76988308427553, -22.516391722675735], [166.76988308427553, -22.516391722675735]]], [[[167.41218968823966, -22.515273741324677], [167.41218968823966, -22.515273741324677]]], [[[166.61164415825624, -22.517154237890963], [166.61164415825624, -22.517154237890963]]], [[[166.46844780114918, -22.478072964506623], [166.46844780114918, -22.478072964506623]]], [[[166.76068026603616, -22.41321530816606], [166.76068026603616, -22.41321530816606]]], [[[166.81846930456925, -22.39339026347494], [166.78506882217414, -22.43411271663905], [166.83288024559943, -22.451178249295026], [166.84221991654647, -22.40105822596132], [166.81846930456925, -22.39339026347494]]], [[[172.08395653951015, -22.39161574003117], [172.08395653951015, -22.39161574003117]]], [[[166.85549112015417, -22.3790154655959], [166.85549112015417, -22.3790154655959]]], [[[167.06349600698888, -22.37899265681125], [167.06349600698888, -22.37899265681125]]], [[[166.84224167261812, -22.351776513188554], [166.84224167261812, -22.351776513188554]]], [[[171.35521516895062, -22.340005776704913], [171.35521516895062, -22.340005776704913]]], [[[166.4093197115062, -22.336032135518963], [166.4093197115062, -22.336032135518963]]], [[[166.82054806210965, -22.33115912641], [166.86074626413165, -22.29889136334964], [166.852325962657, -22.350193232631227], [166.9022603575745, -22.362316628015776], [166.95518515960816, -22.364802785539837], [167.0017164838597, -22.338517591234222], [167.0156144026879, -22.290148580750838], [167.02447403644464, -22.237212549776984], [166.98944114687902, -22.198899406077942], [166.95320676072026, -22.1594033637179], [166.90211508316156, -22.138259269466744], [166.95147469670644, -22.118158764838142], [166.9185542515014, -22.07675625898787], [166.87233312672083, -22.036828604241805], [166.82193974887593, -22.026227081148363], [166.76925917629, -22.010406557228407], [166.72643831494042, -21.98095760904323], [166.6765291851383, -21.98441156084425], [166.72014379219274, -21.959717366992265], [166.67493116659716, -21.923773178754857], [166.62452585800327, -21.9216902103621], [166.58401394746647, -21.88646993785818], [166.5516900397056, -21.846770721862754], [166.50838352669564, -21.81590657631773], [166.47322290793613, -21.78021995189431], [166.42293760864004, -21.78272119830666], [166.47195965217236, -21.77092730213394], [166.44079723790537, -21.730894726978647], [166.385762798746, -21.70147455295256], [166.33644599553543, -21.6866179633613], [166.30401681646072, -21.64385815937362], [166.25475475433325, -21.61708240074654], [166.2054716379431, -21.62921562145351], [166.19739522275972, -21.5758725414002], [166.15284089377883, -21.5449266351348], [166.10600849357024, -21.51687884813441], [166.05622919838856, -21.52841061873619], [166.0402441003149, -21.4799942361617], [166.00674536469353, -21.440622063047385], [165.96033054069585, -21.404635766284343], [165.96313496849177, -21.455344958070214], [165.9950069114127, -21.49788649953416], [165.93846358342444, -21.474414505633774], [165.9244175829483, -21.415998751879897], [165.89629049155826, -21.373382467783244], [165.84362465695585, -21.373537567518724], [165.79334427032097, -21.34581191073795], [165.75921671405308, -21.299027935333868], [165.70344467388918, -21.29042060182536], [165.65108903875785, -21.278638636401524], [165.60009070176397, -21.288594846342278], [165.60530794806846, -21.236616082513876], [165.56555188556365, -21.20005044262149], [165.61878478164215, -21.204108300858366], [165.5587211809252, -21.146743505719144], [165.50343128337795, -21.135478773349575], [165.4629242855026, -21.105138528042232], [165.41924721746864, -21.07396909568763], [165.367086685172, -21.08183707366993], [165.4037288222189, -21.046103077155408], [165.3527283797987, -21.01967190662822], [165.40907309590864, -21.00789836290943], [165.41645893127452, -20.954336669428073], [165.36276213960718, -20.937423078368113], [165.314898782334, -20.917649792072837], [165.2663680049318, -20.94231643993089], [165.3003292325244, -20.89708872544702], [165.24932107020788, -20.869434828611816], [165.20953061907403, -20.90089112529614], [165.26003628631997, -20.86236550899571], [165.24207489478476, -20.815019209324532], [165.21941489361723, -20.765831889829713], [165.16872605428512, -20.765844873291712], [165.11770525941097, -20.755397748125006], [165.05546184069283, -20.732277886768657], [165.00150608159413, -20.744581647003827], [164.9854606279672, -20.68720351749829], [164.9352097173005, -20.699366389625368], [164.91549099663587, -20.649333390577453], [164.86662264922143, -20.63046877117131], [164.83333796527108, -20.58774212764746], [164.79756887831888, -20.54470002108701], [164.76117658518945, -20.504141615720016], [164.718326949681, -20.473724346901463], [164.67262165433738, -20.45198336430184], [164.62441090172877, -20.419705425014513], [164.58619952029983, -20.379692500504405], [164.55250076918242, -20.336159478718002], [164.5009816900905, -20.29847603292683], [164.45337238758714, -20.28025356853385], [164.40452930528807, -20.25964425255586], [164.35598028085826, -20.235396935430344], [164.302121371368, -20.229820187589667], [164.320283480208, -20.29537245914821], [164.3600002414222, -20.335904020330133], [164.418277037042, -20.350873074774825], [164.4339701826724, -20.399087687331473], [164.40066654988595, -20.35603347457004], [164.3482744206991, -20.33548591776281], [164.3047335035642, -20.299253286125975], [164.25639853080554, -20.28446600014945], [164.20618341238503, -20.249845598681247], [164.1635113344921, -20.216884448568294], [164.13247103494894, -20.175191393892362], [164.08598673188442, -20.144749737219456], [164.06022543781637, -20.101856940472146], [164.00309574861103, -20.075812291118325], [164.02103854221411, -20.124717308040317], [164.0632281265863, -20.15216750488372], [164.0546885176227, -20.20544022860912], [164.011157074906, -20.23664738318439], [164.03731594363535, -20.28325660820792], [164.08154568606585, -20.25761725341158], [164.11877523704288, -20.293780230529137], [164.16447842696027, -20.323498497825142], [164.1854568943446, -20.370909363902115], [164.1260705390789, -20.383823697756497], [164.16163961053542, -20.426102236388488], [164.17843108687157, -20.47523692022645], [164.21478337690155, -20.52572241047079], [164.25621114786725, -20.56358674746923], [164.30270878529825, -20.586043750453825], [164.32368093640378, -20.637295966765862], [164.36064520367063, -20.680084720364732], [164.40265898494874, -20.716116108340316], [164.36964730460534, -20.754094664714216], [164.41387178347009, -20.78210437858951], [164.44504332125098, -20.822528563031653], [164.4857370002561, -20.85738319317278], [164.5225679238588, -20.893225970044796], [164.57214018545722, -20.903121999884547], [164.6207348274561, -20.916714456450904], [164.67733079110144, -20.898386896196484], [164.66298231105077, -20.94660747412763], [164.6875442139517, -20.993515143325283], [164.69535815265965, -21.042944235937114], [164.71846871504988, -21.09208277972317], [164.74517043285323, -21.04953281655412], [164.79784468916057, -21.056890228665225], [164.8035440780816, -21.10796646643132], [164.84772715022984, -21.13282453262815], [164.83518161687755, -21.181944478482194], [164.86581416553258, -21.224255124864953], [164.9007586271947, -21.26297251040836], [164.94410514330377, -21.291311898947583], [164.93588415551653, -21.34099118638153], [164.9778775843406, -21.307801246613565], [165.01164160367227, -21.34644810037679], [165.05568501587777, -21.372146231656643], [165.1061913849328, -21.366007510453244], [165.12383415529177, -21.418375427237834], [165.1597429021872, -21.47039349235672], [165.20465234639937, -21.492992085258095], [165.25106366135321, -21.513372260676647], [165.2814484715168, -21.56967381554807], [165.3368689054928, -21.589177782732577], [165.39301220248933, -21.612306241246074], [165.4445832154296, -21.603699258642052], [165.4954432960982, -21.58250323054267], [165.46144206540657, -21.622797580364534], [165.49077696966833, -21.670913237886452], [165.5326082806696, -21.698870842461588], [165.5850670816883, -21.716010065037153], [165.63198720799164, -21.736375853376103], [165.6793473683856, -21.76644520050303], [165.717943341014, -21.733994616261327], [165.7687332408069, -21.725129017129973], [165.8189266031559, -21.71329792509306], [165.76883640669428, -21.74231140094406], [165.7596841186854, -21.792464760193866], [165.80344329834395, -21.81906015397027], [165.8187988739619, -21.870426940562083], [165.86819357794457, -21.86156660499637], [165.91777075220432, -21.886962958510424], [165.9568544819192, -21.922821876983846], [165.99668142710846, -21.95371620030545], [166.02837440879637, -21.91112447951525], [166.08434225360338, -21.923819849037102], [166.13306743203123, -21.948117520941082], [166.149921369347, -21.99749046885222], [166.19388337173632, -21.97291102073217], [166.24610776862994, -21.96097676280789], [166.29446028660743, -21.941929673124662], [166.32038229488114, -21.985489188191593], [166.2825863842363, -21.951112138910048], [166.23227441620747, -21.969717790884715], [166.18091885855586, -21.98228718573472], [166.17596057968285, -22.03471966892505], [166.14547751629345, -22.074552930393168], [166.18604767695695, -22.10786673940686], [166.230048278828, -22.14459905887918], [166.27609816227164, -22.1684342388117], [166.32360219346128, -22.152329131440524], [166.34835639196183, -22.197627026800262], [166.39241103310746, -22.171259019061324], [166.4427075613438, -22.175063173432306], [166.45729184913705, -22.223225501236527], [166.40305957738758, -22.227624789434003], [166.44915858744434, -22.248762918310774], [166.39187695664282, -22.247327368496997], [166.43764190573074, -22.27585624540086], [166.48589687229116, -22.258526130843165], [166.53735910487387, -22.229969532493442], [166.57081503016093, -22.27304374680449], [166.62281695367835, -22.283995121563578], [166.6710164773467, -22.30579821423828], [166.69812945508204, -22.26235695394695], [166.68415363548172, -22.310812286907492], [166.72835284923133, -22.34449665094519], [166.7669530327122, -22.385472807975248], [166.8235468909313, -22.37637666466702], [166.82054806210965, -22.33115912641]], [[164.7456195904581, -21.05330574043535], [164.7456195904581, -21.05330574043535]], [[164.7428348133077, -21.051958267620705], [164.7428348133077, -21.051958267620705]], [[164.9007586271947, -21.26297251040836], [164.9007586271947, -21.26297251040836]], [[165.78362281540967, -21.729737093432902], [165.78362281540967, -21.729737093432902]], [[166.12453343753793, -21.94659038508439], [166.12453343753793, -21.94659038508439]], [[166.43463184796917, -22.202700051405202], [166.43463184796917, -22.202700051405202]], [[166.68642960128295, -22.130565340056364], [166.7367598163396, -22.12422063798249], [166.7861425895734, -22.111071900003083], [166.82781739722145, -22.13894774385801], [166.8813618963884, -22.151269049312134], [166.8283634044351, -22.14969945402561], [166.77710960905324, -22.1517259268133], [166.7282230146111, -22.127889694167663], [166.68642960128295, -22.130565340056364]], [[166.36447343008194, -22.011538574754525], [166.36447343008194, -22.011538574754525]], [[165.79853484789282, -21.805285402579102], [165.79853484789282, -21.805285402579102]], [[164.25208521418097, -20.28398859474214], [164.25208521418097, -20.28398859474214]], [[164.2346578991103, -20.27464611655995], [164.2346578991103, -20.27464611655995]], [[164.2457970077122, -20.268447741612192], [164.2457970077122, -20.268447741612192]], [[165.79018051644152, -21.786420783172787], [165.79018051644152, -21.786420783172787]], [[165.14033929365485, -21.38685017784303], [165.14033929365485, -21.38685017784303]], [[166.15363885033616, -21.970485569665698], [166.15363885033616, -21.970485569665698]], [[166.09722465515938, -21.926018966779395], [166.09722465515938, -21.926018966779395]], [[166.5103598201573, -21.88065404868331], [166.5103598201573, -21.88065404868331]], [[165.74068334838023, -21.725694674988688], [165.74068334838023, -21.725694674988688]], [[165.52724365452593, -21.687516278571138], [165.52724365452593, -21.687516278571138]], [[165.9640045095423, -21.506415932270556], [165.9640045095423, -21.506415932270556]], [[165.17366678793928, -21.343910710813418], [165.17366678793928, -21.343910710813418]], [[164.86060393731555, -21.120499718130247], [164.86060393731555, -21.120499718130247]], [[164.68830708007147, -20.986471088824487], [164.68830708007147, -20.986471088824487]], [[164.67689847690656, -20.971648887862443], [164.67689847690656, -20.971648887862443]], [[164.61329776005095, -20.910293959031378], [164.61329776005095, -20.910293959031378]], [[164.18327426910832, -20.38208461565489], [164.18327426910832, -20.38208461565489]], [[164.51897466301955, -20.31255501841457], [164.51897466301955, -20.31255501841457]], [[164.23537655127814, -20.271591844846625], [164.23537655127814, -20.271591844846625]], [[164.0694577320237, -20.24248643204828], [164.0694577320237, -20.24248643204828]], [[164.00792314015064, -20.097318694140768], [164.00792314015064, -20.097318694140768]], [[164.062091547303, -20.236108394058533], [164.062091547303, -20.236108394058533]], [[164.05880778412586, -20.241098956134294], [164.05880778412586, -20.241098956134294]], [[164.0696373950658, -20.21239287251916], [164.0696373950658, -20.21239287251916]], [[164.06703228095705, -20.21239287251916], [164.06703228095705, -20.21239287251916]], [[164.067750933125, -20.21149455730938], [164.067750933125, -20.21149455730938]], [[164.14913829113516, -20.20709281278124], [164.14913829113516, -20.20709281278124]], [[164.1468925031105, -20.20134359543823], [164.1468925031105, -20.20134359543823]], [[164.1436340050485, -20.192930136599102], [164.1436340050485, -20.192930136599102]], [[164.07260183525796, -20.19316892702892], [164.07260183525796, -20.19316892702892]], [[164.13084143501362, -20.184306836941403], [164.13084143501362, -20.184306836941403]], [[164.1304049099664, -20.17875430150275], [164.1304049099664, -20.17875430150275]], [[164.0650559874955, -20.17529245435344], [164.0650559874955, -20.17529245435344]], [[164.05050328109633, -20.13882085683457], [164.05050328109633, -20.13882085683457]], [[164.0441757733371, -20.127990544086174], [164.0441757733371, -20.127990544086174]], [[164.03697802271847, -20.125747036940083], [164.03697802271847, -20.125747036940083]], [[164.05158125934804, -20.107918813616664], [164.05158125934804, -20.107918813616664]], [[164.00675533037793, -20.103337406046535], [164.00675533037793, -20.103337406046535]], [[164.00105804688314, -20.103017205800825], [164.00105804688314, -20.103017205800825]], [[163.99836204854068, -20.10074878444385], [163.99836204854068, -20.10074878444385]], [[164.00675533037793, -20.100462797375087], [164.00675533037793, -20.100462797375087]], [[164.03325562906775, -20.08680840618581], [164.03325562906775, -20.08680840618581]], [[164.07745273739113, -20.25299672000324], [164.07745273739113, -20.25299672000324]], [[164.0672203657041, -20.25439121400467], [164.0672203657041, -20.25439121400467]], [[164.0666729548733, -20.25973408407691], [164.0666729548733, -20.25973408407691]], [[164.23070531218696, -20.262159535143383], [164.23070531218696, -20.262159535143383]], [[164.2337111590963, -20.26321417825403], [164.2337111590963, -20.26321417825403]], [[164.24076644253728, -20.26442374564789], [164.24076644253728, -20.26442374564789]], [[164.09137662314345, -20.27114268724165], [164.09137662314345, -20.27114268724165]], [[164.2457970077122, -20.27051386659474], [164.2457970077122, -20.27051386659474]], [[164.2473823936956, -20.274564882196273], [164.2473823936956, -20.274564882196273]], [[164.25064790984516, -20.28066482846583], [164.25064790984516, -20.28066482846583]], [[164.25721543619954, -20.291544443279463], [164.25721543619954, -20.291544443279463]], [[164.2855025399865, -20.28982764360603], [164.2855025399865, -20.28982764360603]], [[164.26261445097225, -20.2936575894488], [164.26261445097225, -20.2936575894488]], [[164.2692395256447, -20.29342511529785], [164.2692395256447, -20.29342511529785]], [[164.13907716078495, -20.29997860547701], [164.13907716078495, -20.29997860547701]], [[164.09484496202367, -20.288344546248766], [164.09484496202367, -20.288344546248766]], [[164.09685634592347, -20.286414045808613], [164.09685634592347, -20.286414045808613]], [[164.08365111233877, -20.279946176297983], [164.08365111233877, -20.279946176297983]], [[164.15021626938676, -20.30707529563466], [164.15021626938676, -20.30707529563466]], [[164.2880662473783, -20.309196863509044], [164.2880662473783, -20.309196863509044]], [[164.28765849648983, -20.312914344498495], [164.28765849648983, -20.312914344498495]], [[164.16337869263725, -20.313032950178524], [164.16337869263725, -20.313032950178524]], [[164.1652637509602, -20.31834476521317], [164.1652637509602, -20.31834476521317]], [[164.17824370393328, -20.32773654546054], [164.17824370393328, -20.32773654546054]], [[164.1826335177126, -20.327789707473926], [164.1826335177126, -20.327789707473926]], [[164.1723148235484, -20.330611154131986], [164.1723148235484, -20.330611154131986]], [[164.33683493794888, -20.332723247588206], [164.33683493794888, -20.332723247588206]], [[164.18174713325152, -20.33968413775125], [164.18174713325152, -20.33968413775125]], [[164.18214014615603, -20.34022330232932], [164.18214014615603, -20.34022330232932]], [[164.18569972017485, -20.34058245296103], [164.18569972017485, -20.34058245296103]], [[164.18187837148935, -20.34323581642161], [164.18187837148935, -20.34323581642161]], [[164.18309460606645, -20.35863858867856], [164.18309460606645, -20.35863858867856]], [[164.38706760158823, -20.359902546251135], [164.38706760158823, -20.359902546251135]], [[164.1787300574024, -20.360786123477], [164.1787300574024, -20.360786123477]], [[164.18686752994768, -20.33788750733163], [164.18686752994768, -20.33788750733163]], [[164.17357246484244, -20.33743834972671], [164.17357246484244, -20.33743834972671]], [[164.1772120450596, -20.335079570492155], [164.1772120450596, -20.335079570492155]], [[164.1890234864511, -20.37175399074198], [164.1890234864511, -20.37175399074198]], [[164.17995050283196, -20.383342256948595], [164.17995050283196, -20.383342256948595]], [[164.18321391355528, -20.387528195283835], [164.18321391355528, -20.387528195283835]], [[164.1794648511717, -20.388678986194236], [164.1794648511717, -20.388678986194236]], [[164.17402162244707, -20.394391534029523], [164.17402162244707, -20.394391534029523]], [[164.1743374363881, -20.39470418983103], [164.1743374363881, -20.39470418983103]], [[164.4582948742136, -20.435397868836105], [164.4582948742136, -20.435397868836105]], [[164.43332311499796, -20.433964775352933], [164.43332311499796, -20.433964775352933]], [[164.44266559317998, -20.432527471017238], [164.44266559317998, -20.432527471017238]], [[164.44936856862455, -20.430945944981772], [164.44936856862455, -20.430945944981772]], [[164.4542496485342, -20.42731654099134], [164.4542496485342, -20.42731654099134]], [[164.46320192104736, -20.435906153828853], [164.46320192104736, -20.435906153828853]], [[164.4696873357767, -20.44526635268204], [164.4696873357767, -20.44526635268204]], [[164.46585265272495, -20.46029488541899], [164.46585265272495, -20.46029488541899]], [[164.20017171856682, -20.453042393717112], [164.20017171856682, -20.453042393717112]], [[164.20361549414076, -20.4531022229138], [164.20361549414076, -20.4531022229138]], [[164.1996516782774, -20.4490212049879], [164.1996516782774, -20.4490212049879]], [[164.46673201909823, -20.465936550569666], [164.46673201909823, -20.465936550569666]], [[164.50041533042292, -20.478141355770106], [164.50041533042292, -20.478141355770106]], [[164.50839770323262, -20.475557646828747], [164.50839770323262, -20.475557646828747]], [[164.49090511994757, -20.48031292751847], [164.49090511994757, -20.48031292751847]], [[164.51322544567665, -20.481438277861344], [164.51322544567665, -20.481438277861344]], [[164.194952366836, -20.4857501908686], [164.194952366836, -20.4857501908686]], [[164.21908476277747, -20.4789803681399], [164.21908476277747, -20.4789803681399]], [[164.51991298132862, -20.499993750510043], [164.51991298132862, -20.499993750510043]], [[164.19809647007048, -20.501650370082416], [164.19809647007048, -20.501650370082416]], [[164.5126408389815, -20.504658848774454], [164.5126408389815, -20.504658848774454]], [[164.535455238076, -20.51696997800161], [164.535455238076, -20.51696997800161]], [[164.5523295278456, -20.521205920210775], [164.5523295278456, -20.521205920210775]], [[164.59336849675935, -20.533442833161644], [164.59336849675935, -20.533442833161644]], [[164.58168688998808, -20.538753595483286], [164.58168688998808, -20.538753595483286]], [[164.5907107469941, -20.543272366621693], [164.5907107469941, -20.543272366621693]], [[164.28588783299415, -20.564581736835407], [164.28588783299415, -20.564581736835407]], [[164.7067309635779, -20.60561824941857], [164.7067309635779, -20.60561824941857]], [[164.7090721975934, -20.61958529640947], [164.7090721975934, -20.61958529640947]], [[164.73301931602282, -20.6332581100786], [164.73301931602282, -20.6332581100786]], [[164.82530014956956, -20.63792478741277], [164.82530014956956, -20.63792478741277]], [[164.81919160614268, -20.639811249353386], [164.81919160614268, -20.639811249353386]], [[164.78846922596688, -20.645201140612414], [164.78846922596688, -20.645201140612414]], [[164.35628977852048, -20.67457604797363], [164.35628977852048, -20.67457604797363]], [[164.36482377301377, -20.680325265316526], [164.36482377301377, -20.680325265316526]], [[164.36482377301377, -20.680325265316526], [164.36482377301377, -20.680325265316526]], [[164.5827150398179, -20.679412913931515], [164.5827150398179, -20.679412913931515]], [[164.57741357646228, -20.68531424832264], [164.57741357646228, -20.68531424832264]], [[164.40565360291782, -20.696654425133545], [164.40565360291782, -20.696654425133545]], [[164.52535270100952, -20.69838140103394], [164.52535270100952, -20.69838140103394]], [[164.51710504448909, -20.702900172172463], [164.51710504448909, -20.702900172172463]], [[164.3871019902174, -20.692901678253975], [164.3871019902174, -20.692901678253975]], [[164.3853053597977, -20.689667743498603], [164.3853053597977, -20.689667743498603]], [[164.37764722263398, -20.68369570187525], [164.37764722263398, -20.68369570187525]], [[164.36747871554394, -20.68629748239215], [164.36747871554394, -20.68629748239215]], [[164.4233939246942, -20.720390123674576], [164.4233939246942, -20.720390123674576]], [[164.8954999741734, -20.735700783532025], [164.8954999741734, -20.735700783532025]], [[164.46138563998227, -20.754851214554947], [164.46138563998227, -20.754851214554947]], [[165.00307672959366, -20.76692285154354], [165.00307672959366, -20.76692285154354]], [[165.16423447823604, -20.76431773743502], [165.16423447823604, -20.76431773743502]], [[164.99050031665615, -20.780756905774695], [164.99050031665615, -20.780756905774695]], [[164.94862900255578, -20.802923535386014], [164.94862900255578, -20.802923535386014]], [[164.94329665961493, -20.826006727234642], [164.94329665961493, -20.826006727234642]], [[164.70250046038655, -20.82782862276963], [164.70250046038655, -20.82782862276963]], [[164.56940032406715, -20.857512501436418], [164.56940032406715, -20.857512501436418]], [[164.6018238886719, -20.85987461426248], [164.6018238886719, -20.85987461426248]], [[165.0628631158512, -20.881506290148195], [165.0628631158512, -20.881506290148195]], [[164.5505055268843, -20.89628024175812], [164.5505055268843, -20.89628024175812]], [[164.6097529240161, -20.91052187142543], [164.6097529240161, -20.91052187142543]], [[164.6269107445238, -20.916803761615427], [164.6269107445238, -20.916803761615427]], [[164.63216237945744, -20.918738122003788], [164.63216237945744, -20.918738122003788]], [[165.05765358944313, -20.893568277266297], [165.05765358944313, -20.893568277266297]], [[165.16359021779658, -20.89702591356314], [165.16359021779658, -20.89702591356314]], [[165.15407439285127, -20.90199331595005], [165.15407439285127, -20.90199331595005]], [[165.14860379358515, -20.9036464264787], [165.14860379358515, -20.9036464264787]], [[165.14438171209895, -20.905173562335335], [165.14438171209895, -20.905173562335335]], [[165.10489584596587, -20.907828504865677], [165.10489584596587, -20.907828504865677]], [[165.10715145931317, -20.911950929508293], [165.10715145931317, -20.911950929508293]], [[165.14801216880255, -20.911912330026666], [165.14801216880255, -20.911912330026666]], [[165.07000121272551, -20.927541611060064], [165.07000121272551, -20.927541611060064]], [[165.12322498529022, -20.917347487950394], [165.12322498529022, -20.917347487950394]], [[165.0881906921071, -20.918601620200434], [165.0881906921071, -20.918601620200434]], [[165.24062846693528, -20.95035618560678], [165.24062846693528, -20.95035618560678]], [[164.68350460274257, -20.952293528682333], [164.68350460274257, -20.952293528682333]], [[164.67878493884734, -20.953053763019057], [164.67878493884734, -20.953053763019057]], [[164.68121038991376, -20.946585893508313], [164.68121038991376, -20.946585893508313]], [[164.66120603308502, -20.9709846258732], [164.66120603308502, -20.9709846258732]], [[164.67809014817715, -20.980219727315443], [164.67809014817715, -20.980219727315443]], [[164.70232079734467, -20.974613328054772], [164.70232079734467, -20.974613328054772]], [[164.700164840841, -20.97982355627181], [164.700164840841, -20.97982355627181]], [[164.70472238691343, -20.98160579961194], [164.70472238691343, -20.98160579961194]], [[164.6906426996169, -20.981260860607563], [164.6906426996169, -20.981260860607563]], [[164.6912034448145, -20.980091296312878], [164.6912034448145, -20.980091296312878]], [[164.70605091089158, -20.978970156822413], [164.70605091089158, -20.978970156822413]], [[164.69254109230633, -20.98548469661563], [164.69254109230633, -20.98548469661563]], [[164.7075310255617, -20.98683041490841], [164.7075310255617, -20.98683041490841]], [[164.68947488984406, -20.993477947461088], [164.68947488984406, -20.993477947461088]], [[164.70926800223674, -20.99515913034014], [164.70926800223674, -20.99515913034014]], [[165.32296677581212, -21.03821404491032], [165.32296677581212, -21.03821404491032]], [[164.73759440731408, -21.050490785508316], [164.73759440731408, -21.050490785508316]], [[164.72082609066706, -21.059414283862168], [164.72082609066706, -21.059414283862168]], [[164.7120640083274, -21.06063051843921], [164.7120640083274, -21.06063051843921]], [[164.7141785581142, -21.074505979387254], [164.7141785581142, -21.074505979387254]], [[164.80742367689402, -21.051149783931805], [164.80742367689402, -21.051149783931805]], [[164.8331154918949, -21.057887148005534], [164.8331154918949, -21.057887148005534]], [[164.8356076147935, -21.05921146113127], [164.8356076147935, -21.05921146113127]], [[164.81658649203416, -21.063294935387717], [164.81658649203416, -21.063294935387717]], [[164.80239311171897, -21.057078664316577], [164.80239311171897, -21.057078664316577]], [[164.79143366615915, -21.056629506711772], [164.79143366615915, -21.056629506711772]], [[164.8037405845339, -21.053126077393472], [164.8037405845339, -21.053126077393472]], [[164.79206248680612, -21.078817892394454], [164.79206248680612, -21.078817892394454]], [[164.83374010168927, -21.068644823547572], [164.83374010168927, -21.068644823547572]], [[164.8457817363535, -21.080884017377002], [164.8457817363535, -21.080884017377002]], [[164.84587156787438, -21.08079418585595], [164.84587156787438, -21.08079418585595]], [[164.82632408854693, -21.09406258222856], [164.82632408854693, -21.09406258222856]], [[165.33482453658166, -21.095436723776174], [165.33482453658166, -21.095436723776174]], [[165.29736479233202, -21.110079261696285], [165.29736479233202, -21.110079261696285]], [[165.26246173738662, -21.11065965753886], [165.26246173738662, -21.11065965753886]], [[165.01911727055904, -21.108950753213946], [165.01911727055904, -21.108950753213946]], [[164.95795954998914, -21.106164572446005], [164.95795954998914, -21.106164572446005]], [[165.24283705909568, -21.109450441049432], [165.24283705909568, -21.109450441049432]], [[164.812127199188, -21.082558533072813], [164.812127199188, -21.082558533072813]], [[164.81290339967393, -21.089058685786313], [164.81290339967393, -21.089058685786313]], [[164.86105309492052, -21.129932027833433], [164.86105309492052, -21.129932027833433]], [[165.44598964018007, -21.134044276248915], [165.44598964018007, -21.134044276248915]], [[165.4370998286464, -21.13575984775713], [165.4370998286464, -21.13575984775713]], [[164.8550231540745, -21.132818216349335], [164.8550231540745, -21.132818216349335]], [[165.4343578618301, -21.151581424390145], [165.4343578618301, -21.151581424390145]], [[165.53306375455327, -21.16288931799818], [165.53306375455327, -21.16288931799818]], [[165.4030228026087, -21.1691305032802], [165.4030228026087, -21.1691305032802]], [[165.3973037630425, -21.171041528527326], [165.3973037630425, -21.171041528527326]], [[164.84335628528697, -21.171164695964308], [164.84335628528697, -21.171164695964308]], [[164.84527503043057, -21.174209142355096], [164.84527503043057, -21.174209142355096]], [[165.38275456568715, -21.172103014273205], [165.38275456568715, -21.172103014273205]], [[164.83692771706683, -21.187295068450624], [164.83692771706683, -21.187295068450624]], [[164.85198011130137, -21.200359940283533], [164.85198011130137, -21.200359940283533]], [[164.90916840153807, -21.208562330138875], [164.90916840153807, -21.208562330138875]], [[165.0341086074318, -21.210119643772202], [165.0341086074318, -21.210119643772202]], [[165.03410369477058, -21.212520531532164], [165.03410369477058, -21.212520531532164]], [[165.03634667556025, -21.21603378617317], [165.03634667556025, -21.21603378617317]], [[164.99508172422622, -21.219044896647915], [164.99508172422622, -21.219044896647915]], [[165.02720140563883, -21.231499194861613], [165.02720140563883, -21.231499194861613]], [[164.88851276618198, -21.2390910110978], [164.88851276618198, -21.2390910110978]], [[165.02512826256861, -21.242027028035466], [165.02512826256861, -21.242027028035466]], [[165.10090325594354, -21.243389238834197], [165.10090325594354, -21.243389238834197]], [[165.02122269683207, -21.248329972488136], [165.02122269683207, -21.248329972488136]], [[165.0787162738784, -21.253657051863343], [165.0787162738784, -21.253657051863343]], [[165.02418713702457, -21.264319983223004], [165.02418713702457, -21.264319983223004]], [[165.06119772366924, -21.2708776842548], [165.06119772366924, -21.2708776842548]], [[165.0128781907033, -21.272391485745118], [165.0128781907033, -21.272391485745118]], [[165.0534722128648, -21.277165890723495], [165.0534722128648, -21.277165890723495]], [[165.5459587886669, -21.280720552081107], [165.5459587886669, -21.280720552081107]], [[165.51323906076664, -21.290706588894125], [165.51323906076664, -21.290706588894125]], [[165.51291131607672, -21.296289828465774], [165.51291131607672, -21.296289828465774]], [[165.5040671221127, -21.30240854811956], [165.5040671221127, -21.30240854811956]], [[165.50944087177004, -21.303085793570744], [165.50944087177004, -21.303085793570744]], [[165.46009108354792, -21.30801950913724], [165.46009108354792, -21.30801950913724]], [[165.29718512929014, -21.301779727472706], [165.29718512929014, -21.301779727472706]], [[165.29974252040302, -21.30081403862215], [165.29974252040302, -21.30081403862215]], [[164.98484093083448, -21.30070174922082], [164.98484093083448, -21.30070174922082]], [[164.9855637938548, -21.29820892451363], [164.9855637938548, -21.29820892451363]], [[164.950380717215, -21.29940936839364], [164.950380717215, -21.29940936839364]], [[165.0373411385698, -21.294545833702955], [165.0373411385698, -21.294545833702955]], [[165.48124991578288, -21.30097124378392], [165.48124991578288, -21.30097124378392]], [[165.47186532907529, -21.296527039825946], [165.47186532907529, -21.296527039825946]], [[165.48393784332495, -21.302455569306403], [165.48393784332495, -21.302455569306403]], [[165.48686578946183, -21.30295841528124], [165.48686578946183, -21.30295841528124]], [[165.49646091879686, -21.306612382578066], [165.49646091879686, -21.306612382578066]], [[164.99355458836953, -21.29656949925578], [164.99355458836953, -21.29656949925578]], [[165.4484108803939, -21.319336175354692], [165.4484108803939, -21.319336175354692]], [[165.7635903862306, -21.33016648810309], [165.7635903862306, -21.33016648810309]], [[165.75456582741572, -21.328860422005164], [165.75456582741572, -21.328860422005164]], [[165.73834772883458, -21.341934417351865], [165.73834772883458, -21.341934417351865]], [[165.74470330894405, -21.341980034921107], [165.74470330894405, -21.341980034921107]], [[165.730891712593, -21.344629362981266], [165.730891712593, -21.344629362981266]], [[165.13396125566499, -21.344270036897342], [165.13396125566499, -21.344270036897342]], [[165.17567325917753, -21.345856826498505], [165.17567325917753, -21.345856826498505]], [[165.17663122813167, -21.34337172168756], [165.17663122813167, -21.34337172168756]], [[165.1727354877179, -21.340480269605905], [165.1727354877179, -21.340480269605905]], [[165.19164712831093, -21.335021951993156], [165.19164712831093, -21.335021951993156]], [[165.14981511550081, -21.33074863846764], [165.14981511550081, -21.33074863846764]], [[165.254021785267, -21.33065950875539], [165.254021785267, -21.33065950875539]], [[165.25460498834434, -21.334119075026365], [165.25460498834434, -21.334119075026365]], [[165.24472352103646, -21.335017390236146], [165.24472352103646, -21.335017390236146]], [[165.22721619976733, -21.334989668790286], [165.22721619976733, -21.334989668790286]], [[165.2255999341986, -21.335192842425613], [165.2255999341986, -21.335192842425613]], [[165.21067737458395, -21.331963118522822], [165.21067737458395, -21.331963118522822]], [[165.27011355827142, -21.32615775647929], [165.27011355827142, -21.32615775647929]], [[165.01492396323192, -21.314475447899042], [165.01492396323192, -21.314475447899042]], [[165.03770748274133, -21.292021076697267], [165.03770748274133, -21.292021076697267]], [[164.9908884168991, -21.288611689752486], [164.9908884168991, -21.288611689752486]], [[164.9135147031742, -21.28255578198241], [164.9135147031742, -21.28255578198241]], [[164.91306554556922, -21.27959134179008], [164.91306554556922, -21.27959134179008]], [[164.99829951738013, -21.27763154083425], [164.99829951738013, -21.27763154083425]], [[165.06101806062725, -21.273931955968123], [165.06101806062725, -21.273931955968123]], [[165.05774693000774, -21.373607748394477], [165.05774693000774, -21.373607748394477]], [[165.7184949626976, -21.354420998768433], [165.7184949626976, -21.354420998768433]], [[165.71615934315219, -21.36412280303449], [165.71615934315219, -21.36412280303449]], [[165.54979136629265, -21.373555112737677], [165.54979136629265, -21.373555112737677]], [[165.71120387151404, -21.373402469332802], [165.71120387151404, -21.373402469332802]], [[165.1435409452074, -21.382145602835976], [165.1435409452074, -21.382145602835976]], [[165.13719519042036, -21.383167085482796], [165.13719519042036, -21.383167085482796]], [[165.13557822304278, -21.37337544969563], [165.13557822304278, -21.37337544969563]], [[165.1385931934658, -21.36973165862588], [165.1385931934658, -21.36973165862588]], [[165.54152686636212, -21.365470275849248], [165.54152686636212, -21.365470275849248]], [[165.70600838128098, -21.38451455829744], [165.70600838128098, -21.38451455829744]], [[165.68871300625688, -21.390537831960216], [165.68871300625688, -21.390537831960216]], [[165.6748368435001, -21.392868889748797], [165.6748368435001, -21.392868889748797]], [[165.6560620556147, -21.391790911497083], [165.6560620556147, -21.391790911497083]], [[165.1379306859984, -21.39221655850855], [165.1379306859984, -21.39221655850855]], [[165.6756874357144, -21.3898265487843], [165.6756874357144, -21.3898265487843]], [[165.6806415037347, -21.391196479479333], [165.6806415037347, -21.391196479479333]], [[165.29018809597596, -21.393545082486867], [165.29018809597596, -21.393545082486867]], [[165.17954794532852, -21.396774104580913], [165.17954794532852, -21.396774104580913]], [[165.2761645533801, -21.40032490599043], [165.2761645533801, -21.40032490599043]], [[165.7915279892561, -21.405445302686417], [165.7915279892561, -21.405445302686417]], [[165.81194992229598, -21.407900931529525], [165.81194992229598, -21.407900931529525]], [[165.82108255965932, -21.41712340041414], [165.82108255965932, -21.41712340041414]], [[165.13642811344823, -21.420315928452737], [165.13642811344823, -21.420315928452737]], [[165.82458598897767, -21.43311341114901], [165.82458598897767, -21.43311341114901]], [[165.82303499162333, -21.439606896679322], [165.82303499162333, -21.439606896679322]], [[165.21879660010165, -21.45472876998099], [165.21879660010165, -21.45472876998099]], [[165.79709754355702, -21.466710399996316], [165.79709754355702, -21.466710399996316]], [[165.7911069040016, -21.472627700536634], [165.7911069040016, -21.472627700536634]], [[165.18800333724096, -21.478605005725854], [165.18800333724096, -21.478605005725854]], [[165.17687475577077, -21.47642974948144], [165.17687475577077, -21.47642974948144]], [[165.21588760280088, -21.490605584577736], [165.21588760280088, -21.490605584577736]], [[165.23187761353574, -21.49276154108128], [165.23187761353574, -21.49276154108128]], [[165.2269368798818, -21.495636149752727], [165.2269368798818, -21.495636149752727]], [[165.9596925965352, -21.503271829036237], [165.9596925965352, -21.503271829036237]], [[165.95339667017026, -21.50291460837849], [165.95339667017026, -21.50291460837849]], [[165.91703806386124, -21.514636920057967], [165.91703806386124, -21.514636920057967]], [[165.9766293472843, -21.51625037839193], [165.9766293472843, -21.51625037839193]], [[165.9000851715109, -21.523703938302788], [165.9000851715109, -21.523703938302788]], [[165.88515419019132, -21.525314589401603], [165.88515419019132, -21.525314589401603]], [[165.90813211072634, -21.519381147259878], [165.90813211072634, -21.519381147259878]], [[165.89784078710386, -21.520856700172885], [165.89784078710386, -21.520856700172885]], [[166.11136750524395, -21.549125206027725], [166.11136750524395, -21.549125206027725]], [[165.28830163403552, -21.5695822295051], [165.28830163403552, -21.5695822295051]], [[165.31955317801464, -21.576215024073974], [165.31955317801464, -21.576215024073974]], [[165.34320904580954, -21.58549784851175], [165.34320904580954, -21.58549784851175]], [[166.17629885150404, -21.5881233150742], [166.17629885150404, -21.5881233150742]], [[165.65763691446705, -21.592696651843596], [165.65763691446705, -21.592696651843596]], [[166.2224497954088, -21.601278018428047], [166.2224497954088, -21.601278018428047]], [[165.48590431146386, -21.63599719947888], [165.48590431146386, -21.63599719947888]], [[165.4987158303352, -21.63651162529834], [165.4987158303352, -21.63651162529834]], [[166.16720341000473, -21.649787039758564], [166.16720341000473, -21.649787039758564]], [[166.13755830627167, -21.67301024245438], [166.13755830627167, -21.67301024245438]], [[165.89523426937774, -21.672653372701006], [165.89523426937774, -21.672653372701006]], [[166.13797167163, -21.674617384509475], [166.13797167163, -21.674617384509475]], [[166.33469708811117, -21.686665335452403], [166.33469708811117, -21.686665335452403]], [[165.87976008807982, -21.69547864983133], [165.87976008807982, -21.69547864983133]], [[166.14265554327858, -21.701531399461885], [166.14265554327858, -21.701531399461885]], [[166.31596440875137, -21.703326626264072], [166.31596440875137, -21.703326626264072]], [[166.12606127520337, -21.706479853012297], [166.12606127520337, -21.706479853012297]], [[166.3678870278793, -21.710153821858682], [166.3678870278793, -21.710153821858682]], [[166.38684147880667, -21.71644202832738], [166.38684147880667, -21.71644202832738]], [[166.37922615197692, -21.716925574561458], [166.37922615197692, -21.716925574561458]], [[166.35445651368354, -21.717284549741066], [166.35445651368354, -21.717284549741066]], [[165.8624948908323, -21.72084377285563], [165.8624948908323, -21.72084377285563]], [[165.8624948908323, -21.72084377285563], [165.8624948908323, -21.72084377285563]], [[165.82534885509733, -21.715264744136448], [165.82534885509733, -21.715264744136448]], [[165.75011565808325, -21.710513147942606], [165.75011565808325, -21.710513147942606]], [[165.74014435925415, -21.719047142435898], [165.74014435925415, -21.719047142435898]], [[165.73780873970873, -21.719855626124797], [165.73780873970873, -21.719855626124797]], [[165.73053238650914, -21.71608270224357], [165.73053238650914, -21.71608270224357]], [[165.67352586474078, -21.711606215082668], [165.67352586474078, -21.711606215082668]], [[165.67986740867502, -21.715992870722573], [165.67986740867502, -21.715992870722573]], [[165.65430051563305, -21.715313519845154], [165.65430051563305, -21.715313519845154]], [[165.62489051783382, -21.714914892470745], [165.62489051783382, -21.714914892470745]], [[165.65938582189108, -21.70512325668369], [165.65938582189108, -21.70512325668369]], [[165.6771724630455, -21.702607974096168], [165.6771724630455, -21.702607974096168]], [[165.6819335336578, -21.704404604515787], [165.6819335336578, -21.704404604515787]], [[165.71319490295946, -21.70889618056492], [165.71319490295946, -21.70889618056492]], [[165.71346439752256, -21.71069281098454], [165.71346439752256, -21.71069281098454]], [[165.7480495331007, -21.70997415881675], [165.7480495331007, -21.70997415881675]], [[165.7396952016495, -21.712219946841174], [165.7396952016495, -21.712219946841174]], [[165.67079442505587, -21.70718938166624], [165.67079442505587, -21.70718938166624]], [[165.67241139243345, -21.707279213187235], [165.67241139243345, -21.707279213187235]], [[165.6622197256545, -21.708285957850137], [165.6622197256545, -21.708285957850137]], [[165.6657042061364, -21.706082278351005], [165.6657042061364, -21.706082278351005]], [[165.664416387066, -21.710872474026587], [165.664416387066, -21.710872474026587]], [[165.65857733820224, -21.712489441404273], [165.65857733820224, -21.712489441404273]], [[165.67106391961886, -21.72003528916673], [165.67106391961886, -21.72003528916673]], [[165.6245213664273, -21.719030299025746], [165.6245213664273, -21.719030299025746]], [[165.62480068631294, -21.720484446771707], [165.62480068631294, -21.720484446771707]], [[165.71502662381715, -21.717838978659586], [165.71502662381715, -21.717838978659586]], [[165.67860976738132, -21.723269223922102], [165.67860976738132, -21.723269223922102]], [[165.69226415857065, -21.72353871848503], [165.69226415857065, -21.72353871848503]], [[165.6876343261962, -21.729509005586635], [165.6876343261962, -21.729509005586635]], [[165.77629873921455, -21.716290437635735], [165.77629873921455, -21.716290437635735]], [[165.76776263929503, -21.72089605760806], [165.76776263929503, -21.72089605760806]], [[165.75214248177542, -21.722949199128664], [165.75214248177542, -21.722949199128664]], [[166.12120967126168, -21.711411463152444], [166.12120967126168, -21.711411463152444]], [[166.10770336172016, -21.722240723187724], [166.10770336172016, -21.722240723187724]], [[165.86110109863955, -21.726505264103707], [165.86110109863955, -21.726505264103707]], [[165.5633257481843, -21.693103728995368], [165.5633257481843, -21.693103728995368]], [[165.87897406227125, -21.691598700114525], [165.87897406227125, -21.691598700114525]], [[166.13044617632147, -21.68779840569175], [166.13044617632147, -21.68779840569175]], [[166.12695888860435, -21.69272650678812], [166.12695888860435, -21.69272650678812]], [[165.7028642780465, -21.693714653518953], [165.7028642780465, -21.693714653518953]], [[165.51817067090678, -21.684192512294715], [165.51817067090678, -21.684192512294715]], [[165.8848152165615, -21.6751619881054], [165.8848152165615, -21.6751619881054]], [[165.9025499238678, -21.67001176453715], [165.9025499238678, -21.67001176453715]], [[165.49481447545122, -21.66981946893759], [165.49481447545122, -21.66981946893759]], [[165.4914008776541, -21.66604654505636], [165.4914008776541, -21.66604654505636]], [[165.91495649908597, -21.656704066874113], [165.91495649908597, -21.656704066874113]], [[165.61898339352058, -21.71594760405759], [165.61898339352058, -21.71594760405759]], [[165.64447378940793, -21.724077707611002], [165.64447378940793, -21.724077707611002]], [[165.6287785383513, -21.725408687919867], [165.6287785383513, -21.725408687919867]], [[165.6703529873472, -21.72529218766607], [165.6703529873472, -21.72529218766607]], [[165.69325230530148, -21.734587995565903], [165.69325230530148, -21.734587995565903]], [[165.68373016407747, -21.742044011807366], [165.68373016407747, -21.742044011807366]], [[165.70587854666076, -21.744609122816655], [165.70587854666076, -21.744609122816655]], [[165.6688181315942, -21.746715250898546], [165.6688181315942, -21.746715250898546]], [[165.6959549708273, -21.74979619134467], [165.6959549708273, -21.74979619134467]], [[165.6847183108082, -21.775102011528986], [165.6847183108082, -21.775102011528986]], [[165.7788112145671, -21.731752688184827], [165.7788112145671, -21.731752688184827]], [[166.10130848032009, -21.73462940228262], [166.10130848032009, -21.73462940228262]], [[165.8113512794256, -21.739948410856982], [165.8113512794256, -21.739948410856982]], [[165.7764362937312, -21.74357114766417], [165.7764362937312, -21.74357114766417]], [[165.74319863096775, -21.74330165310124], [165.74319863096775, -21.74330165310124]], [[165.7552360547794, -21.740247381387803], [165.7552360547794, -21.740247381387803]], [[165.7381680657926, -21.74015754986675], [165.7381680657926, -21.74015754986675]], [[165.76570493601776, -21.734270076198698], [165.76570493601776, -21.734270076198698]], [[165.73771890818762, -21.735665973817675], [165.73771890818762, -21.735665973817675]], [[166.4686176388684, -21.753422086291266], [166.4686176388684, -21.753422086291266]], [[165.77454983179052, -21.764142565969053], [165.77454983179052, -21.764142565969053]], [[166.1613643611406, -21.764861218136957], [166.1613643611406, -21.764861218136957]], [[165.77733460894092, -21.770161277874877], [165.77733460894092, -21.770161277874877]], [[165.76463818670595, -21.78034241752249], [165.76463818670595, -21.78034241752249]], [[165.77832275567175, -21.79217000051551], [165.77832275567175, -21.79217000051551]], [[165.77850241871374, -21.791900505952583], [165.77850241871374, -21.791900505952583]], [[165.77960776750706, -21.801699510731737], [165.77960776750706, -21.801699510731737]], [[165.77799220374686, -21.805291718857802], [165.77799220374686, -21.805291718857802]], [[166.19621899128197, -21.791361516826782], [166.19621899128197, -21.791361516826782]], [[166.36968365829887, -21.792529326599492], [166.36968365829887, -21.792529326599492]], [[166.39461822165038, -21.797776048871867], [166.39461822165038, -21.797776048871867]], [[166.1899307848132, -21.800434500446045], [166.1899307848132, -21.800434500446045]], [[166.18966129025011, -21.800703995008973], [166.18966129025011, -21.800703995008973]], [[165.80500271740357, -21.80789051668745], [165.80500271740357, -21.80789051668745]], [[165.8043738967566, -21.80582439170496], [165.8043738967566, -21.80582439170496]], [[166.14016412218882, -21.867718309661768], [166.14016412218882, -21.867718309661768]], [[166.14043361675192, -21.86753864661989], [166.18535709713944, -21.838871162486328], [166.14043361675192, -21.86753864661989]], [[165.94113958021728, -21.86327410570385], [165.94113958021728, -21.86327410570385]], [[165.84003701058668, -21.851099478280048], [165.84003701058668, -21.851099478280048]], [[166.0286846082672, -21.85355545802753], [166.0286846082672, -21.85355545802753]], [[165.82629278787635, -21.83331283712556], [165.82629278787635, -21.83331283712556]], [[165.81048244018348, -21.823431369817513], [165.81048244018348, -21.823431369817513]], [[165.82817924981703, -21.8177719839955], [165.82817924981703, -21.8177719839955]], [[165.81475435009145, -21.814767540703997], [165.81475435009145, -21.814767540703997]], [[166.4708339509251, -21.81175327208973], [166.4708339509251, -21.81175327208973]], [[166.44316584246246, -21.840398649247334], [166.44316584246246, -21.840398649247334]], [[165.9036377274423, -21.87149123354311], [165.9036377274423, -21.87149123354311]], [[166.13784324062726, -21.8730183693998], [166.13784324062726, -21.8730183693998]], [[165.91037509151602, -21.876162472634178], [165.91037509151602, -21.876162472634178]], [[166.51720877182356, -21.87784821727007], [166.51720877182356, -21.87784821727007]], [[166.53784826557796, -21.88406764648056], [166.53784826557796, -21.88406764648056]], [[166.49832239634577, -21.894757597477565], [166.49832239634577, -21.894757597477565]], [[166.3313255988396, -21.903022097407927], [166.3313255988396, -21.903022097407927]], [[166.1166205437952, -21.90223536979056], [166.1166205437952, -21.90223536979056]], [[165.9320644911719, -21.895951725078646], [165.9320644911719, -21.895951725078646]], [[166.0175026893312, -21.896961978785384], [166.0175026893312, -21.896961978785384]], [[165.92834139571244, -21.897183048544036], [165.92834139571244, -21.897183048544036]], [[166.03454892224636, -21.89946427791091], [166.03454892224636, -21.89946427791091]], [[166.02383230251667, -21.90257293980295], [166.02383230251667, -21.90257293980295]], [[165.93739121964268, -21.901135986371685], [165.93739121964268, -21.901135986371685]], [[166.06596328585738, -21.887211749714936], [166.06596328585738, -21.887211749714936]], [[166.13237615040498, -21.884217833554715], [166.13237615040498, -21.884217833554715]], [[166.06959163713464, -21.890051618852908], [166.06959163713464, -21.890051618852908]], [[166.33649231491347, -21.891122929921494], [166.33649231491347, -21.891122929921494]], [[166.12511593880697, -21.89148892318866], [166.12511593880697, -21.89148892318866]], [[166.48906974968452, -21.903111928928922], [166.48906974968452, -21.903111928928922]], [[166.3172220500452, -21.928893575450843], [166.3172220500452, -21.928893575450843]], [[166.36375477791398, -21.939763189489724], [166.36375477791398, -21.939763189489724]], [[166.47739165195674, -21.935091950398657], [166.47739165195674, -21.935091950398657]], [[166.59318448250303, -21.937337738423196], [166.59318448250303, -21.937337738423196]], [[166.59601908807542, -21.92965223071792], [166.59601908807542, -21.92965223071792]], [[166.48170356496394, -21.91937143422672], [166.48170356496394, -21.91937143422672]], [[166.48089227404012, -21.940628870592263], [166.48089227404012, -21.940628870592263]], [[166.21885653456934, -21.949105667671915], [166.21885653456934, -21.949105667671915]], [[166.21885653456934, -21.950542972007554], [166.21885653456934, -21.950542972007554]], [[166.22414676898484, -21.936072026328645], [166.22414676898484, -21.936072026328645]], [[166.22730069754175, -21.924491830922705], [166.22730069754175, -21.924491830922705]], [[166.1120952809257, -21.91672491340148], [166.1120952809257, -21.91672491340148]], [[166.08978478051927, -21.914022949684465], [166.08978478051927, -21.914022949684465]], [[166.1172991928638, -21.909883681631698], [166.1172991928638, -21.909883681631698]], [[166.07350913361984, -21.909939124523476], [166.07350913361984, -21.909939124523476]], [[166.3634361567381, -21.79265986302846], [166.3634361567381, -21.79265986302846]], [[165.80467777994863, -21.79508566499942], [165.80467777994863, -21.79508566499942]], [[165.79625818028285, -21.79015791480731], [165.79625818028285, -21.79015791480731]], [[165.81945366153275, -21.85163706378836], [165.81945366153275, -21.85163706378836]], [[165.8214067953055, -21.86802535099332], [165.8214067953055, -21.86802535099332]], [[165.9471175872153, -21.91355554505185], [165.9471175872153, -21.91355554505185]], [[165.9506097875933, -21.917542169699857], [165.9506097875933, -21.917542169699857]], [[165.94797519751705, -21.91959039855908], [165.94797519751705, -21.91959039855908]], [[165.97169001724774, -21.930011556801844], [165.97169001724774, -21.930011556801844]], [[165.98008435179827, -21.931049531954386], [165.98008435179827, -21.931049531954386]], [[165.99839875313842, -21.936239407717437], [165.99839875313842, -21.936239407717437]], [[165.98718104195586, -21.936978412339272], [165.98718104195586, -21.936978412339272]], [[165.99885913968365, -21.94685987964732], [165.99885913968365, -21.94685987964732]], [[166.09964800079956, -21.923667556536714], [166.09964800079956, -21.923667556536714]], [[166.10114706430602, -21.928216329999657], [166.10114706430602, -21.928216329999657]], [[166.09187406519072, -21.930561073059096], [166.09187406519072, -21.930561073059096]], [[166.0853668943896, -21.926198629821272], [166.0853668943896, -21.926198629821272]], [[166.0853668943896, -21.926198629821272], [166.0853668943896, -21.926198629821272]], [[166.10210433145153, -21.93399712873662], [166.10210433145153, -21.93399712873662]], [[166.09605684538656, -21.938505548195963], [166.09605684538656, -21.938505548195963]], [[166.0886513593755, -21.94114996359491], [166.0886513593755, -21.94114996359491]], [[166.09857212797408, -21.940930999262434], [166.09857212797408, -21.940930999262434]], [[166.09623650842855, -21.943536113370953], [166.09623650842855, -21.943536113370953]], [[166.1067467963835, -21.942727629682167], [166.1067467963835, -21.942727629682167]], [[166.21603175431983, -21.960315308053794], [166.21603175431983, -21.960315308053794]], [[166.2153531052511, -21.96329904798705], [166.2153531052511, -21.96329904798705]], [[166.15211171447947, -21.96536517296971], [166.15211171447947, -21.96536517296971]], [[166.1477998014724, -21.977941585907104], [166.1477998014724, -21.977941585907104]], [[166.14111086220305, -21.98912315393892], [166.14111086220305, -21.98912315393892]], [[166.67229587471195, -21.964558092898358], [166.67229587471195, -21.964558092898358]], [[166.67804017939352, -21.967308481419707], [166.67804017939352, -21.967308481419707]], [[166.63585445496972, -21.992494292306333], [166.63585445496972, -21.992494292306333]], [[166.63585445496972, -21.992494292306333], [166.63585445496972, -21.992494292306333]], [[166.3441230815356, -21.99317153775752], [166.3441230815356, -21.99317153775752]], [[166.62139158009154, -21.996536710750604], [166.62139158009154, -21.996536710750604]], [[166.35187877011674, -21.9956678715086], [166.35187877011674, -21.9956678715086]], [[166.57241024146708, -22.02093895215927], [166.57241024146708, -22.02093895215927]], [[166.57589261652276, -22.018591401864853], [166.57589261652276, -22.018591401864853]], [[166.18925353936197, -22.007817935625837], [166.18925353936197, -22.007817935625837]], [[166.14869811668234, -22.0057893574118], [166.14869811668234, -22.0057893574118]], [[166.19801562170153, -21.992224797743404], [166.19801562170153, -21.992224797743404]], [[166.6164508464376, -22.00534019980688], [166.6164508464376, -22.00534019980688]], [[166.5921486127769, -22.01266392509757], [166.5921486127769, -22.01266392509757]], [[166.58424694797407, -22.01355873126363], [166.58424694797407, -22.01355873126363]], [[166.22356918037713, -21.9757442226869], [166.22356918037713, -21.9757442226869]], [[166.14510485584287, -22.00965211281391], [166.14510485584287, -22.00965211281391]], [[166.1647779589381, -22.01001143889789], [166.1647779589381, -22.01001143889789]], [[166.19226640435863, -22.014143688863044], [166.19226640435863, -22.014143688863044]], [[166.18727935132677, -22.016158932710823], [166.18727935132677, -22.016158932710823]], [[166.3831078562157, -22.023615299856715], [166.3831078562157, -22.023615299856715]], [[166.39645345155168, -22.029864205034983], [166.39645345155168, -22.029864205034983]], [[166.7222723781548, -22.03309813979041], [166.7222723781548, -22.03309813979041]], [[166.7223622096759, -22.033187971311406], [166.7223622096759, -22.033187971311406]], [[166.86285870849224, -22.034894770210087], [166.86285870849224, -22.034894770210087]], [[166.74386843724608, -22.035935903502093], [166.74386843724608, -22.035935903502093]], [[166.1865803498041, -22.03901193128695], [166.1865803498041, -22.03901193128695]], [[166.20703807509017, -22.03835889823796], [166.20703807509017, -22.03835889823796]], [[166.1702043442525, -22.044543587914973], [166.1702043442525, -22.044543587914973]], [[166.1660356002318, -22.05079494942396], [166.1660356002318, -22.05079494942396]], [[166.1664047516383, -22.06562627389991], [166.1664047516383, -22.06562627389991]], [[166.1479401632239, -22.076615897236366], [166.1479401632239, -22.076615897236366]], [[166.28093011556837, -22.08241564480977], [166.28093011556837, -22.08241564480977]], [[166.12704872012546, -22.09427340557943], [166.12704872012546, -22.09427340557943]], [[166.18328886673044, -22.097443826642177], [166.18328886673044, -22.097443826642177]], [[166.6869440271024, -22.0988800782647], [166.6869440271024, -22.0988800782647]], [[166.69332557413577, -22.103176551479237], [166.69332557413577, -22.103176551479237]], [[166.68719176559364, -22.103752385564974], [166.68719176559364, -22.103752385564974]], [[166.942419960115, -22.10216664867704], [166.942419960115, -22.10216664867704]], [[166.88494252467024, -22.142965248091286], [166.88494252467024, -22.142965248091286]], [[166.83946321174642, -22.152085603801652], [166.83946321174642, -22.152085603801652]], [[166.45137840854477, -22.155244795924318], [166.45137840854477, -22.155244795924318]], [[166.35220651480677, -22.150521973889568], [166.35220651480677, -22.150521973889568]], [[166.33995784655872, -22.147495072717618], [166.33995784655872, -22.147495072717618]], [[166.52548800973784, -22.14166760369835], [166.52548800973784, -22.14166760369835]], [[166.46962403262694, -22.141033168581373], [166.46962403262694, -22.141033168581373]], [[166.2250135028006, -22.14030855103914], [166.2250135028006, -22.14030855103914]], [[166.3518556104276, -22.132403377192702], [166.3518556104276, -22.132403377192702]], [[166.4678695107326, -22.125175448797336], [166.4678695107326, -22.125175448797336]], [[166.50550891802436, -22.123746215262372], [166.50550891802436, -22.123746215262372]], [[166.74230480733377, -22.13326028568582], [166.74230480733377, -22.13326028568582]], [[166.49385959445578, -22.137104443155977], [166.49385959445578, -22.137104443155977]], [[166.51934297225557, -22.134517926979527], [166.51934297225557, -22.134517926979527]], [[166.48574598340826, -22.13110432918222], [166.48574598340826, -22.13110432918222]], [[166.53793950071656, -22.14046680891397], [166.53793950071656, -22.14046680891397]], [[166.66567851993602, -22.145477372539403], [166.66567851993602, -22.145477372539403]], [[166.37824572514262, -22.163088210600108], [166.37824572514262, -22.163088210600108]], [[166.43019501300307, -22.164691141802564], [166.43019501300307, -22.164691141802564]], [[166.3311459357975, -22.15293338878098], [166.3311459357975, -22.15293338878098]], [[166.36689888114847, -22.16847424191093], [166.36689888114847, -22.16847424191093]], [[166.37336675065922, -22.18805751348509], [166.37336675065922, -22.18805751348509]], [[166.36582090289676, -22.19272875257616], [166.36582090289676, -22.19272875257616]], [[166.39537547329985, -22.17054036689342], [166.39537547329985, -22.17054036689342]], [[166.43109543363926, -22.171944686217614], [166.43109543363926, -22.171944686217614]], [[166.8483565323238, -22.184514782876306], [166.8483565323238, -22.184514782876306]], [[166.43959012684218, -22.191717797060676], [166.43959012684218, -22.191717797060676]], [[166.43899358939802, -22.203368875151284], [166.43899358939802, -22.203368875151284]], [[166.44060002964443, -22.209577777230436], [166.44060002964443, -22.209577777230436]], [[166.85014053018563, -22.215059605436636], [166.85014053018563, -22.215059605436636]], [[166.71494830195968, -22.22709176568253], [166.71494830195968, -22.22709176568253]], [[166.45659635665834, -22.23392282122535], [166.45659635665834, -22.23392282122535]], [[166.486195141013, -22.239530975007995], [166.486195141013, -22.239530975007995]], [[166.48664429861788, -22.242225920637395], [166.48664429861788, -22.242225920637395]], [[166.48554737152983, -22.249529995282955], [166.48554737152983, -22.249529995282955]], [[166.47558730164076, -22.250204082594678], [166.47558730164076, -22.250204082594678]], [[166.46971596957405, -22.273052168509594], [166.46971596957405, -22.273052168509594]], [[166.45023516207857, -22.301397171518943], [166.45023516207857, -22.301397171518943]], [[166.71490619343433, -22.23033482395175], [166.71490619343433, -22.23033482395175]], [[167.00874509856772, -22.23108681203564], [167.00874509856772, -22.23108681203564]], [[167.01742787651767, -22.243351270980327], [167.01742787651767, -22.243351270980327]], [[166.71449844254596, -22.24088932585846], [166.71449844254596, -22.24088932585846]], [[166.86130139485897, -22.234261093046598], [166.86130139485897, -22.234261093046598]], [[166.86138701552738, -22.246662053794637], [166.86138701552738, -22.246662053794637]], [[166.93319678942146, -22.2464480021236], [166.93319678942146, -22.2464480021236]], [[166.93486428702977, -22.252876570343915], [166.93486428702977, -22.252876570343915]], [[166.95134275665987, -22.25785660528834], [166.95134275665987, -22.25785660528834]], [[166.91747837867592, -22.2605066351573], [166.91747837867592, -22.2605066351573]], [[166.95901843904267, -22.268340575414868], [166.95901843904267, -22.268340575414868]], [[166.88663809462867, -22.271644340141563], [166.88663809462867, -22.271644340141563]], [[166.55976715669772, -22.258844752019172], [166.55976715669772, -22.258844752019172]], [[166.89945943882265, -22.255136745448], [166.89945943882265, -22.255136745448]], [[166.94471066389985, -22.25996413698772], [166.94471066389985, -22.25996413698772]], [[166.9862872183221, -22.284267072457226], [166.9862872183221, -22.284267072457226]], [[166.97327287671965, -22.288231590129328], [166.97327287671965, -22.288231590129328]], [[166.991795715261, -22.29061773990543], [166.991795715261, -22.29061773990543]], [[166.95939039768416, -22.29554092834053], [166.95939039768416, -22.29554092834053]], [[166.96488626206553, -22.299256303903576], [166.96488626206553, -22.299256303903576]], [[166.92140429686629, -22.301490161179345], [166.92140429686629, -22.301490161179345]], [[166.93226970005253, -22.306065252470603], [166.93226970005253, -22.306065252470603]], [[166.9095114456586, -22.330650315060666], [166.9095114456586, -22.330650315060666]], [[166.94788985757214, -22.331643374452824], [166.94788985757214, -22.331643374452824]], [[166.88127417029375, -22.331787947056853], [166.88127417029375, -22.331787947056853]], [[166.95210632458816, -22.34010859168791], [166.95210632458816, -22.34010859168791]], [[165.98306352997452, -21.51005410887035], [165.98306352997452, -21.51005410887035]], [[165.2804883971362, -20.88812996120305], [165.2804883971362, -20.88812996120305]], [[164.57952110816166, -20.370406517927222], [164.57952110816166, -20.370406517927222]], [[164.5350545052754, -20.3298026704432], [164.5350545052754, -20.3298026704432]], [[164.52319674450575, -20.316148279253866], [164.52319674450575, -20.316148279253866]], [[164.51601022282716, -20.31345333362441], [164.51601022282716, -20.31345333362441]], [[164.5112491522151, -20.313632996666286], [164.5112491522151, -20.313632996666286]], [[164.512972794524, -20.31093278747113], [164.512972794524, -20.31093278747113]], [[164.50439598969638, -20.30843540100699], [164.50439598969638, -20.30843540100699]], [[164.31952973760224, -20.301041319388275], [164.31952973760224, -20.301041319388275]], [[164.3626678165101, -20.249403459163887], [164.3626678165101, -20.249403459163887]], [[164.29308839084797, -20.2792773525519], [164.29308839084797, -20.2792773525519]]], [[[166.4811161510337, -22.31458907073693], [166.4811161510337, -22.31458907073693]]], [[[166.47497602621286, -22.314530469705687], [166.47497602621286, -22.314530469705687]]], [[[166.56557322054982, -22.308946177420864], [166.56557322054982, -22.308946177420864]]], [[[166.58204537390134, -22.30259270273757], [166.58204537390134, -22.30259270273757]]], [[[166.59614892269542, -22.302233376653703], [166.59614892269542, -22.302233376653703]]], [[[166.293147202422, -22.294148539765274], [166.293147202422, -22.294148539765274]]], [[[166.48305103777875, -22.28791472347524], [166.48305103777875, -22.28791472347524]]], [[[166.428463650798, -22.289563272246994], [166.428463650798, -22.289563272246994]]], [[[166.46270139104104, -22.28260273298838], [166.46270139104104, -22.28260273298838]]], [[[167.03977908183197, -22.28233323842545], [167.03977908183197, -22.28233323842545]]], [[[166.50458042503783, -22.273247973152934], [166.50458042503783, -22.273247973152934]]], [[[167.02725530455132, -22.266107069043642], [167.02725530455132, -22.266107069043642]]], [[[167.02405856566008, -22.262570303809298], [167.02405856566008, -22.262570303809298]]], [[[167.03838458783048, -22.26108562738233], [167.03838458783048, -22.26108562738233]]], [[[166.22769932491622, -22.241612890687634], [166.22769932491622, -22.241612890687634]]], [[[166.56371974362094, -22.242225920637395], [166.56371974362094, -22.242225920637395]]], [[[166.38930763478106, -22.22583587891063], [166.38930763478106, -22.22583587891063]]], [[[166.20084882365632, -22.213611072160802], [166.20084882365632, -22.213611072160802]]], [[[166.40583803825928, -22.212707142480895], [166.40583803825928, -22.212707142480895]]], [[[166.24143933677396, -22.197665977186375], [166.24143933677396, -22.197665977186375]]], [[[166.41522823943694, -22.18311677983104], [166.41522823943694, -22.18311677983104]]], [[[166.423235877362, -22.17907506319557], [166.423235877362, -22.17907506319557]]], [[[166.2609573401336, -22.17676891961787], [166.2609573401336, -22.17676891961787]]], [[[166.43700887423142, -22.17498351813822], [166.43700887423142, -22.17498351813822]]], [[[166.28681478200144, -22.17847642032524], [166.28681478200144, -22.17847642032524]]], [[[166.87868168874286, -22.154635275018336], [166.87868168874286, -22.154635275018336]]], [[[166.79711115864689, -22.14730137350051], [166.79711115864689, -22.14730137350051]]], [[[166.74185564972913, -22.142962089951823], [166.74185564972913, -22.142962089951823]]], [[[166.74921060550935, -22.131584717276837], [166.74921060550935, -22.131584717276837]]], [[[166.95067744195762, -22.1195529079352], [166.95067744195762, -22.1195529079352]]], [[[166.16345645304727, -22.119086906920188], [166.16345645304727, -22.119086906920188]]], [[[166.1523285733856, -22.1139124709498], [166.1523285733856, -22.1139124709498]]], [[[166.71718075561785, -22.110852233861976], [166.71718075561785, -22.110852233861976]]], [[[166.13884542353333, -22.111444560453492], [166.13884542353333, -22.111444560453492]]], [[[166.70789933479773, -22.10972442718844], [166.70789933479773, -22.10972442718844]]], [[[166.12089876998198, -22.097458915530524], [166.12089876998198, -22.097458915530524]]], [[[166.11227634758507, -22.07985053380048], [166.11227634758507, -22.07985053380048]]], [[[166.02746767188148, -22.063168539630453], [166.02746767188148, -22.063168539630453]]], [[[166.10749632813656, -22.051018475513217], [166.10749632813656, -22.051018475513217]]], [[[166.103411801167, -22.05135008015128], [166.103411801167, -22.05135008015128]]], [[[166.08491773678463, -22.054388210263255], [166.08491773678463, -22.054388210263255]]], [[[166.1554789928988, -22.032422648861086], [166.1554789928988, -22.032422648861086]]], [[[166.0430148412902, -22.027544376186597], [166.06084288916145, -22.076037606820023], [166.0430148412902, -22.027544376186597]]], [[[166.1190551183755, -22.027136274393968], [166.1190551183755, -22.027136274393968]]], [[[166.14532662741055, -22.027032055793427], [166.14532662741055, -22.027032055793427]]], [[[166.16311607579996, -22.02168743119927], [166.16311607579996, -22.02168743119927]]], [[[165.93664238969814, -22.006830490703805], [165.93664238969814, -22.006830490703805]]], [[[166.10440486055904, -21.997025871454696], [166.10440486055904, -21.997025871454696]]], [[[166.14200286113396, -21.99460778938004], [166.14200286113396, -21.99460778938004]]], [[[166.14591333953172, -21.986745074963494], [166.14591333953172, -21.986745074963494]]], [[[166.02360912733184, -21.984722111219526], [166.07085699832464, -22.003619715637456], [166.02360912733184, -21.984722111219526]], [[166.03685787305915, -22.0127962160484], [166.03685787305915, -22.0127962160484]]], [[[166.0955424195671, -21.981765741827815], [166.0955424195671, -21.981765741827815]]], [[[165.9925709332149, -21.98926035755096], [165.9925709332149, -21.98926035755096]], [[165.98190133467187, -21.98814483253068], [165.98190133467187, -21.98814483253068]]], [[[166.1074829937703, -21.979859980146216], [166.1074829937703, -21.979859980146216]]], [[[166.06523761560197, -21.980989190437356], [166.06523761560197, -21.980989190437356]]], [[[166.1852118227265, -21.974211121455824], [166.1852118227265, -21.974211121455824]]], [[[166.0113008053396, -21.967483582704745], [166.0113008053396, -21.967483582704745]]], [[[165.94659403788205, -21.96486829236926], [165.94659403788205, -21.96486829236926]]], [[[165.9949065527603, -21.988901031467037], [165.9949065527603, -21.988901031467037]]], [[[166.0909104817665, -21.953904986861176], [166.0909104817665, -21.953904986861176]]], [[[166.03412152071303, -21.952739984323443], [166.03412152071303, -21.952739984323443]]], [[[166.06761323824674, -21.947057087908263], [166.06761323824674, -21.947057087908263]]], [[[165.9211527686076, -21.941150665403654], [165.9211527686076, -21.941150665403654]]], [[[165.91509194817615, -21.93556742583189], [165.91509194817615, -21.93556742583189]]], [[[165.90085295029166, -21.926396539891016], [165.90085295029166, -21.926396539891016]]], [[[166.62420021873982, -21.902976830743057], [166.62420021873982, -21.902976830743057]]], [[[165.84937106706377, -21.894073333938763], [165.84937106706377, -21.894073333938763]]], [[[166.5638643162249, -21.871869508463476], [166.5638643162249, -21.871869508463476]]], [[[165.78134053332974, -21.868669611432892], [165.78134053332974, -21.868669611432892]]], [[[165.81687661977458, -21.830331904427283], [165.81687661977458, -21.830331904427283]]], [[[165.76781597676086, -21.809744695425366], [165.76781597676086, -21.809744695425366]]], [[[165.75754149654824, -21.796182241183203], [165.75754149654824, -21.796182241183203]]], [[[165.69924926113572, -21.79262968525194], [165.69924926113572, -21.79262968525194]]], [[[165.7221759496315, -21.783435288717556], [165.7221759496315, -21.783435288717556]]], [[[166.47635508042163, -21.773167124784038], [166.47635508042163, -21.773167124784038]]], [[[165.76018731556462, -21.765134923552466], [165.76018731556462, -21.765134923552466]]], [[[165.70025916393809, -21.74419996831091], [165.70025916393809, -21.74419996831091]]], [[[165.7714541533603, -21.726993722999055], [165.7714541533603, -21.726993722999055]]], [[[166.42777447459798, -21.723331684901495], [166.42777447459798, -21.723331684901495]]], [[[165.78741047727488, -21.723543631146413], [165.78741047727488, -21.723543631146413]]], [[[165.78723291965923, -21.71739157557664], [165.78723291965923, -21.71739157557664]]], [[[165.7889712999521, -21.71482155190597], [165.7889712999521, -21.71482155190597]]], [[[166.4282488973181, -21.681575467437426], [166.4282488973181, -21.681575467437426]]], [[[166.3889974353101, -21.670647954176047], [166.3889974353101, -21.670647954176047]]], [[[165.4596503476481, -21.658122071468995], [165.4596503476481, -21.658122071468995]]], [[[165.46260355890035, -21.60715496496482], [165.46260355890035, -21.60715496496482]]], [[[165.46449493350235, -21.607113558248102], [165.46449493350235, -21.607113558248102]]], [[[166.2284186788928, -21.605809597576297], [166.2284186788928, -21.605809597576297]]], [[[166.2325109257588, -21.603433974931647], [166.2325109257588, -21.603433974931647]]], [[[165.47537016201113, -21.60584679344049], [165.47537016201113, -21.60584679344049]]], [[[166.05307737525789, -21.530091450710756], [166.05307737525789, -21.530091450710756]]], [[[165.98116513728496, -21.50093761310825], [165.98116513728496, -21.50093761310825]]], [[[165.97530222692342, -21.501027795533503], [165.97530222692342, -21.501027795533503]]], [[[166.0768722011867, -21.48382891921358], [166.0768722011867, -21.48382891921358]]], [[[159.61580348049415, -21.443278409195102], [159.61580348049415, -21.443278409195102]]], [[[159.6150571946066, -21.44142633588359], [159.6150571946066, -21.44142633588359]]], [[[159.6118379978351, -21.440928753474452], [159.6118379978351, -21.440928753474452]]], [[[165.1375145134051, -21.436846331931065], [165.1375145134051, -21.436846331931065]]], [[[165.8222026464366, -21.387140726668747], [165.8222026464366, -21.387140726668747]]], [[[165.0197748653651, -21.371626191367227], [165.0197748653651, -21.371626191367227]]], [[[165.11258135367132, -21.3696025258144], [165.11258135367132, -21.3696025258144]]], [[[164.99373425141152, -21.3491209390304], [164.99373425141152, -21.3491209390304]]], [[[167.849118977358, -21.517195714788443], [167.87780751575428, -21.559910953920053], [167.84512708914428, -21.597773536396517], [167.9045639746405, -21.596743982948965], [167.95273542595862, -21.617256098413975], [167.97977050292172, -21.660620861550797], [168.03813713006252, -21.658978278153427], [168.08843014925515, -21.630473262747273], [168.10726038003224, -21.565445768687425], [168.11497396008804, -21.510771006516393], [168.1265910004538, -21.457371430858018], [168.05380009791645, -21.4549172056324], [167.9992344670071, -21.458122717133108], [167.96548869470314, -21.410415161403876], [167.97872480787294, -21.357834596565738], [167.92652357066822, -21.374593087890275], [167.87236218160342, -21.399724859502555], [167.82179405337797, -21.373803553037817], [167.8337612963138, -21.434277711877883], [167.83598111741446, -21.49223658813048], [167.849118977358, -21.517195714788443]]], [[[165.03231969690842, -21.34458199089022], [165.03231969690842, -21.34458199089022]]], [[[167.74271634798936, -21.344761653932153], [167.74271634798936, -21.344761653932153]]], [[[165.78434146757752, -21.331298856533692], [165.78434146757752, -21.331298856533692]]], [[[167.57464227404, -21.309905971077853], [167.57464227404, -21.309905971077853]]], [[[164.93166067041284, -21.286238874342757], [164.93166067041284, -21.286238874342757]]], [[[165.6289750448036, -21.268839982526856], [165.6289750448036, -21.268839982526856]], [[165.62336969825594, -21.272892226293663], [165.62336969825594, -21.272892226293663]]], [[[165.62731737251795, -21.266819826017922], [165.62731737251795, -21.266819826017922]]], [[[165.62932594918243, -21.266338034305704], [165.62932594918243, -21.266338034305704]]], [[[167.59162674778463, -21.254977505040927], [167.59162674778463, -21.254977505040927]]], [[[164.82213078121993, -21.15131122801847], [164.82213078121993, -21.15131122801847]]], [[[165.48983373869805, -21.13941416595833], [165.48983373869805, -21.13941416595833]]], [[[167.54962559906403, -21.12965762060918], [167.54962559906403, -21.12965762060918]]], [[[165.49274835046867, -21.132716804983886], [165.49274835046867, -21.132716804983886]]], [[[165.56799979451046, -21.111952740174843], [165.56799979451046, -21.111952740174843]]], [[[167.79414208651679, -21.09229262054174], [167.83634605796829, -21.123397135586288], [167.79910738347746, -21.086245836285684], [167.79414208651679, -21.09229262054174]]], [[[164.72640196124667, -21.094140132096356], [164.72640196124667, -21.094140132096356]]], [[[164.805022789134, -21.091668712556213], [164.805022789134, -21.091668712556213]]], [[[164.842907127682, -21.08420778365337], [164.842907127682, -21.08420778365337]]], [[[164.82472957904952, -21.078024146689472], [164.82472957904952, -21.078024146689472]]], [[[164.81820345941185, -21.07585345220201], [164.81820345941185, -21.07585345220201]]], [[[164.8273662745521, -21.075943283723007], [164.8273662745521, -21.075943283723007]]], [[[164.68669011269367, -20.99401693658706], [164.68669011269367, -20.99401693658706]]], [[[164.64603994583172, -20.97439050377426], [164.64603994583172, -20.97439050377426]]], [[[164.6750120149659, -20.976230295432458], [164.6750120149659, -20.976230295432458]]], [[[164.67456285736114, -20.9552097195226], [164.67456285736114, -20.9552097195226]]], [[[164.66836097336966, -20.949097667052058], [164.66836097336966, -20.949097667052058]]], [[[164.6661530830179, -20.899007821494877], [164.6661530830179, -20.899007821494877]], [[164.65875250966815, -20.924667002388503], [164.65875250966815, -20.924667002388503]]], [[[165.25870074425438, -20.865970349679515], [165.25870074425438, -20.865970349679515]]], [[[165.256082997588, -20.77643323747094], [165.256082997588, -20.77643323747094]]], [[[165.14801708146376, -20.71710881682816], [165.14801708146376, -20.71710881682816]]], [[[166.4681677794547, -20.705109992498137], [166.4681677794547, -20.705109992498137]]], [[[166.46634237487604, -20.70269331404114], [166.41370110358025, -20.722725743220167], [166.4638635863438, -20.705784255262074], [166.46634237487604, -20.70269331404114]]], [[[166.48691379318086, -20.693710161942874], [166.48691379318086, -20.693710161942874]]], [[[165.09032840158284, -20.689761434967693], [165.09032840158284, -20.689761434967693]]], [[[166.37974478864885, -20.690835553271427], [166.37974478864885, -20.690835553271427]]], [[[167.38388153019014, -21.183112288254904], [167.4118682598288, -21.14049003878381], [167.424859441742, -21.084708524201915], [167.42478505001384, -21.03250272524042], [167.37781228805375, -21.002058612236794], [167.37006923203035, -20.949251538622093], [167.3182729384789, -20.936814961079563], [167.26149099551287, -20.91385107671971], [167.28978301196105, -20.86867968238846], [167.272148663307, -20.820987917356376], [167.2759559758174, -20.764745489872837], [167.2685743513042, -20.71376592626308], [167.2254327633524, -20.683491475526694], [167.17370033439784, -20.685785337451193], [167.13565879068824, -20.724560622217098], [167.08616372805318, -20.715290079432634], [167.0384975790406, -20.735506557958274], [167.09077110254736, -20.76798065279354], [167.1456644781464, -20.78203086412219], [167.1781062897785, -20.82153392456985], [167.1484253937989, -20.86958782292095], [167.11891363373013, -20.910690831883926], [167.0635753113785, -20.927828826294103], [167.0134528317143, -20.91496081181782], [167.05637826256873, -20.952522493789445], [167.07553623803574, -21.002480399300225], [167.1122920681014, -21.049799854786443], [167.15277871352282, -21.083405265338968], [167.20843986790283, -21.089089565371694], [167.26346377993082, -21.091706961133525], [167.29533291561677, -21.131605139911642], [167.3286646207539, -21.170011273271086], [167.38190172768475, -21.182838231935136], [167.38388153019014, -21.183112288254904]]], [[[164.94508978099088, -20.672645547533477], [164.94508978099088, -20.672645547533477]]], [[[166.37466158781706, -20.67133597239166], [166.37466158781706, -20.67133597239166]]], [[[165.05261530437167, -20.66446666827153], [165.05261530437167, -20.66446666827153]]], [[[164.98909038286195, -20.647653786768274], [164.98909038286195, -20.647653786768274]]], [[[166.33565365344805, -20.633955707983773], [166.33565365344805, -20.633955707983773]]], [[[166.29219905879017, -20.627733822442565], [166.29219905879017, -20.627733822442565]]], [[[164.91674863792957, -20.625797532080128], [164.91674863792957, -20.625797532080128]]], [[[166.3058134468804, -20.627683994020742], [166.3058134468804, -20.627683994020742]]], [[[164.93705407071536, -20.626318098726188], [164.93705407071536, -20.626318098726188]]], [[[164.85555442330417, -20.62135894259228], [164.85555442330417, -20.62135894259228]]], [[[166.27800357304875, -20.61908209953009], [166.27800357304875, -20.61908209953009]]], [[[164.1840132737301, -20.556087920893447], [164.1840132737301, -20.556087920893447]]], [[[164.22359318223675, -20.553342445033365], [164.22359318223675, -20.553342445033365]]], [[[164.11913456312698, -20.510453859138806], [164.11913456312698, -20.510453859138806]]], [[[166.22667047327752, -20.499636003495823], [166.22667047327752, -20.499636003495823]]], [[[166.6585116489025, -20.479147574076364], [166.6585116489025, -20.479147574076364]]], [[[164.1298925895735, -20.46662116501284], [164.1298925895735, -20.46662116501284]]], [[[164.07897987324782, -20.457543093280094], [164.07897987324782, -20.457543093280094]]], [[[166.39605412236847, -20.452819218532227], [166.39605412236847, -20.452819218532227]]], [[[166.4398954136517, -20.451830545444807], [166.4398954136517, -20.451830545444807]]], [[[166.45275465551856, -20.448306588220362], [166.45275465551856, -20.448306588220362]]], [[[166.4059390987204, -20.44778812700065], [166.4059390987204, -20.44778812700065]]], [[[166.47079184239954, -20.440905488514147], [166.47079184239954, -20.440905488514147]]], [[[166.47414789187894, -20.438496179049025], [166.47414789187894, -20.438496179049025]]], [[[166.47900861933465, -20.43310891957293], [166.47900861933465, -20.43310891957293]]], [[[166.4827134677663, -20.427923956471204], [166.4827134677663, -20.427923956471204]]], [[[164.12614843985102, -20.4277448197858], [164.12614843985102, -20.4277448197858]]], [[[166.49082707881382, -20.422637757456243], [166.49082707881382, -20.422637757456243]]], [[[166.49595028274473, -20.414730127279086], [166.49595028274473, -20.414730127279086]]], [[[166.4982255467371, -20.413286506664576], [166.4982255467371, -20.413286506664576]]], [[[166.14781243403013, -20.407879245638867], [166.14781243403013, -20.407879245638867]]], [[[164.0363639400557, -20.404248262578903], [164.0363639400557, -20.404248262578903]]], [[[166.5183281567921, -20.40517219380837], [166.5183281567921, -20.40517219380837]]], [[[166.52545151568233, -20.41190868062108], [166.52545151568233, -20.41190868062108]], [[166.53400726624716, -20.410765609606983], [166.53400726624716, -20.410765609606983]]], [[[166.51916330921358, -20.668377673025816], [166.47137294005097, -20.700178031453618], [166.5284931548382, -20.6970805985016], [166.57737413481016, -20.671701439302183], [166.60117948787047, -20.622563597324756], [166.56958054855613, -20.578805645831494], [166.57622106302153, -20.525982781519872], [166.6046653719701, -20.48474449891887], [166.6666750883718, -20.466266576138025], [166.62541504969943, -20.429398807575467], [166.59417543646907, -20.389686432665883], [166.5522402577717, -20.4182923330809], [166.59462178683907, -20.44811078357702], [166.58395850457464, -20.497669184452434], [166.56242841550693, -20.55214393112749], [166.5570722110682, -20.61304145610069], [166.51916330921358, -20.66828784150482], [166.51916330921358, -20.668377673025816]], [[166.56677401533432, -20.415142615376453], [166.56677401533432, -20.415142615376453]], [[166.57009778161057, -20.411729017579148], [166.57009778161057, -20.411729017579148]], [[166.57728430328928, -20.41190868062108], [166.57728430328928, -20.41190868062108]]], [[[164.08387744566312, -20.368973073539678], [164.08387744566312, -20.368973073539678]]], [[[164.10385829189852, -20.362406424446306], [164.10385829189852, -20.362406424446306]]], [[[164.38193387052593, -20.349608064489132], [164.38193387052593, -20.349608064489132]]], [[[164.02538730018102, -20.34620516927538], [164.02538730018102, -20.34620516927538]]], [[[164.10288909400447, -20.34117127050871], [164.10288909400447, -20.34117127050871]]], [[[164.16560483001626, -20.332340410910945], [164.16560483001626, -20.332340410910945]]], [[[164.07758678286382, -20.314733257346177], [164.07758678286382, -20.314733257346177]]], [[[164.15021626938676, -20.30707529563466], [164.15021626938676, -20.30707529563466]]], [[[164.1469823346314, -20.304649844568132], [164.1469823346314, -20.304649844568132]]], [[[164.09626542294927, -20.317903327504553], [164.09626542294927, -20.317903327504553]]], [[[164.30815482125774, -20.274647169273067], [164.30815482125774, -20.274647169273067]]], [[[164.23429857302642, -20.27437662199702], [164.23429857302642, -20.27437662199702]]], [[[164.3080018269486, -20.273435847357405], [164.3080018269486, -20.273435847357405]]], [[[164.2938568714377, -20.24167794835938], [164.2938568714377, -20.24167794835938]], [[164.2799470218605, -20.22525720249945], [164.2799470218605, -20.22525720249945]]], [[[164.04550956088121, -20.21635844290438], [164.04550956088121, -20.21635844290438]]], [[[164.00509695628352, -20.210278498184437], [164.00509695628352, -20.210278498184437]]], [[[164.25370218155854, -20.222723497432185], [164.25370218155854, -20.222723497432185]]], [[[164.24575209195166, -20.2027161579162], [164.24575209195166, -20.2027161579162]]], [[[164.02377489456023, -20.20605641669823], [164.02377489456023, -20.20605641669823]]], [[[164.24732414356868, -20.20215207912719], [164.24732414356868, -20.20215207912719]]], [[[163.98609408055188, -20.19756400437393], [163.98609408055188, -20.19756400437393]]], [[[164.04632716808374, -20.17659413414674], [164.04632716808374, -20.17659413414674]]], [[[164.24848142621022, -20.162590768552718], [164.24848142621022, -20.162590768552718]]], [[[164.02069570863603, -20.161551389782517], [164.02069570863603, -20.161551389782517]]], [[[164.0003804505276, -20.14758188646107], [164.0003804505276, -20.14758188646107]]], [[[163.91526754072754, -20.132571776204088], [163.91526754072754, -20.132571776204088]]], [[[163.9928314446256, -20.108278139700587], [163.9928314446256, -20.108278139700587]]], [[[163.9747223223469, -20.085424263863445], [163.9747223223469, -20.085424263863445]]], [[[164.18767601363652, -20.12956821017343], [164.23407048518015, -20.154748406590045], [164.2132520301925, -20.107512466345895], [164.1800838464959, -20.068346274102055], [164.18058142890527, -20.124288853793814], [164.18767601363652, -20.12956821017343]], [[164.16948513063744, -20.105933396641205], [164.16948513063744, -20.105933396641205]], [[164.16904299112014, -20.10517175868688], [164.16904299112014, -20.10517175868688]], [[164.16895737045172, -20.10355058045667], [164.16895737045172, -20.10355058045667]], [[164.16935038335623, -20.09417459090639], [164.16935038335623, -20.09417459090639]]], [[[163.81425515352203, -20.02880022786792], [163.8249331737701, -20.078361962334895], [163.81425515352203, -20.02880022786792]]], [[[163.93544384070174, -20.02560945435124], [163.93544384070174, -20.02560945435124]]], [[[163.93372791828938, -20.006530432369402], [163.93372791828938, -20.006530432369402]]], [[[163.9650261325511, -20.000738931048943], [163.95389123480163, -20.05081140683933], [163.9650261325511, -20.000738931048943]], [[163.95876178758, -20.00806335814832], [163.95876178758, -20.00806335814832]], [[163.97136171111083, -20.018626281760135], [163.97136171111083, -20.018626281760135]], [[163.96929558612828, -20.02437549910303], [163.96929558612828, -20.02437549910303]], [[163.99238228702075, -20.05617585753083], [163.99238228702075, -20.05617585753083]], [[163.99372975983556, -20.060487770537918], [163.99372975983556, -20.060487770537918]], [[163.98196183058667, -20.06201490639461], [163.98196183058667, -20.06201490639461]], [[163.982125001123, -20.058997304188836], [163.982125001123, -20.058997304188836]], [[163.98977717291223, -20.071267553055804], [163.98977717291223, -20.071267553055804]]], [[[163.96166938126294, -19.997416568390065], [163.96166938126294, -19.997416568390065]]], [[[163.93048836906394, -19.97353085822698], [163.93048836906394, -19.97353085822698]]], [[[158.47820170594275, -19.96918139845127], [158.47820170594275, -19.96918139845127]]], [[[158.3799760148961, -19.909621871874663], [158.3799760148961, -19.909621871874663]]], [[[163.70730581513135, -19.898675760681215], [163.70730581513135, -19.898675760681215]]], [[[158.33488292707034, -19.890167206755336], [158.33488292707034, -19.890167206755336]]], [[[163.70321462097843, -19.878489109027555], [163.70321462097843, -19.878489109027555]]], [[[158.30491917474694, -19.863772881187913], [158.30491917474694, -19.863772881187913]]], [[[163.69854338188725, -19.8433649843235], [163.69854338188725, -19.8433649843235]]], [[[163.69985295702907, -19.84240315542104], [163.69985295702907, -19.84240315542104]]], [[[163.69849951883998, -19.828039937386563], [163.69849951883998, -19.828039937386563]]], [[[163.68511707854418, -19.81187570262756], [163.68511707854418, -19.81187570262756]]], [[[163.62330386859446, -19.621891159263555], [163.64638179687756, -19.670791263524393], [163.6402932550003, -19.721711524293994], [163.66429441270407, -19.765816520217925], [163.67592233110554, -19.716736226558623], [163.65987442114806, -19.667814892583067], [163.62330386859446, -19.621891159263555]]], [[[163.58253088519996, -19.55019490293614], [163.59572278441794, -19.604402435926772], [163.58253088519996, -19.55019490293614]]], [[[158.2373207016244, -19.53176663312496], [158.2373207016244, -19.53176663312496]]], [[[158.2503023940418, -19.512286702890265], [158.2503023940418, -19.512286702890265]]], [[[158.94183152856192, -19.216367461147], [158.94183152856192, -19.216367461147]]], [[[158.60392833241258, -19.122826354523625], [158.60392833241258, -19.122826354523625]]], [[[163.08607207182934, -18.478914012121834], [163.08607207182934, -18.478914012121834]]], [[[163.01303904527072, -18.29332208977212], [163.01303904527072, -18.29332208977212]]], [[[163.047085191723, -18.285237252883803], [163.047085191723, -18.285237252883803]]], [[[162.96058656053071, -18.033575958881215], [162.96058656053071, -18.033575958881215]]], [[[162.9604353207436, -18.029569258664708], [162.9604353207436, -18.029569258664708]]]]}}]}