{"type": "FeatureCollection", "features": [{"type": "Feature", "properties": {"code": "NER", "name": "Niger", "tier": "country"}, "geometry": {"type": "Polygon", "coordinates": [[[14.220278000329529, 22.625278000079675], [13.92249999997506, 22.87111099987277], [13.623333000317757, 23.11638900015231], [13.56305600043413, 23.158332999968025], [13.51500000024987, 23.17777800005473], [13.46166700043176, 23.198889000527004], [13.410832999843137, 23.21555600020929], [13.345278000279563, 23.22888899992745], [12.990555999959497, 23.306388999952446], [12.650278000229548, 23.380556000059414], [12.398611000297478, 23.433611000547273], [12.057499900100368, 23.50638900045203], [11.9973369999027, 23.517178000664273], [11.728913999781298, 23.364154000007147], [11.29256300058205, 23.116021000268972], [11.102873999835253, 22.999256999910642], [11.001650000247366, 22.933373000463632], [10.671669000523991, 22.745741000147063], [10.238562900057843, 22.496407999929318], [10.076013999746351, 22.402156999945646], [10.001159000287657, 22.35569300033177], [9.755983000215338, 22.210916900694485], [9.351140999857307, 21.97590500061534], [9.051005000480416, 21.7999590005075], [8.99842900049805, 21.774293000421665], [8.523444000340419, 21.493332000371595], [8.058291000329461, 21.210937999888813], [8.013438000363465, 21.18332399990271], [7.725833000592559, 21.005546999894193], [7.459686000208819, 20.842494999944336], [7.084817999850884, 20.528992000180722], [7.025451000563294, 20.478862000580932], [6.736220000452704, 20.233937000392302], [6.469323000556074, 20.008494000198027], [6.127452000209701, 19.712698000412445], [6.000326000444602, 19.607394000632667], [5.810544999951844, 19.446977999934802], [5.413467999748434, 19.367567999963285], [4.980269000214264, 19.27973790038385], [4.674105999892049, 19.218549000535972], [4.243675000301096, 19.13066290017275], [4.245000000249888, 18.849443899916082], [4.245555999809596, 18.547777999954803], [4.24657759997632, 18.00655380051751], [4.248611000397375, 17.648056000184283], [4.250833000342766, 17.407222000694844], [4.25249999987517, 16.99444400039033], [4.221110900447741, 16.91500000064957], [4.220000000299819, 16.847500000424702], [4.200833000442685, 16.39388900027717], [4.151944000515243, 16.37361100044734], [4.089721999970379, 16.323333000317746], [4.063332999818158, 16.257500000524658], [4.029721900445395, 16.184999999950094], [3.991389000601941, 16.10222200024515], [3.986667000481759, 16.035556000708937], [3.988611000197523, 15.973611000347432], [3.931389000002412, 15.918611000097599], [3.916667000082043, 15.8694439999407], [3.911111000172582, 15.796667000082039], [3.895000000050004, 15.727500000324824], [3.848611000297467, 15.675556000708923], [3.747777999854861, 15.659444000540248], [3.680833000042981, 15.607500000025027], [3.638056000484085, 15.558611000097642], [3.567222000295146, 15.512222000345105], [3.5363890002522, 15.45666700058166], [3.530833000342739, 15.3983330003677], [3.032499999975073, 15.433055999934481], [3.020832999743163, 15.341943999915713], [2.62805599998444, 15.350556000459108], [1.974167000007071, 15.318889000626939], [1.652222000345091, 15.303611000247486], [1.312500000174907, 15.28666700038184], [0.994443999990665, 14.995278000579333], [0.742499999875122, 14.967500000224902], [0.694999900325172, 14.94222200004532], [0.51222199974552, 15.00083300044264], [0.396667000281866, 14.960556000159329], [0.227778000054684, 15.001389000002405], [0.237222000295105, 14.887500000025057], [0.199444000140545, 14.84833300056755], [0.241389000002414, 14.752222000245183], [0.166667000381835, 14.523056000134375], [0.189444000340416, 14.464721999920414], [0.296389000252191, 14.3672220002951], [0.338333000067962, 14.334722000719808], [0.378610900572653, 14.29111100047237], [0.410832999743207, 14.245833000692471], [0.395278000079713, 14.188056000084373], [0.35972199987043, 14.146943999965686], [0.376110900397805, 14.09611100032248], [0.385556000509041, 14.043055999834564], [0.420833000442656, 13.992500000374775], [0.466943999965679, 13.958611000597273], [0.486667000281898, 13.90027800042941], [0.515556000608967, 13.854167000007067], [0.564443899766218, 13.81861100069716], [0.601944000415358, 13.780556000359184], [0.596944000065605, 13.717778000254555], [0.772778000404458, 13.68833300036772], [0.832778000104668, 13.62499999985016], [0.902222000045299, 13.622777999904827], [0.973333000417711, 13.571944000215467], [1.017778000454427, 13.528332999968029], [1.026389000052347, 13.477778000554338], [1.069722000070271, 13.450556000658935], [1.12388900057698, 13.413333000017985], [1.183056000534066, 13.395278000179587], [1.244444000390331, 13.393056000234253], [1.285278000279561, 13.350000000399746], [1.232499999975062, 13.343889000077354], [1.188055999984442, 13.318610999897771], [1.131667000431776, 13.330556000359195], [1.067777900529734, 13.351944000115566], [1.017221999995343, 13.3711109999727], [0.989167000356815, 13.0472220005949], [1.117221999795504, 13.011110999972743], [1.578333000467637, 12.630000000399775], [1.871667000032062, 12.608888999927444], [1.928056000484105, 12.7005560003592], [1.98888899992744, 12.731111000172575], [2.038611000497326, 12.71666700048172], [2.096111000022688, 12.725555900484494], [2.142499999775225, 12.694443999990654], [2.200832999943032, 12.6308330001429], [2.225556000609004, 12.516389000651884], [2.263889000277175, 12.473332999918057], [2.264167000506689, 12.418610999897794], [2.213889000377094, 12.411389000502027], [2.161667000531679, 12.415556000209278], [2.117778000054727, 12.38722200029514], [2.070000000099981, 12.36833300066752], [2.397139500087917, 11.89566579983682], [2.408189999768695, 11.954340000091008], [2.458460000428715, 11.981050000657035], [2.436939999981064, 12.02730999985664], [2.423321899885821, 12.076872500265722], [2.399025300177527, 12.132354800633607], [2.391909800297071, 12.182281200017428], [2.381334399862737, 12.232092399844419], [2.429303100157995, 12.254461899896796], [2.476766300524389, 12.271920100632201], [2.525056000334189, 12.291636300275059], [2.576412999860111, 12.282586300217645], [2.627325799945766, 12.297734500546824], [2.683200399878615, 12.296161900151617], [2.720823600628705, 12.332916399872033], [2.779330099804326, 12.38005570041031], [2.840948399848799, 12.406561200539045], [2.885670300244215, 12.373925000438476], [2.928610999797854, 12.320833000042967], [2.975833000192836, 12.277222000694849], [3.02611100032243, 12.242500000274845], [3.053333000217833, 12.194166999907168], [3.108610899973087, 12.15777799995476], [3.153889000477022, 12.119166900232301], [3.201667000431769, 12.056111000622252], [3.253889000277184, 12.017222000494996], [3.270000000399762, 11.951943900390745], [3.31222200044499, 11.889999999900112], [3.372222000145257, 11.89416700050674], [3.418056000384183, 11.8719439001909], [3.473611000147571, 11.853610999947762], [3.513333000018008, 11.817778000454382], [3.546110999822815, 11.77444400039036], [3.605859600340352, 11.692001499969308], [3.688333000567582, 11.749722000669863], [3.66861100029746, 11.812499999875115], [3.616943999965656, 11.919721999970363], [3.671667000032073, 11.975555900184702], [3.636944000465292, 12.10777800005468], [3.656389000551997, 12.215278000379442], [3.657777999854829, 12.528889000626918], [3.95277799980488, 12.748888999827557], [4.105000000349776, 12.996389000052375], [4.13972199987046, 13.177222000694826], [4.142500000274822, 13.476943999865739], [4.247777999754931, 13.481389000701881], [4.469999999800223, 13.68694400016551], [4.613333000517628, 13.71861099999768], [4.885556000509041, 13.781389000102308], [4.923610999947755, 13.73638900055198], [4.997778000054723, 13.733332999918048], [5.108888899802935, 13.753888999977391], [5.19722200009528, 13.746111000122596], [5.286111000122617, 13.752222000444988], [5.341944000115575, 13.794722000719787], [5.365000000349767, 13.847500000124967], [5.543611000147564, 13.890555999959474], [5.657221999895455, 13.836667000581656], [5.997499899800573, 13.701388999902463], [6.120000000099992, 13.667778000354474], [6.238055999784592, 13.683333000017967], [6.423056000134352, 13.605278000479416], [6.676666999782242, 13.346667000481716], [6.806389000551974, 13.108056000084389], [6.933333000017967, 12.99722200069482], [7.090556000059394, 12.99527800007968], [7.147500000025047, 13.042778000704232], [7.218889000626916, 13.12555600040912], [7.379721999870469, 13.099722000669829], [7.816004500407416, 13.352777999904845], [8.043611000547287, 13.320832999843105], [8.122222000544923, 13.303611000647209], [8.173610999747893, 13.263056000134327], [8.215278000279511, 13.233889000477063], [8.273611000447374, 13.213056000234246], [8.312222000345116, 13.168056000683919], [8.363888999777544, 13.128056000584024], [8.408610999997677, 13.08833300066749], [8.48388900007734, 13.085278000079711], [8.541944000015633, 13.07500000005001], [8.615000000149962, 13.021944000415317], [8.650278000129674, 12.966111000422359], [8.984999999950105, 12.846667000581647], [9.091943999815783, 12.84194400041531], [9.18305599983455, 12.83305589990988], [9.236666999882175, 12.829722000669847], [9.313611000347464, 12.813611000547269], [9.370278000129645, 12.826667000082011], [9.423889000177269, 12.816944000465298], [9.63527799977993, 12.802778000104695], [9.873056000434133, 13.075278000279525], [9.93000000039973, 13.1330560000344], [9.988056000384177, 13.172777900080064], [10.040278000229591, 13.197500000524656], [10.086666999982128, 13.220833000042944], [10.134722000120234, 13.25249999987517], [10.219444000440319, 13.279444000440321], [10.337500000124976, 13.30083300024279], [10.41194400041536, 13.30972200007028], [10.463889000077359, 13.318610999897771], [10.645000000050004, 13.374722000120244], [10.724167000506725, 13.386389000352153], [10.775832999893055, 13.387222000095278], [10.834722000519946, 13.386943999865764], [10.90666699978226, 13.37250000017491], [10.957500000324785, 13.365833000292753], [11.05972200007028, 13.359721999970361], [11.126944000065578, 13.361667000631599], [11.194444000290446, 13.370833000642506], [11.338610999897753, 13.379444000240483], [11.399722000469978, 13.380833000442692], [11.463333000317732, 13.373332999918034], [11.53111090004802, 13.355278000079693], [11.644999999850143, 13.319721999870467], [11.76694399986576, 13.284443999890755], [11.819722000170202, 13.273055999934513], [11.867221999895435, 13.24972200037007], [11.940556000259278, 13.203056000434117], [12.016944000265426, 13.166111000022681], [12.068333000367716, 13.122222000444992], [12.147366599888699, 13.101743199988732], [12.204167000606617, 13.11944400004063], [12.258889000626937, 13.103056000633956], [12.308333000067933, 13.090832999943018], [12.361111000372432, 13.081666999932168], [12.437500000424734, 13.07305600033419], [12.493610999747887, 13.086110999822836], [12.506388999952435, 13.138056000384154], [12.552222000145264, 13.176389000052382], [12.56611100032245, 13.226388999952462], [12.59111100027252, 13.274444000090568], [12.63222200034511, 13.304444000390333], [12.685833000392677, 13.290832900617943], [12.730555999759645, 13.324166899982515], [12.771944000015651, 13.379444000240483], [12.82583300029279, 13.405556000209288], [12.86250000047471, 13.450278000429421], [12.889443900315769, 13.495000000649554], [12.94416700020696, 13.502500000274836], [13.000000000199918, 13.514722000020356], [13.045556000209274, 13.541667000631605], [13.09388900057695, 13.52305600033418], [13.146388899927842, 13.548611000697178], [13.193332999918084, 13.5258330006925], [13.243889000277193, 13.558888999827502], [13.251388999902474, 13.614444000490266], [13.286666999882186, 13.656389000352135], [13.324722000220163, 13.693889000277181], [13.603332999818122, 13.718056000484069], [13.620820000442734, 13.77132000071748], [13.563629999924615, 14.014170000545164], [13.50100000034979, 14.292590000328289], [13.479640000085965, 14.379630000524173], [13.473480000201903, 14.442819999843152], [13.572070000630049, 14.505680000131974], [13.633160000233886, 14.510480000251846], [13.696020000522651, 14.551120000187893], [13.692500000074972, 14.612930000619087], [13.706490000413226, 14.6633000004947], [13.745570000355258, 14.698340000290841], [13.795120000187922, 14.708820000642561], [13.792230000014513, 14.80233000062907], [13.789680000231897, 14.8632100004412], [13.830039999846178, 14.95658999982868], [13.851400000109948, 15.009260000548636], [13.918539999921109, 15.09624000067555], [13.970179999907145, 15.156530000259352], [14.028180000007069, 15.240470000490177], [14.09637000057512, 15.33636000051365], [14.125640000485703, 15.377050000057523], [14.215630000024532, 15.504139999961069], [14.299570000255358, 15.61856000014393], [14.384760000573635, 15.731550000032541], [14.514839999866126, 15.862189999968564], [14.555380000586581, 15.903730000039502], [14.594280000321817, 15.942279999822176], [14.634599999890156, 15.984490000213384], [14.69386000053862, 16.044230000514176], [14.799110000526127, 16.156479900626948], [14.913620000362755, 16.276640000036025], [14.95664999989765, 16.32533000067906], [15.219060000618583, 16.598060000668568], [15.258350000352266, 16.63928000037174], [15.328830000404253, 16.71103000053415], [15.505550000232347, 16.897870000300315], [15.509240000425734, 16.966750000312288], [15.512820000043007, 17.042980000226862], [15.522222000145234, 17.33277800040446], [15.545832999893094, 17.7700000001999], [15.573055999834594, 18.24888890070224], [15.602500000574594, 18.78222200064488], [15.680556000159356, 19.37333300051762], [15.753889000477045, 19.932500000374773], [15.996667000581681, 20.353056000534025], [15.742222000245192, 20.62444400069012], [15.6738890002772, 20.69888900012728], [15.608610999997723, 20.734999999850174], [15.568610999897771, 20.779722000070308], [15.554167000206917, 20.852499999975066], [15.568610999897771, 20.910278000629262], [15.603888999877483, 20.946110900297867], [15.463056000234246, 21.189167000456735], [15.284444000390351, 21.445277900454812], [15.202500000474686, 21.49583300059254], [15.19472200061989, 21.998888900402505], [15.098611000297467, 22.48861100009765], [14.998583099930158, 23.00123850045651], [14.617500000025018, 22.80916700045674], [14.234443999790813, 22.613610999847822], [14.220278000329529, 22.625278000079675]]]}}]}