{"type": "FeatureCollection", "features": [{"type": "Feature", "properties": {"code": "NGA", "name": "the Federal Republic of Nigeria", "tier": "country"}, "geometry": {"type": "Polygon", "coordinates": [[[5.677053338840551, 13.82054559890031], [5.557167683741682, 13.87526150781241], [5.451741276338907, 13.871105305365575], [5.350397653429013, 13.834135462081974], [5.281272459556419, 13.756080685575228], [5.204739586862502, 13.735994803417498], [5.077932117972921, 13.751699834279975], [5.005710552000437, 13.73608118509867], [4.950179262862719, 13.734384195873986], [4.873527551055702, 13.78142202590584], [4.801356069227268, 13.768725558237975], [4.744634967130082, 13.765739391759553], [4.667108044100985, 13.735763921367948], [4.542326186604271, 13.702052676190078], [4.46508027563425, 13.681269359893122], [4.394354468384051, 13.653460349115846], [4.348835016822591, 13.606697714328106], [4.313246260606491, 13.564811610167737], [4.232408444793919, 13.499422486058961], [4.142499922933155, 13.476943968389492], [4.12815317323043, 13.366315158317946], [4.127366719698387, 13.300756583049917], [4.126404704113838, 13.249674072800246], [4.143202655877928, 13.180813626747522], [4.10499954259484, 12.996386526916751], [4.052517251969675, 12.910418827966566], [3.952777384668593, 12.748888015069895], [3.903878931967199, 12.711584337147485], [3.795227501747831, 12.64251998241133], [3.714110045342352, 12.582725256565368], [3.672685005608571, 12.551909381412884], [3.652404143236652, 12.48649110128332], [3.661872621224518, 12.415437462369027], [3.666075013750913, 12.207109767601764], [3.6399909880937, 12.16434836678377], [3.635237301260474, 12.101441429078761], [3.660592203367514, 12.039548607382358], [3.671666144776793, 11.975554464866718], [3.618736929765532, 11.908223657695714], [3.631666659089092, 11.82527732558816], [3.664936108714471, 11.759182257954876], [3.628877572741828, 11.709609941445706], [3.570508511558614, 11.686737000012613], [3.510850900848425, 11.669978309051771], [3.510622727556893, 11.567470416626463], [3.486939797333832, 11.479306684755727], [3.474999904122342, 11.429721829898597], [3.485620672655955, 11.31342697977135], [3.53049460614119, 11.264386688694799], [3.60058747683064, 11.203933358737572], [3.644966316442378, 11.165277565407393], [3.691429405043039, 11.140880908027555], [3.720450099392622, 11.09659273626579], [3.722785303299133, 11.031967542168388], [3.74231023422999, 10.962334505632953], [3.770033367845713, 10.919743774555627], [3.759444235663011, 10.847499846041103], [3.753888606274188, 10.794443128747446], [3.826110838644354, 10.714166640078417], [3.854999542195173, 10.584999083940602], [3.812777518767518, 10.44944381597935], [3.789443968864134, 10.402776717071902], [3.701388834627039, 10.44944381508003], [3.639999866200924, 10.41555404368421], [3.581943987624982, 10.27527618205022], [3.644166469307152, 10.199443814680365], [3.684444425569836, 10.151109694656725], [3.60944414063465, 9.94805526463881], [3.558888434353833, 9.880277632007164], [3.52111101066464, 9.844444272784983], [3.366577676918325, 9.837271317917043], [3.33345557941152, 9.791300130596596], [3.337222098421137, 9.734998699830157], [3.285580824095803, 9.636444808980798], [3.245605879108098, 9.586571305921098], [3.205122121988381, 9.531376343443526], [3.141666411675601, 9.44111060726874], [3.166944026045996, 9.365833278982677], [3.166388509422234, 9.302776332561734], [3.130411676857477, 9.192254854777786], [3.094999789408803, 9.090555186672589], [2.987499712641693, 9.061109538374524], [2.905071310892311, 9.079170126600104], [2.814221715060171, 9.065156215986633], [2.783055303959145, 9.016666407129037], [2.745277403629302, 8.795276636107928], [2.756388662406891, 8.581943506387745], [2.759721754955081, 8.529722207114219], [2.752499579292191, 8.461942666121217], [2.709166525314913, 8.338888161659384], [2.728055474580515, 8.25666617680264], [2.753611084683882, 8.206943507137169], [2.74138879625599, 8.15611075840485], [2.708888527783358, 8.008054727843444], [2.692612538038247, 7.90633333391628], [2.740277765706367, 7.813611024928889], [2.739054536637582, 7.754686539752072], [2.716640441902939, 7.598554369688486], [2.727884940637523, 7.46598657671916], [2.733737915572419, 7.3333039879887], [2.744479781416828, 7.239990499761802], [2.746615709047774, 7.150121145174751], [2.749722001569182, 7.094165796914069], [2.737160561710596, 7.024086035642085], [2.710085731371464, 6.979384044438177], [2.732623776965795, 6.924630051036047], [2.75067770571161, 6.868445909850891], [2.731312273142919, 6.818091863948439], [2.748120783847128, 6.759542936557352], [2.779953478370373, 6.695159430763169], [2.732310869551043, 6.637244146799958], [2.743225095861533, 6.563198560565183], [2.70682286957981, 6.520436758649566], [2.711537597781955, 6.470610137248059], [2.701487372644181, 6.411780768867459], [2.819086948403992, 6.389823631355569], [2.925151906835083, 6.394530575026067], [2.992195814984939, 6.394732927882387], [3.181216714779623, 6.402429807989279], [3.258195968669042, 6.402855894184199], [3.33499884122358, 6.400909906067341], [3.401716955573079, 6.398581385922284], [3.460916052333971, 6.420120381850211], [3.576093449852863, 6.421317414567056], [3.672300239664366, 6.42213834900565], [3.805445607828574, 6.435305796125647], [3.860232531706004, 6.435687965727084], [3.97551005794287, 6.425839295746925], [4.07701061524773, 6.410626673382296], [4.192200731878302, 6.388067498216515], [4.259274965167549, 6.379159028966058], [4.35083770809382, 6.370382298704158], [4.402728126102204, 6.357485991785154], [4.483238448395753, 6.326054181755126], [4.560863753659362, 6.276253068724202], [4.615154204103305, 6.234951751422216], [4.692079130847276, 6.160641007276695], [4.749585168420822, 6.120868693935108], [4.790320092698153, 6.08046562039209], [4.848035365639646, 6.028069715045376], [4.907331081064569, 5.968303773800187], [4.948610305621173, 5.92444419734187], [5.009237228115637, 5.844676927298394], [5.040834361416671, 5.782730201137895], [5.079804339198915, 5.746776305781907], [5.12146403363829, 5.643242591772264], [5.170141575073671, 5.593835492414087], [5.228160746021672, 5.619343990632728], [5.301254813558842, 5.613990204184631], [5.351223494568671, 5.596144247259247], [5.399243035337861, 5.637283656015939], [5.497776986418842, 5.624166489092261], [5.435697842281627, 5.635157055253956], [5.393581383074434, 5.588281673360598], [5.326599556024746, 5.588043727136323], [5.231422998072958, 5.60209286239575], [5.179608350644912, 5.570495202091934], [5.208338821179723, 5.467497709751569], [5.260153709626024, 5.428466453064402], [5.318025056311342, 5.403863967847883], [5.379444122348389, 5.389999389660147], [5.43104945526818, 5.385542119373383], [5.491020310638874, 5.432783895860155], [5.509758566804464, 5.500895968374266], [5.582179445025417, 5.514452643874449], [5.531114228738716, 5.505297969925437], [5.507319618905342, 5.443729416779206], [5.467054626369986, 5.37167706544426], [5.385455707115227, 5.360793893623338], [5.324707680115409, 5.366508608585491], [5.330418000090674, 5.300138000368463], [5.345744302157868, 5.231360539257537], [5.352651265443569, 5.167922286584314], [5.421632892444052, 5.152508494871199], [5.375165237086094, 5.126203191024501], [5.423665934035682, 5.024384467968844], [5.441749838084604, 4.97584346340517], [5.443821265439112, 4.923274238915042], [5.483479872997805, 4.844878387327753], [5.527283681596657, 4.772491633881828], [5.635780198197665, 4.59816545127461], [5.687408884712283, 4.53469309990669], [5.834063115020797, 4.414793988252029], [5.910144042413663, 4.359874960261266], [5.963935929399668, 4.334354725889909], [6.008985828733046, 4.301535163916753], [6.057777405103195, 4.288055420021692], [6.11835802600217, 4.272176905439892], [6.220457301563272, 4.279085286956501], [6.214972693435129, 4.33618440108927], [6.236991423715267, 4.384929413261887], [6.252252970098539, 4.335219551740977], [6.411801655621957, 4.3055486592433], [6.464568498937126, 4.315189574139595], [6.549243264165341, 4.325280383882671], [6.619999160932593, 4.325803398108405], [6.694166184421931, 4.329999922558443], [6.693843754086004, 4.389166330761611], [6.697487456281124, 4.447589546420488], [6.689307104239504, 4.511580300290689], [6.713199983892196, 4.561822291565534], [6.724456046109708, 4.612705196387765], [6.726655652036754, 4.556665015078408], [6.700711175080698, 4.511122974345824], [6.709166527213483, 4.457221985206502], [6.712629873070227, 4.403491711673212], [6.716943741060845, 4.34999942843092], [6.875197479280303, 4.357069429810394], [6.957471959363488, 4.37300528066919], [7.011110305995885, 4.370554923970587], [6.994643918981751, 4.435629983237163], [6.979253521332964, 4.48790137834601], [6.975380111602931, 4.597201727877462], [7.008234614036269, 4.536502506185741], [7.015878792971989, 4.468389999299063], [7.067277678422158, 4.440621665757305], [7.158905853322494, 4.463628911944795], [7.177379403037094, 4.515041003939245], [7.176353390796407, 4.571148766602334], [7.157298075945505, 4.629369385688619], [7.104802321569935, 4.666491962634041], [7.081787627197286, 4.721914411321052], [7.108230539008218, 4.673954392181486], [7.168410442687843, 4.631669274117769], [7.206548123996754, 4.564556137056115], [7.188748262722186, 4.475677304763849], [7.134745544970997, 4.410417690224278], [7.18185139342711, 4.379548439409007], [7.308054924395321, 4.408888816665581], [7.367330978841665, 4.442022033390174], [7.418445176703585, 4.43152835614876], [7.487354367809871, 4.448660476200075], [7.580250995087397, 4.450080850151153], [7.557077808693975, 4.502879546553856], [7.521420911745736, 4.550237687219521], [7.525932350897335, 4.602819834068157], [7.524138809558451, 4.654927604725231], [7.53187318959607, 4.60410711465164], [7.527673825086993, 4.549969406862658], [7.571342872975265, 4.51232888427063], [7.605823405425895, 4.470260292378612], [7.66719645135521, 4.495443137990492], [7.769952297660438, 4.513294023200672], [7.840146396938735, 4.523555448725006], [7.987046260876298, 4.537862639049592], [8.116467730701231, 4.545019328779063], [8.17584252890964, 4.544341993588205], [8.247681703148146, 4.534965418219542], [8.311076301829928, 4.56762061200169], [8.34399785861433, 4.606810482118078], [8.326011912319927, 4.664903229300648], [8.31988349212952, 4.715811091208934], [8.3011275750776, 4.772331076118292], [8.28051939365514, 4.836507780110026], [8.332229877107181, 4.821620595414174], [8.36338406192499, 4.779793519155646], [8.397083999926679, 4.735138000418431], [8.44904799956555, 4.736250000437224], [8.475903337768898, 4.692673702329557], [8.525973000053966, 4.708750000312307], [8.52829962532752, 4.769788061369979], [8.574052618233793, 4.802723965938299], [8.628282458868455, 4.82248051456412], [8.604226849589509, 4.868836921087109], [8.64461704663944, 4.908739172974492], [8.666588333185075, 4.958384065672135], [8.716323906323282, 5.029458061640298], [8.743227741367207, 5.084670538414684], [8.80999946610251, 5.151666641302484], [8.843332290952503, 5.301666260589514], [8.837221145839237, 5.379721642339973], [8.859998703377528, 5.497499467326577], [8.889444350776216, 5.544166565334763], [8.921665191795228, 5.595276832260026], [8.880277634005665, 5.657221793950669], [8.8508319857076, 5.72249984729018], [8.861110687208509, 5.82555484767812], [8.934165954395326, 5.903332710336372], [9.071664810182881, 6.013610839668559], [9.223331450586045, 6.150554657271641], [9.333055495914437, 6.279722213409457], [9.363332748207824, 6.325833320851132], [9.424720764251902, 6.324443817028566], [9.455554962191798, 6.36916637392909], [9.525276184448387, 6.429721832696487], [9.594444275083276, 6.497776985319661], [9.637777328161235, 6.523332596322291], [9.708845138592324, 6.521250725140874], [9.786388396907057, 6.777777672201864], [9.87472152687701, 6.775833130194826], [10.16499900779803, 7.021110534223851], [10.1897220624233, 6.933054924245425], [10.223609924558446, 6.884444236612296], [10.513332367294936, 6.878054619125407], [10.559999466202441, 7.021666526589001], [10.61499977132246, 7.068610191307357], [10.678841833983483, 7.026848597384912], [10.720482400742242, 6.988291811318106], [10.761338704717502, 6.958526022358114], [10.842001142838512, 6.958250217373688], [10.879165649774961, 6.8777771000332], [10.882776261415358, 6.827776908577505], [10.938610077093415, 6.779999733301111], [10.999999999700265, 6.780833245657789], [11.043609618589073, 6.753333091748857], [11.078332901442309, 6.70749950429871], [11.059717743579029, 6.642548027169767], [11.066629591082801, 6.57261204231196], [11.095275878778807, 6.498055457693283], [11.116943359048832, 6.444166183122888], [11.191944122423365, 6.433888435802714], [11.273054123449072, 6.433332443437564], [11.340276717896245, 6.440833092373339], [11.412776946898646, 6.484443665442882], [11.437221527351653, 6.590832709861729], [11.504999160882619, 6.600276946623808], [11.55805397071424, 6.658055305208222], [11.580831527353155, 6.718610763975619], [11.589166641927022, 6.779999733301111], [11.55472183234673, 6.821110725279823], [11.57972145098421, 6.879444122947973], [11.637777328660832, 6.94388866393075], [11.701387405804212, 6.976110458231119], [11.762777328411005, 7.003333092148523], [11.864166260064906, 7.084721566447172], [11.882499695404647, 7.132222175912716], [11.794998169430016, 7.250277519991585], [11.84638786290958, 7.381388663955704], [11.888332367245027, 7.422222137741528], [12.040833473286227, 7.573610305771069], [12.040833473286227, 7.62861061179035], [12.026943206863564, 7.68638801619403], [12.043609619288532, 7.739721298399274], [12.076665878327674, 7.796388627333329], [12.11972045903201, 7.851110458281084], [12.161261955574844, 7.913244595961373], [12.193803977771381, 7.951523507703769], [12.221130370969888, 7.994506836021742], [12.201665878077847, 8.042499541920392], [12.201518082593509, 8.106791707171624], [12.245523454443912, 8.177173614570677], [12.254999161182411, 8.236387253369116], [12.236944198216236, 8.313055038759103], [12.242776870955879, 8.377498625561145], [12.275276184348456, 8.428333282654933], [12.329999923657624, 8.419166564985062], [12.440846548629338, 8.4553045281815], [12.519368763058026, 8.4553045281815], [12.585993670771359, 8.464822371755076], [12.681172111903493, 8.467201833098159], [12.731140792913322, 8.5124115923212], [12.754935401847376, 8.571898116904606], [12.826318654882073, 8.56476493095687], [12.816801387773864, 8.650420330433974], [12.857252225210061, 8.686112245184006], [12.87866737370041, 8.750357691554257], [12.881046835043435, 8.845536132686448], [12.844306339565946, 8.971222590350294], [12.92520963231874, 8.993062715272117], [12.942341750571359, 9.063494760774631], [12.92140249363024, 9.15105892632846], [12.90622534232574, 9.34141580589477], [12.968165685997633, 9.451904335216966], [13.023887634107098, 9.496110915986037], [13.086718436106992, 9.5120420570953], [13.150878906436446, 9.514709473263622], [13.205009887296512, 9.53936977499518], [13.23916626091426, 9.578887938127878], [13.259721755554608, 9.751665114953141], [13.240554810556091, 9.854166028639384], [13.235496070087606, 9.907690286377658], [13.286440330257108, 9.97112671612507], [13.243888854586999, 10.031665801835345], [13.28038024235434, 10.069884475188417], [13.395687103577018, 10.110189437192844], [13.451665878277709, 10.154443738687633], [13.470832825074865, 10.204166411950382], [13.517369148167688, 10.257323410846766], [13.498680866428913, 10.337221650059178], [13.494054698965215, 10.38877075196865], [13.541606343158264, 10.4988727131053], [13.554169897322936, 10.566259049815358], [13.555606739659368, 10.628053666443577], [13.617950370812991, 10.716035666912546], [13.660209598294387, 10.781994326277186], [13.70638847324949, 10.846666334583745], [13.76805496256651, 10.93166541962347], [13.78034700421091, 10.992749187824813], [13.810751098684307, 11.051735043637393], [13.854062883695178, 11.099005364605944], [13.878349537801, 11.148187903249209], [13.919629148166678, 11.180793770116452], [13.960558816136484, 11.236137392326839], [14.003610610741134, 11.28333282405066], [14.147499084914898, 11.23583221368574], [14.224136653983464, 11.266924356074242], [14.329721450884279, 11.338888165556455], [14.373888015419652, 11.37805366314609], [14.442499161307296, 11.406110761802267], [14.610553742661125, 11.499165532163602], [14.646387100983986, 11.57583236427223], [14.641109467328079, 11.646944041834104], [14.598888398081158, 11.688331601422306], [14.588609696580306, 11.754999156785686], [14.612220763777259, 11.825277324688841], [14.611390068996513, 11.878313910658505], [14.639599285278848, 11.922908994054865], [14.641184667738287, 11.982981571742187], [14.622995483654677, 12.030706987437554], [14.64008992570956, 12.080670383131746], [14.656207571822051, 12.130784537576403], [14.666935169922226, 12.186425375830481], [14.613604083861446, 12.185777888238988], [14.58038834174863, 12.229277062286656], [14.543235329946583, 12.271463917725669], [14.510104678088453, 12.313840581377804], [14.468213260733421, 12.35810634563137], [14.413784603376769, 12.362146115550843], [14.35135802415357, 12.36369003476733], [14.298180750041638, 12.370572549983251], [14.228313491374593, 12.362349277796966], [14.187521030271398, 12.406177872610783], [14.181371065922008, 12.465074113679464], [14.20327642676574, 12.538118868690901], [14.083228622103263, 13.083426859861731], [13.83993965329239, 13.421845109264439], [13.633536013975913, 13.70830004521099], [13.371639016227675, 13.708713335851826], [13.324750702083293, 13.68877254941367], [13.278746905345429, 13.654449571890268], [13.2432953586939, 13.616278623759513], [13.239673677298413, 13.565037921862654], [13.204735225350419, 13.52718082813277], [13.154927751414618, 13.521830822434538], [13.105862657036027, 13.539562902705825], [13.051952975049801, 13.539061027944115], [12.927735306339343, 13.49627856590314], [12.877127126415814, 13.485563814618388], [12.818906315773916, 13.421716087127777], [12.77288835561319, 13.39371727623137], [12.736415782562347, 13.348106120800878], [12.693315971355048, 13.318446536378588], [12.66927385010814, 13.273036186071181], [12.618984001410581, 13.279949000346164], [12.577802849721763, 13.246100568986094], [12.538179152945588, 13.215327059995843], [12.549238891361824, 13.162762163043453], [12.496695424354414, 13.112723280055377], [12.459165574131987, 13.06611061081611], [12.394742415430187, 13.074313017831571], [12.336137337068521, 13.083162338671059], [12.280750547399919, 13.096610963325361], [12.228625426122562, 13.110464300886804], [12.178384390827034, 13.120538279817822], [12.116845365121549, 13.114349392810254], [12.060890453931336, 13.134173419367869], [12.007776260066407, 13.171388625584655], [11.894854972878761, 13.235074137861204], [11.819721222256646, 13.273054123049405], [11.749322289791905, 13.293135881815545], [11.654366176357996, 13.314924900064113], [11.538774688700983, 13.353093056699265], [11.463333129820114, 13.373332977434984], [11.392499923732544, 13.381109238000988], [11.251890589079494, 13.375986147442802], [11.171110153610755, 13.36638832086436], [11.10588547683335, 13.360545909366294], [11.021443859046883, 13.376045380390053], [10.932053293624676, 13.369170184756285], [10.878610610691169, 13.380554198917196], [10.791452218345228, 13.38912240967153], [10.723446907049151, 13.386315887268438], [10.644664764267532, 13.374608993110598], [10.463888168204448, 13.318609237226553], [10.411943435641092, 13.309720992829625], [10.337499618812387, 13.30083274933196], [10.224446714944008, 13.280438763937866], [10.17305374163692, 13.269721985581214], [9.99470233294636, 13.1763913068134], [9.9605474755856, 13.139612082931308], [9.919608848569567, 13.107291865027605], [9.873054503962237, 13.075277327586662], [9.634931564739986, 12.802434921334623], [9.556581591167571, 12.813119164018246], [9.47544245120821, 12.81368980364158], [9.380372899090048, 12.822315626764805], [9.193276163564121, 12.832797987836898], [9.12885861932989, 12.833116247117175], [9.057519298177112, 12.845205927811378], [9.00338804122515, 12.840403191953783], [8.95519395014071, 12.855623044867684], [8.663610457556615, 12.943332672165127], [8.628932327864675, 13.00626099844635], [8.564342440251437, 13.059877605766928], [8.516387939351944, 13.083610534698494], [8.44916534400545, 13.0780544277697], [8.351000061903392, 13.138242681654503], [8.287221908664208, 13.198331832947758], [8.235832214285324, 13.219165801760369], [8.141387939202104, 13.280553817804503], [8.040573058300026, 13.32125751941902], [7.819701154684594, 13.352274842709846], [7.778442701769336, 13.322908527206835], [7.725978992036914, 13.297238407326688], [7.37972164194025, 13.099721908938989], [7.264224069585168, 13.11859636203252], [7.188433341725386, 13.09223070018669], [7.147499085414495, 13.042776107631312], [7.090555190669591, 12.995277404728483], [6.933332443337633, 12.997220992554787], [6.806388854861837, 13.108055115151501], [6.753069698307968, 13.207041330792833], [6.744196504065485, 13.264388108324567], [6.712553535916982, 13.31145674013652], [6.65305311321066, 13.37092340858851], [6.623119408234174, 13.41337804076403], [6.558644432394715, 13.477823501753278], [6.495342785840933, 13.568414243922291], [6.40300098990383, 13.611333770736962], [6.296361289142226, 13.679041032317855], [6.232807261346068, 13.673522167214287], [6.155662935995736, 13.644746247641251], [6.089178450225347, 13.677598082685392], [5.944205353194548, 13.724883068898578], [5.876133878775534, 13.750741665995122], [5.824978340877806, 13.76380031493261], [5.712039794800717, 13.807989817576072], [5.677053338840551, 13.82054559890031]]]}}]}