{"type": "FeatureCollection", "features": [{"type": "Feature", "properties": {"code": "NIC", "name": "Nicaragua", "tier": "country"}, "geometry": {"type": "MultiPolygon", "coordinates": [[[[-82.78541159337033, 14.346495226173772], [-82.76972348235279, 14.369292379939452], [-82.7585176895397, 14.406920690637435], [-82.78589746919283, 14.410951112104215], [-82.7928821213128, 14.389192757140052], [-82.81305254963542, 14.384489191323155], [-82.80558202079357, 14.351561460692892], [-82.78541159337033, 14.346495226173772]]], [[[-83.37017771522932, 15.026069228012489], [-83.44155972899824, 15.02625836712997], [-83.47964972015842, 15.019827536411753], [-83.49737282609499, 14.991832249958406], [-83.51705428672591, 14.977549459140278], [-83.53516906450068, 14.960900766057534], [-83.5461358480909, 14.928545632874716], [-83.57844869425179, 14.921733404173324], [-83.59440928186285, 14.90763519111124], [-83.62544919702276, 14.901011550242913], [-83.64111603098002, 14.886249561068439], [-83.67333095985589, 14.879246725556015], [-83.69683121079169, 14.872432937430176], [-83.71269388111767, 14.858615428859025], [-83.74392963174705, 14.851517050271696], [-83.761652738583, 14.837035634287133], [-83.79171347639578, 14.83059913784001], [-83.80806573494567, 14.816116320711672], [-83.84821199808522, 14.809111212612436], [-83.87132057898151, 14.801632535912859], [-83.89511458357111, 14.794626959266793], [-83.9185169172219, 14.78752648256119], [-83.93927547248501, 14.779194958980213], [-83.9678674456261, 14.77985770626816], [-84.04185651846353, 14.78057370691107], [-84.07551573246502, 14.772289257443333], [-84.09586425802905, 14.766223656696468], [-84.13243040463942, 14.757790712071767], [-84.17067951194986, 14.751576752864878], [-84.19577092618727, 14.742995280707703], [-84.2138245050968, 14.728642751961502], [-84.23554999793402, 14.720504301132621], [-84.25192061524416, 14.706742227671725], [-84.2736461089807, 14.707186179798384], [-84.29843152979123, 14.698454969621196], [-84.33025478772822, 14.690611382209568], [-84.36314901951158, 14.683063513470415], [-84.3943602914942, 14.674479346045018], [-84.41501480868641, 14.668559034371981], [-84.45005099175984, 14.660270329312311], [-84.48493417767014, 14.65286943407716], [-84.51935837388982, 14.659826282756796], [-84.54169585268141, 14.66352664403945], [-84.56602228470064, 14.669299081987106], [-84.58621781310154, 14.672259248165801], [-84.61681709912978, 14.679511485466719], [-84.63502367430311, 14.697271049919095], [-84.66546996406754, 14.69653109763209], [-84.6881134353867, 14.697863010669437], [-84.69912917806909, 14.722723908881335], [-84.71488781032417, 14.73988811224666], [-84.73133492666551, 14.75281586036374], [-84.75476250428613, 14.7803240677016], [-84.77101837529773, 14.79373016701362], [-84.78464461965342, 14.81083329831813], [-84.79755369334822, 14.830477120522744], [-84.82074221498118, 14.837640894211972], [-84.84512602014968, 14.843417958272198], [-84.86759737112175, 14.834867849072054], [-84.90143886601084, 14.829437198467986], [-84.91787402946284, 14.813548874081334], [-84.93356214048038, 14.79838165938611], [-84.94626203906182, 14.78285222115312], [-84.96456483449947, 14.766599294521882], [-84.98847052679332, 14.759375381368784], [-85.00303805736041, 14.7427594703733], [-85.01200269197062, 14.72180716696721], [-85.0276908029881, 14.706994840939217], [-85.03740249003283, 14.678812519782014], [-85.03516133182995, 14.650987948035436], [-85.02881138163991, 14.623882696329417], [-85.0258231701032, 14.601111698446175], [-85.04449949265745, 14.58520674559486], [-85.06018760277561, 14.569662159181348], [-85.07961097776439, 14.560262574658168], [-85.09791377320204, 14.543993117588343], [-85.11509598908862, 14.532061419898639], [-85.13265173209174, 14.51398186317249], [-85.15170157996391, 14.498793893923107], [-85.159545635023, 14.474563312546877], [-85.17560727225776, 14.409814914027095], [-85.16589558521304, 14.389192757140052], [-85.15693095060283, 14.370377900319909], [-85.16552205809649, 14.345409588881466], [-85.18905422417305, 14.334552933571103], [-85.21258638935035, 14.31899081037767], [-85.23798618741256, 14.3182669640492], [-85.26749477566335, 14.319714654008123], [-85.302232734553, 14.309942567595442], [-85.32352374152742, 14.292568921118857], [-85.34033243119671, 14.279899791042567], [-85.35826170041713, 14.265781920599181], [-85.38104681315986, 14.254197365715925], [-85.38814381578442, 14.224871302968324], [-85.40345839968535, 14.208215301095322], [-85.40794071699048, 14.165121263535525], [-85.42661703864536, 14.156066854102107], [-85.43035230351597, 14.135421449740136], [-85.45575210067886, 14.128539232199842], [-85.47181373791364, 14.111513904842866], [-85.48899595380021, 14.095574147329103], [-85.50767227635441, 14.080357885408148], [-85.5371808646052, 14.069126184925551], [-85.56108655689906, 14.058618611359861], [-85.5902216189325, 14.045574054798863], [-85.60740383481908, 14.031803994458812], [-85.62608015647402, 14.021657104791586], [-85.64886526921674, 14.020207512766547], [-85.66492690645151, 14.006435928975009], [-85.6910737569483, 13.995925481176073], [-85.72058234609835, 13.978527821901537], [-85.73216166512873, 13.94626618223856], [-85.73851161531877, 13.922701459804557], [-85.73104108647692, 13.897683970738683], [-85.71610002879328, 13.85815808422825], [-85.75121151390022, 13.846552876414137], [-85.79005826297839, 13.850179566134102], [-85.81881979879466, 13.86287253453986], [-85.84123138532016, 13.873026410140767], [-85.85804007498945, 13.884630295052148], [-85.87223408023857, 13.899859512606497], [-85.91257493508516, 13.923064011594931], [-85.93722767981353, 13.936840582127218], [-85.95478342281666, 13.949528800313942], [-85.97084505915211, 13.965478713871619], [-85.99101548747473, 13.97707795738188], [-86.00931828291237, 13.988676616332839], [-86.02239170771111, 14.004623817535219], [-86.01940349617439, 14.026005826907408], [-86.02313876104495, 14.047023486744592], [-86.05675614038353, 14.047748199120122], [-86.09112057305595, 14.050647026139416], [-86.10867631515976, 14.039776235285103], [-86.13146142790254, 14.027092993946553], [-86.1419201682811, 13.995925481176073], [-86.16097001705259, 13.962216321526057], [-86.18487570844712, 13.943728558925898], [-86.19608150215959, 13.91835078615992], [-86.2076608211899, 13.895145814128057], [-86.22969888149817, 13.877377934544086], [-86.24127820052848, 13.85960869428584], [-86.26443684038782, 13.841112735264574], [-86.27638968653474, 13.811371049934053], [-86.29282484908748, 13.796136033551136], [-86.30963353875677, 13.781988341588715], [-86.32420107022318, 13.766751406951926], [-86.36416839885248, 13.75550446206131], [-86.43887368727081, 13.749336552639818], [-86.46576759020206, 13.755867274655031], [-86.48817917672761, 13.760583794306683], [-86.56026977892714, 13.763486220412801], [-86.57894610148134, 13.772918857719162], [-86.62488985318413, 13.770379338635621], [-86.64506028060742, 13.762397815007205], [-86.67830413372877, 13.75949537541129], [-86.71304209261842, 13.757681332227776], [-86.74703299817429, 13.748610905868645], [-86.76085347630686, 13.733371797570442], [-86.7757945339905, 13.685471014975406], [-86.77654158732435, 13.656798454485113], [-86.7757945339905, 13.624129264553972], [-86.76499215006766, 13.556990807979446], [-86.7571032709991, 13.535144567667714], [-86.7571032709991, 13.514690950926706], [-86.74682382396026, 13.477265588436182], [-86.73941305956498, 13.45541204473011], [-86.72267907477942, 13.44099691417631], [-86.71192151306735, 13.39858931924175], [-86.69660692916642, 13.356799334621655], [-86.69436577096354, 13.319000418934252], [-86.69566564295502, 13.285165382076798], [-86.71813699302777, 13.270042051599432], [-86.73965211645196, 13.260734918281912], [-86.75853761322026, 13.2674826260224], [-86.77407631267164, 13.281908129356736], [-86.80634899690864, 13.289585870091855], [-86.83049374608947, 13.295867477202364], [-86.86252737343949, 13.287724621494135], [-86.87973947199902, 13.272136107695246], [-86.89360477324163, 13.256081218973122], [-86.90986064335397, 13.241188780437938], [-86.91105592778882, 13.207677464443464], [-86.91081687090184, 13.167876802672367], [-86.91105592778882, 13.131561782750111], [-86.91751046463622, 13.108745754013398], [-86.91798857841013, 13.08383195947738], [-86.92587745747863, 13.064504570929273], [-86.94117710004309, 13.049600491569493], [-86.95743297105474, 13.032133629463488], [-86.9803824349014, 13.016063028685892], [-87.00452718408224, 13.001156031925404], [-87.02006588353368, 12.987179909025656], [-87.06811632500836, 12.979958603906482], [-87.08341596757282, 12.994633938905224], [-87.10540920477092, 12.992304578793323], [-87.14246302764656, 12.992304578793323], [-87.17186702834067, 12.983918700187928], [-87.20987707876412, 12.985083422961623], [-87.28685340715896, 12.98205513313792], [-87.30765135902294, 12.973901864179766], [-87.33944592948603, 12.974367772354867], [-87.36287350800598, 12.966680173251461], [-87.3824761754351, 12.952469138440051], [-87.3961024197908, 12.934762452325344], [-87.38869165539552, 12.911695278914067], [-87.41092394948066, 12.909132127445787], [-87.46518987001645, 12.914025392657777], [-87.48240196857597, 12.928238619117053], [-87.49220330184085, 12.950139382626446], [-87.49722349736646, 12.96994160781901], [-87.49148613117995, 12.996264478123237], [-87.51252313993092, 13.001388960831946], [-87.53762411665963, 13.01652885772063], [-87.55650961342786, 13.028873012379677], [-87.5799371919478, 13.030969128822278], [-87.58782607011699, 13.050532022834659], [-87.61316610373268, 13.050299140692857], [-87.61173176241084, 13.008842563533506], [-87.62822668941016, 12.992770452794218], [-87.66049937454648, 12.98554931045237], [-87.67460373267608, 12.966680173251461], [-87.68583940816211, 12.941053129098691], [-87.69205488722321, 12.91868555629344], [-87.68273166773224, 12.89864623743398], [-87.67436467578909, 12.8760418236713], [-87.65141521104312, 12.868584250462845], [-87.62798763252317, 12.855066833067951], [-87.61149270552391, 12.84015021805817], [-87.59523683451226, 12.826864362600304], [-87.5730045413265, 12.826165087548816], [-87.55627055654094, 12.810314333239944], [-87.53069146603826, 12.797959376823826], [-87.52471504296483, 12.776045325831149], [-87.50057029468331, 12.765553883405062], [-87.4826410254629, 12.753429896272735], [-87.4618430726996, 12.744103358283382], [-87.43145016039654, 12.727567034591004], [-87.41219020391475, 12.703655545267225], [-87.39818296267356, 12.687713302027305], [-87.38912494605938, 12.656213049992289], [-87.37455741459297, 12.641634609749474], [-87.35065172319844, 12.626326352579156], [-87.33608419173203, 12.612110721332783], [-87.31890197584545, 12.596071626504397], [-87.26548769530086, 12.581854316223769], [-87.2468113727466, 12.566907064909174], [-87.23896731768752, 12.545396080165006], [-87.22552036577224, 12.523154020341792], [-87.21169988763967, 12.500910041365387], [-87.19638530373874, 12.484499322385886], [-87.17845603451832, 12.470275856245792], [-87.14297102319415, 12.462616744067532], [-87.1239211744226, 12.448027332095762], [-87.1097271700728, 12.431613263141628], [-87.09217142796899, 12.415562949270736], [-87.07461568496586, 12.395863483313178], [-87.05407173132528, 12.386742855898149], [-87.03950419985892, 12.372514041489865], [-87.01559850756502, 12.357554707783606], [-86.9984162916785, 12.342959410648348], [-86.98048702245808, 12.327268559396543], [-86.96069012125207, 12.318510466684756], [-86.94612258978566, 12.30281815313532], [-86.93080800588473, 12.287489871660284], [-86.90802289314195, 12.280190375885184], [-86.88859951905255, 12.2644957744605], [-86.86581440630977, 12.26486077600407], [-86.85162040106064, 12.249530284894774], [-86.82808823588334, 12.234928989281457], [-86.80567664935785, 12.218866631689764], [-86.78812090635472, 12.204628726934232], [-86.77317984957034, 12.188564530228916], [-86.76832400514866, 12.159719556212622], [-86.75749173855286, 12.137079535592136], [-86.75188884259597, 12.115533213786819], [-86.74292420798577, 12.091793726099638], [-86.72947725607048, 12.076087983873379], [-86.72088614767756, 12.053075582771953], [-86.7066921433277, 12.034810366405338], [-86.69959514070314, 12.015082538528361], [-86.68540113635333, 11.99900694381546], [-86.65850723252271, 11.969045322983334], [-86.64842201836143, 11.917518187914084], [-86.63348096157705, 11.901802290543344], [-86.61443111280556, 11.893761247083944], [-86.59612831736791, 11.870002231517844], [-86.58006668013314, 11.854649151237368], [-86.56325799046385, 11.837467298676927], [-86.55690804117313, 11.812240921381488], [-86.55018456566512, 11.791765630979114], [-86.53673761374984, 11.772385824546234], [-86.51694071254383, 11.764706655687633], [-86.50199965486013, 11.750079073790289], [-86.48220275365412, 11.741667862182169], [-86.46614111641935, 11.726673327212325], [-86.45045300630119, 11.710580724520867], [-86.43140315842896, 11.703265595830658], [-86.41235330965748, 11.688268976232337], [-86.39591814620542, 11.672905743505282], [-86.38807409114634, 11.64912763533215], [-86.36753013750581, 11.645835121094024], [-86.35893902911289, 11.627176805665101], [-86.33578039015282, 11.620957088998523], [-86.31710406759862, 11.605956024950615], [-86.30216301081424, 11.58985642553364], [-86.28348668826004, 11.58253811863932], [-86.2558457319949, 11.581074434237792], [-86.24800167693581, 11.55838634755196], [-86.23306061925211, 11.5444798375745], [-86.20878140074103, 11.544113867461078], [-86.20915492695826, 11.521788789421123], [-86.20504613676974, 11.500560020928276], [-86.18524923556373, 11.492507310564008], [-86.14976422334018, 11.484454369973264], [-86.12884674258305, 11.46981207067057], [-86.11353215868212, 11.452606399565752], [-86.09298820504159, 11.440159090869372], [-86.0728177776183, 11.4251483734987], [-86.06460019544261, 11.401349265256442], [-86.04555034757044, 11.390730558868256], [-86.03359750142351, 11.366928569198137], [-86.00782417714402, 11.356674791508453], [-85.98541259061852, 11.349716661294906], [-85.97047153293488, 11.33323620258875], [-85.9532893170483, 11.318586107962574], [-85.93834825936466, 11.304301543681333], [-85.9219130959126, 11.292214049239021], [-85.90734556534551, 11.274265011121429], [-85.8909104018935, 11.26144358355458], [-85.87522229087597, 11.24349262538442], [-85.86625765716514, 11.223342258238688], [-85.85243717813324, 11.208320160846768], [-85.8360020155805, 11.183037307925474], [-85.82927853917323, 11.162516269909986], [-85.80798753219881, 11.142726752137946], [-85.78893768432664, 11.12879998762935], [-85.7612967280615, 11.126967468773728], [-85.72693229538908, 11.123302397787484], [-85.71871471321339, 11.142360266713013], [-85.70115897110958, 11.161050425336896], [-85.68397675522306, 11.181571567673757], [-85.67351801484449, 11.201358436043051], [-85.65633579805859, 11.22004479143402], [-85.64774469056499, 11.244225339028219], [-85.59955977976, 11.24385898220629], [-85.58200403675687, 11.231768946279885], [-85.56930413817543, 11.215281717477353], [-85.54577197299812, 11.202457666588089], [-85.52186628070427, 11.185968766845178], [-85.48974300713405, 11.18083869484991], [-85.46583731484014, 11.173509864088999], [-85.39561434462627, 11.163615647943857], [-85.3709615998979, 11.157752249866462], [-85.34892353958963, 11.144192688441876], [-85.32837958594911, 11.138695389080965], [-85.30372684032136, 11.129166490141472], [-85.27907409559299, 11.12256937747486], [-85.25815661483585, 11.114872557622505], [-85.23723913497804, 11.106809004132288], [-85.21594812800367, 11.099478308177424], [-85.19615122589829, 11.087382257585148], [-85.17373964027212, 11.080784200630376], [-85.15842505637124, 11.066121319443369], [-85.12966352055497, 11.066487900196478], [-85.1027696167244, 11.059889371996974], [-85.0822256621845, 11.050724504232505], [-85.06093465521013, 11.038626439158861], [-85.03852306958396, 11.038626439158861], [-85.01835264126134, 11.02579461363058], [-84.99295284409845, 11.018461890603817], [-84.96157662296275, 11.011862284117171], [-84.93729740445161, 11.00306257797564], [-84.91563287125996, 10.999395956558203], [-84.89284775851718, 11.01259558142101], [-84.87342438352846, 11.019928450137911], [-84.8536274823224, 11.036426737903696], [-84.83046884336238, 11.045225445797712], [-84.81179252080813, 11.059156193403624], [-84.78826035563088, 11.074552566148043], [-84.76771640109098, 11.085549478825442], [-84.74754597366774, 11.099111768793136], [-84.72625496669332, 11.110840808756393], [-84.69786695709433, 11.124035415402147], [-84.67919063543945, 11.13283148828259], [-84.66014078756723, 11.119270764933901], [-84.63623509527338, 11.118904250730623], [-84.6168117202846, 11.113772995227578], [-84.59738834529588, 11.1046098145913], [-84.57833849742366, 11.098378688225921], [-84.5548063313471, 11.090314679678784], [-84.51595958226886, 11.078951380501849], [-84.47711283229131, 11.064288407584002], [-84.45881003685366, 11.050724504232505], [-84.43602492411094, 11.054023889291102], [-84.41025159983144, 11.047791685537902], [-84.38746648708866, 11.033127154094927], [-84.36169316280916, 11.02579461363058], [-84.32919636302171, 11.015528750851217], [-84.31164062001858, 10.999029291268812], [-84.28213203176779, 10.98179553703443], [-84.26719097408414, 10.957226531779042], [-84.25038228441485, 10.94072381485222], [-84.23880296448516, 10.913950787998544], [-84.21190906155391, 10.887175348263781], [-84.17642404933036, 10.879105566069086], [-84.15363893658764, 10.873236495967546], [-84.12898619185921, 10.866633653720214], [-84.0688484349073, 10.861131173364981], [-84.04643684928112, 10.870301917299685], [-84.02178410365343, 10.878371938714054], [-84.00198720244742, 10.869201442992221], [-83.9829373545752, 10.862598511712008], [-83.96314045336919, 10.848658510981522], [-83.93662007575585, 10.832883515561832], [-83.9171967016664, 10.823711624092255], [-83.89702627334378, 10.81820835503163], [-83.85892657670013, 10.829948541192266], [-83.83464735818899, 10.841688266900064], [-83.80513876993825, 10.855261749829936], [-83.78198013097824, 10.865533165922898], [-83.76028571511364, 10.874087518124497], [-83.72084132336835, 10.878078487232472], [-83.69526223286573, 10.886295018999988], [-83.66800974415435, 10.893807079433202], [-83.65342727135146, 10.907891680356784], [-83.6452993362953, 10.93652831113269], [-83.65236645624691, 10.957593248329772], [-83.65647524733475, 10.985462377886506], [-83.67178983123569, 11.007095808924475], [-83.68859852090497, 11.031294036290774], [-83.71698653050396, 11.030560785751732], [-83.7405186956812, 11.04375901216872], [-83.76442438797511, 11.060622549690947], [-83.78160660386163, 11.084083247543902], [-83.78795655315236, 11.1046098145913], [-83.80588582237277, 11.122935888080804], [-83.8144769307657, 11.160317501251711], [-83.8212004062737, 11.181571567673757], [-83.83165914665227, 11.202091256706183], [-83.83987672882796, 11.22187672213306], [-83.85668541849725, 11.244591695850147], [-83.85743247093177, 11.287085866719394], [-83.86602357932469, 11.30686549284826], [-83.85930010291736, 11.327376255210083], [-83.8749882139349, 11.356674791508453], [-83.87610879348597, 11.381210002040007], [-83.87610879348597, 11.403180036729339], [-83.87349410816654, 11.424049996410247], [-83.85855305048284, 11.441257405005274], [-83.83464735818899, 11.46834779901178], [-83.79990939929928, 11.473472716992319], [-83.79131829180568, 11.498729878980782], [-83.78160660386163, 11.518860778502187], [-83.78085955142711, 11.543015954422799], [-83.7685331790629, 11.561679894211807], [-83.76031559688727, 11.585099547905884], [-83.74537453920357, 11.598638140737648], [-83.72184237402632, 11.606687803299508], [-83.70727484255991, 11.622054696267242], [-83.64414887497054, 11.631567109734362], [-83.65236645624691, 11.658639122497561], [-83.66095756463989, 11.689000537844606], [-83.67701920097528, 11.709849220465173], [-83.67701920097528, 11.75593019971899], [-83.67776625430918, 11.78993740638623], [-83.68598383558549, 11.817359504537535], [-83.70316605237139, 11.844778857058657], [-83.71063658121324, 11.86817452943103], [-83.71623947717012, 11.890471661038362], [-83.72819232331705, 11.906919193765816], [-83.7498568565087, 11.883526848885026], [-83.75135096227706, 11.842219834377886], [-83.75508622714761, 11.81955315425472], [-83.78310070962999, 11.824306000221782], [-83.79692118776256, 11.840757524140486], [-83.81148871922898, 11.85611138683106], [-83.81559751031682, 11.877312919355802], [-83.82082688005642, 11.898878302291848], [-83.80588582237277, 11.920807446606432], [-83.7887036064862, 11.94090760550165], [-83.77488312835368, 11.966487469421224], [-83.77637723412204, 11.989141898979483], [-83.76218322977218, 12.009236978503793], [-83.7610626502211, 12.048326745982592], [-83.74163927523233, 12.062938282176049], [-83.72146884780904, 12.06001603860932], [-83.70428663102314, 12.047596148443517], [-83.69270731199282, 12.08229734124933], [-83.69158673244169, 12.1056724524218], [-83.69420141776118, 12.14365264355473], [-83.69308083821005, 12.166292103897547], [-83.6841162035999, 12.22178713237031], [-83.68598383558549, 12.245149981286659], [-83.67739272809189, 12.29697891264675], [-83.66431930239384, 12.314861175203134], [-83.64937824471019, 12.334566746658084], [-83.64153418965111, 12.366676354130504], [-83.67291041078681, 12.352446446146644], [-83.71437184518447, 12.342959410648348], [-83.73379522017325, 12.359743931936976], [-83.73827753747833, 12.393309739652807], [-83.73902458991284, 12.443285596353235], [-83.74014516946397, 12.482311147741314], [-83.7685331790629, 12.483769932636335], [-83.77002728483131, 12.511120630013124], [-83.76928023149748, 12.531540595921797], [-83.73902458991284, 12.542843810493537], [-83.7121306869816, 12.552688141244744], [-83.69420141776118, 12.570188243192945], [-83.6658134081622, 12.592061695191148], [-83.64526945452167, 12.612839747756198], [-83.62696665908402, 12.630335746997162], [-83.61622777359281, 12.653547990947061], [-83.62148048883347, 12.70137814348658], [-83.62906774518024, 12.725859145583172], [-83.63373682559399, 12.748630050836255], [-83.64774406683517, 12.770260515010818], [-83.65824949821575, 12.79018167284596], [-83.65649859283576, 12.818068653045941], [-83.62614956924716, 12.823759493705722], [-83.60222053235162, 12.814084987332365], [-83.58120966959052, 12.803840987071965], [-83.57303877931616, 12.784490074057715], [-83.58704602055735, 12.759445513599644], [-83.58296057497051, 12.725289846849023], [-83.59638418138485, 12.67746419002043], [-83.5969678162117, 12.623364827524824], [-83.59288237152418, 12.601152300538274], [-83.62206412455964, 12.582925199238616], [-83.64249135159457, 12.573241525176286], [-83.66350221345635, 12.551594345302817], [-83.66408584828321, 12.523678189297073], [-83.65474768745577, 12.479803841474165], [-83.62965138000715, 12.450170203392247], [-83.63140228538714, 12.421673128512111], [-83.65299678207577, 12.41027342387946], [-83.64657679628209, 12.381201919632929], [-83.62323139421346, 12.381201919632929], [-83.58996419559111, 12.396023091392578], [-83.53685340566011, 12.40286334836486], [-83.51467527324525, 12.417683288952674], [-83.517593448279, 12.447890552407102], [-83.5100061928315, 12.471825887254965], [-83.52518070462577, 12.49120049200917], [-83.53977158069387, 12.516841118622779], [-83.54619156648755, 12.54133978250502], [-83.55903153807498, 12.566405770210167], [-83.5584479023488, 12.634185616972673], [-83.56661879352248, 12.652978530334963], [-83.57245514448931, 12.681450005113675], [-83.5561133621419, 12.713903602369385], [-83.54703200092604, 12.747309394612898], [-83.54553789515768, 12.82198396488809], [-83.53806736631589, 12.86677808623972], [-83.53993499830148, 12.88971832034423], [-83.53806736631589, 12.911564209021094], [-83.54815258047716, 12.946877689054133], [-83.54703200092604, 12.967626576605255], [-83.54516436894045, 12.992377371718362], [-83.54815258047716, 13.013122461432488], [-83.55300842399953, 13.044782672282565], [-83.56010542662409, 13.098268296944411], [-83.56832300790046, 13.121550929032196], [-83.56720242834933, 13.162290226712628], [-83.57654058917683, 13.200840823645137], [-83.57355237764006, 13.220841095740013], [-83.58251701225026, 13.258291737273908], [-83.59110812064324, 13.31500211135841], [-83.58139643359851, 13.368065174268452], [-83.57392590475666, 13.397862598680035], [-83.5668289021321, 13.420026582061155], [-83.56720242834933, 13.449454283488421], [-83.5645877430299, 13.508298836022504], [-83.55599663553625, 13.530815752944704], [-83.54142910406983, 13.547157343736501], [-83.53283799657623, 13.607429933344804], [-83.52611452016896, 13.651353903959546], [-83.52349983484947, 13.671679585844288], [-83.5152822535731, 13.703253505844657], [-83.5146308233538, 13.72701578145319], [-83.50698100207154, 13.788241871864955], [-83.50652201238091, 13.841281599166507], [-83.48938641285264, 13.86519752124866], [-83.47316879090693, 13.880942062925897], [-83.45848113429685, 13.897279608567146], [-83.45741015865184, 13.965587749475105], [-83.50223811249884, 13.966627065386831], [-83.49489428374415, 13.997062082149398], [-83.517078766272, 13.998695067523386], [-83.52411660249919, 14.021704071885438], [-83.49367031273471, 14.02808680596138], [-83.47898265522531, 14.012352302516774], [-83.4511373055422, 13.995577540671036], [-83.4260458913048, 13.994686811647114], [-83.4188550588139, 14.01843841769886], [-83.40324942282257, 14.032688201599285], [-83.38779678399436, 14.04753078531752], [-83.37112017325734, 14.062966051941771], [-83.35643251574794, 14.076916261776091], [-83.3417448582386, 14.09457541152608], [-83.33117854275548, 14.111992079770687], [-83.32400683524719, 14.137261502216631], [-83.3089462486704, 14.160441990205754], [-83.29125603723628, 14.18153417776017], [-83.27523922311161, 14.204246646865329], [-83.26782845871634, 14.257310773673339], [-83.2812156461851, 14.274223789196583], [-83.29890585851854, 14.28812394816174], [-83.314205501083, 14.306192869505367], [-83.31707418462588, 14.333988373364775], [-83.31133681843937, 14.361780431022112], [-83.28575772793675, 14.35784343292812], [-83.28097658929812, 14.316384953702709], [-83.26472071828647, 14.303413129812157], [-83.26687223116852, 14.277698909876847], [-83.26041769432112, 14.256847385398544], [-83.24583522241755, 14.240859910756342], [-83.2367510589142, 14.26101784479772], [-83.2283840669711, 14.284880654718506], [-83.22097330257583, 14.308046009815541], [-83.20591271599903, 14.325186836203557], [-83.2037612040163, 14.34580041895424], [-83.19563326896014, 14.367106848402386], [-83.20232686269452, 14.4150388905324], [-83.20734705732082, 14.436801732214235], [-83.2161921639372, 14.4662013397201], [-83.22073424568885, 14.504391866991114], [-83.22790595319714, 14.526608780870617], [-83.23483860381845, 14.557384775586968], [-83.24224936821372, 14.580984510426845], [-83.2484648481742, 14.60990230614658], [-83.25515844190852, 14.640204073059579], [-83.26137392186894, 14.660557108723651], [-83.2683065724903, 14.685302002485457], [-83.2747611093377, 14.707500644838944], [-83.28025941863723, 14.744030993935269], [-83.28814829680641, 14.7803240677016], [-83.2948418905408, 14.80228190128878], [-83.33141759964246, 14.804593122974268], [-83.3297442014337, 14.772927245496021], [-83.31492267174389, 14.756976989296675], [-83.32854891609958, 14.74125675179772], [-83.35054215329768, 14.752122331080784], [-83.367037080297, 14.768997580474036], [-83.37683841446125, 14.789338605692137], [-83.39015089704623, 14.808493253361007], [-83.3834274206389, 14.834853405959961], [-83.37371573359417, 14.855072715133758], [-83.3576540963594, 14.868791883738481], [-83.34233951245852, 14.889008016506807], [-83.3244102432381, 14.903807910306853], [-83.2952751812046, 14.902364063151026], [-83.29490165498737, 14.88142718851401], [-83.29676928697296, 14.857961033574895], [-83.29415460165353, 14.83665877788036], [-83.26651364538839, 14.8377419941977], [-83.25568137879259, 14.879983191171391], [-83.2497049557191, 14.900559240716461], [-83.2295345282958, 14.914997399310607], [-83.21384641817764, 14.928351833470401], [-83.18022903793974, 14.939540044537466], [-83.15781745231351, 14.950727673743188], [-83.13689997155643, 14.969131857848993], [-83.18197986687733, 14.983981562399208], [-83.24778057201576, 14.988143408991164], [-83.26922455097224, 14.997885595643766], [-83.3089791431729, 15.007816494235897], [-83.3319898058848, 15.015855455764722], [-83.36939437335161, 15.02408325513818], [-83.37017771522932, 15.026069228012489]]]]}}]}