{"type": "FeatureCollection", "features": [{"type": "Feature", "properties": {"code": "NIU", "name": "Niue", "tier": "country"}, "geometry": {"type": "Polygon", "coordinates": [[[-169.84493086999507, -18.953003066108863], [-169.87703660295847, -18.959022349605107], [-169.89431739900238, -18.97233979445957], [-169.9042628241163, -18.990864376557], [-169.9213651277132, -19.00737542546574], [-169.9172202534147, -19.038654219363195], [-169.9460467671385, -19.070284323372675], [-169.91881930273746, -19.10423632875961], [-169.91277302838932, -19.12635107935148], [-169.8788315446509, -19.155477590275552], [-169.85703867206624, -19.147665713130834], [-169.829095531331, -19.12561113167402], [-169.7963969892825, -19.09704372108314], [-169.77870004805982, -19.072251208210503], [-169.78154237352842, -19.04892043139114], [-169.79116890880516, -19.02865561578716], [-169.8018049959799, -18.98950964440803], [-169.80588949005235, -18.96582159484342], [-169.84493086999507, -18.953003066108863]]]}}]}