{"type": "FeatureCollection", "features": [{"type": "Feature", "properties": {"code": "NPL", "name": "NEPAL", "tier": "country"}, "geometry": {"type": "Polygon", "coordinates": [[[80.60803075773865, 30.473110975289366], [80.56123975139391, 30.454115600966368], [80.61350262071305, 30.445588068246636], [80.63567343987876, 30.398711529264983], [80.66239322793031, 30.355966367231307], [80.70988355385909, 30.330663027200547], [80.75461358149862, 30.308224347820993], [80.78443232282007, 30.26008276688109], [80.8206371102412, 30.223779356060728], [80.85566973725207, 30.18161823993526], [80.88030132584863, 30.1329767099971], [80.84246145099847, 30.099433522025617], [80.79157620116817, 30.07312027123976], [80.75723376326482, 30.031690083797063], [80.71406426378405, 29.990189021388556], [80.6748975143772, 29.956896647061775], [80.6231625759674, 29.963990646460278], [80.57995076314178, 29.928206520561247], [80.56765476366995, 29.879222583477823], [80.53755588811703, 29.83867339683915], [80.49720551220362, 29.804778208912065], [80.44587520194722, 29.799132208655184], [80.40160182569589, 29.773839833831424], [80.36785126258043, 29.72991977197307], [80.38504463802938, 29.67948139588743], [80.42194420135588, 29.63913183361052], [80.40491426359307, 29.589569520856063], [80.36572782581014, 29.556611707919835], [80.34297357602017, 29.509957583696874], [80.29774113860856, 29.48805058219318], [80.25981707544659, 29.451786333850347], [80.26579945099697, 29.39719308359434], [80.28182301333352, 29.34624245793627], [80.31761638762589, 29.308202771585123], [80.3008608878773, 29.260542396705006], [80.29897013812182, 29.2050652085411], [80.25000013959637, 29.220994582876124], [80.26007807646084, 29.170444771098197], [80.23496882577993, 29.118445457649955], [80.18513901376343, 29.137071896404176], [80.1460520760763, 29.102983834083172], [80.12811832533983, 29.031686583349796], [80.11961376344094, 28.981649582795793], [80.06014782667798, 28.916376708254024], [80.06641295055726, 28.837318832385694], [80.11978801324986, 28.828764394912987], [80.17261995003012, 28.782321083102687], [80.21773801393978, 28.755342020082704], [80.2667597635104, 28.74349070789616], [80.30060363822771, 28.706377770311025], [80.34900401323486, 28.65429220849986], [80.41638907533446, 28.63911795684412], [80.46339270033052, 28.618583207553975], [80.4966370753598, 28.575271333471918], [80.51300763892431, 28.623700082815333], [80.54152695101762, 28.690593957523493], [80.5920925128962, 28.679682833464316], [80.63496020089937, 28.637268270214516], [80.6790837004321, 28.6042935821094], [80.71632338748474, 28.567829082753335], [80.76967501313159, 28.565563395110136], [80.8014693258326, 28.521063082522517], [80.84608145138773, 28.49540708175555], [80.89783401294676, 28.50559064617444], [80.91737357591545, 28.457578332093764], [80.96878582600047, 28.45692752050973], [81.01920601351664, 28.45157120783659], [81.0340706386439, 28.398682332776456], [81.08720032561833, 28.383176395193605], [81.21242138889006, 28.360501208214338], [81.23449645213807, 28.288899082524257], [81.28786688850698, 28.228444207538857], [81.32013501311303, 28.182287895301602], [81.37308045023279, 28.14229214520533], [81.41666232583633, 28.17415614504757], [81.4694700134938, 28.127108894588073], [81.49780420167166, 28.072898707030735], [81.54911326407661, 28.04909777025301], [81.61890588839275, 28.01029758173964], [81.70016538963138, 27.988089582030682], [81.80675032651395, 27.903256958008622], [81.8754467016546, 27.86928727036188], [81.92802501438572, 27.85964776988695], [81.95282088957642, 27.91008814549045], [82.02742395181484, 27.924964081884006], [82.08244338871987, 27.908977394859306], [82.12524551497866, 27.864892144885935], [82.17896664015976, 27.85458408236337], [82.23239151443488, 27.820640831777794], [82.30580670203375, 27.772461581659332], [82.3690851400665, 27.74250452018031], [82.40355257764331, 27.702716268833278], [82.45066620134591, 27.678544269767514], [82.50223726459001, 27.68483820723389], [82.55647038995716, 27.688326644818524], [82.60698238978692, 27.7057848318567], [82.65718138962227, 27.713130394749015], [82.70710757829232, 27.716392081662168], [82.71370457756683, 27.664912019170988], [82.73864545252245, 27.62154308214726], [82.74969814052194, 27.571792643890358], [82.74905120260043, 27.519402331364176], [82.80390363999918, 27.49634551877499], [82.87233501482595, 27.498428644250268], [82.9314228902117, 27.50099558226469], [82.96860401609098, 27.464085268823375], [83.02099964113773, 27.453847270467698], [83.07685007896939, 27.452610769002895], [83.16650370322583, 27.457460894676807], [83.2125224530736, 27.424141832155694], [83.27430001557408, 27.383432205790054], [83.29674951639545, 27.333187143978634], [83.3547613906322, 27.340071894205053], [83.39014864107624, 27.375691706758804], [83.39383751619661, 27.42957233123412], [83.3908999533523, 27.47949295722407], [83.6168672032988, 27.469349581146503], [83.83205082863971, 27.370099143724545], [83.88988651540147, 27.358169831448343], [83.87352401511497, 27.412261518860358], [83.91552226687378, 27.441231268995697], [83.96817870428856, 27.44640045735576], [84.01787807912915, 27.434569581856078], [84.06385220336858, 27.4557067056234], [84.1007993279978, 27.50232289424057], [84.153202578843, 27.516245144028588], [84.18201995374419, 27.474564081852467], [84.22165020329496, 27.440200581104975], [84.27472639200094, 27.428606768697673], [84.31589801673029, 27.38500451890338], [84.37382182822141, 27.375052081684764], [84.42637814121125, 27.371764957330004], [84.47432782964374, 27.355291018302918], [84.5357427665185, 27.349906018072282], [84.5886327686021, 27.34108683176091], [84.65126564223738, 27.295721706853797], [84.68410051665113, 27.236412831560354], [84.6813963918132, 27.18542626915437], [84.67952901622141, 27.133117393640294], [84.65996232952101, 27.082322894354743], [84.68207101671011, 27.031979269079887], [84.72976776740634, 27.01325208128776], [84.78480776764656, 27.013890269310835], [84.84063557961113, 27.01380501928231], [84.89074720570866, 26.977248144618418], [84.95552658035915, 26.95946008140541], [85.0017115167379, 26.911906456736606], [85.05539551814155, 26.88877901916039], [85.11176845476999, 26.87061751869597], [85.16945414264225, 26.868218268379692], [85.17922239249906, 26.814864518415384], [85.2027217669694, 26.768587705772756], [85.25368345444723, 26.758957768791745], [85.30889883008543, 26.751908267735942], [85.36384214285495, 26.76280989226041], [85.40995508016196, 26.790951080475065], [85.46647339294948, 26.78861495565604], [85.50974651758986, 26.816525205662806], [85.55990139307674, 26.84373445586341], [85.60919195630963, 26.856976080892064], [85.68168164380725, 26.843410268190343], [85.73099039343307, 26.807837705513204], [85.73100889243975, 26.74970783037638], [85.72581251940679, 26.699471206443214], [85.73645470606753, 26.65023108171197], [85.80368745521741, 26.623976205692955], [85.85329251863129, 26.608214393920488], [85.90299583078779, 26.59472620544421], [85.95030401790284, 26.613194205724543], [85.97821270557165, 26.657919830771963], [86.0288754552825, 26.664943331051926], [86.1030710812339, 26.636771892632662], [86.14480401916684, 26.60472489358404], [86.1945954560527, 26.614378331144362], [86.24555283251551, 26.60246933093752], [86.29523008095236, 26.61294676870005], [86.34718333153575, 26.616433018264797], [86.39927414383355, 26.59322401859874], [86.45786614289429, 26.56777951784501], [86.51810420679679, 26.538885768531927], [86.5637644551844, 26.50929051747463], [86.61396558043367, 26.485284955649444], [86.692684769118, 26.450571892634745], [86.73522508138724, 26.424060081404676], [86.77152495727786, 26.459097143999422], [86.83585064318397, 26.438688768587514], [86.8863977680397, 26.459254956019127], [86.93229333191258, 26.489284392977325], [86.97753714379233, 26.51971651882298], [87.04477676954572, 26.56800508091807], [87.08262739453488, 26.521398205662514], [87.09396570726885, 26.450016081352782], [87.1414992062302, 26.414605143574413], [87.19151345674759, 26.405189955364783], [87.24909920704445, 26.413991080780022], [87.2919308321806, 26.37339714346215], [87.34345901973447, 26.34742364437944], [87.37116770648841, 26.407743517827193], [87.42162858139874, 26.422388205092904], [87.46910014511451, 26.440057955601045], [87.51888920775309, 26.43060139352308], [87.57610351995136, 26.39572458101434], [87.62998051990225, 26.393500269095064], [87.68084976983904, 26.415487580816425], [87.73617639463862, 26.407450269127246], [87.78031227026104, 26.43552945600241], [87.83221602097731, 26.449907580452372], [87.88811883238667, 26.476168456101764], [87.9279126453877, 26.439691205478816], [87.96833564470197, 26.39684639278533], [88.01022252063692, 26.360757017899275], [88.0476278947572, 26.39563570528584], [88.08881670785115, 26.43195320610728], [88.10371658287016, 26.483598706309174], [88.10627089476985, 26.53604458071403], [88.13248164438077, 26.579257267922866], [88.14949845775733, 26.629265705546494], [88.1666783962063, 26.678218581141024], [88.18491564455817, 26.727189080816924], [88.18015439568592, 26.80329233099473], [88.17605152118705, 26.85508514439712], [88.13898333330197, 26.89836739375576], [88.12305227138853, 26.95026701909268], [88.10176452040156, 27.00340501843006], [88.04836633237862, 27.03636420563525], [88.01863864519267, 27.07668876880209], [87.99001664578094, 27.119021269057637], [88.01357133131998, 27.165478019494], [88.0147653944535, 27.215728831154497], [88.03323352061315, 27.26298045729314], [88.05112833297535, 27.3123903939174], [88.04428058246403, 27.371750144727542], [88.06974195746496, 27.425000832160134], [88.05106633305108, 27.472234582434215], [88.0640175196737, 27.52504883072692], [88.08457901958435, 27.584739957319606], [88.12210758237448, 27.626996769637508], [88.15141970801164, 27.68377114504344], [88.15888851957443, 27.73630070692024], [88.19078145831051, 27.78118264504974], [88.19717777125561, 27.835480206880657], [88.15653495778456, 27.870503831203134], [88.09842539445562, 27.86696064462331], [88.05659745788476, 27.89659983159305], [88.00502364489758, 27.897867644955788], [87.9417433949629, 27.91057945623335], [87.89045089479684, 27.90991645640226], [87.85281652124601, 27.94831445665308], [87.80844520796747, 27.91420351950031], [87.78121439440194, 27.871628894992206], [87.74635558331369, 27.83494720785677], [87.7012205825677, 27.811939207951937], [87.64960277009791, 27.83348920644688], [87.59768489427206, 27.821085956673294], [87.56498170659076, 27.866801956613173], [87.51845639495762, 27.84583808129783], [87.4619335196268, 27.825790144500836], [87.40614601956058, 27.833831268792615], [87.35513870844609, 27.827356144821103], [87.30612120790673, 27.843205206597062], [87.25248870691831, 27.842826331907116], [87.2072733321072, 27.820732395234547], [87.1552758942933, 27.82943145744632], [87.11064495711781, 27.854060332091482], [87.0844710204672, 27.899238519204925], [87.04827427027291, 27.938174208064826], [86.9946825815445, 27.954570643971305], [86.93687889367146, 27.96175189466107], [86.89238645605154, 27.996713895461195], [86.85057551830083, 28.024538520174914], [86.79254720669098, 28.018680144370183], [86.74963833183034, 28.045425332244598], [86.74831008195291, 28.098092394692976], [86.69153670511692, 28.108420957005322], [86.65240776849528, 28.074597770005678], [86.60679120697662, 28.099898706957333], [86.56102914443305, 28.07762789518273], [86.53282726911338, 28.031734019657762], [86.51524989352482, 27.984504832924486], [86.47710333114175, 27.94807439487998], [86.44485895709346, 27.905463706973332], [86.39326651843719, 27.92562758291956], [86.34001608171891, 27.94920702047786], [86.29116364391805, 27.978144644723514], [86.23977470691129, 27.972832019872772], [86.2234053309196, 28.022921832857744], [86.21200264311572, 28.07213077051494], [86.21458339243422, 28.123357081942704], [86.1919351438478, 28.168141769816526], [86.15471376715563, 28.130241207423275], [86.12021501700296, 28.091161332493908], [86.08986933022402, 28.049113456919798], [86.09818008149865, 27.998647457294588], [86.11774758207268, 27.945256832585414], [86.07736926945225, 27.910582456714312], [86.02554145602187, 27.90738508131477], [85.97679539312371, 27.92590702050746], [85.9806451421384, 27.987651019123952], [85.94422851939686, 28.02285877021091], [85.90323658108056, 28.0536563324466], [85.90038526907998, 28.108844894701754], [85.86412908095657, 28.151078769657992], [85.82038801759651, 28.193731769692334], [85.77637245513674, 28.217888582513318], [85.74525939240783, 28.2715157068197], [85.73821489378132, 28.32342827017681], [85.72664126825697, 28.37316358233112], [85.67851095557033, 28.35049595788524], [85.6630318926702, 28.302761019797373], [85.62791289354307, 28.26588258182276], [85.59425039317321, 28.308463270293267], [85.54111126849843, 28.31982108305826], [85.48966251806678, 28.330991144813524], [85.43964858016315, 28.334589332319567], [85.39998482974049, 28.298098019651853], [85.35052982989484, 28.288295644670036], [85.30035720459624, 28.290560269723592], [85.24936245462439, 28.30304039482203], [85.20470114181587, 28.340469271254488], [85.14262032963506, 28.33027158299412], [85.12422945409828, 28.385764270536946], [85.11653820529811, 28.443030520543683], [85.14675114263756, 28.485450832370542], [85.16837064325559, 28.531942206758778], [85.18481757978891, 28.583257207844166], [85.19067808000634, 28.641105833462017], [85.14205195477506, 28.665540770195612], [85.09104645466417, 28.67151095807013], [85.0425714539114, 28.65787001998814], [85.0024385789929, 28.622745207964247], [84.96699739280089, 28.58665864598472], [84.91496420473364, 28.589544082748294], [84.86376257904001, 28.577139958107633], [84.78289082930559, 28.60937339505917], [84.7331161424065, 28.62007914523762], [84.70714420452396, 28.67098302023099], [84.66369676719256, 28.698656894975493], [84.628520454652, 28.736372395823565], [84.57385232909168, 28.73507008362227], [84.51689114147922, 28.748468519693414], [84.46257008002887, 28.751203395556583], [84.43421314201647, 28.80135301987933], [84.4111026419444, 28.853474958054118], [84.3591556409404, 28.859277019283425], [84.28995445393261, 28.8768558951589], [84.2404102666506, 28.89101764471968], [84.22773351804223, 28.941679083905353], [84.24320176702295, 28.992193959233788], [84.24442291256567, 29.044199007049535], [84.1918106075842, 29.046876925135255], [84.19814300629511, 29.099046723904962], [84.17552185089764, 29.14974595903174], [84.17066955597473, 29.199821489883963], [84.20507812425602, 29.236570374392265], [84.15338897656953, 29.240682618888854], [84.1166839604858, 29.280206697670316], [84.0654220578366, 29.28972627483007], [84.01094055098834, 29.294923800936335], [83.96477489155728, 29.33126908381208], [83.9138076417112, 29.323102021007674], [83.85880026558718, 29.30982414568419], [83.81005195330755, 29.294624208844393], [83.78346689009076, 29.244344020568622], [83.73268582866373, 29.244863520416715], [83.68630476580394, 29.213062270477028], [83.6516934522546, 29.168405832747098], [83.59821245393547, 29.17489983392215], [83.55445232922341, 29.200093333072356], [83.51984070395865, 29.240548646220056], [83.48928626667403, 29.280132583283397], [83.44629632874043, 29.30645445808395], [83.42509870392934, 29.356584958743372], [83.41802845329852, 29.41037439585454], [83.37277345290192, 29.434344646765567], [83.34996870252166, 29.484733834608882], [83.29551132801517, 29.504372897008942], [83.25791682888321, 29.539245583407745], [83.21651982762886, 29.58925908451099], [83.16601801559273, 29.59431102192224], [83.12236039045118, 29.628566458740632], [83.07135570421396, 29.609912145970004], [83.03547207798164, 29.654200959479947], [82.98701520343467, 29.668435771294366], [82.94448182795603, 29.6953493331563], [82.89291670257597, 29.701401958412703], [82.84060957865269, 29.691778771163083], [82.7840393908525, 29.725603083520795], [82.74990826455175, 29.76626783393638], [82.69967301499975, 29.761658208559744], [82.73007045282387, 29.802940334321487], [82.70249820309358, 29.85311370900413], [82.65049976455644, 29.838279458058235], [82.62161282771292, 29.87929133304963], [82.58670782794772, 29.92130077189974], [82.55411976475996, 29.95953658448615], [82.50117432674188, 29.94603083487676], [82.4651322655412, 29.982066708867023], [82.41085045238394, 30.01076345972603], [82.36141213964301, 30.021652145597837], [82.31183795132544, 30.03764352184841], [82.2674294522857, 30.062214021395135], [82.21270332789736, 30.066102083479134], [82.18575313994177, 30.10935439655895], [82.20302301502203, 30.156581147064966], [82.16062782648524, 30.189312334313236], [82.11461332656705, 30.224857646085635], [82.11129876415421, 30.277215647139947], [82.12057970132557, 30.326836146340597], [82.07849957711176, 30.359340459983414], [82.0328420766706, 30.337570210023813], [81.9766728896267, 30.329873271869644], [81.92526532695084, 30.348989709973154], [81.86953776337872, 30.37736002221395], [81.81706895168743, 30.383628271287307], [81.76402457681722, 30.389127771604095], [81.71619145197938, 30.4118384604161], [81.65544045184629, 30.43489052184446], [81.60862051525783, 30.412221709209785], [81.55519326404048, 30.406694708578474], [81.50865270170877, 30.380731522046037], [81.45775813814555, 30.406567333897524], [81.40783363830823, 30.418635209030494], [81.42188576421047, 30.37062433486645], [81.3981777641002, 30.323460647476384], [81.41682120187748, 30.274871771768616], [81.3987633273249, 30.218617272400696], [81.3608011396623, 30.182865334597608], [81.31852832592173, 30.152000522180938], [81.26658388870956, 30.152165896627377], [81.29003382709323, 30.10680714653279], [81.27595945081968, 30.054648272084197], [81.2471485761279, 30.01122514588577], [81.19669988866104, 30.022911146704345], [81.14580863808463, 30.01628477235842], [81.10095501304178, 30.047712458770942], [81.10005432710362, 30.10003795849994], [81.0848078883362, 30.148396458688783], [81.04562232641067, 30.180617521594204], [81.03219336721092, 30.23793775491912], [80.99116829184044, 30.270747640417778], [80.93748502525868, 30.2650610543231], [80.89558127357277, 30.3043172229975], [80.84757230531469, 30.320350348932376], [80.79266057371728, 30.342250162024566], [80.75277415429193, 30.383042243675433], [80.70794014486164, 30.420654384014124], [80.66008357399487, 30.445358977686038], [80.61091006034516, 30.465317390825916], [80.60803075773865, 30.473110975289366]]]}}]}