{"type": "FeatureCollection", "features": [{"type": "Feature", "properties": {"code": "NZL", "name": "New Zealand", "tier": "country"}, "geometry": {"type": "MultiPolygon", "coordinates": [[[[167.39043184943174, -47.26691346461004], [167.39043184943174, -47.26691346461004]]], [[[167.39589546827065, -47.26405256475552], [167.39589546827065, -47.26405256475552]]], [[[167.41849108502186, -47.24949586654146], [167.41849108502186, -47.24949586654146]]], [[[167.6087284167291, -47.255705965771476], [167.6087284167291, -47.255705965771476]]], [[[167.59308608419735, -47.2521606811824], [167.59308608419735, -47.2521606811824]]], [[[167.3489803652633, -47.23158239840153], [167.3489803652633, -47.23158239840153]]], [[[167.3672555004913, -47.22741908143556], [167.3672555004913, -47.22741908143556]]], [[[167.3635589010793, -47.226608465227216], [167.3635589010793, -47.226608465227216]]], [[[167.37322586713114, -47.227654015436386], [167.37322586713114, -47.227654015436386]]], [[[167.66224613348854, -47.237698015801136], [167.66224613348854, -47.237698015801136]]], [[[167.3292957495901, -47.221749081951096], [167.3292957495901, -47.221749081951096]]], [[[167.43360019925913, -47.224579715345435], [167.43360019925913, -47.224579715345435]]], [[[167.43732743318407, -47.223997532342224], [167.43732743318407, -47.223997532342224]]], [[[167.33181560001913, -47.2172041315659], [167.33181560001913, -47.2172041315659]]], [[[167.43688741706345, -47.218926414235604], [167.43688741706345, -47.218926414235604]]], [[[167.39008485013753, -47.21037053133028], [167.39008485013753, -47.21037053133028]]], [[[167.48047324929325, -47.21105621597157], [167.48047324929325, -47.21105621597157]]], [[[167.48411328477746, -47.207588015043704], [167.48411328477746, -47.207588015043704]]], [[[167.45499330135968, -47.20134494769084], [167.45499330135968, -47.20134494769084]]], [[[167.65735736680068, -47.20737319900043], [167.65735736680068, -47.20737319900043]]], [[[167.67990098272264, -47.199093315967865], [167.67990098272264, -47.199093315967865]]], [[[167.5363622502583, -47.17720061522699], [167.5363622502583, -47.17720061522699]]], [[[167.70061753528617, -47.17788994776717], [167.70061753528617, -47.17788994776717]]], [[[167.56800031787637, -47.1544528309504], [167.56800031787637, -47.1544528309504]]], [[[167.70092979906485, -47.159302032478514], [167.70092979906485, -47.159302032478514]]], [[[167.40214271533245, -47.14046838169005], [167.40214271533245, -47.14046838169005]]], [[[167.4172849330668, -47.137919199526074], [167.4172849330668, -47.137919199526074]]], [[[167.40657781818646, -47.139528981074804], [167.40657781818646, -47.139528981074804]]], [[[167.51824133243622, -47.13897903279431], [167.51824133243622, -47.13897903279431]]], [[[167.52510814957603, -47.135256215474435], [167.52510814957603, -47.135256215474435]]], [[[167.56972254934888, -47.13184993192152], [167.56972254934888, -47.13184993192152]]], [[[167.53897946775996, -47.129182415631846], [167.53897946775996, -47.129182415631846]]], [[[167.93968248321053, -47.13700329831751], [167.93968248321053, -47.13700329831751]]], [[[167.55551803352097, -47.11638016554733], [167.55551803352097, -47.11638016554733]]], [[[168.1510652007464, -47.12135914937605], [168.1510652007464, -47.12135914937605]]], [[[168.20725070206237, -47.11438091468888], [168.20725070206237, -47.11438091468888]]], [[[168.2004537005779, -47.11225169924215], [168.2004537005779, -47.11225169924215]]], [[[168.19775226820855, -47.108844014747504], [168.19775226820855, -47.108844014747504]]], [[[168.20236101611295, -47.10236996545605], [168.20236101611295, -47.10236996545605]]], [[[168.21828730027516, -47.072313347752065], [168.21828730027516, -47.072313347752065]]], [[[168.21832353406907, -47.05945374976252], [168.21832353406907, -47.05945374976252]]], [[[168.1357990162129, -46.9819862317017], [168.1357990162129, -46.9819862317017]]], [[[167.6716973345449, -46.94987083145994], [167.6716973345449, -46.94987083145994]]], [[[168.16332963385474, -46.96535653244045], [168.16332963385474, -46.96535653244045]]], [[[168.13987944935374, -46.963338864759855], [168.13987944935374, -46.963338864759855]]], [[[167.68308433239028, -46.939473248523186], [167.68308433239028, -46.939473248523186]]], [[[168.14101366819307, -46.95617113187275], [168.14101366819307, -46.95617113187275]]], [[[168.14355586764933, -46.95180294848949], [168.14355586764933, -46.95180294848949]]], [[[168.12833726640395, -46.951921949167456], [168.12833726640395, -46.951921949167456]]], [[[168.13544704887926, -46.95005809778033], [168.13544704887926, -46.95005809778033]]], [[[168.12782438497962, -46.948743349062916], [168.12782438497962, -46.948743349062916]]], [[[168.1815089673156, -46.94801574897099], [168.1815089673156, -46.94801574897099]]], [[[168.12532525076793, -46.92491859903965], [168.12532525076793, -46.92491859903965]]], [[[168.1540826323727, -46.91061349733474], [168.1540826323727, -46.91061349733474]]], [[[168.00203523298129, -46.901295048438534], [168.00203523298129, -46.901295048438534]]], [[[168.12286361738097, -46.90615308188586], [168.12286361738097, -46.90615308188586]]], [[[168.24165658394588, -46.90214804924916], [168.24165658394588, -46.90214804924916]]], [[[167.7514252183389, -46.87702936480129], [167.7514252183389, -46.87702936480129]]], [[[167.74810126568968, -46.8747664478414], [167.74810126568968, -46.8747664478414]]], [[[168.2684125979283, -46.86932901531267], [168.2684125979283, -46.86932901531267]]], [[[168.26577188414768, -46.86716989870081], [168.26577188414768, -46.86716989870081]]], [[[168.23013943265576, -46.86399721611067], [168.23013943265576, -46.86399721611067]]], [[[168.21099618324843, -46.84647676679972], [168.21099618324843, -46.84647676679972]]], [[[168.22170648378517, -46.82904344708256], [168.22170648378517, -46.82904344708256]]], [[[168.2467947678572, -46.82491774839086], [168.2467947678572, -46.82491774839086]]], [[[168.23674110078431, -46.814267898160246], [168.23674110078431, -46.814267898160246]]], [[[168.45375749935945, -46.82002174848451], [168.45375749935945, -46.82002174848451]]], [[[168.47208048232042, -46.81703026518894], [168.47208048232042, -46.81703026518894]]], [[[168.50651773367244, -46.80223366576755], [168.50651773367244, -46.80223366576755]]], [[[168.50530731665168, -46.80056894929301], [168.50530731665168, -46.80056894929301]]], [[[168.49756500003465, -46.793982932313064], [168.49756500003465, -46.793982932313064]]], [[[167.59367831651608, -46.75123689768058], [167.59367831651608, -46.75123689768058]]], [[[167.61423760108653, -46.750005364474305], [167.61423760108653, -46.750005364474305]]], [[[168.556049050195, -46.78839934895473], [168.556049050195, -46.78839934895473]]], [[[168.42348521620215, -46.76533448249364], [168.42348521620215, -46.76533448249364]]], [[[168.46654228265177, -46.76700503172025], [168.46654228265177, -46.76700503172025]]], [[[168.57624318322715, -46.76471816598876], [168.57624318322715, -46.76471816598876]]], [[[168.55582181612408, -46.75261253200344], [168.55582181612408, -46.75261253200344]]], [[[168.59693341664223, -46.74975411579251], [168.59693341664223, -46.74975411579251]]], [[[167.71968866737703, -46.705361315757656], [167.71968866737703, -46.705361315757656]]], [[[167.71735468332272, -46.70130291600227], [167.71735468332272, -46.70130291600227]]], [[[168.53471554982653, -46.73603391556592], [168.53471554982653, -46.73603391556592]]], [[[167.8696967167486, -46.68423101572765], [167.75054438334007, -46.69935908178361], [167.72789061792594, -46.818643581949814], [167.7579910487934, -46.936049315193664], [167.71347876573137, -47.04868401441059], [167.59512524988446, -47.071281182056026], [167.5391012515548, -47.183999565653004], [167.44710048182532, -47.26670513296389], [167.56748581670047, -47.27781843287796], [167.65145289953918, -47.18799389917456], [167.77151070060808, -47.1800476979428], [167.89473463382149, -47.17031544908734], [168.0114836854645, -47.11961041555132], [168.13190078250017, -47.121636131896], [168.2187525842102, -47.035089799533914], [168.10551538249734, -46.99380484853072], [168.00504901746865, -46.92423853164702], [167.8971848181843, -46.98003618196207], [167.99296726732751, -46.890612232491456], [168.11255796703, -46.90326109884568], [168.03362609961516, -46.810946216963636], [167.95225436559681, -46.716816348813495], [167.8696967167486, -46.68423101572765]]], [[[168.4077753155503, -46.6486325656498], [168.4077753155503, -46.6486325656498]]], [[[166.90437273258436, -46.587022582479584], [166.90437273258436, -46.587022582479584]]], [[[166.85164046544864, -46.56846939860165], [166.85164046544864, -46.56846939860165]]], [[[168.4336333165963, -46.578570531971444], [168.4336333165963, -46.578570531971444]]], [[[168.4358345334841, -46.57568546522778], [168.4358345334841, -46.57568546522778]]], [[[168.3219812170925, -46.56903711581609], [168.3219812170925, -46.56903711581609]]], [[[168.39163784962275, -46.56966209921809], [168.39163784962275, -46.56966209921809]]], [[[168.31400523408584, -46.55137114880649], [168.31400523408584, -46.55137114880649]]], [[[168.35066628311478, -46.54294259895773], [168.35066628311478, -46.54294259895773]]], [[[168.22150369988998, -46.51527224869047], [168.22150369988998, -46.51527224869047]]], [[[167.84288326724857, -46.451481582018694], [167.84288326724857, -46.451481582018694]]], [[[169.683224716514, -46.48161813171903], [169.683224716514, -46.48161813171903]]], [[[170.715571366756, -45.87941339914113], [170.715571366756, -45.87941339914113]]], [[[170.63199184980718, -45.826036548495736], [170.63199184980718, -45.826036548495736]]], [[[170.62666180067822, -45.822636782340254], [170.62666180067822, -45.822636782340254]]], [[[166.6788322825379, -45.60037559916073], [166.55984868248325, -45.632013199140005], [166.46467419893625, -45.706660149261545], [166.58837896545452, -45.7207469658364], [166.7107745656903, -45.72778579873746], [166.6907525979595, -45.60809731575047], [166.6788322825379, -45.60037559916073]]], [[[166.96242584924283, -45.14779828222782], [166.8746365825455, -45.233229115746795], [166.976210831794, -45.30277696573677], [166.95208053280015, -45.18507318242203], [166.96242584924283, -45.14779828222782]]], [[[168.87815080069166, -43.861332831761196], [168.87815080069166, -43.861332831761196]]], [[[168.88342918253304, -43.85926461511167], [168.88342918253304, -43.85926461511167]]], [[[172.69157236704837, -43.62288576553632], [172.69157236704837, -43.62288576553632]]], [[[170.1935431992709, -43.20937949791318], [170.1935431992709, -43.20937949791318]]], [[[170.18807679998184, -43.2138117819694], [170.18807679998184, -43.2138117819694]]], [[[170.1964962669896, -43.19983558173041], [170.1964962669896, -43.19983558173041]]], [[[170.21898025191143, -43.18140639789802], [170.21898025191143, -43.18140639789802]]], [[[170.21579873485797, -43.17699134817283], [170.21579873485797, -43.17699134817283]]], [[[170.24024633327937, -43.16567329796043], [170.24024633327937, -43.16567329796043]]], [[[171.36775784981532, -42.03368084960681], [171.36775784981532, -42.03368084960681]]], [[[174.09474226849335, -41.53556881571848], [174.09474226849335, -41.53556881571848]]], [[[174.1065789855331, -41.53307666463869], [174.1065789855331, -41.53307666463869]]], [[[174.1015505166399, -41.53224074910154], [174.1015505166399, -41.53224074910154]]], [[[174.0738017835961, -41.524435931416896], [174.0738017835961, -41.524435931416896]]], [[[174.07374670165765, -41.517884265167424], [174.07374670165765, -41.517884265167424]]], [[[174.05656915014634, -41.50746568165686], [174.05656915014634, -41.50746568165686]]], [[[174.7745418498355, -41.348676498451574], [174.7745418498355, -41.348676498451574]]], [[[174.1327922664543, -41.33100291469589], [174.1327922664543, -41.33100291469589]]], [[[174.87133490006156, -41.293045065987016], [174.87133490006156, -41.293045065987016]]], [[[173.1907361333725, -41.30526079811869], [173.1907361333725, -41.30526079811869]]], [[[173.2030889836533, -41.30127859942012], [173.2030889836533, -41.30127859942012]]], [[[173.14477186630404, -41.28673986545882], [173.14477186630404, -41.28673986545882]]], [[[173.15077428362005, -41.28480129925618], [173.15077428362005, -41.28480129925618]]], [[[174.86532351594192, -41.25275321471697], [174.86532351594192, -41.25275321471697]]], [[[173.11206771660778, -41.26699391485201], [173.11206771660778, -41.26699391485201]]], [[[173.1087059004411, -41.26627873302043], [173.1087059004411, -41.26627873302043]]], [[[173.2584921347262, -41.26550418259049], [173.2584921347262, -41.26550418259049]]], [[[173.10038753470175, -41.26443466585308], [173.10038753470175, -41.26443466585308]]], [[[172.1034250503858, -41.260776132423395], [172.1034250503858, -41.260776132423395]]], [[[173.12702280020753, -41.25680859865731], [173.12702280020753, -41.25680859865731]]], [[[172.0976195830097, -41.248183331810935], [172.0976195830097, -41.248183331810935]]], [[[174.05502466657614, -41.23466366584248], [174.05502466657614, -41.23466366584248]]], [[[174.36388144998094, -41.20459698141184], [174.36388144998094, -41.20459698141184]]], [[[174.0298547672955, -41.184819465371795], [174.0298547672955, -41.184819465371795]]], [[[174.23827336681993, -41.15912554914399], [174.23827336681993, -41.15912554914399]]], [[[174.27876275040566, -41.157539148296], [174.27876275040566, -41.157539148296]]], [[[173.02542893288913, -41.13852224911284], [173.02542893288913, -41.13852224911284]]], [[[174.4323047513541, -41.11213263159463], [174.4323047513541, -41.11213263159463]]], [[[174.32620173434174, -41.11290969798549], [174.32620173434174, -41.11290969798549]]], [[[174.29998708387345, -41.10849619823919], [174.29998708387345, -41.10849619823919]]], [[[173.97905456692786, -41.109741882318865], [173.97905456692786, -41.109741882318865]]], [[[174.44260135110852, -41.102056515936596], [174.44260135110852, -41.102056515936596]]], [[[174.30885643374967, -41.10206949865709], [174.30885643374967, -41.10206949865709]]], [[[174.38137296698542, -41.08799011494198], [174.29089678248377, -41.16695654942458], [174.1822878009914, -41.22137688214572], [174.3039436165599, -41.20685304829201], [174.39181831623904, -41.11810178132016], [174.38137296698542, -41.08799011494198]]], [[[174.78221248394345, -41.077778498690094], [174.78221248394345, -41.077778498690094]]], [[[174.28055763255003, -41.083794366424996], [174.28055763255003, -41.083794366424996]]], [[[173.01300503354534, -41.07238986566289], [173.01300503354534, -41.07238986566289]]], [[[173.79409210036135, -41.070770999186784], [173.79409210036135, -41.070770999186784]]], [[[173.65513424927386, -41.0545943817145], [173.65513424927386, -41.0545943817145]]], [[[173.80162561680658, -41.046270398967316], [173.80162561680658, -41.046270398967316]]], [[[173.6411432833323, -41.0395509161905], [173.6411432833323, -41.0395509161905]]], [[[173.66235230058166, -41.03674926605914], [173.66235230058166, -41.03674926605914]]], [[[173.0229590497302, -41.035803431712026], [173.0229590497302, -41.035803431712026]]], [[[173.90690850058456, -41.01661181582302], [173.90690850058456, -41.01661181582302]]], [[[174.0467013004049, -41.00181084896305], [174.0467013004049, -41.00181084896305]]], [[[173.0517053507664, -40.99195564845807], [173.0517053507664, -40.99195564845807]]], [[[173.05849446663433, -40.97480034890129], [173.05849446663433, -40.97480034890129]]], [[[174.13837988245638, -40.9488051992472], [174.13837988245638, -40.9488051992472]]], [[[174.08098279922072, -40.940974065425294], [174.08098279922072, -40.940974065425294]]], [[[174.08567504954482, -40.88887743226244], [174.08567504954482, -40.88887743226244]]], [[[173.06849414986874, -40.88950998159363], [173.06849414986874, -40.88950998159363]]], [[[174.10400710008588, -40.88375796557607], [174.10400710008588, -40.88375796557607]]], [[[173.9978038495829, -40.83561039899579], [173.9978038495829, -40.83561039899579]]], [[[174.93867598356613, -40.820217082419184], [174.93867598356613, -40.820217082419184]]], [[[173.97379241786462, -40.768833614551596], [173.97379241786462, -40.768833614551596]]], [[[173.9850905171955, -40.76321393215703], [173.9850905171955, -40.76321393215703]]], [[[173.82722463261499, -40.754626031034704], [173.82722463261499, -40.754626031034704]]], [[[173.9900908504091, -40.75909871495392], [173.9900908504091, -40.75909871495392]]], [[[173.9164874664633, -40.734219398723695], [173.9164874664633, -40.734219398723695]]], [[[173.95635888386767, -40.692828231656385], [173.90555034977277, -40.80353799885018], [173.79671873423032, -40.85666988142052], [173.91664581678666, -40.83395918134255], [173.9630713666159, -40.72185816419759], [173.95635888386767, -40.692828231656385]]], [[[172.6705592000796, -40.67592466610502], [172.6705592000796, -40.67592466610502]]], [[[172.669349799242, -40.66997234912743], [172.669349799242, -40.66997234912743]]], [[[173.99900691653767, -40.66377713184994], [173.99900691653767, -40.66377713184994]]], [[[172.93259896720667, -40.52680821566927], [172.93259896720667, -40.52680821566927]]], [[[172.89286800044079, -40.51993631484457], [172.89286800044079, -40.51993631484457]]], [[[172.67997631735955, -40.500805265830905], [172.67997631735955, -40.500805265830905]]], [[[172.690459100267, -40.49857981511162], [172.58089283251323, -40.54953708295525], [172.4795736834417, -40.61614729882753], [172.38014189917212, -40.68851821568984], [172.27321876646346, -40.75358354927868], [172.1663329165843, -40.820113515148556], [172.0968792172583, -40.92177213235234], [172.10443984979028, -41.043197165635945], [172.0980803006108, -41.239871782429645], [172.07021933275286, -41.36842543198193], [171.98124879994882, -41.457351281983975], [171.91021868313473, -41.565416265199076], [171.7872911166759, -41.66934531536559], [171.68181715073712, -41.73414061599833], [171.55594425015335, -41.74837694912247], [171.46128753313312, -41.833117298432306], [171.40978925082223, -41.95074664890045], [171.3642984002185, -42.06364471524648], [171.31892009983565, -42.17778504899955], [171.287924233223, -42.29453216515111], [171.21570031661864, -42.39501131581898], [171.1638361825668, -42.514231515415105], [171.07777088275532, -42.62411094858969], [170.96245356640645, -42.714649332135785], [170.87601883396326, -42.81231261563397], [170.7757986167681, -42.89519346532582], [170.66177563240782, -42.95385674869946], [170.54899698395246, -43.00853871606778], [170.4204287331845, -43.036183565642986], [170.31547168302626, -43.10176919854315], [170.1967739333681, -43.188742115554305], [170.08415304977893, -43.27453043201414], [169.98271821648692, -43.35740391514484], [169.8624561664124, -43.39466766595375], [169.76223300082862, -43.46305574858187], [169.68022651738914, -43.55104664930686], [169.56503636682575, -43.60162011555281], [169.44815881611024, -43.6297089989942], [169.323123933806, -43.67386011607131], [169.20945806744257, -43.71926246522971], [169.10662406711242, -43.79495038235923], [168.9732599499728, -43.87713774897472], [168.85505528373423, -43.94128099930312], [168.71241581596777, -43.99376128198353], [168.5952362172779, -43.96557521542212], [168.48080131709017, -44.005772415627504], [168.36141896587142, -44.031285515329756], [168.27314130012198, -44.11537341517434], [168.16948654926878, -44.19388006549817], [168.05991933210035, -44.251481565720454], [168.00524256700365, -44.3605807656159], [168.07145058382574, -44.46331964873374], [168.00037554985866, -44.35919394924644], [167.8962254328089, -44.420775182785036], [167.82752531715778, -44.52372164896377], [167.8958301837532, -44.62789903258008], [167.7817375162846, -44.577237782315024], [167.66921623369404, -44.63007868202401], [167.56407766613802, -44.69273423231019], [167.53822874908428, -44.81586643192753], [167.42026224907264, -44.79063203155192], [167.39479298300333, -44.9191275159256], [167.28192754868311, -44.86759276390601], [167.18980571623712, -44.94974864890963], [167.0921524010847, -45.02597671519147], [167.00515406624564, -45.114359330986716], [166.99208943227384, -45.2375958993957], [167.11059498174805, -45.27679456559601], [167.11654299970235, -45.39945188236725], [167.0615075160638, -45.50627119919024], [167.09058300001277, -45.38714599848153], [166.9624990829257, -45.41488243231102], [166.9089792993047, -45.30743771559374], [166.7915217832526, -45.33292229891745], [166.73402853204502, -45.43850276586503], [166.66940301590964, -45.55771916590729], [166.7903202492236, -45.55948904908365], [166.90828069890478, -45.52501784873385], [166.7863228488257, -45.577087648924916], [166.89385101484626, -45.63057013185734], [166.77801858186695, -45.66418133200564], [166.89035133330992, -45.720652115466606], [166.76836751573578, -45.76324804873899], [166.6405466486811, -45.78935848175648], [166.51965474969978, -45.79399684850952], [166.43558698133626, -45.881375631639514], [166.46179478214341, -46.009577548422875], [166.5842797998206, -45.97455418210985], [166.6710466982451, -45.88567628166638], [166.7682410823164, -45.96244166568388], [166.63958686470383, -45.977977599115476], [166.56453789891606, -46.071854315329105], [166.6850425824728, -46.05883319859575], [166.78640996596317, -45.98672399898351], [166.89914371561014, -45.933754282303624], [166.7908597998704, -45.99838256526919], [166.7081093656445, -46.09167716546696], [166.64433399839513, -46.1944583816793], [166.76515138243892, -46.214464432331795], [166.8881155483718, -46.21853276570231], [167.01238281573947, -46.22864961509255], [167.14313223275434, -46.25134038254], [167.2698296326724, -46.245192265105146], [167.38560796698408, -46.18301823191438], [167.5149520334346, -46.15705978184342], [167.64842776588497, -46.21219749879458], [167.69080321634402, -46.329929965843334], [167.80285478298728, -46.38517461534004], [167.93138014978152, -46.358039132275955], [168.0649409995106, -46.33929796564646], [168.18112263308885, -46.37778923170962], [168.26374101672394, -46.49242554929755], [168.3162504327725, -46.60823244960947], [168.4274533666126, -46.55994826599131], [168.592003483544, -46.58641306596964], [168.73869923362565, -46.57020988227241], [168.84382431732672, -46.64933976562974], [168.9633273337423, -46.669669115442666], [169.08541084966842, -46.66542758228089], [169.2061779829903, -46.66114084868157], [169.33093264958308, -46.634457099018604], [169.4416424339156, -46.583053365557504], [169.56193376721288, -46.561077449290806], [169.6767393842011, -46.52434553172928], [169.7816870007147, -46.46514353234739], [169.81087368386582, -46.347525115763645], [169.92390263312748, -46.29837963241092], [170.04009573409016, -46.2251864656031], [170.14725869963982, -46.16758961596785], [170.19937973275486, -46.0557055489232], [170.29467936735142, -45.96409103229072], [170.42761796617526, -45.92884933227358], [170.55402871601564, -45.90756634870665], [170.67587058354798, -45.89620669852384], [170.74251915001895, -45.78777866527403], [170.63171749906587, -45.844112648571745], [170.51865219984032, -45.89355713217792], [170.61402559972538, -45.8195699157837], [170.6099648330345, -45.69912279884134], [170.67706116755238, -45.59962143228946], [170.7783426824045, -45.51797091537817], [170.8463061501001, -45.39514461528615], [170.86072701735284, -45.27001304929773], [170.9191156838332, -45.15719323273445], [171.01805336729925, -45.06710246523701], [171.1412170331757, -44.94696078173321], [171.1742179839351, -44.81029998209733], [171.1591844994133, -44.627834698993446], [171.20350589970352, -44.515476082104755], [171.2669636331601, -44.41273218204636], [171.33343608301345, -44.295190715627825], [171.44706285052123, -44.21877208235605], [171.59496053250038, -44.14173566569341], [171.7903442826887, -44.060042832199095], [172.0297362331334, -43.95765189916438], [172.18648048331414, -43.905518298596796], [172.30792426653906, -43.86913758238566], [172.49494310010496, -43.844589415276005], [172.69286148326944, -43.82720656515641], [172.80514426618797, -43.87215156626969], [172.92280133406672, -43.89632328249135], [172.91381596682268, -43.77329386542459], [172.9685826669729, -43.88691781592064], [173.08372503303312, -43.8461340153104], [173.10957443337324, -43.72857258199905], [172.99335118255897, -43.67561689893163], [172.8867674837683, -43.617069649275535], [172.76655116582384, -43.61803231542063], [172.64693140049772, -43.6347824158724], [172.766043883844, -43.59658954878984], [172.7225550004992, -43.4801217654232], [172.70867643268147, -43.358800215400876], [172.7770728831121, -43.1779311656782], [172.88797376696593, -43.09809524931875], [173.0113126007575, -43.06032301578548], [173.13969619969694, -42.989561265853744], [173.2533774665937, -42.942151948693414], [173.32070089952316, -42.84166891579838], [173.4633949505844, -42.62096599908024], [173.509066700306, -42.505720248871235], [173.6420014825048, -42.41470436519713], [173.7405401006176, -42.32749043297278], [173.83059711707432, -42.24808981557308], [173.9287592834207, -42.172642481943164], [173.98498519981422, -42.02627869954339], [174.08258396593243, -41.944787965266514], [174.16782043394588, -41.85666941603056], [174.24998488412564, -41.761891381845935], [174.1565280506639, -41.657231315234306], [174.1149156665036, -41.534025732036255], [174.03333015015934, -41.42878144907334], [174.10185976615253, -41.33019273189134], [174.22114205057952, -41.316008014892134], [174.29964251839263, -41.22487116468405], [174.17979376757992, -41.265420049160035], [174.05730196671058, -41.25936214928082], [173.9296284827849, -41.27303541537802], [174.04092216701164, -41.22170846558239], [174.15592063334606, -41.18014333228151], [174.23539156666317, -41.08975743227708], [174.31497403271345, -40.9948461155656], [174.2169740838986, -41.0713054653383], [174.11503796665485, -41.00381879851744], [173.9955731493513, -40.9689613159632], [174.03153395061972, -41.08655789876317], [173.90872106613782, -41.109278148663414], [173.99833526766471, -41.195289731049975], [174.1184963839059, -41.166937998844006], [174.00470510151357, -41.20722591622454], [173.87889820015474, -41.22109276582044], [173.77707338307388, -41.28524754842519], [173.86431516739498, -41.19553511518612], [173.87929714935936, -41.07582803174742], [173.76302616606796, -41.118573665964604], [173.80580313242214, -41.00502824920939], [173.92455446649828, -40.98627558205871], [174.02312421674483, -40.91071711510576], [173.90470566652402, -40.94899931550852], [173.7856139347165, -40.968162881264334], [173.67330305028912, -41.03426759805707], [173.55894836593356, -41.07503049867283], [173.44166141698506, -41.16104791562302], [173.32328276683415, -41.2029181325465], [173.22920576721066, -41.284947365594086], [173.1072859167542, -41.2904468321427], [173.0475176330083, -41.16630609846002], [173.0044957829209, -41.053522782451935], [173.0673194000784, -40.9484678158269], [173.0094227332274, -40.834726399154164], [172.8760530671237, -40.833572598440284], [172.76221586653818, -40.78921513258632], [172.68695216675673, -40.67926066550333], [172.7069854352397, -40.55909906597025], [172.8311334665546, -40.51503059815795], [172.96665828296545, -40.53678673180833], [172.84647708349158, -40.509476849366806], [172.71945535000032, -40.504272182145876], [172.690459100267, -40.49857981511162]], [[170.35387868255506, -43.093069831724804], [170.35387868255506, -43.093069831724804]], [[170.57909234950034, -45.74899938182407], [170.57909234950034, -45.74899938182407]], [[170.5189928998394, -45.89384524927835], [170.5189928998394, -45.89384524927835]]], [[[177.02988326718065, -39.831634232322756], [177.02988326718065, -39.831634232322756]]], [[[177.86829806731373, -39.30392268200399], [177.86829806731373, -39.30392268200399]]], [[[178.0486795505607, -38.70511846479552], [178.0486795505607, -38.70511846479552]]], [[[178.34317916853178, -38.378966682253235], [178.34317916853178, -38.378966682253235]]], [[[174.8638760685031, -38.102526698724034], [174.8638760685031, -38.102526698724034]]], [[[174.80334541654958, -38.09998219963965], [174.80334541654958, -38.09998219963965]]], [[[177.13439676820877, -38.01895994955606], [177.13439676820877, -38.01895994955606]]], [[[177.13919856664756, -38.01109046517589], [177.13919856664756, -38.01109046517589]]], [[[177.1531017513913, -37.99807969877812], [177.1531017513913, -37.99807969877812]]], [[[177.12344671875147, -37.99514966514797], [177.12344671875147, -37.99514966514797]]], [[[177.07167506740075, -37.98414921586011], [177.07167506740075, -37.98414921586011]]], [[[176.96675018425017, -37.84634188207383], [176.96675018425017, -37.84634188207383]]], [[[178.57594388533306, -37.68932551542487], [178.57594388533306, -37.68932551542487]]], [[[176.15354723360377, -37.68437716588814], [176.15354723360377, -37.68437716588814]]], [[[176.08509523365527, -37.63456384944401], [176.08509523365527, -37.63456384944401]]], [[[176.19441073447436, -37.63002619844819], [176.19441073447436, -37.63002619844819]]], [[[175.9962908338776, -37.617199699167124], [175.9962908338776, -37.617199699167124]]], [[[176.4151473668116, -37.602802181796235], [176.4151473668116, -37.602802181796235]]], [[[176.09203486607902, -37.60719031513049], [176.09203486607902, -37.60719031513049]]], [[[177.1833339173323, -37.51107883233605], [177.1833339173323, -37.51107883233605]]], [[[176.01948426632205, -37.49366191520187], [176.0644185503219, -37.60737348280068], [176.01948426632205, -37.49366191520187]]], [[[176.26198398352693, -37.267765715803215], [176.26198398352693, -37.267765715803215]]], [[[175.89273248344787, -37.212598081955136], [175.89273248344787, -37.212598081955136]]], [[[175.92666855014585, -37.068807032067554], [175.92666855014585, -37.068807032067554]]], [[[175.93419760018983, -37.06344663250644], [175.93419760018983, -37.06344663250644]]], [[[175.9444030168898, -37.03699388219392], [175.9444030168898, -37.03699388219392]]], [[[175.90649873324864, -36.98989034847131], [175.90649873324864, -36.98989034847131]]], [[[176.08210594940596, -36.97242498249609], [176.08210594940596, -36.97242498249609]]], [[[176.07887771677605, -36.96521111560176], [176.07887771677605, -36.96521111560176]]], [[[176.08721413409683, -36.95381989929263], [176.08721413409683, -36.95381989929263]]], [[[176.10107733268447, -36.95275393195094], [176.10107733268447, -36.95275393195094]]], [[[176.05944596698026, -36.953813881854714], [176.05944596698026, -36.953813881854714]]], [[[176.09674825018817, -36.9493859991828], [176.09674825018817, -36.9493859991828]]], [[[175.8603791513206, -36.930038616338706], [175.8603791513206, -36.930038616338706]]], [[[174.4657006994904, -36.95320823130701], [174.4657006994904, -36.95320823130701]]], [[[175.15827256565026, -36.925469664898685], [175.15827256565026, -36.925469664898685]]], [[[174.99380983400056, -36.91852696510559], [174.99380983400056, -36.91852696510559]]], [[[174.99699718300786, -36.915985499036104], [174.99699718300786, -36.915985499036104]]], [[[175.16598783427048, -36.90363571529223], [175.16598783427048, -36.90363571529223]]], [[[175.89031424975934, -36.86666701537342], [175.89031424975934, -36.86666701537342]]], [[[174.98002456685103, -36.877077482399855], [174.98002456685103, -36.877077482399855]]], [[[175.8264778166774, -36.85086334755655], [175.8264778166774, -36.85086334755655]]], [[[174.66311106655374, -36.85692056550399], [174.66311106655374, -36.85692056550399]]], [[[175.42202866797552, -36.8401291655554], [175.42202866797552, -36.8401291655554]]], [[[175.8226859998819, -36.82585754923853], [175.8226859998819, -36.82585754923853]]], [[[175.8023085007195, -36.81853761482086], [175.8023085007195, -36.81853761482086]]], [[[175.18744226644728, -36.83348193185427], [175.18744226644728, -36.83348193185427]]], [[[175.4078306336064, -36.82075364858143], [175.4078306336064, -36.82075364858143]]], [[[174.89625493312926, -36.82702953206347], [174.89625493312926, -36.82702953206347]]], [[[174.97335706644444, -36.810796182826834], [174.97335706644444, -36.810796182826834]]], [[[175.20185701746558, -36.81121324888714], [175.20185701746558, -36.81121324888714]]], [[[174.93858778306043, -36.803639066133094], [174.93858778306043, -36.803639066133094]]], [[[175.1972149331113, -36.79557664894329], [175.1972149331113, -36.79557664894329]]], [[[175.22761093317357, -36.78835469860861], [175.22761093317357, -36.78835469860861]]], [[[175.43230701775357, -36.7813902659063], [175.43230701775357, -36.7813902659063]]], [[[175.4526543173764, -36.76855299761053], [175.4526543173764, -36.76855299761053]]], [[[175.45282563399064, -36.7582234642917], [175.45282563399064, -36.7582234642917]]], [[[175.6125627506346, -36.75417844872516], [175.6125627506346, -36.75417844872516]]], [[[175.41443569989366, -36.757349499076916], [175.41443569989366, -36.757349499076916]]], [[[175.81933418369346, -36.7434609323455], [175.81933418369346, -36.7434609323455]]], [[[175.42020131678123, -36.75060503264263], [175.42020131678123, -36.75060503264263]]], [[[175.4026264335827, -36.73907074893339], [175.4026264335827, -36.73907074893339]]], [[[175.83762075021886, -36.72847008126519], [175.83762075021886, -36.72847008126519]]], [[[175.1725949333624, -36.73865914846538], [175.05543244999367, -36.77038421534973], [175.1524811499182, -36.84229701601813], [175.1725949333624, -36.73865914846538]]], [[[175.8774491012764, -36.7225625496413], [175.8774491012764, -36.7225625496413]]], [[[175.88282218337213, -36.71746533157196], [175.88282218337213, -36.71746533157196]]], [[[174.9158840008107, -36.73070258257841], [174.9158840008107, -36.73070258257841]]], [[[175.81785236745887, -36.712633381821675], [175.81785236745887, -36.712633381821675]]], [[[175.86837136716366, -36.710869331704146], [175.86837136716366, -36.710869331704146]]], [[[175.39076300122258, -36.70268798234913], [175.39076300122258, -36.70268798234913]]], [[[174.94538153409405, -36.70878104850835], [174.94538153409405, -36.70878104850835]]], [[[175.3917708670565, -36.691842649355195], [175.3917708670565, -36.691842649355195]]], [[[174.9743816336866, -36.69323746438636], [174.9743816336866, -36.69323746438636]]], [[[174.96356843410908, -36.687988731678296], [174.96356843410908, -36.687988731678296]]], [[[175.39326375111114, -36.67813206447101], [175.39326375111114, -36.67813206447101]]], [[[175.3998098345621, -36.6711569810712], [175.3998098345621, -36.6711569810712]]], [[[175.85000066642456, -36.65712511444473], [175.85000066642456, -36.65712511444473]]], [[[175.37542373413817, -36.65396333099379], [175.37542373413817, -36.65396333099379]]], [[[175.36961973248773, -36.65091338199048], [175.36961973248773, -36.65091338199048]]], [[[175.86179783529988, -36.63795101619644], [175.86179783529988, -36.63795101619644]]], [[[175.8856693666032, -36.63385089911243], [175.8856693666032, -36.63385089911243]]], [[[175.90222888296333, -36.62144873295756], [175.90222888296333, -36.62144873295756]]], [[[175.93839751695188, -36.617201147654036], [175.93839751695188, -36.617201147654036]]], [[[174.41467013453598, -36.639391931597956], [174.41467013453598, -36.639391931597956]]], [[[174.36858129991495, -36.61458381547608], [174.36858129991495, -36.61458381547608]]], [[[175.77665398451506, -36.58292384840065], [175.77665398451506, -36.58292384840065]]], [[[174.3620323993545, -36.604153815257305], [174.3620323993545, -36.604153815257305]]], [[[175.788605534947, -36.579541033002506], [175.788605534947, -36.579541033002506]]], [[[174.8817985493486, -36.59133606548293], [174.8817985493486, -36.59133606548293]]], [[[174.40051871722397, -36.565953398833464], [174.40051871722397, -36.565953398833464]]], [[[174.74849436694296, -36.508188981935035], [174.74849436694296, -36.508188981935035]]], [[[174.8021882009373, -36.50071366632322], [174.8021882009373, -36.50071366632322]]], [[[174.72627565009418, -36.48834411614507], [174.72627565009418, -36.48834411614507]]], [[[175.41451641748864, -36.469543631885536], [175.41451641748864, -36.469543631885536]]], [[[174.7891288672849, -36.4758472309666], [174.7891288672849, -36.4758472309666]]], [[[174.79849240052457, -36.4718258987452], [174.79849240052457, -36.4718258987452]]], [[[175.40054143442077, -36.46110081440005], [175.40054143442077, -36.46110081440005]]], [[[174.80798636693626, -36.4677619992735], [174.80798636693626, -36.4677619992735]]], [[[175.77152570130724, -36.429044065044245], [175.77152570130724, -36.429044065044245]]], [[[174.79510278323403, -36.42420713305805], [174.79510278323403, -36.42420713305805]]], [[[174.39397675043153, -36.42128961653797], [174.39397675043153, -36.42128961653797]]], [[[174.79315441718634, -36.41458484902945], [174.79315441718634, -36.41458484902945]]], [[[174.83958508440716, -36.39174249780361], [174.83958508440716, -36.39174249780361]]], [[[174.30780128426952, -36.38098218152372], [174.30780128426952, -36.38098218152372]]], [[[174.24298963338853, -36.371613881052376], [174.24298963338853, -36.371613881052376]]], [[[175.50690886776664, -36.34874956466447], [175.50690886776664, -36.34874956466447]]], [[[175.5405541996098, -36.33441514930072], [175.5405541996098, -36.33441514930072]]], [[[175.37390698383246, -36.25755109879272], [175.37390698383246, -36.25755109879272]]], [[[175.49287326644716, -36.25435248195345], [175.49287326644716, -36.25435248195345]]], [[[174.7976703163268, -36.263859215950355], [174.7976703163268, -36.263859215950355]]], [[[175.31908130183118, -36.23613751632394], [175.31908130183118, -36.23613751632394]]], [[[175.30181876850085, -36.227698714188], [175.30181876850085, -36.227698714188]]], [[[174.18975418481514, -36.2406696809793], [174.18975418481514, -36.2406696809793]]], [[[175.2984198843933, -36.21830708229915], [175.2984198843933, -36.21830708229915]]], [[[175.28599470125855, -36.213119547137545], [175.28599470125855, -36.213119547137545]]], [[[174.16473238509823, -36.2235623811749], [174.16473238509823, -36.2235623811749]]], [[[175.29838676754727, -36.203179348503], [175.29838676754727, -36.203179348503]]], [[[175.29435028334848, -36.18435294760795], [175.29435028334848, -36.18435294760795]]], [[[175.33899396662864, -36.163734931956284], [175.33899396662864, -36.163734931956284]]], [[[175.30069581738275, -36.1643398993402], [175.30069581738275, -36.1643398993402]]], [[[175.09089806743606, -36.16561861529195], [175.09089806743606, -36.16561861529195]]], [[[175.28893528486057, -36.15962103161995], [175.28893528486057, -36.15962103161995]]], [[[175.307528816026, -36.14169419921603], [175.307528816026, -36.14169419921603]]], [[[175.49647373353667, -36.11564081597297], [175.49647373353667, -36.11564081597297]]], [[[175.3973813346599, -36.04971329843601], [175.30991385153624, -36.13986719837872], [175.37040278405922, -36.250082132437285], [175.4868352839711, -36.30108024912816], [175.49467804927087, -36.17970101470781], [175.41944213465902, -36.08485519747624], [175.3973813346599, -36.04971329843601]]], [[[175.39985544844032, -36.04048079907263], [175.39985544844032, -36.04048079907263]]], [[[175.40836163395727, -36.02952338198244], [175.40836163395727, -36.02952338198244]]], [[[174.69731014972115, -35.99218971545755], [174.69731014972115, -35.99218971545755]]], [[[174.70214085071748, -35.95508013195468], [174.70214085071748, -35.95508013195468]]], [[[175.15351933365488, -35.93427001449335], [175.15351933365488, -35.93427001449335]]], [[[175.09799108407023, -35.91112396596664], [175.09799108407023, -35.91112396596664]]], [[[175.10411538330925, -35.9097173985525], [175.10411538330925, -35.9097173985525]]], [[[175.11895596625345, -35.90041934897713], [175.11895596625345, -35.90041934897713]]], [[[175.0602103827368, -35.897514115743434], [175.0602103827368, -35.897514115743434]]], [[[174.69811098367722, -35.893063998183855], [174.69811098367722, -35.893063998183855]]], [[[174.7801764669521, -35.88406953116871], [174.7801764669521, -35.88406953116871]]], [[[174.75445385069344, -35.885083565952826], [174.75445385069344, -35.885083565952826]]], [[[174.72382730061017, -35.884809798980285], [174.72382730061017, -35.884809798980285]]], [[[174.69577181691952, -35.88200273227258], [174.69577181691952, -35.88200273227258]]], [[[174.59361626660166, -35.83705028167278], [174.59361626660166, -35.83705028167278]]], [[[174.39147618342741, -35.81312028187959], [174.39147618342741, -35.81312028187959]]], [[[174.37412096662874, -35.81354353258902], [174.37412096662874, -35.81354353258902]]], [[[174.36625863338963, -35.80711718176507], [174.36625863338963, -35.80711718176507]]], [[[174.3649177493198, -35.80084576602725], [174.3649177493198, -35.80084576602725]]], [[[174.54294410064247, -35.61007991574374], [174.54294410064247, -35.61007991574374]]], [[[174.7406899004285, -35.48921131492224], [174.7406899004285, -35.48921131492224]]], [[[174.7480846328151, -35.48518869915705], [174.7480846328151, -35.48518869915705]]], [[[174.73725891593972, -35.47398744975784], [174.73725891593972, -35.47398744975784]]], [[[174.45581526794598, -35.472248998624245], [174.45581526794598, -35.472248998624245]]], [[[174.73854083477815, -35.44738243246747], [174.73854083477815, -35.44738243246747]]], [[[174.3974949830785, -35.43203431506019], [174.3974949830785, -35.43203431506019]]], [[[174.3845998995311, -35.431980981694025], [174.3845998995311, -35.431980981694025]]], [[[174.44367263460396, -35.42253124878012], [174.44367263460396, -35.42253124878012]]], [[[174.36250035036215, -35.40351709928386], [174.36250035036215, -35.40351709928386]]], [[[174.3598447998176, -35.4023064320754], [174.3598447998176, -35.4023064320754]]], [[[174.341779868246, -35.352288948297584], [174.341779868246, -35.352288948297584]]], [[[174.37437868446463, -35.344670764554074], [174.37437868446463, -35.344670764554074]]], [[[173.58044028312958, -35.35031716531287], [173.58044028312958, -35.35031716531287]]], [[[173.55056361603636, -35.35306221522677], [173.55056361603636, -35.35306221522677]]], [[[174.11193365013602, -35.284386698014764], [174.11193365013602, -35.284386698014764]]], [[[174.09566578358508, -35.27614188215215], [174.09566578358508, -35.27614188215215]]], [[[174.15732896703486, -35.2293075651632], [174.15732896703486, -35.2293075651632]]], [[[174.22162898343015, -35.227570282528944], [174.22162898343015, -35.227570282528944]]], [[[174.26915405040583, -35.22143219899829], [174.26915405040583, -35.22143219899829]]], [[[174.1796269495325, -35.21777606568893], [174.1796269495325, -35.21777606568893]]], [[[174.19145504929895, -35.21550604863183], [174.19145504929895, -35.21550604863183]]], [[[174.19902196630485, -35.214427048972695], [174.19902196630485, -35.214427048972695]]], [[[174.03603178299707, -35.20848663251707], [174.03603178299707, -35.20848663251707]]], [[[174.07803486861675, -35.20589833216411], [174.07803486861675, -35.20589833216411]]], [[[174.23235163318864, -35.20481214927684], [174.23235163318864, -35.20481214927684]]], [[[174.11102455068874, -35.20493296486609], [174.11102455068874, -35.20493296486609]]], [[[174.0842254670616, -35.20458186468183], [174.0842254670616, -35.20458186468183]]], [[[174.21475419995974, -35.20035161571372], [174.21475419995974, -35.20035161571372]]], [[[174.20899691704975, -35.19652953179675], [174.20899691704975, -35.19652953179675]]], [[[174.05086348522926, -35.19917114923548], [174.05086348522926, -35.19917114923548]]], [[[174.08101446741586, -35.18175726481905], [174.08101446741586, -35.18175726481905]]], [[[174.08462218474963, -35.178383232273525], [174.08462218474963, -35.178383232273525]]], [[[174.34027030074614, -35.16400389870751], [174.34027030074614, -35.16400389870751]]], [[[173.94486365020364, -35.0311185325003], [173.94486365020364, -35.0311185325003]]], [[[173.95581899969875, -35.0305209659964], [173.95581899969875, -35.0305209659964]]], [[[173.93481988257545, -35.02854343187231], [173.93481988257545, -35.02854343187231]]], [[[173.95165941678562, -35.024838299750805], [173.95165941678562, -35.024838299750805]]], [[[173.7612666333784, -35.02427509787178], [173.7612666333784, -35.02427509787178]]], [[[173.95008093352524, -35.017653982588804], [173.95008093352524, -35.017653982588804]]], [[[173.75474251632292, -35.017885164536544], [173.75474251632292, -35.017885164536544]]], [[[173.96891136595232, -34.99894166537595], [173.96891136595232, -34.99894166537595]]], [[[173.3025183505856, -34.999412015489554], [173.3025183505856, -34.999412015489554]]], [[[173.26456343315851, -34.99671726622109], [173.26456343315851, -34.99671726622109]]], [[[173.86304700029595, -34.985912749115094], [173.86304700029595, -34.985912749115094]]], [[[173.95486196702007, -34.98614549898685], [173.95486196702007, -34.98614549898685]]], [[[173.26399653385315, -34.98425408201702], [173.26399653385315, -34.98425408201702]]], [[[173.95585984929923, -34.980278399221326], [173.95585984929923, -34.980278399221326]]], [[[173.94737751675424, -34.97555734876449], [173.94737751675424, -34.97555734876449]]], [[[173.86466131649797, -34.97457766580582], [173.86466131649797, -34.97457766580582]]], [[[173.96400941681, -34.974000065461055], [173.96400941681, -34.974000065461055]]], [[[173.95204828329025, -34.97415204902334], [173.95204828329025, -34.97415204902334]]], [[[173.94096261709404, -34.97179944918813], [173.94096261709404, -34.97179944918813]]], [[[173.77478943329106, -34.95565811577142], [173.77478943329106, -34.95565811577142]]], [[[173.76384474997914, -34.9517802824592], [173.76384474997914, -34.9517802824592]]], [[[173.6532575668289, -34.94483686517855], [173.6532575668289, -34.94483686517855]]], [[[173.3767122825623, -34.78634171510085], [173.3767122825623, -34.78634171510085]]], [[[173.35881588503645, -34.78078394828798], [173.35881588503645, -34.78078394828798]]], [[[173.1535778514285, -34.75543459859798], [173.1535778514285, -34.75543459859798]]], [[[172.8893870499399, -34.684787782821026], [172.8893870499399, -34.684787782821026]]], [[[172.64091016839072, -34.46936514774719], [172.64091016839072, -34.46936514774719]]], [[[173.04964505023878, -34.41273763188848], [173.04964505023878, -34.41273763188848]]], [[[173.01433011607975, -34.392845749099905], [172.8926196992048, -34.41911913235088], [172.7681564003427, -34.44756516597314], [172.64910945018332, -34.473245915511065], [172.79800243376386, -34.581525899227536], [172.88671280017599, -34.668301214945565], [173.08100574991772, -34.89239194877613], [173.16108319982789, -35.019096149186296], [173.1538567000217, -35.16140728255435], [173.16296883375205, -35.292517131856506], [173.2753047661221, -35.33807583220586], [173.33333251642875, -35.49866674862744], [173.38551171661913, -35.38959571530488], [173.50699963302975, -35.37452141553365], [173.5412290170519, -35.25619451514033], [173.5928293838994, -35.369263048517745], [173.49927738318127, -35.45728364951701], [173.38741215074998, -35.51942993232304], [173.44071735051423, -35.628390182014996], [173.5469473835233, -35.74185544855756], [173.6320481838711, -35.83147488202159], [173.74237468278534, -35.95269608262755], [173.85074638257743, -36.07346328219726], [173.93199556637836, -36.17231439849064], [174.00317441689032, -36.2701102657329], [174.034263566673, -36.38708083245569], [174.16460804982322, -36.378980066024916], [174.13299938307418, -36.26289534858053], [174.02327549984426, -36.16917043224792], [174.14167349971652, -36.19751608209392], [174.24488520000617, -36.261335581888964], [174.17563044949844, -36.15958814917191], [174.296599416517, -36.1633319654034], [174.4159763826837, -36.136644015248024], [174.33855710066746, -36.23131406573295], [174.4570444830652, -36.25045106575936], [174.35856785025217, -36.31906538257791], [174.424814399201, -36.419290982442035], [174.43077181753242, -36.54143826562664], [174.4498768669823, -36.66545424934969], [174.3469280497949, -36.60216626570305], [174.2844434498091, -36.493891299122055], [174.16863528384206, -36.451760049275904], [174.2712255003685, -36.60788301543396], [174.3506368661535, -36.71469843221317], [174.41796196587012, -36.814092116019005], [174.45249658332023, -36.9296152821911], [174.4843641002774, -37.04957463179588], [174.59731586652225, -37.00567983208298], [174.69639298333124, -36.93275758295057], [174.81982011688848, -36.93051504899925], [174.8564490672942, -37.04501496630048], [174.75550766687618, -37.1133154319094], [174.73684810024315, -37.234536632370165], [174.66095904989334, -37.14060944907767], [174.58322915076295, -37.046638799246594], [174.59167841657307, -37.16862623242983], [174.65502940057868, -37.282749365225584], [174.7258755007708, -37.3803951990112], [174.73916941680844, -37.501241681804196], [174.78616013359883, -37.61591739927763], [174.82013208312284, -37.7353381151437], [174.94034383378155, -37.74310883224068], [174.83388698371968, -37.80852618209541], [174.7826712165889, -37.93863733256369], [174.77842596681674, -38.067858799161485], [174.90026275041473, -38.05652679863776], [174.82877649969006, -38.1579010657993], [174.70641023273072, -38.12052036554945], [174.71377708302063, -38.253409748602834], [174.66000383366614, -38.36368286594869], [174.6389521333187, -38.49237816529395], [174.62480261744685, -38.61259524873714], [174.61053635232656, -38.73358059849453], [174.55994748320387, -38.855913582600046], [174.44325090084823, -38.95491094852204], [174.3257704169298, -38.99121803188748], [174.20065464946921, -38.98841868223861], [174.08887968303998, -39.05118206535455], [173.97791721734401, -39.099509249027925], [173.85496098271906, -39.15035996540063], [173.7744482007505, -39.24138953225847], [173.77166611754015, -39.36557568197257], [173.84736803355628, -39.45916206596149], [173.9490374004808, -39.53954518245776], [174.0768906334626, -39.57735681587546], [174.20155985001568, -39.58808929882799], [174.3180490000654, -39.637515898590856], [174.41883391741715, -39.7309310153024], [174.53442199973858, -39.804026632028496], [174.68159264932618, -39.8493616322529], [174.8050257326806, -39.85881909894869], [174.9476596830231, -39.911253798506166], [175.04490111631284, -39.98496256586065], [175.14358578336626, -40.08282931512083], [175.20661208345052, -40.20617341592471], [175.22917506657376, -40.328709948534566], [175.2145723497095, -40.46096309934504], [175.18082144991195, -40.597505365284235], [175.1236350838798, -40.72469093216449], [175.05885263402033, -40.826804915660894], [174.9779432325012, -40.91840393261899], [174.90171834918374, -41.02501189908198], [174.84300654985162, -41.132434748980884], [174.7286012173087, -41.187491415461096], [174.62305308325364, -41.2602563492231], [174.70162905001285, -41.35227809861666], [174.82446523334775, -41.34004151514673], [174.87200359981867, -41.227425432277045], [174.85197499951812, -41.34924183233742], [174.95687623273872, -41.41283118175253], [175.120649700732, -41.389323082228806], [175.2181842675937, -41.46241291595615], [175.2339098335976, -41.584844032135244], [175.3558130833884, -41.584861565390675], [175.47616291619417, -41.542126832356814], [175.58518594995604, -41.48737283176167], [175.68434613370957, -41.4144626821241], [175.81074250002823, -41.360529015473254], [175.8992948167493, -41.26329569901059], [175.9944731331769, -41.18251898267422], [176.07668531713117, -41.08388379875146], [176.14599261683804, -40.95716451592501], [176.24058838401646, -40.860246632342324], [176.2878799998746, -40.74850878189549], [176.3777699670379, -40.655303599240746], [176.46774143271637, -40.57479278256317], [176.55953010046727, -40.49603548222521], [176.6356061165294, -40.39684009868154], [176.68602241750725, -40.27038491563706], [176.79439693338367, -40.205334998855996], [176.86991496685687, -40.10573266568243], [176.908184316556, -39.987335782435025], [176.96690168338435, -39.88184811559062], [177.00669923286125, -39.76167361554582], [177.07904520062928, -39.663742031622114], [176.95337346728235, -39.609385932540754], [176.9208720341367, -39.48605814905061], [176.8999852666176, -39.36669793196625], [176.99739721725726, -39.27843703253294], [177.08797100036603, -39.16832049855622], [177.21952011667014, -39.11479161513871], [177.41856541690277, -39.06303583239547], [177.5625700834022, -39.054614115545554], [177.71004146677078, -39.05340313218982], [177.82824363341302, -39.07440271524415], [177.8441728514692, -39.19643319802125], [177.95441978446908, -39.138110365853485], [177.88707713370806, -39.03173171519593], [177.91039181638862, -38.91311338184358], [177.9253447835817, -38.79296134924286], [177.98552355087654, -38.67556718242234], [178.1082473840286, -38.65959444867819], [178.21373770076238, -38.5790309325654], [178.27985743368296, -38.474959715598594], [178.31833446729874, -38.357764448971764], [178.30969113368613, -38.234120165719766], [178.33876976786192, -38.112075482286954], [178.3522372175297, -37.98967489847066], [178.40603626717268, -37.881012415186966], [178.4788180007788, -37.77465113182228], [178.48995453394227, -37.65116931540554], [178.34082876651902, -37.62173058199972], [178.24322798333995, -37.55013546557463], [178.12033681762875, -37.547007932044544], [177.98350140060558, -37.53639501545344], [177.89134063347018, -37.61836049906354], [177.78812861722704, -37.68092631512983], [177.67946955109892, -37.736420399341135], [177.6064848009102, -37.838076765242754], [177.51565373375132, -37.92635426547702], [177.40796080020448, -37.98040543207919], [177.26387830001818, -37.99237958210483], [177.14254860116517, -38.00846321500451], [177.02335353336056, -37.956473632007324], [176.87982336741902, -37.90870716545526], [176.75303499962268, -37.88407208195328], [176.6022144832765, -37.82965609926506], [176.4789691662685, -37.755492732429495], [176.34844265082472, -37.71769703293648], [176.20834270053808, -37.653720065818646], [176.0856328662836, -37.663959765747784], [175.96799605009664, -37.63052154864295], [175.975756650253, -37.50715313210215], [175.9406528001715, -37.390870899151544], [175.89816013368656, -37.271109965441205], [175.878971949332, -37.14992488233057], [175.885830333578, -37.028526915955766], [175.84651329978715, -36.912724832087235], [175.767795234222, -36.820187248536556], [175.79001056656776, -36.69317071581179], [175.64348186685905, -36.725208898547734], [175.58035243295726, -36.620192532576795], [175.50848608436942, -36.52306733204373], [175.39592421723046, -36.47547021518849], [175.42012894930804, -36.59738368258447], [175.43834226723888, -36.7166059155163], [175.42916646707124, -36.83849676587842], [175.48772338346026, -36.9605131152116], [175.51902816683005, -37.077781831914194], [175.4871168839203, -37.19649126532283], [175.365855233634, -37.219056049248195], [175.29517338314855, -37.11532966550001], [175.28681564950097, -36.99481663221896], [175.17611350064323, -36.937980081916386], [175.0632067333458, -36.89592636644586], [174.94238413354554, -36.91757044861426], [174.83622623393464, -36.84700939847149], [174.71400786722168, -36.85229313259937], [174.62129408401344, -36.775155582549935], [174.7347761169651, -36.823418815948386], [174.7514843667353, -36.703773965639826], [174.8368839661239, -36.616172465785986], [174.714827717262, -36.61032303192308], [174.70783003261778, -36.48565576565777], [174.72104598339612, -36.364415782386764], [174.84760409953154, -36.37769426596383], [174.736458717236, -36.33039559864116], [174.6780275334161, -36.19994243230289], [174.59728678392983, -36.08335423226651], [174.4946385498826, -36.01236264861087], [174.46729834929664, -35.88300078183995], [174.3690027505638, -35.81191016572897], [174.4896892165324, -35.78746899891727], [174.59146126657734, -35.85365009869888], [174.55554618294383, -35.73587268172073], [174.47174675060944, -35.648056381782595], [174.45932494981938, -35.52861416594813], [174.38537446759364, -35.433011881877114], [174.30973378273677, -35.33876038129326], [174.30559141732678, -35.21638798153433], [174.18831986658972, -35.24831633180582], [174.11617969964158, -35.34427251539709], [174.06564770031994, -35.23322464875288], [174.03508794921376, -35.11612699877487], [173.9274012503574, -35.06078529855343], [173.82254849972892, -34.99984331561721], [173.7202982002124, -35.08449686573715], [173.70158348338435, -34.96436626552324], [173.5811546170593, -34.94081079914017], [173.46980461655644, -34.9908974156221], [173.37204118341225, -34.917232682430146], [173.44996416680897, -34.82492288185963], [173.3312190006634, -34.856800782205006], [173.32617203364623, -34.986096932091755], [173.21373770027498, -34.93361574857173], [173.15489285035338, -34.827540465772984], [173.091661932672, -34.72323996577391], [173.01130208294109, -34.6224950988664], [172.90608026603388, -34.56063618252379], [173.003199250685, -34.481488532596565], [173.01433011607975, -34.392845749099905]], [[174.67115658325457, -36.59185501545882], [174.67115658325457, -36.59185501545882]], [[174.8196255172535, -36.97930189928833], [174.8196255172535, -36.97930189928833]], [[176.14750866677537, -37.686477132115776], [176.14750866677537, -37.686477132115776]], [[176.1633069673349, -37.71042574875491], [176.1633069673349, -37.71042574875491]], [[176.85928726683963, -39.48176604905035], [176.85928726683963, -39.48176604905035]], [[174.89078823372245, -41.087037732315686], [174.89078823372245, -41.087037732315686]], [[175.84169068266473, -37.00512523229237], [175.84169068266473, -37.00512523229237]], [[174.69433286747255, -36.88768144914795], [174.69433286747255, -36.88768144914795]], [[174.8105972825366, -36.86997523251569], [174.8105972825366, -36.86997523251569]], [[174.80830680018218, -36.86426991613104], [174.80830680018218, -36.86426991613104]], [[174.75006468331077, -36.806272482490805], [174.75006468331077, -36.806272482490805]]], [[[-176.17828974964553, -44.335842714716236], [-176.17828974964553, -44.335842714716236]]], [[[-176.31412708409684, -44.27671329870411], [-176.31412708409684, -44.27671329870411]]], [[[-176.29313859976543, -44.26314941415217], [-176.29313859976543, -44.26314941415217]]], [[[-176.2215271327867, -44.22440418199928], [-176.2561728485624, -44.344334314656415], [-176.15688783270605, -44.27294544769603], [-176.2215271327867, -44.22440418199928]]], [[[-176.6264911526659, -43.692912748438765], [-176.72490800230923, -43.76361691564162], [-176.84214700326734, -43.78973334848358], [-176.72912235288362, -43.83014306535995], [-176.60868161887754, -43.81000079871039], [-176.53661063555916, -43.907880848238484], [-176.63285266916546, -43.98490729804655], [-176.6477973854753, -44.10551453177953], [-176.52709640233203, -44.10361146507909], [-176.39367180046418, -44.053852998575245], [-176.41703186844728, -43.9356700985389], [-176.5236514849875, -43.867657781987255], [-176.54994285183759, -43.744484948034554], [-176.39519936744517, -43.76619171546279], [-176.4166475683626, -43.88748829919443], [-176.33809845064806, -43.79056836461065], [-176.2220999654375, -43.7403267984903], [-176.34516126732754, -43.736930498353615], [-176.48394976708823, -43.73917183227803], [-176.60972568522652, -43.70263988188897], [-176.6264911526659, -43.692912748438765]]]]}}]}