{"type": "FeatureCollection", "features": [{"type": "Feature", "properties": {"code": "OMN", "name": "Oman", "tier": "country"}, "geometry": {"type": "MultiPolygon", "coordinates": [[[[55.605433, 17.4843798], [55.605433, 17.4843798]]], [[[55.85139680000004, 17.50862029999998], [55.85139680000004, 17.50862029999998]]], [[[56.34025660000003, 17.507627099999958], [56.34025660000003, 17.507627099999958]]], [[[56.05250380000004, 17.55244150000004], [56.00162039999998, 17.527849600000025], [56.0249597, 17.48095719999996], [56.080433099999965, 17.49847990000002], [56.057384900000045, 17.543191600000043], [56.05250380000004, 17.55244150000004]]], [[[58.75168210000001, 20.4729398], [58.75168210000001, 20.4729398]]], [[[58.57464579999998, 20.605550100000027], [58.57464579999998, 20.605550100000027]]], [[[58.6102311, 20.66121820000002], [58.6102311, 20.66121820000002]]], [[[58.889901, 20.6966666], [58.86877010000002, 20.6463774], [58.8411897, 20.60201620000002], [58.81331729999999, 20.557003], [58.78603720000004, 20.502710100000023], [58.776407, 20.451901700000043], [58.73526690000001, 20.42213089999998], [58.68625640000002, 20.409876900000025], [58.65190390000003, 20.3691777], [58.6316463, 20.3222904], [58.62540140000003, 20.27103450000003], [58.635467, 20.216102199999987], [58.63566829999997, 20.161820699999968], [58.69788009999996, 20.19941839999997], [58.73308319999999, 20.23859380000004], [58.77367510000002, 20.270111], [58.79376859999998, 20.321137099999966], [58.80772930000002, 20.3728], [58.8334308, 20.428904800000016], [58.873586900000035, 20.46078020000004], [58.92532029999999, 20.48653919999999], [58.94218089999998, 20.535012300000012], [58.922919500000035, 20.582848700000024], [58.907569399999964, 20.6549961], [58.889901, 20.6966666]]], [[[56.04548279999999, 24.967886699999966], [55.96088250000004, 25.005958], [55.910907199999976, 24.96566330000003], [55.85145289999997, 24.96581829999998], [55.81235520000003, 24.91079409999997], [55.8147058, 24.79926119999996], [55.83113080000001, 24.74632709999996], [55.83430769999997, 24.68829209999997], [55.79370209999996, 24.637131], [55.76757449999998, 24.5725798], [55.78545110000001, 24.48578959999997], [55.82028429999998, 24.440296], [55.83394360000004, 24.327733299999956], [55.791526399999974, 24.27941749999998], [55.75386629999996, 24.2462405], [55.80015750000002, 24.22026990000004], [55.85376629999998, 24.21091169999996], [55.9544468, 24.22256820000004], [55.9607425, 24.170312500000037], [55.9951134, 24.125259], [56.0173982, 24.066466800000043], [55.9597838, 24.061061600000016], [55.902317, 24.046940500000026], [55.85515949999997, 24.0225342], [55.8011255, 24.025482400000044], [55.75848, 24.05176440000001], [55.67804119999999, 24.03539650000002], [55.585103799999985, 23.9966284], [55.503235899999986, 23.958042600000034], [55.500567, 23.90568219999998], [55.53372550000002, 23.849351799999987], [55.53574680000001, 23.7714409], [55.56922829999997, 23.72073359999996], [55.5723085, 23.629645899999964], [55.534723299999975, 23.579312300000012], [55.49812189999998, 23.53346259999998], [55.47068290000003, 23.490008700000025], [55.4368109, 23.412019499999964], [55.3477551, 23.29287819999997], [55.296830700000015, 23.203983699999988], [55.2406148, 23.126074200000037], [55.2253932, 23.0724311], [55.2170644, 23.0096644], [55.21841520000003, 22.952052300000016], [55.21733430000004, 22.900269200000036], [55.221377, 22.832579699999968], [55.2202063, 22.765555599999978], [55.2128404, 22.7056862], [55.66669850000003, 22.0], [55.42253879999996, 21.26755140000003], [55.23162769999998, 20.69615619999996], [55.0, 20.0], [54.3536469, 19.785073499999985], [53.633717799999985, 19.5453396], [52.91710950000003, 19.306357300000034], [52.4228336, 19.1413168], [52.0, 19.0], [52.195658300000034, 18.588669899999967], [52.3911068, 18.1767867], [52.58675040000004, 17.76351660000004], [52.7821999, 17.349700899999966], [52.75059890000004, 17.30579950000002], [52.8123016, 17.285499600000033], [53.00761320000002, 16.867561800000043], [53.109011446681784, 16.650211433662545], [53.15704909999998, 16.67437719999998], [53.20428529999998, 16.69370530000003], [53.25402530000002, 16.702230099999984], [53.302457, 16.720073], [53.3594573, 16.734215499999962], [53.4133971, 16.743785399999968], [53.46206150000003, 16.755671200000013], [53.518487600000036, 16.759365699999986], [53.573946, 16.750700799999986], [53.62278080000002, 16.766044599999976], [53.67457659999999, 16.782496099999957], [53.70992680000001, 16.825790200000014], [53.75163329999999, 16.8638429], [53.8000343, 16.883390800000033], [53.854928, 16.889710499999968], [53.905545, 16.89594680000002], [53.962410400000024, 16.91204359999996], [54.0079696, 16.93335159999996], [54.023648099999974, 16.9838388], [54.28433, 17.026604400000036], [54.408460299999966, 17.033627299999978], [54.4881311, 17.032971499999984], [54.54113630000001, 17.03038869999998], [54.6067241, 17.028211599999967], [54.664901100000016, 17.019491], [54.6887261, 16.975095600000014], [54.7399482, 16.95207379999997], [54.79127389999998, 16.945336400000024], [54.84163579999996, 16.962611], [54.893207599999954, 16.96829990000004], [54.94311990000004, 16.9793667], [54.9864117, 17.009668300000016], [55.0368994, 17.018659199999988], [55.08105129999998, 17.04586119999996], [55.11653629999997, 17.084304700000043], [55.143207, 17.128181700000013], [55.19535640000004, 17.143220800000016], [55.22201919999998, 17.198179500000023], [55.2592018, 17.2331415], [55.24820919999997, 17.29047309999996], [55.280278300000035, 17.32989420000002], [55.29993730000002, 17.378734200000025], [55.2822305, 17.43678240000004], [55.23571360000001, 17.461612100000014], [55.224161400000035, 17.51841959999996], [55.24261019999998, 17.567511400000015], [55.273893300000026, 17.609247], [55.318273, 17.64491009999998], [55.3611367, 17.6720537], [55.37988490000003, 17.72319880000004], [55.41475769999999, 17.7605673], [55.423553299999966, 17.814976500000014], [55.485135, 17.845208], [55.56344110000004, 17.872069], [55.63191320000002, 17.886726499999963], [55.70608619999999, 17.89599], [55.763875299999974, 17.90280440000003], [55.81635529999997, 17.899654], [55.86668460000001, 17.89609], [55.9191289, 17.89844869999997], [55.967663899999984, 17.9258853], [56.0201056, 17.930793], [56.105723500000046, 17.9209025], [56.1551865, 17.930654100000034], [56.21677070000001, 17.939154800000036], [56.27815349999998, 17.932566800000018], [56.33042, 17.916268199999987], [56.35595460000002, 17.96091739999999], [56.40738209999998, 17.995211400000024], [56.43011989999997, 18.039972100000014], [56.4693357, 18.072410900000026], [56.51866239999996, 18.106413899999964], [56.5492111, 18.14996], [56.557288399999955, 18.224998], [56.5868313, 18.27065739999996], [56.60436340000003, 18.327106199999978], [56.60933140000004, 18.396664799999975], [56.63418260000001, 18.447716199999988], [56.6287776, 18.513389699999962], [56.644583300000015, 18.57369429999998], [56.68514370000001, 18.622706899999965], [56.72154409999998, 18.66784110000004], [56.7693055, 18.721740299999958], [56.83494850000003, 18.771908399999983], [56.90226360000003, 18.804410800000017], [56.982048900000024, 18.836117799999965], [57.029934099999984, 18.854146699999987], [57.136281400000016, 18.880629699999975], [57.19258219999996, 18.896292200000044], [57.25268169999997, 18.91167450000002], [57.303581, 18.92215890000002], [57.4083542, 18.934579], [57.4768448, 18.938279100000035], [57.6668544, 18.93743579999998], [57.723201, 18.948557300000026], [57.78555570000001, 18.969423299999956], [57.832761100000035, 18.991405799999985], [57.81388960000002, 19.048701800000025], [57.795989, 19.120205500000022], [57.78523370000001, 19.1694435], [57.75272320000002, 19.22234909999996], [57.7413884, 19.30589780000003], [57.7598776, 19.36268330000002], [57.754203099999984, 19.426835599999983], [57.72629649999998, 19.4694443], [57.7010942, 19.52136], [57.7059033, 19.57766419999998], [57.7177047, 19.6359636], [57.7306754, 19.690037], [57.679069, 19.693644199999973], [57.688364700000044, 19.745176499999985], [57.73741729999997, 19.801049599999978], [57.76094270000002, 19.8567051], [57.78661889999996, 19.926878100000025], [57.810557199999984, 19.982131900000024], [57.817673, 20.0324143], [57.8319879, 20.10380609999998], [57.817548, 20.158456100000024], [57.83216789999998, 20.212253400000037], [57.87308210000003, 20.264561400000016], [57.95146379999998, 20.30918089999996], [57.94486380000003, 20.3607468], [57.9759721, 20.4226346], [58.0241884, 20.443858699999986], [58.067676599999956, 20.471021299999983], [58.0754038, 20.52118550000004], [58.08835369999998, 20.574406], [58.12838110000002, 20.607623499999985], [58.179358, 20.62195990000002], [58.23078860000003, 20.62311989999999], [58.26895119999997, 20.5878753], [58.28917470000003, 20.541614499999962], [58.26203010000001, 20.49892530000004], [58.2252901, 20.46150939999998], [58.2015485, 20.41658959999997], [58.24637439999997, 20.386663600000034], [58.29573130000003, 20.378321900000042], [58.35798950000004, 20.37849159999996], [58.4041754, 20.35276510000004], [58.45806610000001, 20.36442470000002], [58.50455310000002, 20.4002037], [58.533503, 20.4556926], [58.538035200000024, 20.50569760000003], [58.555525299999964, 20.553588700000038], [58.5497613, 20.605389299999956], [58.56858120000001, 20.65413580000004], [58.61774780000004, 20.6736336], [58.66456259999999, 20.7021509], [58.637522, 20.744631099999957], [58.699924099999976, 20.73905], [58.741613, 20.776817], [58.702254100000026, 20.7452896], [58.6581929, 20.770434500000025], [58.6827535, 20.817083], [58.72559860000003, 20.848802800000012], [58.76528210000004, 20.902056199999965], [58.80216089999998, 20.938248400000028], [58.851238400000014, 21.0610348], [58.9218638, 21.13940780000001], [58.96835149999997, 21.1763838], [58.9995218, 21.21590139999996], [59.0583234, 21.269391], [59.119107700000015, 21.3143397], [59.187767499999985, 21.365523300000035], [59.25107949999997, 21.390159], [59.31100770000001, 21.415239399999965], [59.351673799999965, 21.445395], [59.370805, 21.502949900000036], [59.39925850000002, 21.547388700000038], [59.42621630000004, 21.596788800000024], [59.459711599999984, 21.6436243], [59.48087039999998, 21.6954484], [59.493955100000015, 21.757171499999963], [59.55706619999998, 21.825101], [59.59742520000002, 21.8951622], [59.64243659999997, 21.9323228], [59.657769, 21.989220400000022], [59.670897299999986, 22.04029010000004], [59.690190100000045, 22.0878748], [59.727382099999964, 22.1303146], [59.76357579999998, 22.172849], [59.809902, 22.226274699999983], [59.823822099999965, 22.292674800000036], [59.8249368, 22.363356399999958], [59.829225800000046, 22.4169738], [59.8269334, 22.4737186], [59.798675100000025, 22.527276700000034], [59.7476912, 22.532843400000015], [59.741980800000036, 22.4824554], [59.73249050000004, 22.5345317], [59.681123600000035, 22.548768100000018], [59.59492330000004, 22.563058599999987], [59.540782, 22.570230700000018], [59.49345769999998, 22.596509], [59.4290273, 22.648593399999985], [59.38515340000003, 22.678627299999967], [59.35017290000004, 22.7202219], [59.31175419999996, 22.754433299999956], [59.275857899999956, 22.79323820000001], [59.238315800000024, 22.8513944], [59.216700900000035, 22.9186689], [59.18826879999998, 22.96514559999996], [59.142061, 22.99172759999997], [59.0991058, 23.0184559], [59.06065210000004, 23.077579900000035], [59.0201051, 23.11074], [58.98997280000004, 23.171102], [58.95846, 23.233278], [58.92495389999996, 23.273305899999965], [58.91141909999999, 23.321783700000022], [58.8660969, 23.348836900000027], [58.82555430000004, 23.380197099999968], [58.79045, 23.41619869999998], [58.77990250000004, 23.468738500000043], [58.756228, 23.51378670000002], [58.70814259999999, 23.53521879999998], [58.66139449999996, 23.553076799999985], [58.612773500000046, 23.57204259999999], [58.5919899, 23.6179907], [58.54288239999998, 23.6320036], [58.49303109999997, 23.6445781], [58.45299210000003, 23.6131355], [58.39308, 23.603668399999968], [58.33915680000003, 23.605755299999977], [58.28839259999998, 23.61857070000002], [58.23587049999996, 23.649388600000037], [58.18481519999998, 23.6858459], [58.12143070000004, 23.70727], [58.0452764, 23.71474], [57.951555, 23.708048799999972], [57.88085480000002, 23.7120713], [57.8105542, 23.747543800000017], [57.74340910000004, 23.768209399999975], [57.652792, 23.77889889999998], [57.5922911, 23.796086], [57.538732700000025, 23.817330100000028], [57.47767609999996, 23.84120910000003], [57.409688700000025, 23.86043629999999], [57.3365519, 23.8819344], [57.2271435, 23.916170400000027], [57.161445, 23.945043200000043], [57.11399689999996, 23.9762169], [57.07135490000003, 24.00472], [57.0329753, 24.0444647], [56.98167520000001, 24.078831900000047], [56.93006080000004, 24.124894600000026], [56.89679230000004, 24.164389499999977], [56.8654642, 24.208125299999985], [56.82399519999996, 24.26008019999997], [56.76855760000003, 24.34006529999997], [56.737445899999955, 24.38020250000004], [56.69402670000003, 24.4238421], [56.64440190000001, 24.468816099999962], [56.6069168, 24.518864799999967], [56.56658740000002, 24.5723071], [56.52637170000003, 24.638336300000013], [56.495810899999974, 24.69252919999998], [56.468695499999974, 24.74400549999998], [56.4545391, 24.798724], [56.415222, 24.87082470000002], [56.39235809999998, 24.921749200000015], [56.3754258, 24.97727289999996], [56.3233268, 24.972761399999982], [56.3384151, 24.914535600000015], [56.28034410000004, 24.88468009999996], [56.205659, 24.85050689999997], [56.201053500000036, 24.785122700000045], [56.15503240000003, 24.760661299999988], [56.09755709999999, 24.73677830000001], [56.05308149999996, 24.760555300000014], [56.0361567, 24.810922], [55.99623220000002, 24.8598548], [56.06218549999997, 24.870801], [56.0589215, 24.949431400000016], [56.04548279999999, 24.967886699999966]]], [[[56.28312679999998, 25.317942500000036], [56.233396600000034, 25.310871500000026], [56.208006200000035, 25.25621460000003], [56.2621304, 25.233664], [56.3173723, 25.25068019999997], [56.35163610000002, 25.3029974], [56.3026735, 25.31957610000002], [56.28312679999998, 25.317942500000036]], [[56.27165479999998, 25.261273199999984], [56.27165479999998, 25.261273199999984]]], [[[56.35617370000003, 26.37511279999996], [56.35617370000003, 26.37511279999996]]], [[[56.451892400000034, 26.376134899999975], [56.451892400000034, 26.376134899999975]]], [[[56.526660500000034, 26.38713249999998], [56.526660500000034, 26.38713249999998]]], [[[56.3794704, 26.38658369999996], [56.3622512, 26.336773], [56.3230263, 26.301925800000042], [56.3674178, 26.277255], [56.31443460000003, 26.266747], [56.30202909999997, 26.2182647], [56.352302800000025, 26.2184355], [56.40252029999996, 26.233283], [56.3591576, 26.205805], [56.31161030000002, 26.189955199999964], [56.2667516, 26.213186400000012], [56.218937, 26.231372100000044], [56.175574, 26.1759386], [56.136167, 26.13728109999998], [56.10185140000003, 26.0861089], [56.15357440000001, 26.069407500000047], [56.18229959999998, 26.014953400000046], [56.18508880000001, 25.9610151], [56.17951140000003, 25.909307], [56.140833, 25.838611], [56.155556, 25.788333], [56.140833, 25.735], [56.143611, 25.676111], [56.1875, 25.651667], [56.2289842, 25.6096162], [56.26849630000003, 25.64720030000003], [56.28306559999998, 25.6962976], [56.3004385, 25.743361499999963], [56.344458900000014, 25.773547099999973], [56.370932899999964, 25.819601100000035], [56.395160200000014, 25.863967700000018], [56.39376480000002, 25.9144016], [56.44352509999997, 25.922579], [56.4117395, 25.962212699999967], [56.4244599, 26.0119643], [56.439194700000044, 26.06405749999996], [56.3969494, 26.099017699999962], [56.34836220000003, 26.110905], [56.32689469999998, 26.159103], [56.364281799999965, 26.19663009999998], [56.38497990000004, 26.15110660000002], [56.4318732, 26.131668], [56.48273050000003, 26.132515799999958], [56.4376505, 26.161316500000048], [56.45369130000002, 26.21089680000002], [56.417280299999966, 26.247064800000032], [56.4258822, 26.3013241], [56.48127270000003, 26.3157706], [56.43665030000002, 26.339603199999978], [56.39433419999997, 26.3689464], [56.3794704, 26.38658369999996]]]]}}]}