{"type": "FeatureCollection", "features": [{"type": "Feature", "properties": {"code": "PAK", "name": "Pakistan", "tier": "country"}, "geometry": {"type": "MultiPolygon", "coordinates": [[[[67.66082440000001, 23.815210400000023], [67.66082440000001, 23.815210400000023]]], [[[67.72720580000002, 23.8214351], [67.72720580000002, 23.8214351]]], [[[67.90357190000003, 23.858953500000016], [67.90357190000003, 23.858953500000016]]], [[[67.61189189999999, 23.865480400000042], [67.61189189999999, 23.865480400000042]]], [[[67.88075259999995, 23.87642109999996], [67.88075259999995, 23.87642109999996]]], [[[67.472925, 23.9505091], [67.5075201, 23.913017], [67.472925, 23.9505091]]], [[[67.45474960000003, 23.9952367], [67.45474960000003, 23.9952367]]], [[[67.51590450000005, 24.03650409999997], [67.51590450000005, 24.03650409999997]]], [[[67.56307590000002, 24.06577870000001], [67.51665939999998, 24.043974900000023], [67.56307590000002, 24.06577870000001]]], [[[67.58671619999998, 24.069859399999963], [67.55495210000002, 24.027869800000015], [67.606881, 24.019471200000023], [67.59036259999998, 24.0696356], [67.58671619999998, 24.069859399999963]]], [[[67.49751410000005, 24.0757006], [67.49751410000005, 24.0757006]]], [[[67.67949860000004, 24.08329970000002], [67.63106239999996, 24.064343199999986], [67.60844779999995, 24.017040900000023], [67.65244229999996, 24.04342870000004], [67.70424240000001, 24.03409549999999], [67.67949860000004, 24.08329970000002]]], [[[67.38160340000002, 24.087385300000022], [67.38160340000002, 24.087385300000022]]], [[[68.22886279999999, 24.12849850000002], [68.22886279999999, 24.12849850000002]]], [[[67.91126039999997, 24.12630719999999], [67.91126039999997, 24.12630719999999]]], [[[67.37086140000002, 24.127674699999982], [67.37086140000002, 24.127674699999982]]], [[[68.47785969999998, 24.1439678], [68.47785969999998, 24.1439678]]], [[[67.87903319999998, 24.20393139999996], [67.87903319999998, 24.20393139999996]]], [[[67.33636810000002, 24.2037334], [67.33636810000002, 24.2037334]]], [[[68.60522, 24.232641900000043], [68.60522, 24.232641900000043]]], [[[67.32499669999999, 24.236548100000036], [67.32499669999999, 24.236548100000036]]], [[[67.29794219999997, 24.287200499999987], [67.29794219999997, 24.287200499999987]]], [[[67.3254454, 24.309379600000028], [67.3254454, 24.309379600000028]]], [[[67.33441120000002, 24.3323813], [67.33441120000002, 24.3323813]]], [[[67.29356679999997, 24.330898], [67.29356679999997, 24.330898]]], [[[67.29788129999999, 24.386273], [67.29788129999999, 24.386273]]], [[[67.51919540000003, 24.4187082], [67.51919540000003, 24.4187082]]], [[[67.4502344, 24.44641310000001], [67.4502344, 24.44641310000001]]], [[[67.25868670000001, 24.46817220000003], [67.25868670000001, 24.46817220000003]]], [[[67.25661710000001, 24.495939499999967], [67.25661710000001, 24.495939499999967]]], [[[67.424726, 24.500618], [67.424726, 24.500618]]], [[[67.22609269999995, 24.576897199999973], [67.23229190000005, 24.526148799999984], [67.2244229, 24.57559089999998], [67.22609269999995, 24.576897199999973]]], [[[67.432813, 24.599922799999977], [67.432813, 24.599922799999977]]], [[[67.44995760000002, 24.60190180000003], [67.44995760000002, 24.60190180000003]]], [[[67.40498609999999, 24.619187899999964], [67.40498609999999, 24.619187899999964]]], [[[67.21710650000001, 24.625295], [67.255048, 24.589072199999965], [67.21710650000001, 24.625295]]], [[[67.40936579999999, 24.629013], [67.40936579999999, 24.629013]]], [[[67.12387429999995, 24.704569800000012], [67.12387429999995, 24.704569800000012]]], [[[67.141672, 24.710452], [67.141672, 24.710452]]], [[[67.17100620000004, 24.7270231], [67.17100620000004, 24.7270231]]], [[[67.1458998, 24.729287699999972], [67.1458998, 24.729287699999972]]], [[[67.10483919999999, 24.715394500000013], [67.10483919999999, 24.715394500000013]]], [[[67.1205976, 24.7539313], [67.1205976, 24.7539313]]], [[[63.855392, 25.126555399999987], [63.855392, 25.126555399999987]]], [[[61.752108699999965, 25.146802799999982], [61.752108699999965, 25.146802799999982]]], [[[63.9325333, 25.4181878], [63.9325333, 25.4181878]]], [[[63.9814741, 25.442961], [63.9814741, 25.442961]]], [[[74.705895, 37.071259], [74.65153719999998, 37.06941], [74.60224810000003, 37.037329], [74.548124, 37.025035], [74.543927, 36.972763], [74.491484, 36.988002], [74.438294, 37.006014], [74.395311, 36.973441], [74.343366, 36.956577], [74.309291, 36.918906], [74.257093, 36.899965], [74.203894, 36.904308], [74.153365, 36.898165], [74.133543, 36.850424], [74.080294, 36.837842], [74.027003, 36.827409], [73.971846, 36.836647], [73.932234, 36.87474], [73.892696, 36.909375], [73.843619, 36.925977], [73.799916, 36.890602], [73.753143, 36.912117], [73.70302, 36.910763], [73.647081, 36.905707], [73.596711, 36.904506], [73.547938, 36.891054], [73.491762, 36.894953], [73.439813, 36.89118], [73.388617, 36.889396], [73.337237, 36.890629], [73.279251, 36.884941], [73.226449, 36.882243], [73.174204, 36.882742], [73.118201, 36.880974], [73.063265, 36.88108], [72.998786, 36.860313], [72.943159, 36.868121], [72.896404, 36.843968], [72.838606, 36.841161], [72.776089, 36.842951], [72.717711, 36.837151], [72.659139, 36.846753], [72.607623, 36.836403], [72.550401, 36.814312], [72.502744, 36.783832], [72.446687, 36.774068], [72.395378, 36.775441], [72.335443, 36.766706], [72.286942, 36.745759], [72.234876, 36.740214], [72.188489, 36.716286], [72.209516, 36.663638], [72.156256, 36.657021], [72.096512, 36.647102], [72.088221, 36.595993], [72.030426, 36.591971], [71.990053, 36.55518], [71.935848, 36.546371], [71.899392, 36.50727], [71.846309, 36.502868], [71.79766, 36.482881], [71.818972, 36.435954], [71.770722, 36.416242], [71.708586, 36.454], [71.660935, 36.476861], [71.628736, 36.434614], [71.596332, 36.389568], [71.576562, 36.327481], [71.527041, 36.334759], [71.493826, 36.29533], [71.44489, 36.269098], [71.415541, 36.219871], [71.360593, 36.204118], [71.31909, 36.16898], [71.277154, 36.141634], [71.244702, 36.092214], [71.202768, 36.059752], [71.234586, 36.020115], [71.28137, 35.99729], [71.317575, 35.962738], [71.36908, 35.96811], [71.38508, 35.92036], [71.43111, 35.88799], [71.45692, 35.84162], [71.50344, 35.80101], [71.49376, 35.74964], [71.539964, 35.729083], [71.53525, 35.67636], [71.50344, 35.63707], [71.54666, 35.59983], [71.59297, 35.58032], [71.60204, 35.52317], [71.62592, 35.47336], [71.64133, 35.42512], [71.60446, 35.38768], [71.56937, 35.34148], [71.5535, 35.292], [71.60092, 35.25992], [71.63852, 35.22552], [71.65619, 35.17509], [71.61866, 35.13937], [71.5735, 35.11714], [71.53086, 35.0884], [71.55166, 35.03969], [71.505603, 35.00584], [71.48091, 34.96113], [71.43309, 34.94435], [71.38432, 34.91652], [71.33437, 34.90194], [71.29297, 34.862915], [71.277386, 34.799464], [71.22457, 34.76257], [71.18075, 34.73513], [71.13684, 34.71031], [71.0934, 34.68169], [71.11227, 34.63475], [71.086395, 34.584915], [71.03408, 34.565445], [71.01606, 34.51796], [71.01942, 34.46538], [71.054395, 34.425556], [71.10746, 34.43364], [71.11907, 34.38486], [71.17243, 34.36504], [71.15836, 34.31374], [71.12395, 34.25868], [71.12355, 34.20714], [71.09066, 34.13181], [71.07576, 34.0819], [71.03151, 34.05476], [70.98704, 34.02629], [70.93652, 34.01304], [70.8891, 33.98062], [70.83556, 33.97821], [70.77916, 33.96096], [70.7256, 33.96216], [70.67104, 33.959], [70.60233, 33.95975], [70.55176, 33.94984], [70.4954, 33.93973], [70.43857, 33.94993], [70.38665, 33.96373], [70.33304, 33.96892], [70.28122, 33.98371], [70.23111, 33.98225], [70.17517, 33.9979], [70.12505, 34.00863], [70.06915, 34.01938], [70.01912, 34.03973], [69.96549, 34.04014], [69.9047, 34.0397], [69.90319, 33.98895], [69.85845, 33.96001], [69.88719, 33.91501], [69.9172, 33.86824], [69.95181, 33.82961], [69.96335, 33.77728], [69.99815, 33.7366], [70.04923, 33.73136], [70.09903, 33.71932], [70.1445, 33.69717], [70.1687, 33.6497], [70.17079, 33.53798], [70.2072, 33.50349], [70.24752, 33.46802], [70.28918, 33.43401], [70.32326, 33.39504], [70.32842, 33.34322], [70.28528, 33.31321], [70.24747, 33.27922], [70.20302, 33.2462], [70.15964, 33.21746], [70.1057, 33.20909], [70.03983, 33.16425], [69.99265, 33.13926], [69.94159, 33.13083], [69.89455, 33.10121], [69.843, 33.10144], [69.7992, 33.13158], [69.74675, 33.11836], [69.70339, 33.09297], [69.64856, 33.09366], [69.59765, 33.09788], [69.5493, 33.0662], [69.51031, 33.03146], [69.49537, 32.933], [69.50443, 32.88224], [69.46326, 32.85067], [69.4412, 32.80397], [69.39118, 32.78059], [69.41848, 32.73743], [69.43604, 32.68791], [69.42992, 32.63491], [69.40481, 32.59142], [69.35719, 32.55747], [69.30513, 32.54542], [69.26062, 32.48873], [69.24533, 32.43033], [69.27853, 32.36223], [69.28357, 32.31118], [69.27026, 32.261], [69.27674, 32.1994], [69.27621, 32.12644], [69.2903, 32.07721], [69.29533, 32.02207], [69.31458, 31.97514], [69.33115849999996, 31.9253451], [69.27505, 31.90968], [69.24, 31.87316], [69.19316, 31.84707], [69.17054, 31.79791], [69.14417, 31.75458], [69.1164, 31.71186], [69.07253, 31.67887], [69.02427, 31.64415], [68.96931, 31.64363], [68.93401, 31.60583], [68.88211, 31.60463], [68.83009, 31.60495], [68.78848, 31.63446], [68.72775, 31.69526], [68.70855, 31.77089], [68.6429, 31.77781], [68.57552, 31.83424], [68.475, 31.77348], [68.59112, 31.7531], [68.54399, 31.71315], [68.49936, 31.74198], [68.44786, 31.74205], [68.3665, 31.7586], [68.27946, 31.75695], [68.17937, 31.817], [68.11279, 31.74849], [68.07164, 31.71704], [68.03003, 31.67598], [67.9868, 31.64964], [67.93753, 31.63313], [67.85751, 31.62379], [67.81727, 31.59228], [67.77583, 31.56154], [67.73529, 31.52488], [67.68333, 31.5184], [67.62691, 31.52638], [67.57682, 31.52493], [67.58992, 31.47574], [67.59952, 31.42621], [67.639742, 31.396119], [67.69087, 31.40084], [67.7499, 31.41649], [67.79608, 31.38287], [67.78741, 31.33264], [67.73322, 31.32716], [67.68264, 31.29913], [67.63654, 31.27684], [67.58376, 31.26628], [67.53556, 31.25293], [67.48768, 31.23487], [67.43703, 31.22471], [67.38838, 31.20793], [67.33426, 31.20742], [67.28199, 31.20257], [67.22951, 31.21408], [67.169615, 31.245357], [67.110059, 31.234576], [67.06066, 31.21995], [67.02392, 31.2563], [67.042131, 31.303379], [66.988044, 31.307014], [66.93241, 31.298602], [66.876795, 31.282454], [66.826919, 31.255265], [66.796456, 31.209906], [66.742686, 31.204963], [66.709955, 31.16043], [66.690935, 31.114015], [66.67897, 31.064839], [66.578383, 30.976688], [66.427083, 30.953056], [66.288178, 30.576376], [66.28656, 30.525743], [66.335521, 30.486984], [66.346742, 30.437704], [66.341705, 30.384294], [66.338933, 30.332183], [66.324569, 30.283815], [66.320851, 30.233729], [66.295749, 30.190263], [66.277818, 30.139849], [66.253389, 30.088283], [66.37347429999996, 29.97109340000003], [66.339539, 29.928932], [66.296993, 29.897037], [66.261708, 29.856216], [65.98724810000003, 29.778764], [65.93037579999996, 29.761508200000023], [65.80943559999999, 29.729402799999974], [65.6965053, 29.70489249999996], [65.49310030000002, 29.644705], [65.06507090000002, 29.529430100000035], [64.5713963, 29.58642510000004], [64.5228452, 29.57228740000001], [64.472742, 29.567703], [64.424327, 29.551014], [64.373442, 29.534889], [64.323266, 29.525054], [64.269423, 29.521604], [64.232492, 29.486784], [64.178735, 29.483358], [64.144725, 29.441551], [64.159644, 29.390538], [64.106699, 29.381509], [64.05265, 29.407714], [63.576674899999965, 29.487105900000024], [63.34757210000004, 29.4675698], [63.288747199999975, 29.453965200000024], [63.23308109999997, 29.457643299999972], [62.8908831, 29.427082], [62.4710419, 29.389587399999964], [62.12216, 29.49322560000002], [61.67659569999997, 29.624892200000033], [61.2392372, 29.75233289999998], [60.872855, 29.858545599999978], [61.16252379999998, 29.53333869999996], [61.299428, 29.413184], [61.339733, 29.381237], [61.373051, 29.339275], [61.358247, 29.291118], [61.383051, 29.231095], [61.430218, 29.199095], [61.416459, 29.146756], [61.469763, 29.121545], [61.485778, 29.072545], [61.533361, 29.010222], [61.57575, 28.928], [61.602083, 28.872999], [61.63759780000002, 28.81422989999997], [61.69833209999998, 28.7571763], [61.75364, 28.715636], [61.809063, 28.649074], [61.856735, 28.618725], [61.89181, 28.579994], [61.957727, 28.54458], [62.033382, 28.518967], [62.08663, 28.505948], [62.137714, 28.49466], [62.187734, 28.48155], [62.24976, 28.462663], [62.325617, 28.450176], [62.377348, 28.433593], [62.42899, 28.406329], [62.476992, 28.374583], [62.512278, 28.322855], [62.582139, 28.266141], [62.792960499999985, 28.27890440000004], [62.794427, 28.227252800000016], [62.76102150000003, 28.025923099999975], [62.8289545, 27.764462900000023], [62.84842290000002, 27.462939099999964], [62.802385, 27.364548], [62.817286, 27.316505], [62.80882, 27.264235], [62.838216, 27.216923], [62.888314, 27.216427], [62.936974, 27.20144], [62.984472, 27.218202], [63.033277, 27.23195], [63.08613, 27.244989], [63.1378, 27.244743], [63.188379, 27.26052], [63.224699, 27.225621], [63.276901, 27.218159], [63.33327040000003, 27.118400300000026], [63.2761988, 27.11781469999998], [63.253311, 26.903519], [63.246334, 26.849903], [63.185979, 26.836726], [63.191905, 26.786306], [63.200915, 26.721431], [63.190304, 26.665601], [63.138705, 26.651218], [63.081444, 26.638559], [63.019826, 26.641491], [62.96594, 26.649242], [62.908906, 26.642530400000034], [62.853909, 26.64338], [62.801253, 26.64712], [62.74355, 26.633412], [62.696979, 26.609269], [62.64617, 26.600902], [62.579633, 26.577571], [62.527646, 26.570906], [62.475855, 26.568508], [62.423661, 26.550926], [62.370225, 26.539378], [62.314217, 26.519898], [62.304602, 26.468449], [62.257767, 26.446225], [62.284695, 26.380344], [62.252185, 26.340611], [62.217612, 26.291628], [62.166674, 26.26793], [62.116706, 26.278219], [62.085181, 26.318861], [62.033364, 26.334491], [62.002904, 26.287093], [61.958435, 26.260121], [61.901927, 26.263323], [61.86017, 26.17597], [61.841388, 26.065158], [61.844261, 26.011507], [61.818359, 25.967194], [61.831706, 25.911402], [61.880284, 25.890874], [61.835959, 25.866872], [61.851539, 25.816431], [61.837583, 25.762889], [61.805125, 25.722344], [61.746151, 25.733145], [61.70521, 25.697795], [61.679569, 25.652799], [61.667078399999966, 25.5277648], [61.6621569, 25.47392339999998], [61.65598050000001, 25.40363], [61.6501784, 25.33315169999996], [61.64121770000004, 25.27458190000004], [61.62953610000002, 25.209254500000014], [61.66566149999997, 25.170440600000013], [61.71274490000003, 25.153027699999978], [61.76733850000003, 25.1505333], [61.7991745, 25.19094040000002], [61.788358199999976, 25.1406703], [61.76865609999998, 25.08955380000001], [61.740702, 25.045956199999978], [61.78673160000004, 25.0189322], [61.850127500000035, 25.0352628], [61.86251420000004, 25.085670799999985], [61.907667800000034, 25.1085279], [62.08945, 25.10127160000001], [62.0656516, 25.14808329999997], [62.094367099999964, 25.203207399999986], [62.16101760000004, 25.21904220000001], [62.211945499999956, 25.2185504], [62.27464819999997, 25.199856799999957], [62.314834899999966, 25.15922559999996], [62.289075900000014, 25.114836900000018], [62.3577454, 25.0921149], [62.33113710000003, 25.151579], [62.377633099999976, 25.19846650000003], [62.43178869999997, 25.2176411], [62.4765907, 25.2580728], [62.536269500000024, 25.268052399999977], [62.615803, 25.26853810000002], [62.706973599999976, 25.25613589999997], [62.7593455, 25.249281500000023], [62.817930400000016, 25.24704880000003], [62.88557860000004, 25.2347627], [62.94048079999999, 25.22256990000004], [63.007874600000015, 25.21026360000002], [63.0550751, 25.228104899999973], [63.12046680000001, 25.25766449999997], [63.2056365, 25.245602900000033], [63.2557109, 25.238189], [63.3736682, 25.2239113], [63.46245180000003, 25.2080886], [63.47807619999997, 25.260929400000013], [63.4439859, 25.30375949999996], [63.50397730000004, 25.330332899999966], [63.5590277, 25.354841600000025], [63.61295319999996, 25.376631099999983], [63.6900533, 25.384654500000018], [63.7732685, 25.37265939999999], [63.724928100000035, 25.389376700000025], [63.7794913, 25.371210700000027], [63.87024, 25.3459961], [63.99785320000002, 25.3323193], [64.05216709999998, 25.3260224], [64.00401519999997, 25.3583988], [64.05442549999997, 25.37425910000001], [63.99473319999998, 25.366310500000036], [64.04413380000001, 25.3797367], [63.99094430000001, 25.387953300000024], [63.938336600000014, 25.399107], [63.95231669999997, 25.447527800000028], [63.985256599999964, 25.489772500000033], [64.03449220000002, 25.47811050000003], [64.08530129999997, 25.4849491], [64.1349863, 25.492293], [64.18273490000001, 25.47506], [64.22406219999996, 25.44088220000004], [64.189406, 25.40385310000001], [64.14331289999997, 25.38324510000002], [64.09325210000003, 25.3921181], [64.122044, 25.350083599999987], [64.22588, 25.312199299999985], [64.27717840000003, 25.290533100000015], [64.32851249999999, 25.27386780000002], [64.3783316, 25.249608299999974], [64.44301339999998, 25.2399841], [64.50277449999997, 25.268208], [64.5634903, 25.26570479999998], [64.6061449, 25.23748960000002], [64.59148970000004, 25.1813349], [64.65998130000004, 25.175307], [64.6371186, 25.230465100000036], [64.66518950000003, 25.286849599999975], [64.71447769999999, 25.31105660000003], [64.77632139999999, 25.3203588], [64.83725760000003, 25.325272], [64.91880179999998, 25.3262907], [65.02738010000004, 25.3189192], [65.116551, 25.303258399999976], [65.1904273, 25.303979899999987], [65.23177849999998, 25.336674], [65.27305130000003, 25.379130600000025], [65.3458061, 25.378245499999977], [65.41456359999995, 25.3758465], [65.49757770000002, 25.37857570000003], [65.55035249999999, 25.370468], [65.61797219999997, 25.355391100000016], [65.66941720000004, 25.365011700000043], [65.71947970000004, 25.375797400000014], [65.7726184, 25.384578], [65.81723580000003, 25.416261699999968], [65.94007750000004, 25.414111300000034], [66.02943729999997, 25.4250697], [66.1203654, 25.44771150000004], [66.18817609999996, 25.454941499999975], [66.2802412, 25.467479], [66.35063310000002, 25.461566], [66.41625870000003, 25.439845200000036], [66.47263259999998, 25.41253330000003], [66.52538839999998, 25.415618200000015], [66.48222330000003, 25.441635], [66.50908530000002, 25.4853055], [66.45435560000004, 25.48706569999998], [66.40061820000001, 25.4953819], [66.356155, 25.519920699999968], [66.3051151, 25.533521100000037], [66.2580186, 25.510400900000022], [66.21208309999997, 25.48690239999997], [66.14889849999997, 25.474885900000036], [66.09095449999995, 25.456261699999963], [66.1162586, 25.5011207], [66.14034759999998, 25.5487831], [66.1910502, 25.574839], [66.23817280000002, 25.603383600000043], [66.28938940000002, 25.61501550000004], [66.3410265, 25.614550500000025], [66.38498160000005, 25.58911], [66.428652, 25.5628785], [66.4777659, 25.5736356], [66.52142050000003, 25.546989099999987], [66.55802510000002, 25.5105648], [66.56333369999996, 25.45817989999996], [66.5783626, 25.4080126], [66.54734259999998, 25.3647997], [66.5952136, 25.327777199999982], [66.6854126, 25.2579665], [66.72800010000005, 25.211551700000015], [66.74726979999997, 25.163226100000028], [66.72253920000003, 25.117442499999957], [66.70833960000003, 25.068217900000015], [66.7102092, 25.0131947], [66.70221580000005, 24.957247600000013], [66.6897063, 24.9017446], [66.65927029999996, 24.85547930000004], [66.70425219999996, 24.83147269999996], [66.76100560000005, 24.85047890000002], [66.81450239999998, 24.838665099999982], [66.8712452, 24.8572371], [66.93084680000001, 24.827457600000017], [66.98109650000004, 24.788676399999968], [66.92925539999997, 24.8298802], [66.8750475, 24.857213800000025], [66.9256876, 24.85795360000004], [66.97546669999998, 24.87091669999996], [67.00969420000003, 24.830687], [67.05457960000004, 24.777728100000044], [67.10487630000004, 24.761962100000027], [67.08306140000002, 24.8128917], [67.12139020000004, 24.777325899999983], [67.17585290000004, 24.79063749999996], [67.2239153, 24.813436], [67.27817960000003, 24.810376900000023], [67.32918629999998, 24.790884200000033], [67.37915380000001, 24.78512889999999], [67.43250750000001, 24.778749199999975], [67.48370380000001, 24.775545700000038], [67.5279931, 24.752224], [67.58265179999997, 24.7370126], [67.53184869999998, 24.7441156], [67.50252480000003, 24.698533900000022], [67.459746, 24.672624599999985], [67.50178390000002, 24.642683599999962], [67.4993276, 24.59236559999997], [67.4679699, 24.552419900000025], [67.4211878, 24.5730385], [67.4435843, 24.52540640000002], [67.48333020000001, 24.491696399999988], [67.4494863, 24.453780699999964], [67.50074410000005, 24.45790079999998], [67.53421290000001, 24.420398599999974], [67.56420190000001, 24.3782229], [67.60917789999996, 24.35071849999996], [67.5804217, 24.30953239999997], [67.53776860000005, 24.28223449999997], [67.534154, 24.230214], [67.51339760000002, 24.18085779999998], [67.47299740000004, 24.14571570000003], [67.52327509999998, 24.151357700000023], [67.56977760000002, 24.13121179999999], [67.5306467, 24.095324500000018], [67.49746760000002, 24.055626200000027], [67.547913, 24.080690799999985], [67.60515430000002, 24.075561499999957], [67.65510359999998, 24.083859200000038], [67.70154730000004, 24.05131679999998], [67.74888970000003, 24.0825963], [67.76746369999995, 24.1337077], [67.78012329999999, 24.18863039999996], [67.83030750000002, 24.192884599999967], [67.8752421, 24.220247600000025], [67.88635089999997, 24.169110500000027], [67.938747, 24.17694829999998], [67.91200710000003, 24.220257400000037], [67.96203149999998, 24.22910040000003], [67.93996850000003, 24.181847], [67.9623732, 24.134899400000013], [68.00935669999997, 24.15245649999999], [68.06017370000004, 24.1463433], [68.1132092, 24.14331440000003], [68.15508380000001, 24.173667400000035], [68.1797632, 24.219103799999978], [68.2293944, 24.226827700000012], [68.27089259999997, 24.185075900000022], [68.22587849999998, 24.15834180000004], [68.2368592, 24.104343], [68.28516949999997, 24.0901621], [68.3327249, 24.111484200000014], [68.34762, 24.16045540000004], [68.39494289999998, 24.179311700000042], [68.42822619999995, 24.140186300000025], [68.4907221, 24.154307600000028], [68.53467690000002, 24.178901799999966], [68.578073, 24.207857900000032], [68.58352360000005, 24.25781], [68.55894150000005, 24.3029149], [68.5978783, 24.33558519999998], [68.62697220000001, 24.3776164], [68.67922820000004, 24.383656499999976], [68.71248030000001, 24.344210800000013], [68.75400270000003, 24.37478710000002], [68.78306039999998, 24.33277850000001], [68.83365439999999, 24.324957600000033], [68.88444159999999, 24.326807299999956], [68.941944, 24.316944], [68.9675, 24.273611], [69.016389, 24.2625], [69.080278, 24.297222], [69.130556, 24.281389], [69.189444, 24.258056], [69.2525, 24.279722], [69.310833, 24.296667], [69.36, 24.287222], [69.428333, 24.288611], [69.496111, 24.279444], [69.59444820000003, 24.2986393], [69.73186239999998, 24.174123600000033], [70.03083560000003, 24.1733309], [70.1052158, 24.2943467], [70.17389870000002, 24.31277529999997], [70.23475559999999, 24.33353660000003], [70.29382760371284, 24.35554598690485], [70.3547302, 24.369992399999965], [70.394564, 24.40045550000002], [70.4758412, 24.41388140000004], [70.56139170000004, 24.436389400000028], [70.61571660000001, 24.446020600000043], [70.6670329, 24.46849530000003], [70.71972719999998, 24.466875400000024], [70.66978149999997, 24.453025099999973], [70.62025479999998, 24.42718660000002], [70.594411, 24.383585], [70.57994050308181, 24.317912298290715], [70.627778, 24.251389], [70.693056, 24.243611], [70.761944, 24.235833], [70.838889, 24.260556], [70.886944, 24.278333], [70.891667, 24.332222], [70.941667, 24.369167], [70.992222, 24.364444], [71.0424716, 24.3497592], [71.08500320000002, 24.39323450000003], [71.1273646, 24.420902199999986], [71.081944, 24.448611], [71.023333, 24.453056], [70.999167, 24.516667], [70.983333, 24.571667], [71.00874740000003, 24.6379148], [71.07580490000004, 24.661307099999977], [71.06674649999998, 24.718001200000042], [71.035896, 24.787189], [71.01093959999996, 24.834946], [70.95576690000001, 24.91421119999996], [70.9217353, 24.993886199999974], [70.90984270000003, 25.049143399999988], [70.89678520000002, 25.116575], [70.8639308, 25.17369479999997], [70.81680120000003, 25.217537], [70.75285890000004, 25.278570199999987], [70.7382017, 25.332976], [70.69970609999996, 25.365614], [70.6734092, 25.4201051], [70.675695, 25.479166900000042], [70.6686322, 25.530988900000043], [70.67088739999998, 25.59358089999996], [70.67506250000002, 25.64600380000003], [70.66114479999999, 25.7028718], [70.608117, 25.7158711], [70.5297898, 25.6846068], [70.45046940000002, 25.683463], [70.38743420000003, 25.674986], [70.26992760000002, 25.714400399999985], [70.24871869999996, 25.761856499999972], [70.19850909999997, 25.8160899], [70.10138519999995, 25.93851], [70.09384930000003, 25.997995499999963], [70.085424, 26.0819152], [70.14241279999997, 26.155617099999976], [70.16956750000003, 26.21706230000004], [70.16500239999996, 26.294302799999972], [70.18103979999997, 26.3438248], [70.17864360000004, 26.42336990000002], [70.18627389999996, 26.479421799999972], [70.1752457, 26.552429], [70.11827719999997, 26.588011900000033], [70.05602, 26.601870499999972], [69.98684640000002, 26.591013], [69.88689019999997, 26.567351200000036], [69.82432240000001, 26.590009], [69.77118870000001, 26.617912800000024], [69.7311994, 26.650773], [69.6807588, 26.675083800000024], [69.587039, 26.712619699999976], [69.54118149999995, 26.734465499999974], [69.49718480000003, 26.777263099999985], [69.49062749999997, 26.8335959], [69.50556740000003, 26.92015290000002], [69.51515579999996, 27.009781100000044], [69.5872192, 27.180508699999987], [69.64179849999996, 27.220205300000014], [69.6805742, 27.26014450000004], [69.7625021, 27.320830399999988], [69.8639713, 27.401372299999963], [69.9086462, 27.454801900000017], [69.9591146, 27.5162129], [70.00345629999995, 27.54262010000003], [70.073065, 27.661370600000016], [70.1252571, 27.7886583], [70.1989894, 27.866503499999965], [70.2974549, 27.9352017], [70.37303260000002, 28.010620600000028], [70.4392901, 28.0185929], [70.49016619999998, 28.03299650000001], [70.553814, 28.02506309999996], [70.59735320000003, 27.99233650000003], [70.67586230000003, 27.921295600000043], [70.676624, 27.8694967], [70.6974352, 27.809598600000044], [70.73349910000002, 27.756090200000042], [70.85680330000002, 27.706479200000015], [70.9113119, 27.710156], [70.96318670000002, 27.7279179], [71.01379619999997, 27.753727699999967], [71.08364149999997, 27.780999799999964], [71.13075280000004, 27.8025368], [71.18276140000002, 27.82359520000003], [71.38314439999998, 27.871145700000014], [71.44732809999996, 27.8727642], [71.53496929999999, 27.8746847], [71.66562979999998, 27.87588210000004], [71.76449630000002, 27.9128428], [71.87950090000004, 27.955343499999966], [71.92902919999997, 28.1216076], [72.00571740000004, 28.218191199999968], [72.13197670000002, 28.3112063], [72.20765649999997, 28.393804600000042], [72.23371420000002, 28.472645499999963], [72.28155680000002, 28.6067415], [72.3007295, 28.669208699999974], [72.35562679999998, 28.732552700000028], [72.4041997, 28.78190839999998], [72.47999459999997, 28.81078690000002], [72.73355919999997, 28.9468833], [72.9465324, 29.026710299999984], [73.00555120000003, 29.152255200000013], [73.06447070000002, 29.20335], [73.1814253, 29.396604100000015], [73.2835428, 29.57151450000001], [73.35121169999996, 29.785549300000028], [73.3985943, 29.9450371], [73.59910680000002, 30.018078200000012], [73.661466, 30.032781400000022], [73.76059439999999, 30.05708350000004], [73.821464, 30.084875900000014], [73.91888420000004, 30.155464], [73.9743072, 30.19780049999998], [73.96554930000003, 30.2570113], [73.94135069999997, 30.301160600000024], [73.90449039999996, 30.34966269999996], [73.93787049999996, 30.401622099999962], [73.97446870000005, 30.445180300000025], [73.98866830000004, 30.507727300000035], [74.05080009999999, 30.5254903], [74.10278939999998, 30.577869700000022], [74.13607609999997, 30.62501609999996], [74.18236190000003, 30.659162899999984], [74.23342040000001, 30.721636300000036], [74.2871735, 30.73647059999997], [74.30877280000004, 30.790109], [74.32370279999998, 30.838252199999978], [74.37818779999996, 30.857067200000024], [74.3976821, 30.908131300000022], [74.44097590000003, 30.941554799999977], [74.49892989999998, 30.95334960000004], [74.55140969999997, 30.9868902], [74.5575879, 31.0378138], [74.61348270000002, 31.04294349999998], [74.671434, 31.0520617], [74.70396789999998, 31.09147089999997], [74.6664681, 31.1262725], [74.60984710000002, 31.13510459999997], [74.5861246, 31.088461600000024], [74.53928849999998, 31.1250671], [74.51411220000001, 31.16857860000001], [74.526166, 31.22040930000002], [74.531575, 31.28195309999999], [74.54371629999997, 31.33234409999998], [74.58612470000001, 31.37980129999997], [74.62054549999998, 31.41928809999996], [74.64984730000005, 31.465156899999975], [74.61237920000002, 31.499502800000037], [74.62014629999999, 31.5528851], [74.5810546, 31.587187700000037], [74.5505922, 31.63193709999998], [74.53474620000003, 31.6810037], [74.4727797, 31.72056720000002], [74.55172370000001, 31.753126100000024], [74.56019790000003, 31.815121699999978], [74.59587879999998, 31.864628900000028], [74.6378039, 31.89674169999998], [74.6846351, 31.923056399999986], [74.73949450000003, 31.9386668], [74.8014901, 31.961859399999973], [74.84564519999998, 32.0091366], [74.8795421, 32.05195370000002], [74.94450479999998, 32.06145080000004], [74.992383, 32.04347949999999], [75.05794670000002, 32.062212], [75.11637419999997, 32.082728500000016], [75.16454339999999, 32.0680101], [75.19331660000002, 32.115249199999965], [75.23320090000004, 32.08430389999998], [75.27448069999997, 32.118002], [75.3100478, 32.1552196], [75.33361409999998, 32.2045597], [75.37928969999999, 32.230624099999986], [75.36056529999998, 32.28307919999997], [75.3342436, 32.32617289999997], [75.289937, 32.356434], [75.2503822, 32.391993], [75.19754830000004, 32.404302700000024], [75.14770619999999, 32.41320180000004], [75.08247730000002, 32.4801247], [75.02137369999997, 32.4854768], [74.97944870000005, 32.447565900000015], [74.93350949999999, 32.467636400000025], [74.87897069999998, 32.48239569999997], [74.82951940000002, 32.4953654], [74.7688442, 32.4828383], [74.71384789999998, 32.47715829999997], [74.6899821, 32.52340980000003], [74.65237759999997, 32.565486100000044], [74.6389074, 32.614246], [74.67791209999999, 32.64904660000003], [74.65703119999998, 32.70409029999996], [74.67377679999996, 32.75415490000004], [74.6959826, 32.8042332], [74.6373754, 32.8143687], [74.6322025, 32.76435030000002], [74.58222370000001, 32.7534901], [74.49513360000002, 32.76471340000004], [74.45063810000003, 32.793755799999964], [74.42006490000001, 32.83942579999996], [74.4139062, 32.9038355], [74.3478965, 32.9082957], [74.34655849999996, 32.9653851], [74.3235786, 33.009895], [74.27690820000002, 33.03866260000003], [74.21637789999998, 33.057857900000016], [74.171134, 33.08072619999997], [74.15325989999997, 33.13090269999998], [74.1115104, 33.16430619999996], [74.02632219999998, 33.188390800000015], [74.01115790000001, 33.238344100000035], [74.0789516, 33.26019869999996], [74.17083, 33.3467249], [74.1793042, 33.42566890000002], [74.17796610000003, 33.48186640000003], [74.0959, 33.57062260000003], [74.0455007, 33.5657165], [74.01071179999997, 33.605411499999974], [73.97326659999997, 33.6480622], [73.97218950000003, 33.70489279999999], [74.00832569999999, 33.75217560000003], [74.0490688, 33.808792700000026], [74.1431772, 33.8302013], [74.21989119999996, 33.867220199999984], [74.2609243, 33.924755700000034], [74.248882, 34.013958], [74.16146370000001, 34.03893460000004], [74.0869798, 34.0375966], [74.01452540000003, 34.03563030000002], [73.92110720000002, 34.01342160000002], [73.89004509999997, 34.0602723], [73.9041151, 34.122338799999966], [73.976369, 34.211987099999966], [73.976369, 34.26461639999997], [73.94113409999999, 34.30163539999997], [73.90381690000001, 34.352638], [73.8498962, 34.324451699999976], [73.79819070000005, 34.34243079999996], [73.75326760000003, 34.37946619999998], [73.80301719999999, 34.41954180000001], [73.86545850000005, 34.46774840000001], [73.88672069999998, 34.5148288], [73.94827019999997, 34.57325629999996], [73.93241539999998, 34.62910150000004], [73.96394320000002, 34.67742710000003], [74.1233269, 34.69900670000003], [74.2029428, 34.73649649999999], [74.27965669999996, 34.76816329999998], [74.34120629999997, 34.78957190000004], [74.47411770000004, 34.79046390000004], [74.5378974, 34.77619149999997], [74.63869590000002, 34.73337440000003], [74.70292160000001, 34.6932334], [74.835387, 34.677623], [74.88998610000004, 34.67485060000001], [75.0186977, 34.6414961], [75.14224280000002, 34.6624586], [75.20691449999997, 34.64640220000003], [75.266234, 34.639712], [75.35053020000002, 34.562106], [75.46470910000004, 34.54337359999997], [75.615461, 34.5384674], [75.74926439999996, 34.5157209], [75.84337279999995, 34.5745944], [75.91874869999998, 34.60492310000004], [75.99189459999997, 34.62989980000001], [76.03649579999998, 34.6704868], [76.12213, 34.64684819999999], [76.25994749999997, 34.68431320000002], [76.30142650000003, 34.72445419999996], [76.38572270000004, 34.73605050000003], [76.437014, 34.76459519999999], [76.514174, 34.7837737], [76.5618972, 34.7583511], [76.68187430000005, 34.75968910000004], [76.74342389999995, 34.839971200000015], [76.73896379999996, 34.90196679999997], [76.81121760000003, 34.935417600000044], [76.87009110000002, 34.97243660000004], [76.97044370000002, 34.935417600000044], [77.01017140000005, 35.01007620000004], [77.04716059999997, 35.050580799999956], [77.10988569999998, 35.0479599], [77.08237690000001, 35.0983961], [77.08775850000005, 35.153882100000025], [77.04329819999995, 35.1823895], [76.99062390000005, 35.21063460000004], [76.9773202, 35.260360399999975], [77.02186779999997, 35.2954518], [76.98730230000002, 35.3364148], [76.95082430000002, 35.377791899999984], [76.89855340000001, 35.386924], [76.84753560000001, 35.399567400000024], [76.8258634, 35.4546867], [76.791162, 35.496883599999954], [76.75348229999997, 35.5354684], [76.78570319999999, 35.57672929999997], [76.7551389, 35.6296273], [76.756878, 35.681572], [76.71656089999996, 35.714193], [76.678556, 35.754892], [76.62570519999998, 35.768169], [76.577886, 35.798766], [76.582976, 35.863387], [76.585396, 35.916209], [76.53699220000001, 35.900555], [76.48124, 35.887984], [76.43637789999995, 35.861638], [76.386326, 35.860953], [76.3361791, 35.831289], [76.2728378, 35.841524], [76.22163289999997, 35.84126], [76.1689642, 35.821098], [76.14863210000001, 35.874441], [76.15349710000001, 35.926745], [76.120033, 35.967637], [76.10093780000003, 36.016186], [76.0475761, 36.024302], [75.9936791, 36.021896], [75.95097909999998, 36.054544], [75.93727209999997, 36.104933], [75.96785020000004, 36.149349], [76.01287720000003, 36.172314], [76.00702609999996, 36.22625], [76.06020819999998, 36.225084], [76.026924, 36.269445], [75.99548410000004, 36.324304], [76.0032, 36.380812], [76.01205710000004, 36.464363], [75.96445209999999, 36.522764], [75.92596879999998, 36.564659], [75.91907919999997, 36.618798], [75.872984, 36.656645], [75.8314739, 36.684592], [75.78410290000002, 36.718713], [75.72410389999997, 36.751179], [75.66218890000003, 36.765167], [75.5872819, 36.768672], [75.53390509999996, 36.771441], [75.53245389999996, 36.721379], [75.475057, 36.723696], [75.43532479999998, 36.758955], [75.42331990000002, 36.818962], [75.42289009999999, 36.874661], [75.390647, 36.915536], [75.35892709999996, 36.956816], [75.3074629, 36.965107], [75.2518958, 36.964201], [75.19856, 36.976476], [75.16113079999998, 37.016648], [75.105648, 37.011014], [75.0480739, 37.00475], [74.992298, 36.990983], [74.9389349, 36.985487], [74.921, 36.938194], [74.87500790000001, 36.964521], [74.84803990000005, 37.010291], [74.82115510000003, 37.054099], [74.77412290000004, 37.022023], [74.7245869, 37.029473], [74.705895, 37.071259]]]]}}]}