{"type": "FeatureCollection", "features": [{"type": "Feature", "properties": {"code": "PAN", "name": "The Republic of Panama", "tier": "country"}, "geometry": {"type": "MultiPolygon", "coordinates": [[[[-81.81180057899996, 7.292336393000028], [-81.80569620299997, 7.234111450000057], [-81.77564388399998, 7.27929466300003], [-81.81180057899996, 7.292336393000028]]], [[[-81.21067909199996, 7.550036717000069], [-81.21067909199996, 7.550036717000069]]], [[[-81.09430149099995, 7.580088127000067], [-81.16144963799997, 7.545642407000059], [-81.20887595099998, 7.528418517000034], [-81.25633528499998, 7.491256261000046], [-81.20062815399996, 7.489913212000033], [-81.15346699099996, 7.524694341000043], [-81.09148408599998, 7.528884037000068], [-81.04640560899998, 7.565658497000072], [-81.09430149099995, 7.580088127000067]]], [[[-81.27054571199994, 7.619870614000035], [-81.27054571199994, 7.619870614000035]]], [[[-81.74559156699996, 7.642455789000053], [-81.78911460199998, 7.612378489000037], [-81.84560943699995, 7.568742290000046], [-81.85954972199994, 7.51928259500005], [-81.86468561599997, 7.454540071000054], [-81.80851360599996, 7.401778742000033], [-81.76860037299997, 7.354279419000022], [-81.68360866099994, 7.335650841000074], [-81.61646051299994, 7.324473322000074], [-81.61035613599995, 7.376166994000073], [-81.66341726099995, 7.386411871000064], [-81.72446103099998, 7.438563923000061], [-81.71600881599994, 7.490709775000028], [-81.67609558199996, 7.54238388400006], [-81.72399146299995, 7.577760801000068], [-81.73009584099998, 7.632682353000064], [-81.74559156699996, 7.642455789000053]]], [[[-81.34471242899997, 7.648934058000066], [-81.34471242899997, 7.648934058000066]]], [[[-81.69910438699998, 7.633613166000032], [-81.69910438699998, 7.633613166000032]]], [[[-81.61458224399996, 7.687131505000025], [-81.61458224399996, 7.687131505000025]]], [[[-81.10463197499996, 7.746691806000058], [-81.10463197499996, 7.746691806000058]]], [[[-81.74500930299996, 7.797534753000036], [-81.74500930299996, 7.797534753000036]]], [[[-81.16285834099995, 7.833225344000027], [-81.16285834099995, 7.833225344000027]]], [[[-81.07645792699998, 7.824851913000032], [-81.07645792699998, 7.824851913000032]]], [[[-81.77416005199996, 7.860354102000031], [-81.77416005199996, 7.860354102000031]]], [[[-82.00616394499997, 7.947570875000054], [-82.00616394499997, 7.947570875000054]]], [[[-82.04372934299994, 7.957095137000067], [-82.04372934299994, 7.957095137000067]]], [[[-82.01728330299994, 7.977631074000044], [-82.01728330299994, 7.977631074000044]]], [[[-82.02592334399998, 8.026232399000037], [-82.02592334399998, 8.026232399000037]]], [[[-81.80923711699995, 8.087805067000033], [-81.80923711699995, 8.087805067000033]]], [[[-81.75846072099995, 8.092565584000056], [-81.75846072099995, 8.092565584000056]]], [[[-81.70723532699998, 8.098676873000045], [-81.70723532699998, 8.098676873000045]]], [[[-82.32046310699997, 8.135217303000047], [-82.36643113199995, 8.100563125000065], [-82.32046310699997, 8.135217303000047]]], [[[-81.71639324599994, 8.092260912000029], [-81.73473429499995, 8.144295441000054], [-81.71873203699994, 8.090676619000021], [-81.71639324599994, 8.092260912000029]]], [[[-82.28488116199998, 8.23440303600006], [-82.26641701799997, 8.183956564000027], [-82.22391101899996, 8.21136978100003], [-82.28449649199996, 8.232880217000059], [-82.28488116199998, 8.23440303600006]]], [[[-82.30219899099995, 8.256993358000045], [-82.30219899099995, 8.256993358000045]]], [[[-78.83990808299995, 8.268407650000029], [-78.83990808299995, 8.268407650000029]]], [[[-82.33925037399996, 8.292153421000023], [-82.39313613099995, 8.287164158000053], [-82.43861679899999, 8.260861071000022], [-82.39804616999999, 8.21892474200007], [-82.34906089299994, 8.234688564000066], [-82.31029340199996, 8.267701326000065], [-82.33925037399996, 8.292153421000023]]], [[[-79.08250616999999, 8.270758585000067], [-79.10404767199998, 8.317197444000044], [-79.13001287499998, 8.264096823000045], [-79.12616617799995, 8.213654132000045], [-79.09366159099994, 8.259909374000074], [-79.08250616999999, 8.270758585000067]]], [[[-82.31703431499994, 8.315305892000026], [-82.31703431499994, 8.315305892000026]]], [[[-78.33089694999995, 8.337175227000046], [-78.33089694999995, 8.337175227000046]]], [[[-78.80198581499997, 8.362857750000046], [-78.80198581499997, 8.362857750000046]]], [[[-79.10270132799997, 8.409678092000036], [-79.10270132799997, 8.409678092000036]]], [[[-78.84796586099998, 8.423805143000038], [-78.84796586099998, 8.423805143000038]]], [[[-78.14635693499997, 8.427762676000043], [-78.14635693499997, 8.427762676000043]]], [[[-78.90506526499996, 8.474636848000046], [-78.96229689899997, 8.457241863000036], [-78.96383557799999, 8.400925721000021], [-78.95317253399998, 8.342013334000058], [-78.94825645599997, 8.290172217000077], [-78.91863689199994, 8.248108139000067], [-78.91648058799996, 8.298156043000063], [-78.86377653399995, 8.296908752000036], [-78.83709461499996, 8.342378709000059], [-78.83958727499999, 8.395978641000056], [-78.85938574199997, 8.450559506000047], [-78.90506526499996, 8.474636848000046]]], [[[-78.97729901599996, 8.452295504000062], [-79.02365171099996, 8.472461031000023], [-78.97729901599996, 8.452295504000062]]], [[[-79.04746276399999, 8.487162176000027], [-79.04746276399999, 8.487162176000027]]], [[[-79.02764458199994, 8.52222350300002], [-79.02764458199994, 8.52222350300002]]], [[[-79.04253899199995, 8.514432373000034], [-79.04253899199995, 8.514432373000034]]], [[[-79.02247462199995, 8.577852407000023], [-79.02247462199995, 8.577852407000023]]], [[[-79.587925494, 8.571527920000051], [-79.587925494, 8.571527920000051]]], [[[-79.02148986799995, 8.585642239000038], [-79.02148986799995, 8.585642239000038]]], [[[-79.59225841299997, 8.600038403000042], [-79.59225841299997, 8.600038403000042]]], [[[-79.05692563799994, 8.629943863000051], [-79.05692563799994, 8.629943863000051]]], [[[-79.05019391799993, 8.662839631000054], [-79.05019391799993, 8.662839631000054]]], [[[-79.73781499299997, 8.672251476000042], [-79.73781499299997, 8.672251476000042]]], [[[-79.54367701899997, 8.783345627000074], [-79.54367701899997, 8.783345627000074]]], [[[-79.51001842399995, 8.807698736000077], [-79.51001842399995, 8.807698736000077]]], [[[-78.79496559299997, 8.789832025000067], [-78.79496559299997, 8.789832025000067]]], [[[-77.69365633099994, 8.924690008000027], [-77.73993690199995, 8.947846284000036], [-77.70056836499998, 8.913408213000025], [-77.69365633099994, 8.924690008000027]]], [[[-77.74654841199998, 9.004543248000061], [-77.74654841199998, 9.004543248000061]]], [[[-81.54846127499997, 9.08088850400003], [-81.54846127499997, 9.08088850400003]]], [[[-82.00714064599998, 9.147971221000034], [-82.05005692799995, 9.180841825000073], [-82.02780161499999, 9.128499697000052], [-82.00714064599998, 9.147971221000034]]], [[[-82.31630386499995, 9.220859421000057], [-82.31630386499995, 9.220859421000057]]], [[[-82.02827118199997, 9.253191679000054], [-82.02827118199997, 9.253191679000054]]], [[[-82.13839414399996, 9.330005929000038], [-82.18677837599995, 9.349577517000057], [-82.15792815099996, 9.308653853000067], [-82.21382546199999, 9.331488663000073], [-82.15973128999997, 9.29768075100003], [-82.14620774599996, 9.24725937900007], [-82.10834182599996, 9.288486805000048], [-82.13839414399996, 9.330005929000038]]], [[[-82.24943745799999, 9.349114187000055], [-82.25178529599998, 9.413974345000042], [-82.30249858199994, 9.43204036800006], [-82.30015074499994, 9.374133113000028], [-82.25507226799994, 9.331507198000054], [-82.24943745799999, 9.349114187000055]]], [[[-78.59667213599994, 9.454274175000023], [-78.59667213599994, 9.454274175000023]]], [[[-78.57207260099995, 9.468593585000065], [-78.57207260099995, 9.468593585000065]]], [[[-78.62390704899997, 9.476506542000038], [-78.62390704899997, 9.476506542000038]]], [[[-79.52970269199994, 9.61079636200003], [-79.58323338199995, 9.612648264000029], [-79.64052061399997, 9.603388651000046], [-79.68137298299996, 9.56542158800005], [-79.69546000799994, 9.508463050000046], [-79.72970086699996, 9.464908835000074], [-79.78952902099996, 9.438169630000061], [-79.81299387199994, 9.39301064500006], [-79.86261625899994, 9.404965068000024], [-79.88338842099995, 9.35695512600006], [-79.91704701699996, 9.31216517300004], [-79.94629729899998, 9.356871626000043], [-79.99742574399994, 9.334629800000073], [-80.04053119899999, 9.291091185000028], [-80.07678276399997, 9.251232791000064], [-80.12269142199995, 9.217168730000026], [-80.17352936499998, 9.199064029000056], [-80.22731071699997, 9.186023531000046], [-80.28408121299998, 9.168384565000053], [-80.33501089699996, 9.155388666000022], [-80.40121990999995, 9.145653239000069], [-80.45944627599994, 9.127108834000069], [-80.53363793599993, 9.103926970000032], [-80.59079594199994, 9.074645203000046], [-80.65407410199998, 9.042546017000063], [-80.69668011399995, 9.014805459000058], [-80.75207254599997, 8.979547332000038], [-80.78625337099999, 8.942850924000027], [-80.82099550399994, 8.904482322000035], [-80.88772245799998, 8.887981805000038], [-80.94074163299996, 8.86696592100003], [-80.98793106199997, 8.842445871000052], [-81.03842296299996, 8.826092435000021], [-81.09993629999997, 8.810315856000045], [-81.17084098699996, 8.795466695000073], [-81.22953692099998, 8.794538603000035], [-81.28259804499999, 8.791290262000075], [-81.34176354599998, 8.783865374000072], [-81.41383275899994, 8.802947034000056], [-81.48475622999996, 8.809183629000074], [-81.54508625899996, 8.825628428000073], [-81.60425175899996, 8.877129683000021], [-81.65041470399996, 8.928234558000042], [-81.69863481999994, 8.991705575000026], [-81.72258276099996, 9.03761855700003], [-81.77329604799996, 9.063586947000033], [-81.82260063099994, 9.07425199100004], [-81.81837452499997, 9.125717965000035], [-81.86401648199995, 9.157669499000065], [-81.91841117799999, 9.182887487000073], [-81.87002694599994, 9.152328989000068], [-81.92352007199997, 9.15025210300007], [-81.89286670799999, 9.100699936000069], [-81.86551909799994, 9.056186148000052], [-81.82705213099996, 9.022055174000059], [-81.77506162199995, 8.999794104000046], [-81.78467836199997, 8.944580745000053], [-81.83877253499998, 8.962689277000038], [-81.89016199899999, 8.960017583000024], [-81.95639801199997, 8.939582651000023], [-82.00335475799994, 8.96060085800002], [-82.04957780499996, 8.937408284000071], [-82.10313784399995, 8.93160990900003], [-82.12955101499995, 8.981617852000056], [-82.18311105299995, 8.999734971000066], [-82.23666522299999, 9.001575040000034], [-82.24778458099996, 9.062715181000044], [-82.27813742199999, 9.107821627000021], [-82.25770184599997, 9.153515776000063], [-82.20390819699998, 9.165680112000075], [-82.16273652099994, 9.131262864000064], [-82.10984444199994, 9.131262864000064], [-82.07017538199995, 9.177250679000053], [-82.10683920999998, 9.219079579000038], [-82.15221820999994, 9.196534120000024], [-82.20931761399999, 9.229461872000059], [-82.24778458099996, 9.270691387000056], [-82.29226201099993, 9.295308142000067], [-82.28114265399995, 9.245776286000023], [-82.25469661499994, 9.20306058600005], [-82.31450072699994, 9.20721372600002], [-82.36378652799993, 9.224715718000027], [-82.39383884599994, 9.270394788000033], [-82.34425252199998, 9.297087600000054], [-82.38842942899998, 9.340978015000076], [-82.35116455399998, 9.38664190000003], [-82.43440947399995, 9.461351634000039], [-82.47648271999998, 9.494254352000041], [-82.56372493699996, 9.571366337000029], [-82.59954095199998, 9.530745993000039], [-82.64243161999997, 9.494704889000047], [-82.68724563599994, 9.540419536000059], [-82.73436766999998, 9.565266007000048], [-82.78091269999999, 9.599758812000061], [-82.83951471999995, 9.607166604000042], [-82.85574297099998, 9.54523249600004], [-82.84282047499994, 9.496329192000076], [-82.93593273, 9.477558917000067], [-82.93601151099995, 9.077925919000052], [-82.88573518499999, 9.086610436000058], [-82.85457694099995, 9.046344887000032], [-82.80303120599996, 9.014433139000062], [-82.75033146199996, 8.993157072000031], [-82.71609586099999, 8.945471351000037], [-82.75052379599998, 8.908800388000031], [-82.81246763299998, 8.868871409000064], [-82.86325605099995, 8.850461285000051], [-82.88972805599997, 8.792500682000025], [-82.91855231599999, 8.750674312000058], [-82.88639633599996, 8.708197316000053], [-82.85033355399997, 8.666309682000076], [-82.82959745499994, 8.595595153000033], [-82.83780549499994, 8.535975225000072], [-82.84297073599998, 8.476996198000052], [-82.91284237599996, 8.430939822000028], [-82.96032503799995, 8.410724558000027], [-82.99668834199997, 8.369993547000036], [-83.05228512999997, 8.341746914000055], [-83.01383018299998, 8.305778562000057], [-82.96690048499994, 8.279894532000071], [-82.92850275799998, 8.240791195000043], [-82.91114646399996, 8.189012922000074], [-82.88759842899998, 8.106180352000024], [-82.89131289499994, 8.05352768900002], [-82.85723116199995, 8.09144195500005], [-82.87360270299996, 8.144904703000066], [-82.87235698899997, 8.20350664600005], [-82.86240112299998, 8.262962410000057], [-82.82128762799994, 8.298531206000064], [-82.74167639399997, 8.319671492000055], [-82.68205259599995, 8.328235380000024], [-82.62204412699998, 8.315294320000021], [-82.49625714499996, 8.278181557000039], [-82.46308323299996, 8.320577369000034], [-82.43600248799999, 8.363082767000037], [-82.44182638699994, 8.311107415000038], [-82.39278100399997, 8.291504492000058], [-82.33738857199995, 8.313962127000025], [-82.28625154799994, 8.30695614900003], [-82.23456156099996, 8.332529149000038], [-82.22073749499998, 8.275731041000029], [-82.22391101899996, 8.22260104000003], [-82.16717224399997, 8.200899678000042], [-82.12396903099994, 8.16002794800005], [-82.11315019699998, 8.209406659000024], [-82.05665183999997, 8.215950364000037], [-82.00496185299994, 8.21505804800006], [-81.95327186599997, 8.225468291000027], [-81.91617528499995, 8.184908445000076], [-81.848858093, 8.162062710000043], [-81.79635068299996, 8.14111963800002], [-81.75249834099998, 8.167774265000048], [-81.70293605799998, 8.108858027000053], [-81.74211225999994, 8.075808315000074], [-81.71999375399997, 8.030864937000047], [-81.65710026299996, 7.989345025000034], [-81.63690510599997, 7.943249167000033], [-81.61385569899994, 7.895761214000061], [-81.56901090899999, 7.86037791800004], [-81.59444719099997, 7.810933039000076], [-81.58122417099997, 7.762399436000067], [-81.51721273399994, 7.754657360000067], [-81.53464307899998, 7.706712879000065], [-81.48246023399997, 7.704687775000025], [-81.43937722999993, 7.676859483000044], [-81.38302312399998, 7.671141116000058], [-81.33449464099994, 7.656678068000076], [-81.28370622399996, 7.640892056000041], [-81.22718203999995, 7.608795834000034], [-81.20056343399995, 7.66141678300005], [-81.20075124799996, 7.714537790000065], [-81.16833805899995, 7.775591775000066], [-81.18280256099996, 7.828177487000062], [-81.22184653299996, 7.873333600000024], [-81.16799277899997, 7.860187391000068], [-81.09948403399994, 7.843260860000044], [-81.07427432299994, 7.890162273000044], [-81.06277239199994, 7.82460807700005], [-81.08971250099995, 7.772535383000047], [-81.04047478399997, 7.751000668000074], [-81.02977327399998, 7.694776539000031], [-81.00564679199994, 7.637439309000058], [-80.97981668599994, 7.589309132000039], [-80.94901356999998, 7.547841214000073], [-80.97312035599998, 7.500901918000068], [-80.92564416699997, 7.456016657000021], [-80.93499066799995, 7.404117610000071], [-80.89733366099995, 7.355209611000021], [-80.92364629799994, 7.311844178000058], [-80.94097797399996, 7.257143033000034], [-80.89465512899994, 7.226663792000068], [-80.83680514399998, 7.209531993000041], [-80.78321540299999, 7.214862304000064], [-80.72976785999998, 7.211657872000046], [-80.67785161099994, 7.216347276000022], [-80.62282511399997, 7.23339128300006], [-80.56569990699995, 7.242794600000025], [-80.51509141199995, 7.246827213000074], [-80.45731556699997, 7.245673568000029], [-80.39865344199995, 7.28001606600003], [-80.34339949099996, 7.319018322000034], [-80.36223291799996, 7.377740385000038], [-80.31594946299998, 7.409845], [-80.26129559699996, 7.42388240400004], [-80.31139497399994, 7.418389561000026], [-80.26055703099996, 7.434501709000074], [-80.20497226399993, 7.423272091000058], [-80.154003532, 7.416215290000025], [-80.09918041199995, 7.428154569000071], [-80.05351242799998, 7.452932305000047], [-79.99861237299996, 7.466846281000073], [-79.99628896799999, 7.527203693000047], [-80.03225558199995, 7.57982746600004], [-80.04908103399998, 7.630851134000068], [-80.08945596199999, 7.679650020000054], [-80.12663043899994, 7.727711445000068], [-80.17131366799998, 7.769913162000023], [-80.21205787899999, 7.811378926000032], [-80.25448602099993, 7.842090208000059], [-80.29465415099997, 7.87600851600007], [-80.32222727099997, 7.928802193000024], [-80.34721048999995, 7.981062476000034], [-80.39891501799997, 8.004018417000054], [-80.46293882199996, 8.044641604000049], [-80.48311151399997, 8.093113992000042], [-80.48847380899997, 8.162253096000029], [-80.47437181999999, 8.22397922600004], [-80.43327371199996, 8.257244610000043], [-80.39519141499994, 8.291314167000053], [-80.33845263899997, 8.295310960000052], [-80.28747188699998, 8.302198198000042], [-80.19574019199996, 8.319861802000048], [-80.15105057399995, 8.346102013000063], [-80.09180460099998, 8.381014027000049], [-80.04132609299995, 8.407775419000075], [-79.97608611699997, 8.450027767000051], [-79.94383541199994, 8.49361467400007], [-79.89954454699995, 8.52229958700002], [-79.83472770799995, 8.560339917000022], [-79.77683492299997, 8.580499751000048], [-79.72778953899996, 8.620816207000075], [-79.78233569899999, 8.611566622000055], [-79.83034247299997, 8.634811859000024], [-79.79993818299994, 8.676552323000067], [-79.75760143899998, 8.705808956000055], [-79.76375615399996, 8.758278074000032], [-79.75279306799996, 8.816441703000066], [-79.72144248999996, 8.860723557000028], [-79.66662706199998, 8.863954215000035], [-79.616043, 8.89093858800004], [-79.56392026099996, 8.90424001200006], [-79.57584502099996, 8.959720728000036], [-79.53276201799997, 8.915260825000075], [-79.52583796299996, 8.972829661000048], [-79.47986993799998, 9.005694905000041], [-79.42447750599996, 9.01367330000005], [-79.35926061099997, 9.021735099000068], [-79.27494101899998, 9.023558668000021], [-79.20686987399995, 9.012738697000032], [-79.15369313999997, 9.01006404900005], [-79.09481559999995, 9.029629561000036], [-79.10051640399996, 9.084338971000022], [-79.05923365499996, 9.12782095600005], [-79.00881115499999, 9.147904137000069], [-79.05810874599996, 9.133970261000059], [-79.09687273099996, 9.092475938000064], [-79.08614194499995, 9.038877633000027], [-79.05190400599997, 8.97779163000007], [-78.99817580799998, 8.957559115000038], [-78.95224686599994, 8.936547233000056], [-78.90508579799996, 8.913874830000054], [-78.87623859999997, 8.871198383000035], [-78.85203826199995, 8.82306219800006], [-78.79770444099995, 8.835561475000077], [-78.75495994799996, 8.807128534000071], [-78.71437729799999, 8.751054504000024], [-78.66379323599995, 8.732614753000064], [-78.62936530099995, 8.774625637000042], [-78.62340292099998, 8.723299481000026], [-78.61939989399997, 8.669981246000077], [-78.56685647899997, 8.655043784000043], [-78.51300272499998, 8.636219001000029], [-78.50215504199997, 8.582842787000061], [-78.51165638199996, 8.527815670000052], [-78.50228907499996, 8.45702486600004], [-78.45439319299999, 8.406859755000028], [-78.42950611799995, 8.36226309400007], [-78.38020153399998, 8.385026613000036], [-78.38959288199999, 8.472816237000075], [-78.41729736299999, 8.538761410000063], [-78.38067110099996, 8.483498268000062], [-78.36893191399997, 8.42218867400004], [-78.32948824699997, 8.463062820000061], [-78.27971409599996, 8.439839404000054], [-78.22289643199997, 8.452380223000034], [-78.26140096399996, 8.411969462000059], [-78.20787027299997, 8.406395232000023], [-78.18580060199997, 8.451915756000062], [-78.12945250599995, 8.449593408000055], [-78.11020023999998, 8.506719046000057], [-78.13649601799995, 8.561514500000044], [-78.09752191899997, 8.518328910000037], [-78.09140476899995, 8.454388203000065], [-78.07021187499998, 8.393481294000026], [-78.04857420599996, 8.336394690000077], [-78.02333025899998, 8.286734457000023], [-77.96803399399994, 8.25372328700007], [-77.89291521999996, 8.229263500000059], [-77.85022890799996, 8.193046921000075], [-77.84121321299995, 8.142178718000025], [-77.87517233199998, 8.194534198000042], [-77.91454086699997, 8.228740025000036], [-77.98666643099995, 8.240339593000044], [-77.92986754999998, 8.204052637000075], [-77.98065596699996, 8.227550306000069], [-78.03925798699998, 8.254615517000047], [-78.05760868399994, 8.317661328000042], [-78.11630461799996, 8.359011053000074], [-78.13705736499998, 8.407653647000075], [-78.16948532699996, 8.36893329000003], [-78.18878651199998, 8.31912552800003], [-78.21300654499998, 8.275143866000064], [-78.26052094199997, 8.296825925000064], [-78.28477051799996, 8.249196912000059], [-78.27061467399994, 8.199490952000076], [-78.24738831999997, 8.142071620000024], [-78.30606583199994, 8.080926973000032], [-78.36047350999996, 8.066545817000076], [-78.41356561599997, 8.072951894000028], [-78.43510711799996, 8.023818280000057], [-78.41845092199998, 7.972812067000064], [-78.39986368299998, 7.918804832000035], [-78.36453562099996, 7.880763881000064], [-78.33240800999994, 7.827110448000042], [-78.30446560499996, 7.785402324000074], [-78.27851732799996, 7.740621229000055], [-78.29419461799995, 7.690580204000071], [-78.25110176599998, 7.664503443000058], [-78.21623007599999, 7.625772677000043], [-78.20845205599994, 7.566184035000049], [-78.18617198899994, 7.519324830000073], [-78.13308880499994, 7.497230911000031], [-78.10640688699993, 7.448050102000025], [-78.06313154899993, 7.417168919000062], [-78.02235656299996, 7.383218477000071], [-78.01793286299994, 7.328281907000076], [-77.98245910599996, 7.291665685000055], [-77.94549475599996, 7.255893119000064], [-77.90282046499993, 7.228763693000076], [-77.81393251699996, 7.47709192700006], [-77.74936698999994, 7.476364466000064], [-77.70534503899995, 7.530193307000047], [-77.74276369799998, 7.611651255000027], [-77.74803715999997, 7.68300516000005], [-77.66549600399998, 7.686413488000028], [-77.64371430999995, 7.639830654000036], [-77.60817575699997, 7.598924467000074], [-77.59900451699997, 7.539830875000064], [-77.51417055099995, 7.588697309000054], [-77.43048298999997, 7.62278688400005], [-77.36857712299997, 7.681869045000042], [-77.31354968499994, 7.720495251000045], [-77.36875320999997, 7.789030341000057], [-77.32038776099995, 7.845785174000071], [-77.29080501099997, 7.907648420000044], [-77.23444774299998, 7.930604944000038], [-77.14846737299996, 7.947636201000023], [-77.19546997499998, 7.987373047000062], [-77.20464121499998, 8.055484351000075], [-77.22298369499998, 8.13152842900007], [-77.26654708199999, 8.196211298000037], [-77.29750001499997, 8.235923644000025], [-77.35252745399998, 8.273363064000023], [-77.36972352699996, 8.394733003000056], [-77.41443332099993, 8.488853685000038], [-77.48207121299998, 8.478648938000049], [-77.46028951899996, 8.554611083000054], [-77.42131174999997, 8.597687368000038], [-77.42651000899997, 8.65344166400007], [-77.37063147999999, 8.660404932000063], [-77.41993606399996, 8.673866884000063], [-77.48755377899994, 8.679901394000069], [-77.54437144199994, 8.71192909900003], [-77.54108447099998, 8.769943309000041], [-77.59287287899997, 8.80427751700006], [-77.63230151999994, 8.846850417000041], [-77.68616296599998, 8.866333480000037], [-77.72340578499995, 8.902169180000044], [-77.76289687199994, 8.952311121000037], [-77.77660772999997, 9.001213250000035], [-77.81011891999998, 9.046899519000021], [-77.84444684099998, 9.085850750000077], [-77.89501459299998, 9.098385051000037], [-77.93215152699997, 9.136176426000077], [-77.97254184199994, 9.174343239000052], [-78.03144438499999, 9.224715718000027], [-78.08644012599996, 9.243699948000028], [-78.14444109999994, 9.263869571000043], [-78.19312585399996, 9.277513071000044], [-78.23099177499995, 9.310433241000055], [-78.28839170199996, 9.311322934000032], [-78.33887959599997, 9.343943385000046], [-78.39490913799995, 9.365494930000068], [-78.43972315399998, 9.391302838000058], [-78.49119964899995, 9.420144694000044], [-78.54089127699996, 9.43304684900005], [-78.59743771899997, 9.422990799000047], [-78.64992108599995, 9.430521006000049], [-78.70792205999999, 9.442675718000032], [-78.77133244999999, 9.445936665000033], [-78.82302243699996, 9.432596231000048], [-78.87771765599996, 9.421627043000058], [-78.92771719899997, 9.44778946200006], [-78.98594356599995, 9.45473736300005], [-79.04229166099998, 9.444547060000048], [-79.07046570899996, 9.487622188000046], [-79.03769215399996, 9.536436345000027], [-78.97826068999996, 9.547437426000045], [-79.03609336999995, 9.565680890000067], [-79.08718231099994, 9.56093934300003], [-79.14608485399998, 9.561235691000036], [-79.20310011199996, 9.540988560000073], [-79.25253016499994, 9.555213837000053], [-79.30830726599999, 9.566403971000057], [-79.37087619199997, 9.57783080300004], [-79.42857664199994, 9.589387633000058], [-79.48556334999995, 9.588572741000064], [-79.52970269199994, 9.61079636200003]]]]}}]}