{"type": "FeatureCollection", "features": [{"type": "Feature", "properties": {"code": "PCN", "name": "Pitcairn Island", "tier": "country"}, "geometry": {"type": "Polygon", "coordinates": [[[-128.30111521759318, -24.331074024546524], [-128.3221759450638, -24.339440624385247], [-128.34278981469816, -24.3383978352918], [-128.356716264444, -24.368220036925095], [-128.34418229617597, -24.393357609765815], [-128.32891604993574, -24.4110886540181], [-128.30586905641178, -24.419159795088433], [-128.29345737705626, -24.388722349256966], [-128.30689511721584, -24.348427264506597], [-128.30111521759318, -24.331074024546524]]]}}]}