{"type": "FeatureCollection", "features": [{"type": "Feature", "properties": {"code": "PER", "name": "Peru", "tier": "country"}, "geometry": {"type": "MultiPolygon", "coordinates": [[[[-76.43301705961306, -13.873238516331696], [-76.43301705961306, -13.873238516331696]]], [[[-77.17086063348717, -12.145327708770424], [-77.17086063348717, -12.145327708770424]]], [[[-77.19780798026989, -12.122343207102801], [-77.23743643142097, -12.085092463020828], [-77.202563394408, -12.131854035378922], [-77.19780798026989, -12.122343207102801]]], [[[-75.01718640826243, -0.12117499729726], [-75.06509280254278, -0.070450579824069], [-75.1749957070682, -0.014090115964791], [-75.22008407815576, -0.040861336297951], [-75.2510823332783, -0.080313660999423], [-75.2961707043657, -0.108493892929062], [-75.3708483189792, -0.13808313645518], [-75.43143581762791, -0.13808313645518], [-75.49343232787311, -0.11131191612202], [-75.58360907004788, -0.088767730578297], [-75.62165238315288, -0.13808313645518], [-75.58501808164436, -0.201488658296796], [-75.52443058299565, -0.232486913419393], [-75.47088814232939, -0.286029354085713], [-75.42016372485602, -0.35929795710274], [-75.36943930738266, -0.426930513733851], [-75.31448785511998, -0.472018884821182], [-75.25953640285718, -0.525561325487558], [-75.23276518252408, -0.574876731364384], [-75.24685529848887, -0.650963357574369], [-75.26939948403242, -0.738322076556244], [-75.26235442605008, -0.790455505625971], [-75.23250817880887, -0.873199429827082], [-75.21750276891095, -0.925718364469674], [-75.27463875275288, -0.963231889214399], [-75.34389449074308, -0.940723774367541], [-75.5538437000721, -1.530098530553857], [-76.03731080411467, -2.114926406318432], [-76.64356974626168, -2.571787848890438], [-77.82793910138702, -2.981243096299067], [-77.8811433792701, -2.990260770516443], [-77.94426709879247, -3.026331467386456], [-77.99296253956692, -3.088553419487027], [-78.04887211971521, -3.197667277518519], [-78.12822765282903, -3.276121043210651], [-78.15914024004661, -3.339280833429768], [-78.1897281909923, -3.381411407373946], [-78.17472278109443, -3.43566173546634], [-78.19780802709118, -3.49048919470863], [-78.28186627730935, -3.40699004029176], [-78.32836365999322, -3.385854866344516], [-78.3706340078877, -3.490121724484254], [-78.38049708906311, -3.547891199939954], [-78.39317819343142, -3.604251663799232], [-78.4086773209927, -3.690201371184571], [-78.41713139057157, -3.749379858236807], [-78.47089927309327, -3.844234518911946], [-78.52590708581988, -3.923590052025759], [-78.58091489854655, -4.010159724513528], [-78.56648661979864, -4.059756932709604], [-78.57911136370308, -4.117470047701602], [-78.59895024698153, -4.207646789876321], [-78.62329796736873, -4.258145765494305], [-78.64764568775598, -4.309546508533856], [-78.63411917642964, -4.375808378683928], [-78.63181065183, -4.457183870822519], [-78.67105557002446, -4.573764363106079], [-78.70568343901954, -4.611277887850747], [-78.78417327540848, -4.636671658447199], [-78.8568557296013, -4.661235803015643], [-78.89202465904958, -4.729770127068491], [-78.90645293779755, -4.828964543460813], [-78.94072009982403, -4.888481193296116], [-78.99392437770712, -4.934471331805241], [-79.02819153973354, -4.991282679375445], [-79.07778874792967, -4.982265005157956], [-79.18419730369595, -4.954310215083751], [-79.26174930196635, -4.947997843131475], [-79.31315004500595, -4.917337750792115], [-79.39881795007204, -4.803715055651764], [-79.46103990217262, -4.7090294763683], [-79.49260176193377, -4.635084547784913], [-79.49289032750875, -4.568570182756844], [-79.55348909825022, -4.505085756265771], [-79.62332196739044, -4.441024198624746], [-79.7156629513774, -4.44737264127383], [-79.78376442706775, -4.474497805320084], [-79.84320893550944, -4.47161214957049], [-79.90496196855077, -4.396007968931144], [-79.96729213274193, -4.384465345932767], [-80.08675828077503, -4.306552640693724], [-80.16236246141449, -4.286930181596404], [-80.21776705180667, -4.330215017840374], [-80.26220615035044, -4.36195723108591], [-80.33319328179044, -4.444486985524293], [-80.37763238033409, -4.468149362670943], [-80.43855578734747, -4.445713389217872], [-80.47823355390437, -4.396116181021739], [-80.39256564883829, -4.268065207133475], [-80.35829848681186, -4.224780370889505], [-80.41150276469494, -4.193218511128407], [-80.47913532132605, -4.120175349966814], [-80.49807243718283, -4.05885516528798], [-80.46741234484335, -4.009257957091734], [-80.39617271852529, -3.962366051160814], [-80.32042425509849, -3.987615538969749], [-80.25730053557606, -3.969580190534884], [-80.18786444410142, -3.915474145229894], [-80.15990965402727, -3.853252193129322], [-80.20048918800592, -3.724299451819434], [-80.19468180580998, -3.633040588738481], [-80.23046393710484, -3.551087965449994], [-80.24893213390231, -3.47086673561131], [-80.24106872198462, -3.421305598112099], [-80.2870588604938, -3.388841970929093], [-80.3510843474379, -3.421810587868208], [-80.43823115107557, -3.487603538958979], [-80.49075008571822, -3.487603538958979], [-80.5288407416129, -3.533196899802533], [-80.56462287290782, -3.585715834445182], [-80.63099295514849, -3.643428949437066], [-80.71813975878615, -3.686713785680979], [-80.79565568635962, -3.74053126541088], [-80.84344935971228, -3.857761030238123], [-80.90567131181297, -3.897438796795029], [-80.98412507750504, -3.962366051160814], [-81.03011521601417, -4.04262335169642], [-81.10496191201923, -4.113862978014595], [-81.18702274739837, -4.194120278550031], [-81.23871205601279, -4.237874033853302], [-81.26410582660912, -4.305398378393875], [-81.25833451510994, -4.370614198334636], [-81.31200771205249, -4.461223788871848], [-81.29252953574269, -4.546711340453612], [-81.29162776832095, -4.604424455445439], [-81.3276984651909, -4.650414593954679], [-81.30244897738186, -4.717145383163995], [-81.25645883887267, -4.782974404951574], [-81.20235279356785, -4.83617868283477], [-81.16263895631408, -4.884333063156134], [-81.10077771118216, -4.951785266302807], [-81.08346377668465, -5.003149938645493], [-81.09616066198282, -5.06086305363749], [-81.1584908261741, -5.070097152036226], [-81.18850164596984, -5.15493543107425], [-81.19852028202541, -5.227433022945718], [-81.13934179497318, -5.272521394033106], [-81.05761912237728, -5.338744939067681], [-80.93644412507984, -5.466964994347506], [-80.91108191634322, -5.526143481399743], [-80.89135575399246, -5.578276910469469], [-80.86599354525583, -5.675498710626698], [-80.87726563802761, -5.758630394819022], [-80.8993589398604, -5.806480428635666], [-80.95346498516523, -5.842551125505508], [-81.0734000522578, -5.797462754418177], [-81.14463967857586, -5.851568799722997], [-81.15996972474551, -5.951664983537], [-81.1491485156846, -6.009378098528941], [-81.10766721428422, -6.062582376412024], [-81.04273995991832, -6.113983119451689], [-80.91288545118664, -6.190633350300288], [-80.85968117330344, -6.239328791074627], [-80.76319205917639, -6.29614013864483], [-80.621614573962, -6.364674462697678], [-80.54045550600466, -6.406155764098116], [-80.40338685789902, -6.481002460103127], [-80.33845960353312, -6.509859017599069], [-80.23114928034505, -6.568473900012748], [-80.13015132910931, -6.641517061174284], [-80.03276044756052, -6.718167292022883], [-79.9975915181123, -6.756943291158109], [-79.9487269959464, -6.84497833570623], [-79.89095752049064, -6.911201880740805], [-79.83318804503494, -6.970380367793041], [-79.7641464768073, -7.035194901231137], [-79.70919502454456, -7.101418446265768], [-79.6922868853868, -7.164823968107498], [-79.63874444472049, -7.235274547931567], [-79.60774618959789, -7.295862046580226], [-79.57956595766825, -7.404355939509287], [-79.57533892287876, -7.466352449754368], [-79.52743252859835, -7.542439075964467], [-79.46013813475054, -7.637068294784171], [-79.44390632115898, -7.688469037823836], [-79.4222639030371, -7.766922803515911], [-79.38078260163661, -7.845376569207929], [-79.34381013734497, -7.887759638030047], [-79.30773944047502, -7.925633869743478], [-79.19862558244353, -8.022122983870474], [-79.08229758503808, -8.124924469949804], [-79.00983155502632, -8.194108066546335], [-78.9728951614315, -8.251821181538162], [-78.94807852198505, -8.308380034230254], [-78.91749057103925, -8.356859050823402], [-78.9181759142798, -8.427016556235458], [-78.87308754319247, -8.488336740914292], [-78.79643731234387, -8.540639251375694], [-78.75675954578685, -8.638030132924484], [-78.75585777836523, -8.730010409942793], [-78.75675954578685, -8.795839431730315], [-78.7089658724343, -8.846338407348242], [-78.67018987329914, -8.899542685231438], [-78.65215452486416, -8.951845195692727], [-78.66027043165985, -9.01226361294988], [-78.61518206057247, -9.07989616958099], [-78.5646830849546, -9.11506509902921], [-78.60526261893324, -9.159251702694803], [-78.58271843338957, -9.22237542221717], [-78.55746894558064, -9.177287051129781], [-78.49795229574516, -9.184501190503738], [-78.49434522605827, -9.238607235808615], [-78.47991694731024, -9.315257466657215], [-78.4231055997401, -9.38739886039707], [-78.40056141419637, -9.479379137415322], [-78.38974020513547, -9.547011694046432], [-78.34808982234335, -9.648911412703967], [-78.31427354402786, -9.701044841773864], [-78.2565040685721, -9.770086410001397], [-78.23536889462486, -9.822219839071181], [-78.25086802218613, -9.906760534859984], [-78.20859767429175, -9.995528265438338], [-78.18182645395859, -10.060342798876434], [-78.16914534959028, -10.137838436683069], [-78.12264796690641, -10.191380877349332], [-78.08742267699438, -10.254786399191005], [-78.04515232909995, -10.35764424573415], [-78.00570000439848, -10.41964075597923], [-77.96765669129343, -10.48304627782096], [-77.92262468066986, -10.543464695078114], [-77.89827696028271, -10.596668972961197], [-77.86040272856928, -10.64987325084428], [-77.80810021810782, -10.719309342318923], [-77.73144998725934, -10.843753246520066], [-77.68816515101543, -10.911385803151177], [-77.65750505867601, -10.97721482493887], [-77.64748141280131, -11.031669553646793], [-77.635169281603, -11.085022122172688], [-77.59515485520859, -11.166076985894563], [-77.61362305200606, -11.229689663752254], [-77.63927332533575, -11.29227633067677], [-77.59925889894134, -11.337420811737104], [-77.42996709496526, -11.421553708258557], [-77.37456250457302, -11.461568134652964], [-77.33660010004502, -11.496452506381388], [-77.29555966271744, -11.542622998374895], [-77.24401287343403, -11.639724673091791], [-77.19279440764927, -11.703419431824216], [-77.17769152671275, -11.765144249564798], [-77.19936087762164, -11.824899126313824], [-77.15208229382029, -11.916829705927569], [-77.12647306092788, -11.98249440565155], [-77.16587188076238, -12.062605339315041], [-77.10472162914425, -12.087691306631427], [-77.03977021222096, -12.13827621066497], [-77.02224574027991, -12.22374086937782], [-76.95081998916595, -12.25762436744077], [-76.89310687417401, -12.304115487850993], [-76.83379061709911, -12.345797182011836], [-76.78409321252275, -12.406716581169917], [-76.80333091752004, -12.470842264494081], [-76.74401466044503, -12.563824505314471], [-76.68149211920388, -12.629553330721876], [-76.62762654521146, -12.74715983393861], [-76.55990982362096, -12.81487655552911], [-76.51476534256062, -12.887723331785537], [-76.5096352878947, -12.973908250173338], [-76.46346479590125, -13.074457321625857], [-76.41934632577409, -13.121653824552595], [-76.33521342925252, -13.227332950670984], [-76.29212097005865, -13.276581475464013], [-76.2223522266018, -13.35968836105235], [-76.19054588767295, -13.435613170108354], [-76.17412971274189, -13.51872005569669], [-76.17105167994231, -13.568994591422836], [-76.18336381114068, -13.618243116215922], [-76.20979385277963, -13.700282950433746], [-76.23146320368852, -13.7613511211772], [-76.24787937861959, -13.84474528982679], [-76.3030377263878, -13.802063235006074], [-76.35753942715877, -13.821762644923353], [-76.3929983650097, -13.888083991644635], [-76.32273713630497, -13.918289753517627], [-76.26544468579579, -13.996841150562602], [-76.26134064206298, -14.06147983935358], [-76.28596490445949, -14.178445085736996], [-76.21824818286905, -14.190757216935367], [-76.17515572367518, -14.222563555864213], [-76.12795922074844, -14.268734047857663], [-76.15463550501136, -14.311826507051649], [-76.12180315514928, -14.35286694437923], [-76.02125408369676, -14.448285961165766], [-75.95764140583907, -14.552939076351038], [-75.90736687011287, -14.659644213402714], [-75.8406761594556, -14.716074814728074], [-75.78629757999659, -14.766349350454277], [-75.7349970333371, -14.802259733115989], [-75.67548839921216, -14.835092082977951], [-75.57493932775964, -14.881262574971515], [-75.52056074830057, -14.927433066965023], [-75.47644227817352, -14.998227821354988], [-75.43847987364552, -15.03619022588299], [-75.37999725045375, -15.150077439466997], [-75.30715047419733, -15.172649679997107], [-75.23840774167365, -15.227028259456176], [-75.26508402593663, -15.270120718650048], [-75.22814763234175, -15.305005090378415], [-75.16761298728369, -15.332707385574565], [-75.19736730434619, -15.379903888501303], [-75.14914479048628, -15.409658205563801], [-75.06295987209842, -15.453776675690847], [-74.9767749537105, -15.494817113018428], [-74.91726631958556, -15.515337331682247], [-74.84236752146285, -15.561507823675697], [-74.78593692013737, -15.591262140738195], [-74.7069340782819, -15.626146512466619], [-74.6289572473595, -15.66308290606139], [-74.57150063510085, -15.685655146591614], [-74.51404402284231, -15.705149354322202], [-74.44632730125187, -15.760553944714331], [-74.41862500605578, -15.803646403908317], [-74.32320598926918, -15.84160880843632], [-74.27703549727573, -15.86418104896643], [-74.18161648048908, -15.906247497227127], [-74.13647199942886, -15.937027825222856], [-74.08106740903668, -15.95447001108704], [-74.0164287202457, -16.020134710811135], [-73.90459352852815, -16.123761815063233], [-73.82046063200664, -16.17301033985632], [-73.76916008534721, -16.190452525720502], [-73.69426128722438, -16.243805094246284], [-73.59679024857144, -16.247909137979036], [-73.45827877259103, -16.284845531573865], [-73.36593778860396, -16.322807936101867], [-73.31874128567733, -16.349484220364786], [-73.29001297954795, -16.393602690491832], [-73.2202442360911, -16.422330996621213], [-73.13405931770325, -16.45311132461677], [-73.0499264211818, -16.498255805677104], [-72.99759986358913, -16.516724002474575], [-72.90833691240164, -16.533140177405528], [-72.86319243134147, -16.56084247260162], [-72.8221519940139, -16.598804877129623], [-72.75238325055705, -16.642923347256783], [-72.69903068203115, -16.660365533121023], [-72.58514346844726, -16.67883372991838], [-72.4989585500594, -16.703457992314895], [-72.44047592686758, -16.727056243778293], [-72.31427658208537, -16.819397227765307], [-72.27118412289138, -16.873775807224263], [-72.19525931383549, -16.93944050694836], [-72.14601078904235, -16.972272856810434], [-72.10599636264806, -17.012287283204785], [-72.04033166292396, -17.043067611200456], [-71.98903111626447, -17.050249687732787], [-71.92131439467408, -17.09539416879312], [-71.872065869881, -17.150798759185307], [-71.7807508968271, -17.20107329491151], [-71.71406018616995, -17.214411437042997], [-71.63505734431436, -17.24211373223909], [-71.58273078672175, -17.254425863437405], [-71.52219614166353, -17.272894060234762], [-71.44319329980806, -17.326246628760543], [-71.40215286248048, -17.377547175420034], [-71.36419045795253, -17.44013384234455], [-71.36316444701924, -17.500668487402606], [-71.35290433768733, -17.575567285525494], [-71.32725406435765, -17.642257996182764], [-71.34264422835554, -17.693558542842197], [-71.28005756143102, -17.73459898016978], [-71.19695067584257, -17.777691439363707], [-71.14257209638367, -17.83207001882272], [-71.0656212763945, -17.877214499882882], [-70.99174848920484, -17.906968816945437], [-70.9240317676144, -17.943905210540265], [-70.8706791990885, -18.000335811865682], [-70.80296247749811, -18.05984444599062], [-70.7167775591102, -18.128587178514294], [-70.6408527500542, -18.193225867305216], [-70.53825165673538, -18.26094258889566], [-70.48079504447685, -18.29172291689133], [-70.43667657434969, -18.320451223020598], [-70.38845406048983, -18.35533559474902], [-70.32073733889928, -18.34815351821669], [-70.22224028931316, -18.332763354218798], [-70.0980929663973, -18.320451223020598], [-70.0498704525375, -18.297878982490374], [-69.98112772001383, -18.292748927824505], [-69.87955263762814, -18.221954173434483], [-69.82107001443637, -18.17270564864134], [-69.78413362084154, -18.11935308011556], [-69.74822323817995, -18.0393242273268], [-69.74924924911312, -17.94903526520619], [-69.77387351150963, -17.889526631081253], [-69.78618564270778, -17.814627832958365], [-69.81799198163674, -17.73459898016978], [-69.78515963177466, -17.67919438977742], [-69.6907666259213, -17.669960291378857], [-69.61968458847002, -17.65723775580733], [-69.55073665375971, -17.614555700986614], [-69.49032513001356, -17.563337235201857], [-69.46734248511012, -17.508835534430887], [-69.46401820968657, -17.451419962609577], [-69.4732523080853, -17.385755262885482], [-69.52557886567797, -17.334454716226105], [-69.60560771846667, -17.28828422423254], [-69.58508749980291, -17.239035699439512], [-69.55020312807449, -17.19902127304516], [-69.49992859234817, -17.16105886851716], [-69.38604137876428, -17.102576245325395], [-69.35936509450136, -17.030755480002142], [-69.32550673370605, -16.99074105360785], [-69.25734113233239, -16.909942692619154], [-69.19286404026343, -16.833145774270008], [-69.15806174940963, -16.78127066148795], [-69.11143981260557, -16.733992077686594], [-69.06219128781248, -16.7169192557584], [-69.01622599800567, -16.67817708292108], [-69.02796356308136, -16.587518756864597], [-69.08336815347354, -16.501333838476683], [-69.02078148654903, -16.423357007554387], [-69.05361383641105, -16.35564028596383], [-69.08542017533989, -16.302287717438105], [-69.02693755214807, -16.279715476907825], [-68.95203875402535, -16.287923564373443], [-68.933570557228, -16.22944094118168], [-69.04643175987871, -16.210972744384264], [-69.10491438307054, -16.241753072379822], [-69.16750104999505, -16.271507389442377], [-69.21880159665449, -16.28381952064069], [-69.3172986462406, -16.278689465974708], [-69.36154536773427, -16.235019875630883], [-69.44971818230522, -16.214179028550404], [-69.46895588730257, -16.156465913558577], [-69.41284591439376, -16.103562224816073], [-69.4417024718897, -16.028214546909965], [-69.51865329187882, -15.981723426499741], [-69.60361982228352, -15.97210457400115], [-69.64690465852743, -15.940041732339012], [-69.69897471338675, -15.90009143162797], [-69.7430931835139, -15.86418104896643], [-69.76566542404402, -15.807750447641013], [-69.82722608003542, -15.79236028364312], [-69.85698039709791, -15.858024983367272], [-69.90725493282412, -15.87136312549876], [-69.96573755601594, -15.833400720970758], [-69.99036181841245, -15.751319846315539], [-69.95239941388445, -15.71233143085442], [-69.90109886722496, -15.682577113791979], [-69.91956706402243, -15.61280837033513], [-69.86416247363024, -15.636406621798415], [-69.81080990510435, -15.704123343388972], [-69.75130127097941, -15.71951350738675], [-69.79747176297286, -15.627172523399793], [-69.84569427683272, -15.539961594078761], [-69.91443700935645, -15.472244872488204], [-69.91443700935645, -15.41478826022967], [-69.86108444083061, -15.376825855701668], [-69.81388793790393, -15.320395254376308], [-69.76361340217767, -15.326551319975351], [-69.71231285551823, -15.272172740516453], [-69.65177821046001, -15.274224762382744], [-69.60252968566698, -15.356305637037906], [-69.54815110620802, -15.38092989943442], [-69.48043438461752, -15.443516566358994], [-69.44144596915635, -15.475322905287783], [-69.38091132409824, -15.506103233283511], [-69.30806454784181, -15.534831539412721], [-69.28481431929004, -15.473039415355629], [-69.22630707183583, -15.479422024168798], [-69.22683895590365, -15.418787240443578], [-69.21088243387072, -15.357620572650546], [-69.18375634641473, -15.31453796316157], [-69.14226938912907, -15.280497382824649], [-69.12631286709609, -15.223053903506013], [-69.18588388268563, -15.16507854011951], [-69.22630707183583, -15.129442307579325], [-69.27364475386696, -15.094337959106724], [-69.30449402979735, -15.030511870975033], [-69.34278968267643, -14.974664043859605], [-69.33215200132116, -14.924666941489761], [-69.33773678403264, -14.862835418612008], [-69.32610182005027, -14.812140218403101], [-69.2504745541649, -14.764769293617803], [-69.22720462620009, -14.718229437688308], [-69.22554248848843, -14.645926447226486], [-69.17650942599124, -14.591075902738226], [-69.12498315692653, -14.557833148502937], [-69.08176757642059, -14.487192295752891], [-69.02442382536464, -14.434834957832209], [-68.97705290057934, -14.380815482199807], [-68.97455969401165, -14.277762944070389], [-68.92635770037043, -14.228729881573202], [-68.87566250016158, -14.217094917590885], [-68.82413623109687, -14.199642471617324], [-68.84574402134984, -14.129001618867335], [-68.87233822473803, -14.079968556370147], [-68.9105673921087, -14.0301044250171], [-68.95710724803803, -13.963618916546523], [-68.9604315234617, -13.90544409663471], [-68.91638487409983, -13.82981683074945], [-68.96292473002927, -13.783276974819842], [-69.00780244824705, -13.736737118890517], [-69.04603161561761, -13.672744816987517], [-68.9945053465529, -13.638670993896312], [-68.9271887692264, -13.569692278858042], [-68.90558097897343, -13.522321354072687], [-68.87898677558513, -13.453342639034418], [-68.87483143130572, -13.376053235437325], [-68.83909547050274, -13.322033759804924], [-68.83161585079978, -13.245575425063578], [-68.84366634921003, -13.165948640309239], [-68.84626343938464, -13.104917021205438], [-68.84366634921003, -13.025705770879028], [-68.86184598043246, -12.946494520552733], [-68.84496489429728, -12.884164356361453], [-68.79951581624124, -12.81014728638445], [-68.76185800870905, -12.750414212367843], [-68.72420020117676, -12.71535349501022], [-68.7216031110022, -12.655620420993614], [-68.69173657399392, -12.604977162588284], [-68.65018313119964, -12.55173681400828], [-68.64281794578261, -12.490887802807151], [-69.0573585809368, -11.722165140031336], [-69.42749222046757, -11.162085803364846], [-69.45824176813528, -11.102248845741258], [-69.50976803720005, -11.022466235576474], [-69.5413486537235, -10.971771035367567], [-69.59370599164419, -10.948501107402933], [-69.66600898210606, -10.966784622232353], [-69.72169059545013, -10.964291415664661], [-69.80812175646201, -10.934372936852924], [-69.90233172196486, -10.933940781047852], [-69.9746679551809, -10.957875564097208], [-70.02626070975418, -10.987661071892092], [-70.09540563856365, -11.011595854941561], [-70.16029549483096, -11.05042339188833], [-70.23688680058905, -11.055210348498292], [-70.29858535244983, -11.078081363412139], [-70.36134767244619, -11.058401652904877], [-70.42570564464569, -11.032871217652144], [-70.47463897888008, -10.974895854265753], [-70.51612593616585, -10.936068317318927], [-70.56452738633243, -10.956811795961698], [-70.62208471559137, -10.999589929091258], [-70.623447934311, -9.835781575687577], [-70.57338927481703, -9.78118942138201], [-70.5236793456931, -9.750247526723228], [-70.52165036899424, -9.689885469929948], [-70.55512848452656, -9.640682784980868], [-70.58962108840848, -9.589958367507506], [-70.53788218258563, -9.53111804323845], [-70.49375193938386, -9.479379137415663], [-70.49901459769671, -9.426815959808948], [-70.56004241246927, -9.425230821762852], [-70.60046343264327, -9.459311289752804], [-70.65198041913965, -9.522716811594421], [-70.71380080293534, -9.556797279584316], [-70.77482861770784, -9.623373077518067], [-70.8437821227107, -9.663794097692119], [-70.87865515972356, -9.705007686889132], [-70.9420606815653, -9.74542870706324], [-70.972970873463, -9.793775417467486], [-71.0332061192126, -9.82468560936536], [-71.11484072858372, -9.857180939309217], [-71.15843202484984, -9.907112787759445], [-71.20440102818509, -9.964177757416905], [-71.2717693951418, -9.990332535176663], [-71.33755262405253, -9.972103447647214], [-72.13368820767676, -10.008660693833917], [-72.15969437874469, -9.924450235138067], [-72.14235693136601, -9.850146889229848], [-72.15597921144928, -9.798134547094094], [-72.2203754445697, -9.772128376026274], [-72.2513351720313, -9.72383120118593], [-72.24142805924356, -9.656958189868476], [-72.27362617580388, -9.607422625929757], [-72.29344040137937, -9.544264781907714], [-72.34173757621971, -9.514543443544483], [-72.42594803491562, -9.487298883378173], [-72.49901299172541, -9.489775661575038], [-72.54607177746732, -9.462531101408729], [-72.63028223616323, -9.450147210424063], [-72.6946784692837, -9.425379428454619], [-73.18769999289879, -9.419385625218013], [-73.17789789550659, -9.36658071405924], [-73.1461951345857, -9.327744831931227], [-73.09705585515849, -9.28019069055], [-73.07010850837571, -9.231051411122792], [-73.0209692289485, -9.201726357271014], [-72.97817050170534, -9.169231027327157], [-72.94091975762336, -9.078878158702707], [-72.94171232664638, -9.023398327091343], [-72.97975563975137, -8.947311700881357], [-73.03523547136285, -8.895794714384976], [-73.07961933665194, -8.838729744727516], [-73.1202622761524, -8.784961862205705], [-73.15272590333541, -8.72003460783992], [-73.21308796012863, -8.687570980656858], [-73.27953694701876, -8.66931019036656], [-73.32569616691933, -8.5998177384281], [-73.32518892274459, -8.532354263188552], [-73.39062342128523, -8.452716927755432], [-73.45402894312684, -8.396920068534769], [-73.51895619749274, -8.35786226708035], [-73.54564992218803, -8.28313885958994], [-73.58686351138516, -8.21973333774821], [-73.60033718477649, -8.123832485962737], [-73.67800894903252, -7.988303183026176], [-73.74537731598923, -7.925690230207579], [-73.73745162575909, -7.864662415434964], [-73.67880151805548, -7.828204240375953], [-73.69861574363097, -7.761628442442202], [-73.75171786817333, -7.729133112498346], [-73.81195311392293, -7.708526317899896], [-73.8452410128898, -7.667312728702768], [-73.89992827547826, -7.618173449275503], [-73.95382296904364, -7.575374722032393], [-73.95540810708962, -7.515139476282798], [-73.93480131249117, -7.465207627832456], [-73.94034929565225, -7.409727796221034], [-73.97363719461924, -7.355833102655595], [-73.92608305323802, -7.339189153172185], [-73.8650552384654, -7.342359429264206], [-73.79530916443957, -7.314619513458581], [-73.7889686122553, -7.256761974777987], [-73.84365587484382, -7.199697005120527], [-73.8832843259948, -7.141046897417027], [-73.84999642702792, -7.092700187012667], [-73.80164971662373, -7.056242011953771], [-73.74696245403521, -7.023746682009914], [-73.74854759208131, -6.942112072638736], [-73.71525969311432, -6.869195722520885], [-73.67880151805548, -6.807375338725251], [-73.6296622386281, -6.752688076136792], [-73.49410123293069, -6.658594281723765], [-73.42714500186588, -6.635768293860735], [-73.36171050332524, -6.594681515707407], [-73.29069631886262, -6.583522143863206], [-73.22931977371991, -6.578449702115961], [-73.17504464702336, -6.524174575419408], [-73.13040715964684, -6.487652994838697], [-73.09388557906613, -6.405986682706612], [-73.12522199697173, -6.350246183949821], [-73.15227501962414, -6.306059580284114], [-73.17752450743308, -6.238427023653003], [-73.2235146459422, -6.166285629913148], [-73.23884469211197, -6.098653073282037], [-73.18253833429799, -5.963496172110467], [-73.16349300635062, -5.904628794818791], [-73.14040776035387, -5.85441838477584], [-73.09827718640986, -5.810556417382031], [-73.0521066944163, -5.76842584343791], [-73.00651333357274, -5.70667281039664], [-72.97552860496137, -5.624774293153507], [-72.94649169398116, -5.533533465420987], [-72.95861144812955, -5.448118055233067], [-72.91936652993496, -5.375976661493212], [-72.89512702163842, -5.310760841552337], [-72.86663982807835, -5.243490434717842], [-72.88030629370854, -5.162599732745264], [-72.83598262139475, -5.124185883406653], [-72.7709745686679, -5.083925214388273], [-72.71335379466007, -5.035907902715053], [-72.64502146650966, -5.043295181434019], [-72.5846304629822, -4.977756168049154], [-72.51191193809234, -4.931585676055704], [-72.41553103605594, -4.87791247911332], [-72.3694759702924, -4.808749082106999], [-72.32478293404267, -4.77919996723125], [-72.22209975984913, -4.757776858946215], [-72.17592926785568, -4.738569934276939], [-72.06809808380484, -4.666682478243047], [-72.02712177216057, -4.62801469119853], [-71.97402570636808, -4.590501166453748], [-71.93535791932351, -4.555873297458675], [-71.89784439457878, -4.508548543165261], [-71.8441711976364, -4.492388870967602], [-71.78414955804482, -4.464109444621499], [-71.71027677085522, -4.479691985669319], [-71.6456380820643, -4.460646657722066], [-71.58907922937232, -4.491811739817706], [-71.52638835821227, -4.4601416679659], [-71.45965756900296, -4.417758599143724], [-71.39743561690238, -4.425874505939419], [-71.33160659511469, -4.401526785552278], [-71.27840231723161, -4.412347994613185], [-71.23692101583123, -4.369063158369215], [-71.17920790083929, -4.386196739382569], [-71.09353999577331, -4.365456088682265], [-71.02861274140741, -4.362750786417109], [-70.97540846352427, -4.349224275090819], [-70.91679358111054, -4.341108368295124], [-70.88703525619286, -4.298725299472949], [-70.84645572221427, -4.253636928385561], [-70.81309032760959, -4.184200836910918], [-70.76980549136567, -4.158049581680189], [-70.71209237637379, -4.142719535510537], [-70.65888809849059, -4.167067255897734], [-70.60658558802919, -4.142719535510537], [-70.55879191467659, -4.176986697537018], [-70.5055876367935, -4.138210698401792], [-70.4496780566451, -4.131898326449459], [-70.38229799489204, -4.105133869372082], [-70.3038081585031, -4.139761738367156], [-70.27206594525757, -4.208440345207578], [-70.2599461911093, -4.25980501755032], [-70.2062729941668, -4.296164279995139], [-70.14682848572522, -4.293278624245602], [-70.09315528878273, -4.244799607652396], [-70.04121348529009, -4.285775919296611], [-69.98465463259805, -4.341180509688797], [-69.95002676360286, -4.264999197899613], [-69.98526783444476, -4.168870790741266], [-70.0213385313146, -4.125585954497353], [-70.05290039107587, -4.083202885675178], [-70.11422057575464, -4.043525119118215], [-70.16471955137251, -3.995731445765614], [-70.18004959754234, -3.896537029373292], [-70.24227154964291, -3.860466332503393], [-70.29006522299562, -3.813574426572529], [-70.34056419861349, -3.784717869076587], [-70.41000029008802, -3.828904472742181], [-70.47041870734517, -3.856859262816442], [-70.54706893819377, -3.837020379537933], [-70.60388028576381, -3.809967356885522], [-70.67421814466024, -3.793735543294076], [-70.07634634404121, -2.79998784452772], [-70.04478448428, -2.741372962114099], [-70.06552513498019, -2.639473243456564], [-70.10430113411536, -2.680052777435208], [-70.17734429527695, -2.633160871504288], [-70.21341499214685, -2.57544775651246], [-70.26120866549957, -2.524047013472796], [-70.32162708275666, -2.547492966438199], [-70.30900233885222, -2.487976316602897], [-70.37753666290496, -2.496993990820272], [-70.43344624305337, -2.483467479494152], [-70.50198056710627, -2.443789712937246], [-70.54616717077187, -2.409522550910765], [-70.6002732160768, -2.458217991685217], [-70.628228006151, -2.416736690284722], [-70.66520047044264, -2.343693529123186], [-70.74545777097819, -2.299506925457536], [-70.80587618823535, -2.267945065696381], [-70.84104511768345, -2.225561996874205], [-70.90507060462767, -2.23097260140463], [-70.96548902188471, -2.201214276486951], [-70.98713144000669, -2.267945065696381], [-71.04394278757684, -2.25712385663536], [-71.10796827452089, -2.268846833118062], [-71.13231599490814, -2.321149343579464], [-71.17650259857373, -2.349104133653611], [-71.2315104113004, -2.32746171553174], [-71.28922352629223, -2.330167017796953], [-71.3730878965149, -2.362630644979845], [-71.41186389565007, -2.328363482953421], [-71.44162222056775, -2.272453902805012], [-71.48580882423335, -2.313033436783769], [-71.51376361430749, -2.252615019526615], [-71.5813961709386, -2.209330183282646], [-71.63910928593054, -2.181375393208498], [-71.70854537740507, -2.190393067426044], [-71.71034891224866, -2.125465813060089], [-71.75994612044474, -2.148911766025606], [-71.8230698399671, -2.197607206799944], [-71.85192639746305, -2.255320321791885], [-71.9195589540941, -2.316640506470719], [-71.97817383650772, -2.351809435918938], [-72.02957457954739, -2.328363482953421], [-72.08097532258705, -2.346398831388399], [-72.12155485656564, -2.395996039584531], [-72.1377866701572, -2.453709154576472], [-72.19476682858868, -2.428198514922144], [-72.27122516332992, -2.435955157576984], [-72.32035056681093, -2.455531446182249], [-72.38314243592214, -2.44334243629595], [-72.43854702631432, -2.408252862380891], [-72.50724871840066, -2.390154029519522], [-72.55304984645818, -2.363929190067211], [-72.60079013517947, -2.341998206370306], [-72.64869202062278, -2.397402796762492], [-72.70755939791445, -2.402596977111784], [-72.76354111945653, -2.377780337665172], [-72.81836857869882, -2.402596977111784], [-72.88127587403994, -2.421065173909142], [-72.93956612018167, -2.389322960663662], [-72.98725158144379, -2.331970552640371], [-73.05217883580963, -2.313935204205507], [-73.11259725306667, -2.283275111866089], [-73.14325734540614, -2.239088508200325], [-73.16399799610633, -2.176866556099753], [-73.118909625019, -2.129974650168833], [-73.08824953267953, -2.068654465490056], [-73.11620432275379, -1.961344142301982], [-73.11710609017541, -1.909041631840523], [-73.13243613634523, -1.841409075209413], [-73.16670329837154, -1.773776518578359], [-73.22080934367636, -1.749428798191161], [-73.2794242260901, -1.783695960217642], [-73.33443203881677, -1.791811867013337], [-73.42009994388275, -1.761151774673863], [-73.46428654754845, -1.727786380069176], [-73.52560673222723, -1.687206846090589], [-73.48502719824864, -1.606047778133245], [-73.4724024543442, -1.555548802515375], [-73.47600952403116, -1.502344524632235], [-73.52831203449261, -1.422988991518366], [-73.56798980104952, -1.372490015900439], [-73.58512338206265, -1.324696342547895], [-73.65636300838082, -1.234519600373062], [-73.73662030891626, -1.207466577720538], [-73.79343165648646, -1.230010763264318], [-73.84483239952613, -1.208368345142333], [-73.9106614213137, -1.119093370389237], [-73.95665155982294, -1.095647417423891], [-74.00206456718206, -1.023830659955877], [-74.07305169862212, -1.03133336490481], [-74.12614776441467, -1.003631069708717], [-74.19713489585462, -0.980545823711964], [-74.2577336665961, -0.953420659665767], [-74.28027334330267, -0.87217817822193], [-74.27322828532027, -0.821453760748568], [-74.28309136649563, -0.769320331678728], [-74.33522479556547, -0.727049983784354], [-74.3634050274951, -0.677734577907529], [-74.36058700430215, -0.624192137241153], [-74.39581229421412, -0.535424406662912], [-74.44935473488044, -0.473427896417718], [-74.51839630310803, -0.431157548523174], [-74.56630269738844, -0.380433131049983], [-74.61561810326526, -0.34802586433085], [-74.68606868308927, -0.336753771558961], [-74.75229222812385, -0.255031098963116], [-74.77765443686059, -0.169081391577777], [-74.83119687752685, -0.171899414770678], [-74.8791032718072, -0.204306681489754], [-74.93828175885943, -0.187398542332005], [-75.01718640826243, -0.12117499729726]]]]}}]}