{"type": "FeatureCollection", "features": [{"type": "Feature", "properties": {"code": "PNG", "name": "Papua New Guinea", "tier": "country"}, "geometry": {"type": "MultiPolygon", "coordinates": [[[[153.25862829999997, -11.363427699999965], [153.20914979999998, -11.326700400000037], [153.17082329999997, -11.359051199999962], [153.21137160000004, -11.397342], [153.25708440000002, -11.437114400000018], [153.30003420000003, -11.473123899999974], [153.3596118, -11.492785099999962], [153.3568444, -11.542936400000018], [153.40585789999997, -11.560543], [153.45886860000002, -11.55169209999998], [153.48273190000006, -11.596945399999962], [153.5378339, -11.616418500000018], [153.58819019999999, -11.6172598], [153.64137210000004, -11.62792390000003], [153.6948049, -11.6264496], [153.75074629999997, -11.617849600000033], [153.74673259999997, -11.558379300000036], [153.7038358, -11.530851600000029], [153.63802859999998, -11.494706300000027], [153.56066540000003, -11.474483700000041], [153.47335710000002, -11.4499708], [153.39938069999997, -11.416055600000034], [153.34977509999996, -11.402959400000027], [153.30480749999998, -11.3755656], [153.25862829999997, -11.363427699999965]]], [[[153.4139142, -11.31492430000001], [153.45471560000001, -11.3450978], [153.4139142, -11.31492430000001]]], [[[154.03201549999997, -11.302492099999965], [154.03201549999997, -11.302492099999965]]], [[[153.25669280000005, -11.292767], [153.25669280000005, -11.292767]]], [[[154.20208769999996, -11.29016689999998], [154.15413569999998, -11.30497409999998], [154.1041431, -11.301622599999964], [154.1226452, -11.3489108], [154.07405279999998, -11.361803799999985], [154.02353580000002, -11.354728399999962], [153.9730189, -11.3662062], [154.01054580000002, -11.402523], [154.0768593, -11.422015899999986], [154.1162304, -11.389474700000028], [154.16562469999997, -11.4007938], [154.2334618, -11.4085754], [154.28437190000002, -11.393659900000012], [154.26901649999996, -11.334986400000039], [154.22616580000002, -11.307175100000014], [154.20208769999996, -11.29016689999998]]], [[[153.10066970000003, -11.247190199999983], [153.10066970000003, -11.247190199999983]]], [[[153.11886829999997, -11.183494699999978], [153.09522170000002, -11.228975400000033], [153.14461010000002, -11.246420299999963], [153.1782443, -11.2857338], [153.2285174, -11.26901869999997], [153.19497380000007, -11.228575299999969], [153.1409184, -11.201187800000016], [153.11886829999997, -11.183494699999978]]], [[[152.94733569999997, -11.172059], [152.94733569999997, -11.172059]]], [[[152.92804, -11.165628600000014], [152.92804, -11.165628600000014]]], [[[152.79208420000003, -11.150639499999974], [152.79208420000003, -11.150639499999974]]], [[[153.02854149999996, -11.147473400000022], [152.98424290000003, -11.1814898], [153.0273299, -11.208769700000024], [153.04585610000004, -11.15131550000004], [153.02854149999996, -11.147473400000022]]], [[[152.86981109999996, -11.151898100000016], [152.86981109999996, -11.151898100000016]]], [[[153.08551279999998, -11.147928600000027], [153.08551279999998, -11.147928600000027]]], [[[152.32906809999997, -11.132000700000026], [152.32906809999997, -11.132000700000026]]], [[[152.69169210000007, -11.124756], [152.69169210000007, -11.124756]]], [[[152.74169860000003, -11.132699500000024], [152.74169860000003, -11.132699500000024]]], [[[153.07361970000002, -11.108546800000022], [153.12348470000003, -11.141123800000011], [153.07361970000002, -11.108546800000022]]], [[[152.56166929999998, -11.071359], [152.56166929999998, -11.071359]]], [[[152.45991940000002, -11.0446836], [152.45991940000002, -11.0446836]]], [[[152.41447219999998, -10.781292100000032], [152.41447219999998, -10.781292100000032]]], [[[150.4115, -10.75475], [150.4115, -10.75475]]], [[[150.39675, -10.7495], [150.39675, -10.7495]]], [[[151.30675, -10.74475], [151.30675, -10.74475]]], [[[150.303, -10.72125], [150.303, -10.72125]]], [[[151.24225, -10.70825], [151.24225, -10.70825]]], [[[150.25825, -10.698], [150.25825, -10.698]]], [[[150.71966019999996, -10.687091100000016], [150.71966019999996, -10.687091100000016]]], [[[150.8905, -10.6635], [150.8905, -10.6635]]], [[[152.41361390000003, -10.695277899999981], [152.37293020000004, -10.661371500000042], [152.34357609999998, -10.709278], [152.4146439, -10.730023800000014], [152.41361390000003, -10.695277899999981]]], [[[150.9235, -10.66], [150.9235, -10.66]]], [[[151.093, -10.655], [151.093, -10.655]]], [[[151.27725, -10.61675], [151.27725, -10.61675]]], [[[150.62975, -10.618], [150.66125, -10.6595], [150.631, -10.61925], [150.62975, -10.618]]], [[[152.80546470000002, -10.621656299999986], [152.755906, -10.6283914], [152.70636309999998, -10.646389599999976], [152.63086379999996, -10.6380491], [152.54249529999998, -10.610604], [152.58321940000002, -10.664298700000034], [152.6527422, -10.678300199999983], [152.69857580000001, -10.702759], [152.74784429999997, -10.718797800000027], [152.79539280000003, -10.69685540000003], [152.84661309999998, -10.692795], [152.84046280000004, -10.640647699999976], [152.80546470000002, -10.621656299999986]]], [[[150.7655, -10.6045], [150.7655, -10.6045]]], [[[151.2265, -10.59825], [151.2265, -10.59825]]], [[[151.194, -10.58], [151.194, -10.58]]], [[[151.02725, -10.58125], [150.96775, -10.5895], [150.919, -10.60475], [150.90525, -10.657], [150.954, -10.64075], [151.005, -10.64875], [151.05125, -10.6725], [151.05, -10.6225], [151.02725, -10.58125]]], [[[150.70477340000002, -10.57710259999998], [150.723176, -10.629632400000014], [150.7198165, -10.579531400000034], [150.70477340000002, -10.57710259999998]]], [[[150.76875, -10.56125], [150.76875, -10.56125]]], [[[150.71975, -10.55375], [150.71975, -10.55375]]], [[[150.86425, -10.53], [150.815, -10.54475], [150.8285, -10.5965], [150.86975, -10.62775], [150.81775, -10.6275], [150.85825, -10.65775], [150.8835, -10.6125], [150.901, -10.55925], [150.86425, -10.53]]], [[[149.84175, -10.47925], [149.84175, -10.47925]]], [[[150.09225, -10.4615], [150.09225, -10.4615]]], [[[150.10025, -10.446], [150.10025, -10.446]]], [[[151.0255, -10.2635], [151.0255, -10.2635]]], [[[150.61076260000002, -10.22650080000003], [150.61076260000002, -10.22650080000003]]], [[[148.73175, -10.171], [148.73175, -10.171]]], [[[148.7675, -10.137], [148.7675, -10.137]]], [[[150.77955660000003, -9.801370099999977], [150.77955660000003, -9.801370099999977]]], [[[150.87314450000002, -9.7418529], [150.87314450000002, -9.7418529]]], [[[150.7571692, -9.712004700000024], [150.7568721, -9.7706579], [150.79863620000003, -9.802584199999979], [150.8384909, -9.833160199999961], [150.8690478, -9.87928749999996], [150.8800272, -9.931642800000033], [150.88517240000002, -9.983123699999966], [150.934382, -10.001053799999985], [150.9845135, -9.997455900000011], [150.947974, -10.032593600000043], [150.95526360000002, -10.094615799999977], [151.00259789999998, -10.111147700000037], [151.05773880000007, -10.113296800000041], [151.10871670000003, -10.133241799999974], [151.15522869999998, -10.154262900000036], [151.20446819999998, -10.16665819999996], [151.23362, -10.125689099999983], [151.25718089999998, -10.078170499999976], [151.27836520000002, -10.021466200000043], [151.29387860000003, -9.973773899999964], [151.2734687, -9.926969499999986], [151.22181350000002, -9.9329455], [151.17544619999998, -9.958547800000032], [151.14784650000004, -10.004750799999988], [151.1086799, -10.04112620000002], [151.0593333, -10.011176499999989], [151.03303610000003, -9.968342499999986], [150.99180959999998, -9.91687789999998], [150.9598908, -9.877312100000028], [150.9239654, -9.838624099999963], [150.86908560000003, -9.80899139999996], [150.8307804, -9.7724579], [150.7970548, -9.724197399999971], [150.7571692, -9.712004700000024]]], [[[150.9937002, -9.575709099999989], [150.9518089, -9.603746299999964], [150.9974475, -9.627969500000026], [151.02671120000002, -9.6691093], [151.0203103, -9.61865459999998], [150.9937002, -9.575709099999989]]], [[[152.43329360000004, -9.5506226], [152.43329360000004, -9.5506226]]], [[[147.05354259999996, -9.5130937], [147.05354259999996, -9.5130937]]], [[[150.9707196, -9.4690305], [150.9707196, -9.4690305]]], [[[147.0405, -9.4515], [147.0405, -9.4515]]], [[[150.49332030000002, -9.3319755], [150.44410180000006, -9.3494781], [150.4282583, -9.397227700000025], [150.44694909999998, -9.447682499999969], [150.48331160000004, -9.483064400000044], [150.51731779999997, -9.522622100000037], [150.4894823, -9.56477840000001], [150.44505390000003, -9.593578699999975], [150.46072449999997, -9.642110100000027], [150.50979859999998, -9.627846], [150.5751634, -9.631462500000024], [150.62305089999998, -9.649626500000034], [150.66998520000004, -9.668304700000045], [150.721905, -9.664626800000024], [150.7760686, -9.674744599999977], [150.82830979999997, -9.6612044], [150.8441984, -9.72153070000004], [150.87934160000003, -9.6794959], [150.92980279999998, -9.678524900000033], [150.92293660000004, -9.628931400000033], [150.89178190000004, -9.58954339999996], [150.89147839999998, -9.529398500000012], [150.85254920000003, -9.494300200000042], [150.8171763, -9.4429233], [150.7778301, -9.40202739999996], [150.7241778, -9.4237566], [150.66156150000003, -9.431317300000023], [150.62564729999997, -9.389741699999957], [150.57847870000003, -9.372979600000034], [150.53114370000003, -9.34589420000003], [150.49332030000002, -9.3319755]]], [[[150.70722230000007, -9.293649200000024], [150.70722230000007, -9.293649200000024]]], [[[153.68820929999998, -9.285173200000022], [153.68820929999998, -9.285173200000022]]], [[[150.7960273, -9.2990494], [150.7960273, -9.2990494]]], [[[150.75695619999996, -9.26173970000002], [150.75695619999996, -9.26173970000002]]], [[[150.90624579999997, -9.2449947], [150.90624579999997, -9.2449947]]], [[[150.87070249999996, -9.225171099999988], [150.87070249999996, -9.225171099999988]]], [[[150.21213529999997, -9.19808530000004], [150.1598083, -9.2193639], [150.11961039999997, -9.2557087], [150.10116340000002, -9.302357599999981], [150.10700740000001, -9.365332799999985], [150.14524940000004, -9.4049261], [150.19565579999997, -9.452513], [150.2530034, -9.469873], [150.29451329999998, -9.500915800000035], [150.3432461, -9.520421799999971], [150.3622239, -9.468906300000016], [150.36517529999998, -9.418201299999977], [150.36159190000004, -9.366824899999985], [150.3510727, -9.315080700000026], [150.32947280000002, -9.26624879999998], [150.28557769999998, -9.234188], [150.23750119999997, -9.208340800000018], [150.21213529999997, -9.19808530000004]]], [[[142.2725, -9.19025], [142.2725, -9.19025]]], [[[142.051, -9.17975], [142.051, -9.17975]]], [[[142.01, -9.17825], [142.01, -9.17825]]], [[[142.0225, -9.178], [142.0225, -9.178]]], [[[146.93225, -9.13225], [146.93225, -9.13225]]], [[[146.903, -9.125], [146.903, -9.125]]], [[[143.25150620000002, -9.0958986], [143.2045, -9.1185], [143.25384730000002, -9.14551439999998], [143.2719437, -9.09811540000001], [143.25150620000002, -9.0958986]]], [[[143.21075, -9.068], [143.21075, -9.068]]], [[[143.43875, -8.96775], [143.3905, -8.99325], [143.43225, -9.0275], [143.45, -8.97775], [143.43875, -8.96775]]], [[[152.00036590000002, -8.976689299999975], [152.00036590000002, -8.976689299999975]]], [[[152.45057359999998, -8.9428758], [152.39865049999997, -8.9801504], [152.42008409999997, -9.0425609], [152.42155430000003, -8.986174900000023], [152.4686807, -8.966544900000041], [152.4697326, -9.038687300000039], [152.5385688, -9.045129299999967], [152.5970282, -9.068397100000029], [152.64345390000003, -9.111747200000012], [152.68786260000002, -9.086037399999961], [152.6694215, -9.132759], [152.6990722, -9.177844200000033], [152.64242389999998, -9.184283700000021], [152.69546729999996, -9.2202076], [152.737181, -9.260194], [152.736151, -9.195129], [152.80275560000004, -9.238337600000039], [152.85133460000003, -9.251595199999988], [152.910559, -9.23681259999998], [152.96068410000004, -9.257144300000023], [152.9232619, -9.194959599999967], [152.9816288, -9.199528399999982], [153.01475939999997, -9.157332], [152.97802389999998, -9.1215713], [152.9376835, -9.0837729], [152.88391519999996, -9.082725600000034], [152.83493819999998, -9.071848], [152.81355440000004, -9.02484050000001], [152.7573676, -9.01276130000004], [152.7031032, -9.009491600000043], [152.644317, -8.990350899999957], [152.5596728, -8.988486200000036], [152.49953439999996, -8.9821716], [152.459705, -8.9462788], [152.45057359999998, -8.9428758]]], [[[151.91745340000003, -8.927344400000027], [151.91745340000003, -8.927344400000027]]], [[[151.1992826, -8.860380499999955], [151.1572256, -8.8217067], [151.11980340000002, -8.86699529999997], [151.18280320000002, -8.87598449999998], [151.1992826, -8.860380499999955]]], [[[151.91711010000003, -8.807769599999961], [151.91711010000003, -8.807769599999961]]], [[[146.516481, -8.774839499999977], [146.5258489, -8.825532900000034], [146.5134614, -8.7761654], [146.516481, -8.774839499999977]]], [[[151.010251, -8.7464803], [151.010251, -8.7464803]]], [[[143.43975, -8.703], [143.43975, -8.76725], [143.45425, -8.7165], [143.43975, -8.703]]], [[[151.676614, -8.711388], [151.676614, -8.711388]]], [[[143.36, -8.67725], [143.40725, -8.703], [143.36, -8.67725]]], [[[143.37075, -8.65225], [143.42275, -8.69025], [143.37075, -8.65225]]], [[[151.35717839999998, -8.594439100000042], [151.3099456, -8.6221658], [151.35922840000003, -8.60191709999998], [151.35717839999998, -8.594439100000042]]], [[[150.87145480000004, -8.608757600000018], [150.87145480000004, -8.608757600000018]]], [[[151.10342409999998, -8.583984099999988], [151.10342409999998, -8.583984099999988]]], [[[143.26025, -8.52075], [143.29325, -8.56325], [143.33325, -8.602], [143.31775, -8.5505], [143.26025, -8.52075]]], [[[143.80825, -8.495], [143.80825, -8.495]]], [[[150.9361258, -8.573793799999986], [150.97189370000004, -8.53401359999997], [150.9650693, -8.4824378], [150.9238285, -8.5127929], [150.9202236, -8.573396100000032], [150.9361258, -8.573793799999986]]], [[[143.2055, -8.4695], [143.2055, -8.4695]]], [[[143.62925, -8.45875], [143.59775, -8.504], [143.64025, -8.5345], [143.6705, -8.48625], [143.62925, -8.45875]]], [[[143.3243936, -8.463231299999975], [143.3243936, -8.463231299999975]]], [[[143.14375, -8.45125], [143.175, -8.49075], [143.2215, -8.5185], [143.1795, -8.469], [143.14375, -8.45125]]], [[[143.30293589999997, -8.455590599999987], [143.30293589999997, -8.455590599999987]]], [[[143.72975, -8.43625], [143.7385, -8.48575], [143.79, -8.483], [143.756, -8.4415], [143.72975, -8.43625]]], [[[143.31224259999996, -8.46798520000003], [143.25017980000004, -8.444775499999981], [143.21023869999996, -8.4031203], [143.22501460000004, -8.458903299999989], [143.269, -8.48675], [143.31725, -8.50425], [143.36225, -8.5295], [143.4055, -8.58025], [143.457, -8.5955], [143.49825, -8.6245], [143.546, -8.644], [143.59275, -8.66425], [143.6365, -8.6915], [143.6325, -8.64025], [143.585, -8.622], [143.54575, -8.5885], [143.49656060000004, -8.5503853], [143.43755840000006, -8.505151500000043], [143.37770609999998, -8.479589599999972], [143.31224259999996, -8.46798520000003]]], [[[151.1223784, -8.402315], [151.07086819999998, -8.41421309999997], [151.03088280000003, -8.445956], [151.00822350000004, -8.493836499999976], [151.00460690000003, -8.544268399999979], [151.05741330000004, -8.5476501], [151.1067454, -8.56888220000003], [151.11807510000003, -8.622008799999971], [151.089236, -8.678182399999958], [151.0521571, -8.715513600000026], [151.0844412, -8.76233120000003], [151.122195, -8.795593599999975], [151.1026373, -8.747740299999986], [151.1210051, -8.693952799999984], [151.1204901, -8.634557], [151.14676119999996, -8.58075340000002], [151.13164810000006, -8.531865], [151.12785980000004, -8.475001599999967], [151.13112139999998, -8.4162508], [151.1223784, -8.402315]]], [[[143.1425, -8.3965], [143.1425, -8.3965]]], [[[143.15775, -8.39625], [143.15775, -8.39625]]], [[[143.665, -8.394], [143.665, -8.394]]], [[[143.2905763, -8.443025599999967], [143.26568540000002, -8.394968900000023], [143.28439649999999, -8.443874599999958], [143.2905763, -8.443025599999967]]], [[[143.06825, -8.38175], [143.017, -8.388], [143.07325, -8.397], [143.06825, -8.38175]]], [[[143.1425, -8.36825], [143.1425, -8.36825]]], [[[143.08875, -8.3595], [143.08875, -8.3595]]], [[[143.03025, -8.3545], [143.03025, -8.3545]]], [[[143.364106, -8.360757299999968], [143.3891656, -8.419981], [143.4425331, -8.43329359999996], [143.49265220000004, -8.459917499999971], [143.541379, -8.487916399999975], [143.6040279, -8.448441900000027], [143.58639340000002, -8.383254200000014], [143.4754817, -8.362593800000042], [143.37477950000002, -8.364430400000035], [143.364106, -8.360757299999968]]], [[[143.5765, -8.32825], [143.5935, -8.37625], [143.643, -8.39975], [143.65125, -8.34675], [143.59275, -8.3325], [143.5765, -8.32825]]], [[[150.88285150000002, -8.3937824], [150.86098880000003, -8.339051600000015], [150.88271660000004, -8.395198500000014], [150.88285150000002, -8.3937824]]], [[[142.8945, -8.325], [142.8945, -8.325]]], [[[143.2805, -8.322], [143.2055, -8.32625], [143.145, -8.333], [143.18975, -8.358], [143.2465, -8.3575], [143.29275, -8.33775], [143.2805, -8.322]]], [[[143.12925, -8.3175], [143.052, -8.33525], [143.11875, -8.336], [143.12925, -8.3175]]], [[[143.38075, -8.30425], [143.3135, -8.31425], [143.37975, -8.3195], [143.429, -8.32975], [143.47975, -8.3305], [143.43025, -8.30525], [143.38075, -8.30425]]], [[[143.21375, -8.3015], [143.21375, -8.3015]]], [[[142.18160180000004, -8.22889290000002], [142.18160180000004, -8.22889290000002]]], [[[142.10475, -8.21099], [142.10475, -8.21099]]], [[[142.2573334, -8.16965230000002], [142.2573334, -8.16965230000002]]], [[[146.103502, -8.150761600000013], [146.1371477, -8.205814299999982], [146.16100860000003, -8.156709099999972], [146.1088235, -8.126801200000024], [146.103502, -8.150761600000013]]], [[[143.6385, -8.08825], [143.5795, -8.10075], [143.6035, -8.145], [143.65175, -8.172], [143.687, -8.122], [143.6385, -8.08825]]], [[[143.59225, -8.012], [143.54275, -8.029], [143.57125, -8.07875], [143.632, -8.0745], [143.6845, -8.09275], [143.66525, -8.04025], [143.6055, -8.014], [143.59225, -8.012]]], [[[142.02840349999997, -8.020724900000033], [142.02840349999997, -8.020724900000033]]], [[[145.79725, -7.932], [145.79725, -7.932]]], [[[145.36175, -7.87825], [145.36175, -7.87825]]], [[[145.2065, -7.8385], [145.2065, -7.8385]]], [[[145.0365, -7.8325], [145.0365, -7.8325]]], [[[143.864, -7.79325], [143.87225, -7.84775], [143.867, -7.7965], [143.864, -7.79325]]], [[[144.1985, -7.7485], [144.1925, -7.79875], [144.2445, -7.79525], [144.21925, -7.75075], [144.1985, -7.7485]]], [[[144.86225, -7.72875], [144.87774890000003, -7.780566600000019], [144.86225, -7.72875]]], [[[144.373, -7.743], [144.415, -7.77025], [144.373, -7.743]]], [[[143.9918994, -7.833470700000025], [143.97332189999997, -7.785505600000023], [143.911622, -7.7473526], [143.85588939999997, -7.7206881], [143.88606380000004, -7.766429500000041], [143.963639, -7.829566799999957], [143.9918994, -7.833470700000025]]], [[[144.88109629999997, -7.706426], [144.88109629999997, -7.706426]]], [[[144.43, -7.68475], [144.44175, -7.738], [144.47275, -7.7775], [144.5165, -7.80325], [144.4815, -7.759], [144.46, -7.71225], [144.43, -7.68475]]], [[[144.67578459999996, -7.633647500000021], [144.67578459999996, -7.633647500000021]]], [[[144.65259379999998, -7.609351599999983], [144.65259379999998, -7.609351599999983]]], [[[144.1775, -7.61975], [144.13675, -7.64875], [144.16775, -7.6885], [144.19425, -7.7365], [144.2295, -7.69775], [144.19175, -7.65125], [144.1775, -7.61975]]], [[[144.401177, -7.60541140000002], [144.38497559999996, -7.658411599999984], [144.3661521, -7.717437199999957], [144.40398649999997, -7.755762400000024], [144.41765929999997, -7.70296], [144.43077020000004, -7.652378599999968], [144.401177, -7.60541140000002]]], [[[144.41675, -7.60375], [144.43575, -7.654], [144.41675, -7.60375]]], [[[144.26975, -7.59425], [144.25575, -7.64275], [144.26975, -7.59425]]], [[[144.242, -7.6135], [144.2035, -7.65775], [144.26, -7.6625], [144.242, -7.6135]]], [[[144.28075, -7.5865], [144.29225, -7.642], [144.29275, -7.6925], [144.3055, -7.6415], [144.2835, -7.592], [144.28075, -7.5865]]], [[[144.30175, -7.579], [144.31825, -7.6265], [144.34225, -7.67275], [144.342, -7.62275], [144.31175, -7.57625], [144.30175, -7.579]]], [[[144.32425, -7.56525], [144.35925, -7.604], [144.328, -7.5645], [144.32425, -7.56525]]], [[[144.39525, -7.55825], [144.42825, -7.60025], [144.39525, -7.55825]]], [[[143.78703389999998, -7.62504580000001], [143.76729290000006, -7.562428400000035], [143.7822274, -7.624195099999967], [143.78703389999998, -7.62504580000001]]], [[[144.71384169999996, -7.537376299999957], [144.7045, -7.58725], [144.74009639999997, -7.628850799999978], [144.72774109999997, -7.5772405], [144.71384169999996, -7.537376299999957]]], [[[144.2475, -7.53325], [144.251, -7.58375], [144.2475, -7.53325]]], [[[144.65275, -7.54125], [144.60453270000002, -7.558321], [144.5885897, -7.612896600000021], [144.6252641, -7.650682599999972], [144.653345, -7.5979291], [144.65242690000002, -7.545817600000018], [144.65275, -7.54125]]], [[[144.79175, -7.53025], [144.770538, -7.575530199999972], [144.77464320000004, -7.62651130000003], [144.792146, -7.678553500000043], [144.83575, -7.63425], [144.83674970000004, -7.580344200000025], [144.798, -7.5485], [144.79175, -7.53025]]], [[[144.67975, -7.53025], [144.67975, -7.53025]]], [[[144.452, -7.51725], [144.4445, -7.571], [144.4975, -7.64025], [144.52575, -7.6885], [144.5245, -7.63775], [144.48475, -7.599], [144.4695, -7.54975], [144.452, -7.51725]]], [[[144.331, -7.5195], [144.331, -7.5195]]], [[[143.74926840000003, -7.519373699999979], [143.74926840000003, -7.519373699999979]]], [[[144.59925, -7.51], [144.59925, -7.51]]], [[[144.35925, -7.50425], [144.33725, -7.55025], [144.3845, -7.59225], [144.373, -7.52425], [144.35925, -7.50425]]], [[[144.36625, -7.49575], [144.36625, -7.49575]]], [[[144.8046596, -7.496144600000012], [144.76619160000004, -7.534116499999979], [144.80975, -7.56], [144.81637010000003, -7.503899], [144.8046596, -7.496144600000012]]], [[[144.33775, -7.493], [144.33775, -7.493]]], [[[144.51675, -7.48775], [144.46125, -7.49275], [144.4715, -7.54975], [144.50225, -7.5095], [144.50125, -7.5645], [144.50625, -7.62025], [144.52275, -7.56725], [144.51075, -7.51175], [144.51675, -7.48775]]], [[[144.6995, -7.495], [144.6995, -7.495]]], [[[144.27325, -7.5005], [144.27675, -7.5505], [144.27825, -7.5005], [144.27325, -7.5005]]], [[[144.35475, -7.478], [144.35475, -7.478]]], [[[144.3905, -7.45925], [144.389, -7.52075], [144.394, -7.4635], [144.3905, -7.45925]]], [[[144.6315, -7.45875], [144.60825, -7.505], [144.6575, -7.52575], [144.6355, -7.4715], [144.6315, -7.45875]]], [[[144.48275, -7.458], [144.435, -7.48], [144.48225, -7.50475], [144.48275, -7.458]]], [[[144.421, -7.455], [144.42375, -7.5205], [144.442, -7.4705], [144.421, -7.455]]], [[[144.27175, -7.456], [144.2905, -7.50425], [144.2705, -7.45675], [144.27175, -7.456]]], [[[144.31775, -7.455], [144.34275, -7.50025], [144.31775, -7.455]]], [[[144.72375, -7.452], [144.71225, -7.5085], [144.735, -7.461], [144.72375, -7.452]]], [[[144.75139830000003, -7.457213299999979], [144.73175, -7.50325], [144.75139830000003, -7.457213299999979]]], [[[144.3255, -7.447], [144.3255, -7.447]]], [[[144.5715, -7.44325], [144.5605, -7.494], [144.559, -7.54525], [144.5605, -7.596], [144.6024962, -7.559193900000019], [144.598, -7.509], [144.58375, -7.4605], [144.5715, -7.44325]]], [[[144.70476960000002, -7.44201859999998], [144.65357159999996, -7.44672080000002], [144.67525, -7.49225], [144.714, -7.44325], [144.70476960000002, -7.44201859999998]]], [[[144.60175, -7.4375], [144.59225, -7.48875], [144.6155, -7.44425], [144.60175, -7.4375]]], [[[144.3855, -7.42175], [144.3465, -7.45675], [144.39925, -7.462], [144.3855, -7.42175]]], [[[144.56825, -7.42775], [144.56825, -7.42775]]], [[[144.33175, -7.40775], [144.33175, -7.40775]]], [[[144.426, -7.4075], [144.40475, -7.45325], [144.46175, -7.42125], [144.426, -7.4075]]], [[[144.339, -7.4065], [144.339, -7.4065]]], [[[144.57075, -7.401], [144.57075, -7.401]]], [[[144.262, -7.42525], [144.262, -7.42525]]], [[[147.254, -7.396], [147.254, -7.396]]], [[[144.284, -7.3875], [144.27025, -7.44225], [144.3315, -7.44275], [144.2945, -7.4075], [144.284, -7.3875]], [[144.319, -7.44225], [144.319, -7.44225]]], [[[144.329, -7.344], [144.2775, -7.3625], [144.302, -7.411], [144.35325, -7.412], [144.40625, -7.3975], [144.407, -7.34725], [144.35725, -7.3575], [144.329, -7.344]], [[144.33925, -7.3965], [144.33925, -7.3965]]], [[[144.45775, -7.33025], [144.41075, -7.351], [144.41125, -7.403], [144.4615, -7.40925], [144.45475, -7.46075], [144.50325, -7.48375], [144.557, -7.476], [144.51125, -7.4355], [144.49325, -7.387], [144.469, -7.3345], [144.45775, -7.33025]], [[144.54425, -7.4595], [144.54425, -7.4595]]], [[[147.06425, -7.013], [147.06425, -7.013]]], [[[147.3486629, -6.730603800000037], [147.3486629, -6.730603800000037]]], [[[149.79466019999998, -6.31656049999996], [149.79466019999998, -6.31656049999996]]], [[[150.07867839999997, -6.31169110000003], [150.07867839999997, -6.31169110000003]]], [[[149.954389, -6.303597200000024], [149.954389, -6.303597200000024]]], [[[150.32947410000003, -6.285695499999957], [150.32947410000003, -6.285695499999957]]], [[[150.3604246, -6.269256500000034], [150.3604246, -6.269256500000034]]], [[[149.54973909999998, -6.253021], [149.54973909999998, -6.253021]]], [[[149.5479041, -6.2514723], [149.5479041, -6.2514723]]], [[[149.54033579999998, -6.234883500000035], [149.54033579999998, -6.234883500000035]]], [[[155.6604353, -6.18588509999998], [155.6604353, -6.18588509999998]]], [[[148.954187, -6.178857600000012], [148.954187, -6.178857600000012]]], [[[149.04932889999998, -6.183990199999958], [149.04932889999998, -6.183990199999958]]], [[[149.00532140000004, -6.149235399999989], [149.00532140000004, -6.149235399999989]]], [[[148.96496209999998, -6.129037800000028], [148.96496209999998, -6.129037800000028]]], [[[149.0061625, -6.129367300000024], [149.0061625, -6.129367300000024]]], [[[149.0227044, -6.10097489999997], [149.0227044, -6.10097489999997]]], [[[149.04844820000002, -6.09106850000001], [149.04844820000002, -6.09106850000001]]], [[[149.0203254, -6.075765500000021], [149.0203254, -6.075765500000021]]], [[[148.988468, -6.071723399999976], [148.988468, -6.071723399999976]]], [[[148.87188929999996, -5.9834527], [148.87188929999996, -5.9834527]]], [[[149.44216920000002, -5.513292], [149.44216920000002, -5.513292]]], [[[154.6521127, -5.49387180000003], [154.6573684, -5.544629900000023], [154.6521127, -5.49387180000003]]], [[[147.78975, -5.461], [147.7515, -5.49575], [147.75375, -5.5495], [147.761, -5.6095], [147.795, -5.65275], [147.83375, -5.68525], [147.85475, -5.73125], [147.89675, -5.76125], [147.94825, -5.77775], [147.986, -5.81275], [148.03675, -5.8145], [148.05825, -5.76525], [148.06825, -5.71575], [148.07975, -5.6635], [148.0665, -5.6095], [148.0245, -5.56425], [147.9765, -5.5395], [147.9245, -5.5265], [147.87825, -5.50575], [147.843, -5.46525], [147.792, -5.465], [147.78975, -5.461]]], [[[154.63897390000002, -5.459635499999973], [154.63897390000002, -5.459635499999973]]], [[[154.74731030000007, -5.433328299999965], [154.69036340000002, -5.422949099999966], [154.7105202, -5.4724089], [154.74993890000002, -5.506773799999956], [154.760818, -5.567505], [154.7334666, -5.611324], [154.71218690000006, -5.6623154], [154.71230250000002, -5.7193619], [154.7231043, -5.794053], [154.745277, -5.8390217], [154.73122689999997, -5.89035880000002], [154.74861870000004, -5.947527900000041], [154.79688019999998, -5.981221599999967], [154.82728, -6.027467600000016], [154.87893890000004, -6.057730699999955], [154.940222, -6.0916995], [154.95944809999997, -6.1546811], [154.99172039999996, -6.207757499999958], [155.035833, -6.2375], [155.101667, -6.2675], [155.165833, -6.276667], [155.2075, -6.309167], [155.2149537, -6.373492199999967], [155.230833, -6.43], [155.215, -6.4875], [155.1675, -6.511667], [155.221667, -6.596667], [155.279167, -6.66], [155.32, -6.698333], [155.37847989999997, -6.747218600000029], [155.456667, -6.8025], [155.52206069999997, -6.838871200000043], [155.5835776, -6.853824100000019], [155.63478570000004, -6.863695600000022], [155.6856715, -6.865833], [155.7378228, -6.834912100000026], [155.779827, -6.796353800000035], [155.82, -6.764167], [155.865833, -6.785], [155.905, -6.746667], [155.906667, -6.796667], [155.951667, -6.7575], [155.968333, -6.7075], [155.935833, -6.639167], [155.920833, -6.586667], [155.92536209999997, -6.521445600000011], [155.88515440000003, -6.485998699999976], [155.8545979, -6.438446899999975], [155.8191979, -6.382766], [155.77, -6.344167], [155.7225, -6.295833], [155.68375230000004, -6.257643099999968], [155.64483879999997, -6.219804500000017], [155.62740839999998, -6.1661263], [155.62482889999998, -6.218075499999956], [155.5736726, -6.218769299999985], [155.54459639999996, -6.1778752], [155.4805602, -6.165995600000021], [155.43892890000004, -6.11696289999997], [155.41347659999997, -6.068311], [155.4014542, -6.000156199999965], [155.36312910000004, -5.9624076], [155.31062279999998, -5.9470981], [155.27751629999997, -5.894745599999987], [155.2316031, -5.86903050000003], [155.18691670000004, -5.842662499999965], [155.16779439999996, -5.793508], [155.17243260000004, -5.743089099999968], [155.1345996, -5.708791900000024], [155.1107561, -5.6565123], [155.08485390000004, -5.613401], [155.05169859999998, -5.575852200000011], [155.0065581, -5.5470244], [154.94770559999998, -5.537807100000028], [154.89761460000003, -5.530928799999971], [154.8474906, -5.518627700000025], [154.79758860000004, -5.481178200000028], [154.75707659999998, -5.448686], [154.74731030000007, -5.433328299999965]]], [[[148.07175, -5.36975], [148.05075, -5.423], [148.10225, -5.438], [148.10375, -5.38425], [148.07175, -5.36975]]], [[[154.5572519, -5.329083199999965], [154.5572519, -5.329083199999965]]], [[[154.5507693, -5.30925969999996], [154.5507693, -5.30925969999996]]], [[[150.0755099, -5.29131230000002], [150.0755099, -5.29131230000002]]], [[[147.589, -5.281], [147.5545, -5.32125], [147.6045, -5.34275], [147.61675, -5.29025], [147.589, -5.281]]], [[[147.09675, -5.206], [147.05372219999998, -5.2325986], [146.9961679, -5.251019599999965], [146.99740930000002, -5.301078800000039], [146.99876669999998, -5.3592368], [147.04588770000004, -5.380424100000039], [147.0895, -5.40825], [147.12842879999997, -5.439837500000036], [147.174664, -5.4122557], [147.2058208, -5.370082200000017], [147.194, -5.3195], [147.1845088, -5.269764199999963], [147.14025, -5.245], [147.10525, -5.208], [147.09675, -5.206]]], [[[154.52103140000003, -5.194335700000033], [154.52103140000003, -5.194335700000033]]], [[[145.82706339999996, -5.196960300000034], [145.82706339999996, -5.196960300000034]]], [[[145.819452, -5.0759915], [145.819452, -5.0759915]]], [[[154.67554410000002, -5.095714599999959], [154.65485690000003, -5.047875499999989], [154.62806379999998, -5.003028799999989], [154.58058340000002, -5.039523699999961], [154.52699719999998, -5.0999809], [154.57356620000002, -5.120676699999962], [154.56281250000004, -5.172413099999987], [154.55096519999998, -5.223147100000028], [154.55980509999998, -5.283223800000017], [154.57631919999997, -5.338783899999958], [154.60000960000002, -5.38910190000004], [154.61512290000002, -5.439468399999961], [154.6695499, -5.4350859], [154.68137669999996, -5.386302499999965], [154.69295059999996, -5.319974800000041], [154.70525349999997, -5.259629400000024], [154.7120885, -5.204088299999968], [154.682288, -5.1604324], [154.67554410000002, -5.095714599999959]]], [[[151.17477480000002, -4.884021499999982], [151.1294887, -4.905859599999964], [151.161977, -4.957866199999962], [151.2151855, -4.935652900000022], [151.18914860000004, -4.891559199999975], [151.17477480000002, -4.884021499999982]]], [[[149.15004979999998, -4.862435100000042], [149.1087664, -4.891173799999972], [149.15574740000002, -4.913291800000021], [149.15710779999998, -4.862258299999979], [149.15004979999998, -4.862435100000042]]], [[[152.851, -4.794], [152.851, -4.794]]], [[[146.23825, -4.763], [146.19775, -4.79325], [146.2415, -4.82225], [146.2495, -4.772], [146.23825, -4.763]]], [[[152.764, -4.68675], [152.764, -4.68675]]], [[[149.38371770000003, -4.618778600000041], [149.32911770000004, -4.619336700000034], [149.38049769999998, -4.623802200000029], [149.38371770000003, -4.618778600000041]]], [[[149.11908089999997, -4.552966699999985], [149.11908089999997, -4.552966699999985]]], [[[145.99375, -4.522], [145.9495, -4.548], [145.90675, -4.59025], [145.885, -4.638], [145.882, -4.69425], [145.90825, -4.74225], [145.96475, -4.7515], [146.02325, -4.72875], [146.05175, -4.6835], [146.06175, -4.6315], [146.058, -4.58075], [146.01875, -4.53525], [145.99375, -4.522]]], [[[159.49142390000003, -4.579319200000011], [159.46860049999998, -4.515902100000037], [159.48533930000002, -4.5665966], [159.49142390000003, -4.579319200000011]]], [[[154.16624519999996, -4.478741], [154.16624519999996, -4.478741]]], [[[154.195835, -4.457723900000012], [154.2238375, -4.503745499999969], [154.2334891, -4.5690064], [154.19069170000003, -4.529951799999978], [154.2291712, -4.573310499999963], [154.236664, -4.5154562], [154.20916949999997, -4.463991099999955], [154.195835, -4.457723900000012]]], [[[154.1366205, -4.36609220000004], [154.1379408, -4.4256608], [154.1366205, -4.36609220000004]]], [[[152.4135, -4.202], [152.4135, -4.202]]], [[[152.214167, -4.2], [152.185, -4.1575], [152.1363075, -4.1962652], [152.078333, -4.203333], [152.028333, -4.190833], [151.9804348, -4.208453699999961], [152.025448, -4.242450700000024], [152.0125, -4.291667], [151.95921410000003, -4.335402499999976], [151.90656130000002, -4.321798300000037], [151.86428379999998, -4.294163799999986], [151.8533682, -4.244431599999967], [151.8053237, -4.215982899999961], [151.75461940000002, -4.215244100000028], [151.70504520000003, -4.199781599999987], [151.65267, -4.195273600000029], [151.6016609, -4.198600499999962], [151.5484496, -4.1931973], [151.49023589999996, -4.208809299999984], [151.51432910000003, -4.284220299999976], [151.52591739999997, -4.33579580000001], [151.5327173, -4.388138], [151.5840472, -4.431584699999959], [151.621101, -4.474058299999985], [151.61998949999997, -4.528525299999988], [151.63175950000002, -4.578684100000043], [151.6568019, -4.626536200000022], [151.6581028, -4.765020399999955], [151.6905909, -4.805405700000033], [151.6832539, -4.860628499999954], [151.64470679999997, -4.93373949999998], [151.5844802, -4.965816900000021], [151.5366611, -4.9356923], [151.4786487, -4.950330200000021], [151.42726109999998, -4.935691899999963], [151.38072650000004, -4.9139817], [151.347811, -4.951745599999981], [151.2910369, -4.9733672], [151.2403165, -5.001532700000013], [151.2029689, -5.0475127], [151.16518289999996, -5.089039600000025], [151.1118649, -5.127424100000025], [151.0540113, -5.19991320000002], [151.0365643, -5.249735899999977], [151.01307850000003, -5.29709070000002], [151.0019306, -5.346395700000042], [150.98982229999996, -5.397317900000023], [150.957986, -5.440567300000024], [150.9090103, -5.456964200000017], [150.86268590000003, -5.489798299999962], [150.81917980000003, -5.458190300000035], [150.76504, -5.454583699999962], [150.7313312, -5.50516130000003], [150.68730359999998, -5.541589800000016], [150.63488149999998, -5.546032800000014], [150.58638919999999, -5.509158600000011], [150.55958680000003, -5.46654729999996], [150.51964079999996, -5.435650299999975], [150.4701947, -5.42619290000004], [150.41380469999996, -5.437245499999979], [150.38053539999999, -5.474883699999958], [150.33929219999996, -5.5047723], [150.30363830000005, -5.542691], [150.24463490000002, -5.5510833], [150.19501709999997, -5.541456800000025], [150.14400669999998, -5.544020100000016], [150.097155, -5.517779199999986], [150.09785889999998, -5.466066200000033], [150.0806335, -5.416686799999984], [150.057101, -5.372041699999966], [150.0538293, -5.320848300000017], [150.0253143, -5.2778102], [150.0728359, -5.260128899999963], [150.07708219999998, -5.208903], [150.06127510000002, -5.1516571], [150.10107770000002, -5.117939], [150.15057130000002, -5.0996642], [150.19236660000004, -5.056531300000036], [150.15560719999996, -5.021863100000036], [150.1017513, -5.001285], [150.0393367, -5.010030200000017], [150.01888809999997, -5.061633400000034], [150.0158809, -5.111754800000015], [150.01034779999998, -5.165426300000012], [150.0158809, -5.219213], [149.98765380000003, -5.2636524], [149.942707, -5.2913207], [149.90880670000004, -5.331263200000039], [149.9273531, -5.378304099999956], [149.96638679999998, -5.4141622], [149.94109910000003, -5.467736899999978], [149.89179430000002, -5.507721300000015], [149.8394739, -5.502091599999972], [149.78962440000004, -5.487288300000029], [149.75190510000002, -5.526039299999977], [149.7018229, -5.540995799999984], [149.68044230000004, -5.491206899999981], [149.6284065, -5.4940669], [149.5725193, -5.500356699999956], [149.52144140000001, -5.5256552], [149.48258570000002, -5.557967600000027], [149.43193250000002, -5.556094699999961], [149.38150429999996, -5.568118300000038], [149.33075809999997, -5.567943399999955], [149.27680229999999, -5.5729957], [149.2266946, -5.57996289999996], [149.1840669, -5.542913400000018], [149.13666059999997, -5.524121500000015], [149.08463770000003, -5.510101599999964], [149.03738650000003, -5.4903839], [148.9853138, -5.4600652], [148.93586690000004, -5.473329200000035], [148.88695639999997, -5.484769800000014], [148.843194, -5.5222589], [148.79183769999997, -5.530000900000023], [148.74933759999996, -5.4990046], [148.6931343, -5.486802100000035], [148.64203539999997, -5.487743400000025], [148.5906969, -5.5069417], [148.546648, -5.536601500000018], [148.51052049999998, -5.494936600000025], [148.459413, -5.466694499999972], [148.4099855, -5.444935799999986], [148.364041, -5.469577500000036], [148.338792, -5.5166124], [148.318606, -5.564393], [148.31553570000003, -5.6197218], [148.314021, -5.670686400000016], [148.34004180000002, -5.715079699999984], [148.37796159999996, -5.756631500000034], [148.4257768, -5.77882959999996], [148.47641669999996, -5.792148099999975], [148.5236179, -5.809538899999958], [148.5694627, -5.83767649999998], [148.6128195, -5.8114363], [148.64907379999997, -5.849703199999959], [148.70383269999996, -5.85537940000003], [148.75406990000002, -5.86918959999996], [148.76512909999997, -5.9194245], [148.81547529999997, -5.914467], [148.85001090000003, -5.951108600000013], [148.8828541, -5.989963899999975], [148.93047969999998, -6.0090931], [148.9873977, -6.022834600000018], [149.03430670000003, -6.0415286], [149.05281129999997, -6.090651599999977], [149.0517433, -6.1460549], [149.10270189999997, -6.150966699999974], [149.1370431, -6.1122024], [149.1791483, -6.085115300000024], [149.25125250000002, -6.073383700000037], [149.30225440000004, -6.053167799999984], [149.35442129999998, -6.060848700000013], [149.40392239999997, -6.077533899999968], [149.45929869999998, -6.0969595], [149.49266660000004, -6.139862899999973], [149.52597170000004, -6.184095300000039], [149.55193180000003, -6.23232], [149.58945230000003, -6.273137900000017], [149.65695449999998, -6.283654500000016], [149.71113560000003, -6.271846899999958], [149.785186, -6.274862599999989], [149.83548720000002, -6.274866], [149.88563619999996, -6.270089600000042], [149.93941209999997, -6.271819099999967], [149.98947119999997, -6.284761500000038], [150.04107290000002, -6.2644739], [150.09045480000003, -6.284154099999964], [150.14298530000002, -6.25789979999998], [150.1888829, -6.233748700000022], [150.227287, -6.2661066], [150.27919570000003, -6.27578280000001], [150.3252241, -6.2552335], [150.37873920000004, -6.268883299999975], [150.42728329999997, -6.2542815], [150.4905077, -6.217753], [150.53163330000004, -6.185394], [150.5762323, -6.159633200000017], [150.6071725, -6.119681600000029], [150.6532193, -6.1394542], [150.70105509999996, -6.1234812], [150.74956139999998, -6.106516600000014], [150.780817, -6.066348300000038], [150.81438719999997, -6.0229986], [150.87813580000002, -6.015018900000027], [150.93251520000004, -6.014372899999956], [150.9836099, -6.007506199999971], [151.042428, -6.016621099999989], [151.074167, -5.9725], [151.123333, -5.9625], [151.174167, -5.960833], [151.215, -5.924167], [151.26, -5.875833], [151.300833, -5.846667], [151.375, -5.808333], [151.393333, -5.76], [151.420833, -5.716667], [151.466667, -5.686667], [151.515, -5.665], [151.474167, -5.630833], [151.449167, -5.5825], [151.45917039999998, -5.530954499999965], [151.51071219999997, -5.519185299999976], [151.561667, -5.5325], [151.609167, -5.5625], [151.644167, -5.524167], [151.726667, -5.516667], [151.755, -5.56], [151.8, -5.585], [151.85, -5.560833], [151.9, -5.543333], [151.94303070000004, -5.516723300000018], [151.98834929999998, -5.482036399999981], [152.043333, -5.453333], [152.085833, -5.425833], [152.123333, -5.390833], [152.135, -5.336667], [152.0925, -5.274167], [152.059167, -5.230833], [152.020833, -5.196667], [151.97766929999997, -5.169515699999974], [151.950833, -5.124167], [151.968333, -5.044167], [151.9526025, -4.9892017], [152.004167, -4.980833], [152.056667, -4.9675], [152.105833, -4.976667], [152.155, -4.985833], [152.216667, -4.971667], [152.251667, -4.935833], [152.29, -4.8925], [152.323333, -4.851667], [152.344167, -4.7975], [152.366667, -4.75], [152.3725, -4.6925], [152.373333, -4.6425], [152.364167, -4.59], [152.344167, -4.538333], [152.341667, -4.484167], [152.360833, -4.4375], [152.385, -4.378333], [152.4, -4.325833], [152.345833, -4.3375], [152.27766690000004, -4.3430092], [152.2325, -4.315], [152.18, -4.309167], [152.160833, -4.2475], [152.215833, -4.249167], [152.214167, -4.2]]], [[[152.44625, -4.11725], [152.41375, -4.1625], [152.4295, -4.212], [152.47425, -4.1895], [152.46825, -4.136], [152.44625, -4.11725]]], [[[152.41225, -4.11025], [152.41225, -4.11025]]], [[[152.074, -4.088], [152.074, -4.088]]], [[[145.03525, -4.0315], [144.9895, -4.06625], [145.0135, -4.12], [145.06575, -4.113], [145.07875, -4.06375], [145.03525, -4.0315]]], [[[153.64863780000002, -4.012270500000039], [153.6047773, -4.0404921], [153.57407090000004, -4.085772199999973], [153.6016043, -4.129518499999964], [153.64853380000002, -4.10859], [153.6517068, -4.056317400000033], [153.64863780000002, -4.012270500000039]]], [[[153.70462409999996, -3.9985278], [153.65600569999998, -4.017570299999964], [153.70319119999996, -4.0392158], [153.70462409999996, -3.9985278]]], [[[144.9705, -3.99375], [144.9705, -3.99375]]], [[[144.511704, -3.946764299999963], [144.511704, -3.946764299999963]]], [[[144.48715640000003, -3.951901899999967], [144.48715640000003, -3.951901899999967]]], [[[144.35175, -3.77975], [144.301, -3.78375], [144.33249159999997, -3.8245017], [144.37125, -3.7925], [144.4168975, -3.8190411], [144.379, -3.786], [144.35175, -3.77975]]], [[[144.59093020000003, -3.61337230000003], [144.59093020000003, -3.61337230000003]]], [[[144.82048619999998, -3.5973925], [144.82048619999998, -3.5973925]]], [[[144.60525, -3.49675], [144.60525, -3.49675]]], [[[153.2315705, -3.456174], [153.17664540000004, -3.454116199999959], [153.24243510000002, -3.497710299999969], [153.2315705, -3.456174]]], [[[144.41525, -3.3845], [144.41525, -3.3845]]], [[[143.553, -3.38175], [143.5585, -3.4315], [143.61725, -3.4335], [143.57725, -3.3855], [143.553, -3.38175]]], [[[153.287689, -3.35912810000001], [153.322895, -3.40541689999996], [153.29574189999997, -3.360659299999959], [153.287689, -3.35912810000001]]], [[[144.20627020000003, -3.349518700000022], [144.20627020000003, -3.349518700000022]]], [[[154.69623229999996, -3.364112], [154.69623229999996, -3.364112]]], [[[143.5385, -3.3105], [143.51025, -3.355], [143.5585, -3.3725], [143.617, -3.36575], [143.57575, -3.33375], [143.5385, -3.3105]]], [[[154.71653219999996, -3.30306119999997], [154.72296569999997, -3.353399100000011], [154.73343470000003, -3.402993099999964], [154.732233, -3.4540566], [154.73360630000002, -3.392711499999958], [154.72463440000004, -3.338105299999985], [154.71653219999996, -3.30306119999997]]], [[[154.71934420000002, -3.287848900000025], [154.71934420000002, -3.287848900000025]]], [[[143.29679669999996, -3.213481], [143.29679669999996, -3.213481]]], [[[143.26833470000003, -3.21311], [143.26833470000003, -3.21311]]], [[[144.1017058, -3.1956669], [144.0648189, -3.233036300000027], [144.11620669999996, -3.242361599999956], [144.1017058, -3.1956669]]], [[[154.43925920000004, -3.103110900000019], [154.48588910000004, -3.123450700000021], [154.43925920000004, -3.103110900000019]]], [[[152.63225680000002, -3.033269100000037], [152.56879430000004, -3.043822], [152.52722690000002, -3.08130849999997], [152.54450779999996, -3.1334122], [152.57431889999998, -3.1741721], [152.62071009999997, -3.218719500000013], [152.64968689999998, -3.177120399999957], [152.66177479999996, -3.124915499999982], [152.63280640000002, -3.0810072], [152.63225680000002, -3.033269100000037]]], [[[152.67806569999996, -3.0267194], [152.67806569999996, -3.0267194]]], [[[150.7382037, -2.982978099999968], [150.7382037, -2.982978099999968]]], [[[150.89480609999998, -2.9640203], [150.89480609999998, -2.9640203]]], [[[152.65617570000003, -2.965840499999974], [152.65617570000003, -2.965840499999974]]], [[[150.88434360000002, -2.905542100000027], [150.83414749999997, -2.932423], [150.78940890000004, -2.960286100000033], [150.74474889999996, -2.984937099999964], [150.79447210000004, -2.974006800000019], [150.84367, -2.958090099999968], [150.89589070000002, -2.962361100000034], [150.95432139999997, -2.965321700000036], [151.00537740000001, -2.9636221], [150.95732259999997, -2.942605499999964], [150.91268979999998, -2.9189202], [150.88434360000002, -2.905542100000027]]], [[[151.96848560000004, -2.833771299999956], [151.945563, -2.885853800000017], [151.99407340000002, -2.910806400000034], [152.00538349999997, -2.967390599999977], [152.04946350000003, -2.9981904], [152.07773710000004, -2.9534973], [152.0505569, -2.907768699999959], [152.00309279999996, -2.89113019999996], [151.97799539999997, -2.841287200000011], [151.96848560000004, -2.833771299999956]]], [[[150.63492779999999, -2.7065495], [150.6771432, -2.746676500000024], [150.63492779999999, -2.7065495]]], [[[151.93204009999997, -2.703440100000034], [151.93379, -2.75809], [151.90465, -2.799050100000013], [151.93345, -2.84149], [151.98383790000003, -2.828022199999982], [152.00610709999998, -2.771305], [151.97740009999998, -2.721010100000012], [151.93204009999997, -2.703440100000034]]], [[[150.7256455, -2.6944], [150.7256455, -2.6944]]], [[[150.63243140000003, -2.674836299999985], [150.63243140000003, -2.674836299999985]]], [[[150.73524230000004, -2.684261700000025], [150.73524230000004, -2.684261700000025]]], [[[150.5318269, -2.664027699999984], [150.56766760000002, -2.709435], [150.53993439999996, -2.666121300000015], [150.5318269, -2.664027699999984]]], [[[150.47583109999997, -2.664533199999976], [150.47583109999997, -2.664533199999976]]], [[[150.46161590000003, -2.659704300000023], [150.46161590000003, -2.659704300000023]]], [[[150.6816286, -2.666202499999983], [150.6816286, -2.666202499999983]]], [[[150.63674, -2.669043], [150.63674, -2.669043]]], [[[150.72809530000004, -2.653828799999982], [150.72809530000004, -2.653828799999982]]], [[[150.49926720000002, -2.6632582], [150.49926720000002, -2.6632582]]], [[[150.62525, -2.63725], [150.62525, -2.63725]]], [[[150.5353812, -2.636991599999973], [150.5353812, -2.636991599999973]]], [[[150.61013240000003, -2.640360600000015], [150.61013240000003, -2.640360600000015]]], [[[141.0380526, -2.604806399999983], [141.0, -2.82890979999997], [141.0, -3.93147], [141.0, -4.534487600000016], [141.0, -4.987149500000012], [141.0, -5.293377900000043], [141.0, -6.322692], [140.9607933, -6.354012499999986], [140.9493638, -6.4103119], [140.92609290000001, -6.456136], [140.92076, -6.512142], [140.93719379999996, -6.560800199999986], [140.88688410000003, -6.5671617], [140.85529780000002, -6.609871400000025], [140.86083060000004, -6.66135469999998], [140.84737079999996, -6.7161322], [140.89106909999998, -6.750182200000013], [140.8840165, -6.80147840000003], [140.900264, -6.849062500000039], [140.95106060000003, -6.85493679999998], [140.95219650000004, -6.908946399999974], [141.0020148, -6.8899508], [141.0194444, -9.0263217], [141.0194444, -9.12707988227646], [141.05980140000005, -9.1595092], [141.12234629999998, -9.228054199999972], [141.181136, -9.232569700000019], [141.2572249, -9.201493500000039], [141.298252, -9.170058699999965], [141.34150720000002, -9.13724310000004], [141.3817572, -9.10624309999997], [141.4315072, -9.1009931], [141.47250720000002, -9.071243099999963], [141.43175719999996, -9.101993100000042], [141.3820072, -9.107243100000021], [141.34350720000003, -9.139743100000034], [141.39350720000002, -9.135243100000027], [141.44375, -9.14225], [141.49725, -9.16925], [141.54025, -9.1985], [141.6015, -9.198], [141.65675, -9.2055], [141.70975, -9.1955], [141.76925, -9.17975], [141.81875, -9.18775], [141.87125, -9.19775], [141.922, -9.197], [141.965, -9.16975], [142.015, -9.1745], [142.07525, -9.17425], [142.122, -9.15625], [142.17325, -9.1535], [142.23598310000006, -9.155989], [142.2745, -9.18825], [142.35275, -9.2025], [142.4035, -9.21725], [142.47401069999998, -9.248263800000037], [142.52575, -9.2885], [142.5645, -9.32025], [142.62425, -9.32975], [142.67475, -9.315], [142.725, -9.286], [142.76675, -9.2575], [142.81925, -9.23525], [142.88025, -9.20025], [142.9255, -9.175], [142.96125, -9.135], [143.0125, -9.10175], [143.0775, -9.0835], [143.13125, -9.072], [143.1725, -9.03875], [143.2245, -9.0365], [143.272, -9.0195], [143.329, -9.02475], [143.38625, -8.98875], [143.41525, -8.94325], [143.411, -8.87025], [143.4045, -8.819], [143.4015, -8.75525], [143.35575, -8.70775], [143.306, -8.638], [143.269, -8.59475], [143.226, -8.5465], [143.15775, -8.499], [143.119, -8.4625], [143.06425, -8.4455], [142.99825, -8.438], [142.94175, -8.4255], [142.88475, -8.3895], [142.83075, -8.362], [142.78375, -8.335], [142.732, -8.317], [142.6892768, -8.345567], [142.64, -8.30925], [142.557, -8.3435], [142.5105, -8.371], [142.449, -8.36775], [142.4025, -8.32825], [142.3845, -8.24325], [142.36225, -8.19725], [142.31, -8.1845], [142.24275, -8.189], [142.19575, -8.20999], [142.13725, -8.23499], [142.09075, -8.21199], [142.03475, -8.19549], [141.99325, -8.1575], [141.99275, -8.1065], [142.04475, -8.08725], [142.03225, -8.032], [141.98445810000004, -7.998456599999984], [142.0338966, -8.024804499999984], [142.053, -8.0715], [142.00975, -8.1105], [142.037, -8.18825], [142.11225, -8.20225], [142.165, -8.21725], [142.2045, -8.1815], [142.254, -8.154], [142.3055, -8.15725], [142.35625, -8.1505], [142.40525, -8.184], [142.41375, -8.23675], [142.42775, -8.3], [142.487, -8.3255], [142.54725, -8.30975], [142.59325, -8.2875], [142.642, -8.272], [142.69575, -8.265], [142.7515, -8.26925], [142.818, -8.29875], [142.883, -8.322], [142.97625, -8.33725], [143.0325, -8.31975], [143.104, -8.2985], [143.1715, -8.283], [143.22175, -8.27375], [143.287, -8.26725], [143.34775, -8.24275], [143.40475, -8.2405], [143.49375, -8.23925], [143.551, -8.238], [143.603, -8.2335], [143.6665, -8.23375], [143.71, -8.20075], [143.659, -8.188], [143.61025, -8.17325], [143.56925, -8.137], [143.51675, -8.09575], [143.56925, -8.111], [143.54175, -8.063], [143.50325, -8.03], [143.54875, -8.0065], [143.60125, -7.988], [143.6505, -8.00125], [143.701, -8.02475], [143.7515, -8.04575], [143.80225, -8.045], [143.8545, -8.04725], [143.86425, -7.99475], [143.81875, -7.96875], [143.77725, -7.938], [143.84025, -7.9515], [143.88175, -7.9895], [143.91025, -7.948], [143.886, -7.90075], [143.8465, -7.829], [143.84175, -7.7695], [143.81875, -7.72075], [143.79275, -7.6745], [143.76725, -7.63025], [143.73975, -7.576], [143.70525, -7.5355], [143.76025, -7.522], [143.80025, -7.60125], [143.82575, -7.6545], [143.88325, -7.696], [143.942, -7.7145], [143.9935, -7.72825], [144.042, -7.75925], [144.0225, -7.70025], [144.0065, -7.6445], [144.027, -7.69025], [144.07625, -7.72125], [144.106, -7.77575], [144.1605, -7.79025], [144.18025, -7.73875], [144.125, -7.66725], [144.1245, -7.616], [144.09175, -7.55775], [144.1315, -7.59375], [144.19075, -7.6045], [144.1665, -7.55175], [144.1935, -7.598], [144.24325, -7.59025], [144.2245, -7.54225], [144.25474369999998, -7.478403700000016], [144.248, -7.416], [144.23975, -7.35925], [144.2955, -7.35], [144.3425, -7.33025], [144.41, -7.34475], [144.4555, -7.3145], [144.4955, -7.34825], [144.4625, -7.39025], [144.5045, -7.41775], [144.5315, -7.373], [144.57625, -7.402], [144.61325, -7.43625], [144.66470809999998, -7.4408058], [144.71525, -7.443], [144.75465620000003, -7.475681799999959], [144.72225, -7.532], [144.7587446, -7.566754500000042], [144.7686807, -7.516332399999961], [144.7970561, -7.474678900000023], [144.816, -7.52975], [144.8435, -7.57175], [144.89975, -7.56325], [144.94170520000003, -7.5923655], [144.9892835, -7.568667], [144.944602, -7.594109599999979], [144.8896275, -7.593833100000016], [144.85167639999997, -7.628386400000012], [144.9015, -7.617], [144.85229589999997, -7.630498200000038], [144.86105150000003, -7.6833061], [144.88225, -7.72975], [144.90408459999998, -7.775191800000017], [144.94940320000003, -7.797833499999965], [144.92225, -7.74625], [144.949, -7.6915], [144.928, -7.74], [144.95513420000003, -7.7839296], [144.9966548, -7.821239199999977], [145.01175, -7.7685], [145.0385, -7.81325], [145.09, -7.81375], [145.058, -7.775], [145.055, -7.725], [145.077, -7.7715], [145.1245, -7.793], [145.15775, -7.83175], [145.181, -7.78725], [145.22875, -7.80275], [145.26325, -7.8425], [145.3175, -7.8555], [145.3705, -7.880961], [145.39275, -7.926211], [145.46825, -7.948422300000016], [145.52525, -7.9441723], [145.591, -7.936672300000017], [145.64325, -7.94275], [145.713, -7.9595], [145.75325, -7.92575], [145.79975, -7.90625], [145.79175, -7.95675], [145.8055, -8.00825], [145.84925, -8.03875], [145.90275, -8.04375], [145.9555, -8.047], [146.0095, -8.059], [146.0585, -8.0885], [146.10725, -8.102], [146.14525, -8.13525], [146.16675, -8.18175], [146.1935, -8.23825], [146.23475, -8.26725], [146.27125, -8.3025], [146.2955, -8.34625], [146.26925, -8.3035], [146.27925, -8.355], [146.268, -8.40425], [146.28925, -8.44975], [146.3195, -8.497], [146.35575, -8.5555], [146.39, -8.59325], [146.44125, -8.62175], [146.477, -8.658], [146.52575, -8.6695], [146.52685630000002, -8.723615299999967], [146.5485, -8.7705], [146.573, -8.81625], [146.61925, -8.786], [146.60175, -8.8395], [146.55875, -8.86875], [146.57301460000002, -8.92238830000003], [146.58849009999997, -8.9777125], [146.624, -9.01325], [146.6725, -9.03275], [146.7215, -9.0445], [146.77390949999997, -9.052726800000023], [146.824, -9.08825], [146.87975, -9.11375], [146.93925, -9.09775], [146.959, -9.05175], [146.941, -9.00125], [146.97125, -9.04575], [147.0235, -9.05875], [146.9715, -9.063], [147.02, -9.07775], [146.96825, -9.0715], [146.9235, -9.11875], [146.97425, -9.125], [146.99825, -9.169], [146.96625, -9.13025], [146.9245, -9.16], [146.903, -9.20525], [146.9425, -9.24525], [146.89825, -9.269], [146.95075, -9.26925], [147.00775, -9.271], [147.00075, -9.322], [147.0075, -9.377], [147.04075, -9.42025], [147.072, -9.4605], [147.10426610000002, -9.4208305], [147.14756759999997, -9.447450699999974], [147.17696460000002, -9.4902893], [147.21903970000002, -9.518709499999959], [147.25628330000004, -9.481937599999982], [147.29215830000007, -9.518889800000045], [147.32618520000003, -9.561052099999982], [147.35785679999998, -9.6030135], [147.39395570000005, -9.639196], [147.41975, -9.69025], [147.458, -9.72275], [147.49325, -9.76225], [147.5155, -9.81], [147.51525, -9.872], [147.5595, -9.90775], [147.6015, -9.965], [147.65825, -9.994], [147.7051653, -10.01424419999997], [147.71575, -10.0655], [147.77419080000004, -10.056441799999986], [147.8249003, -10.0577418], [147.8745, -10.0375], [147.90028759999998, -10.080581200000042], [147.85444219999997, -10.101332299999969], [147.91538869999997, -10.09269580000001], [147.959, -10.11925], [147.9895, -10.1625], [148.0320655, -10.129384799999967], [148.09075, -10.13475], [148.16092970000003, -10.099671500000044], [148.1905, -10.0555], [148.2305, -10.0175], [148.20425, -10.061], [148.237, -10.109], [148.28575, -10.1315], [148.34125, -10.135], [148.38125, -10.17225], [148.33722729999997, -10.138255300000013], [148.35725, -10.18575], [148.407, -10.20375], [148.476, -10.2035], [148.532, -10.1885], [148.582, -10.188], [148.6345, -10.18325], [148.68125, -10.16475], [148.69925, -10.11675], [148.734, -10.156], [148.77775, -10.12675], [148.78625, -10.17725], [148.73275, -10.18625], [148.78025, -10.205], [148.846, -10.23725], [148.897619, -10.2371995], [148.952, -10.2715], [149.005, -10.25625], [149.052, -10.23825], [149.116772, -10.237043499999968], [149.16925, -10.24775], [149.234, -10.2775], [149.27925, -10.23975], [149.266, -10.1895], [149.2785, -10.139], [149.294, -10.08775], [149.3145, -10.04025], [149.2955, -10.0935], [149.28, -10.1435], [149.27375, -10.199], [149.27675, -10.2535], [149.3015, -10.3015], [149.36525, -10.28025], [149.41, -10.308], [149.4505, -10.338], [149.493, -10.36525], [149.54375, -10.36375], [149.59, -10.34325], [149.659, -10.34175], [149.7235, -10.34275], [149.77375, -10.3605], [149.82075, -10.38075], [149.86825, -10.40725], [149.897, -10.45625], [149.938, -10.4275], [149.987, -10.4445], [150.03725, -10.45725], [150.08675, -10.4485], [150.11525, -10.407], [150.114, -10.45875], [150.05725, -10.473], [150.04825, -10.52375], [149.99675, -10.5195], [149.94425, -10.5145], [149.89357410000002, -10.505153199999965], [149.86425, -10.55225], [149.91975, -10.5545], [149.9725, -10.5535], [149.9925, -10.60125], [150.03425, -10.63], [150.0805, -10.652], [150.1321743, -10.6546736], [150.18275, -10.65075], [150.201, -10.7015], [150.24325, -10.6725], [150.294, -10.6785], [150.341, -10.65375], [150.37975, -10.68825], [150.42875, -10.6545], [150.4685, -10.6225], [150.52025, -10.62], [150.57075, -10.612], [150.612067, -10.581005300000038], [150.669, -10.57775], [150.67407580000003, -10.527783300000019], [150.65478439999998, -10.481067099999967], [150.597, -10.47175], [150.54619110000002, -10.4542924], [150.49919110000002, -10.432792400000016], [150.44291889999997, -10.413761500000044], [150.38078449999998, -10.40536739999998], [150.3419411, -10.363792399999964], [150.3714468, -10.318475200000025], [150.42369110000004, -10.312042499999977], [150.4793288, -10.32408070000002], [150.53225, -10.33575], [150.584, -10.347], [150.63675, -10.3455], [150.6915, -10.3255], [150.733, -10.294], [150.7835, -10.2815], [150.8265, -10.2545], [150.8728725, -10.232345800000035], [150.822, -10.246], [150.7765, -10.26675], [150.7255, -10.25875], [150.67275, -10.2725], [150.62335750000003, -10.281723], [150.57796220000003, -10.251321699999986], [150.551, -10.208], [150.5025, -10.22675], [150.4565, -10.20325], [150.40375, -10.2075], [150.3385262, -10.193679100000045], [150.28686279999997, -10.172142200000026], [150.24938309999996, -10.137455099999974], [150.19794429999996, -10.122480100000034], [150.1465, -10.108], [150.0955, -10.088], [150.0425, -10.07975], [149.99, -10.0815], [149.94325, -10.06375], [149.90325, -10.0275], [149.8575, -10.0025], [149.82778420000002, -9.959110200000024], [149.8075, -9.91125], [149.757, -9.8995], [149.732, -9.8545], [149.71725, -9.806], [149.764, -9.788], [149.81475, -9.77725], [149.86425, -9.7695], [149.92025, -9.76275], [149.9705, -9.74675], [150.02525, -9.724], [150.05675, -9.68425], [150.0105, -9.6485], [149.95725, -9.6405], [149.906, -9.64075], [149.856, -9.6315], [149.80625, -9.622], [149.759, -9.5945], [149.711, -9.60925], [149.6595, -9.6045], [149.613, -9.624], [149.56575, -9.60525], [149.5135, -9.6], [149.4645, -9.6135], [149.436, -9.57175], [149.39, -9.5505], [149.3515, -9.51825], [149.295, -9.50225], [149.24225, -9.4985], [149.20275, -9.458], [149.183, -9.41], [149.17625, -9.3595], [149.2085, -9.32125], [149.23325, -9.275], [149.2375, -9.2205], [149.25975, -9.1755], [149.31225, -9.16525], [149.331, -9.11825], [149.2705, -9.1124899], [149.32, -9.103739899999978], [149.31775, -9.0537399], [149.2815, -9.0185], [149.234, -9.002], [149.1837598, -9.01009030000002], [149.138, -9.033], [149.0875, -9.03025], [149.03319279999997, -9.049074900000022], [148.97766749999997, -9.051789900000042], [148.8593165, -9.089325699999987], [148.78946620000002, -9.105835399999988], [148.7319792, -9.111225900000045], [148.673, -9.09425], [148.623, -9.09325], [148.5725, -9.05275], [148.53975, -9.014], [148.52425, -8.96525], [148.52175, -8.9125], [148.48925, -8.87425], [148.47425, -8.8225], [148.473, -8.7435], [148.44225, -8.704], [148.40475, -8.664], [148.35725, -8.63325], [148.308, -8.6195], [148.25425, -8.59675], [148.22075, -8.552], [148.2325, -8.4955], [148.18625, -8.47475], [148.1325, -8.4815], [148.07925, -8.47575], [148.028, -8.4725], [148.001, -8.522], [147.96625, -8.5585], [147.99425, -8.51425], [148.0275, -8.471], [148.07625, -8.486], [148.1265, -8.472], [148.178, -8.47225], [148.22975, -8.48125], [148.22475, -8.42975], [148.20375, -8.35425], [148.204, -8.3035], [148.18625, -8.2555], [148.162, -8.2105], [148.15225, -8.16], [148.1385, -8.111], [148.12360959999998, -8.056296900000028], [148.0702497, -8.0585788], [148.02025, -8.0605], [147.96775, -8.04275], [147.94475, -7.99275], [147.891, -7.96025], [147.8315439, -7.9545708], [147.78175, -7.93125], [147.73175, -7.9425], [147.69125, -7.905], [147.688677, -7.8336808], [147.661, -7.7895], [147.613, -7.775], [147.573, -7.7435], [147.54075, -7.703], [147.494, -7.67875], [147.493803, -7.628652], [147.4415, -7.61325], [147.41325, -7.56825], [147.376253, -7.533753100000021], [147.3325, -7.505], [147.2775, -7.49675], [147.22625, -7.4885], [147.17875, -7.465], [147.168, -7.41175], [147.14075, -7.366], [147.1445, -7.312], [147.1355, -7.25075], [147.117, -7.19725], [147.07925, -7.16175], [147.069, -7.10725], [147.04525, -7.06225], [147.00325, -7.026], [146.9745, -6.98125], [146.9475718, -6.938720300000026], [146.9523006, -6.888790700000016], [146.9465, -6.82925], [146.9575, -6.768], [147.00185060000004, -6.7406863], [147.056, -6.7265], [147.10175, -6.706], [147.163, -6.709], [147.2065, -6.7365], [147.25985150000005, -6.7327523], [147.31225, -6.74225], [147.36175, -6.735], [147.41925, -6.72075], [147.46975, -6.73425], [147.52375, -6.74625], [147.57731010000006, -6.747083599999962], [147.6147828, -6.706620700000035], [147.66799190000003, -6.696349199999976], [147.73025, -6.704], [147.7875, -6.69725], [147.832, -6.66525], [147.8565, -6.6185], [147.808, -6.5945], [147.84625, -6.56175], [147.8328201, -6.511631699999978], [147.85072609999997, -6.455619899999967], [147.84569850000003, -6.402680399999963], [147.81236890000002, -6.3647138], [147.80025, -6.31475], [147.75625, -6.287], [147.709, -6.2685], [147.6855, -6.21925], [147.66575, -6.1705], [147.6285, -6.12], [147.589, -6.07525], [147.5415, -6.04175], [147.4975, -6.01225], [147.45825, -5.976], [147.40425, -5.9605], [147.349, -5.95275], [147.29625, -5.9325], [147.24102080000003, -5.941967100000014], [147.19210390000006, -5.957218800000022], [147.14058310000001, -5.9481778], [147.08975, -5.96], [147.058, -5.91675], [147.00225, -5.93925], [146.9535, -5.9115], [146.912, -5.8765], [146.87375, -5.8435], [146.82325, -5.84225], [146.77127930000003, -5.842458699999978], [146.72775, -5.802], [146.6885, -5.77], [146.63625, -5.76575], [146.59825, -5.73175], [146.5605, -5.692], [146.5205, -5.65875], [146.47525, -5.636], [146.429, -5.61425], [146.378, -5.61575], [146.34425, -5.578], [146.29675, -5.59575], [146.243, -5.57425], [146.194, -5.5595], [146.151, -5.53375], [146.09875, -5.52675], [146.04925, -5.509], [146.00012, -5.497177800000011], [145.9505, -5.47725], [145.8945, -5.488], [145.8434576, -5.490440499999985], [145.7846422, -5.493286099999975], [145.74815990000002, -5.453413699999968], [145.74332759999996, -5.398197699999987], [145.76025, -5.35075], [145.7605, -5.2975], [145.784519, -5.246448700000042], [145.79975, -5.19375], [145.79903659999997, -5.142161700000039], [145.807, -5.09225], [145.8055, -5.03975], [145.79275, -4.98825], [145.7785, -4.93425], [145.79875, -4.88125], [145.7766361, -4.83084789999997], [145.738, -4.799], [145.69325, -4.774], [145.66, -4.736], [145.59625, -4.67475], [145.56475, -4.629], [145.54575, -4.5825], [145.50375, -4.54675], [145.46603889999997, -4.513389900000011], [145.41795440000004, -4.496625499999986], [145.38975, -4.453], [145.3460541, -4.4133934], [145.29275, -4.381], [145.23121039999998, -4.390837400000038], [145.182, -4.40375], [145.132, -4.384], [145.078, -4.36675], [145.02325, -4.34475], [144.9925, -4.3045], [144.97575, -4.25625], [144.9335, -4.225], [144.885, -4.2], [144.843, -4.16125], [144.85425, -4.1125], [144.785, -4.074], [144.73125, -4.04625], [144.6705, -4.021], [144.606, -4.013], [144.55175, -3.97375], [144.542, -3.924], [144.519, -3.97], [144.4645, -3.95725], [144.5115, -3.93925], [144.548, -3.8885], [144.54, -3.82375], [144.48725, -3.8055], [144.431, -3.796], [144.38484670000003, -3.8242226], [144.38575, -3.8805], [144.336, -3.8725], [144.3655, -3.83125], [144.3155, -3.83], [144.2645, -3.81975], [144.2375, -3.86475], [144.21075, -3.818], [144.1645, -3.84175], [144.122, -3.811], [144.178, -3.78325], [144.12775, -3.7905], [144.07475, -3.793], [144.02625, -3.81275], [143.97447169999998, -3.789883699999976], [143.939, -3.749], [143.90675, -3.70925], [143.83125, -3.67825], [143.79525, -3.633], [143.74042530000003, -3.613493500000022], [143.69575, -3.58775], [143.6456681, -3.573603199999955], [143.59475, -3.543], [143.56275, -3.49625], [143.5315, -3.45625], [143.47675, -3.4405], [143.43175, -3.4175], [143.35325, -3.41075], [143.2955, -3.39625], [143.2445, -3.3935], [143.19634040000003, -3.366578200000038], [143.12575, -3.35475], [143.07225, -3.36475], [143.02175, -3.3595], [142.96575, -3.348], [142.8835, -3.3315], [142.83125, -3.318], [142.7705, -3.29725], [142.71875, -3.2845], [142.67075, -3.26875], [142.62525, -3.2475], [142.5685, -3.2365], [142.51375, -3.2235], [142.465, -3.19375], [142.417, -3.1725], [142.3715, -3.14975], [142.3225, -3.12475], [142.26975, -3.11375], [142.2115, -3.0975], [142.117, -3.0435], [142.0695, -3.05975], [142.06283349999998, -3.004239099999985], [142.00391880000004, -2.969855099999965], [141.9445588, -2.965067699999981], [141.89494859999996, -2.973210599999955], [141.84125, -2.94], [141.7665, -2.90025], [141.71175, -2.8735], [141.622, -2.82975], [141.5675899, -2.797634599999956], [141.4995, -2.76425], [141.44675, -2.73925], [141.38125, -2.726], [141.32975, -2.708], [141.2797575, -2.686044], [141.23375, -2.657], [141.188, -2.633], [141.138, -2.6265], [141.0865, -2.6145], [141.0380526, -2.604806399999983]], [[147.02425, -9.062], [147.02425, -9.062]], [[146.96375, -9.24175], [146.96375, -9.24175]], [[147.7975, -10.0325], [147.78425, -9.98275], [147.80425, -10.034], [147.7975, -10.0325]], [[148.741, -10.179], [148.741, -10.179]], [[150.10825, -10.435], [150.10825, -10.435]], [[150.526, -10.6185], [150.526, -10.6185]], [[149.80775, -9.9135], [149.80775, -9.9135]]], [[[150.58708169999997, -2.611391600000037], [150.58708169999997, -2.611391600000037]]], [[[149.69945, -2.62247], [149.69945, -2.62247]]], [[[151.99031989999997, -2.59431], [151.94851989999998, -2.62302], [151.990121, -2.661751300000017], [152.0261576, -2.62691839999998], [151.99031989999997, -2.59431]]], [[[150.54750749999997, -2.60249260000003], [150.54750749999997, -2.60249260000003]]], [[[150.4894944, -2.565242700000027], [150.4894944, -2.565242700000027]]], [[[150.8239155, -2.570108899999958], [150.78133889999998, -2.606706199999966], [150.8216142, -2.649117900000022], [150.85253730000002, -2.689970200000015], [150.80266690000002, -2.705878800000018], [150.74697430000006, -2.7170307], [150.75860219999998, -2.768939299999975], [150.80766549999998, -2.784499899999961], [150.8589518, -2.773067699999967], [150.90938420000003, -2.767815399999975], [150.9648998, -2.785119399999971], [151.01016989999997, -2.81077], [151.05549, -2.833640100000025], [151.1073499, -2.8565301], [151.13802989999996, -2.90116], [151.19528989999998, -2.92187], [151.23419990000002, -2.956069899999971], [151.27953009999996, -2.9781899], [151.33077, -2.99966], [151.38456, -3.03326], [151.42991, -3.05548], [151.45394, -3.10217], [151.5154401, -3.13242], [151.56668, -3.15813], [151.6140999, -3.175859900000024], [151.6497, -3.21302], [151.69066010000003, -3.259220100000039], [151.71678010000002, -3.302049899999961], [151.76343, -3.32208], [151.80533, -3.3501], [151.84645990000004, -3.379280100000017], [151.88978010000005, -3.41014], [151.93580009999997, -3.435579899999965], [151.98748, -3.45059], [152.0378937, -3.470684099999978], [152.0933973, -3.481729300000016], [152.14348549999997, -3.481768299999956], [152.1852257, -3.511117400000032], [152.22958560000004, -3.543470599999978], [152.27244010000004, -3.573305600000023], [152.31264410000003, -3.6247934], [152.34131969999999, -3.671345599999977], [152.3628316, -3.7167657], [152.4006507, -3.7565566], [152.4332555, -3.8065021], [152.4725, -3.83825], [152.51077049999998, -3.879812800000028], [152.534, -3.92875], [152.5715, -3.9705], [152.59775, -4.02225], [152.61575, -4.07025], [152.64025, -4.11575], [152.66625, -4.16225], [152.6745, -4.218], [152.68425, -4.27125], [152.6795, -4.325], [152.6845, -4.377], [152.67475, -4.42675], [152.6595, -4.4745], [152.67225, -4.52525], [152.702, -4.567], [152.7155, -4.6175], [152.7235, -4.667], [152.772, -4.6795], [152.80075, -4.72275], [152.8325, -4.7635], [152.87075, -4.807], [152.918, -4.7895], [152.95975, -4.75275], [152.98175, -4.707], [153.01875, -4.66975], [153.0335, -4.615], [153.061, -4.565], [153.02675, -4.50075], [153.037, -4.45075], [153.076, -4.40575], [153.1185, -4.37275], [153.11225, -4.32075], [153.11425, -4.26825], [153.09075, -4.22025], [153.03675, -4.19425], [153.016, -4.14025], [152.9935, -4.0945], [152.96075, -4.0565], [152.94425, -4.00575], [152.882, -3.99025], [152.8445, -3.95425], [152.823, -3.90075], [152.79225, -3.85575], [152.747, -3.89075], [152.69875, -3.8715], [152.654, -3.843], [152.60675, -3.8245], [152.55475, -3.81275], [152.545, -3.76025], [152.52175, -3.71425], [152.49975, -3.66775], [152.449195, -3.6605], [152.40479159999998, -3.624526400000018], [152.37162580000003, -3.5859537], [152.35181039999998, -3.53402519999997], [152.2953341, -3.500356399999973], [152.24510369999996, -3.472505699999974], [152.1996562, -3.450548], [152.165112, -3.411254299999957], [152.136589, -3.370099499999981], [152.11000730000004, -3.32707], [152.06995380000004, -3.2922346], [152.04909530000003, -3.242175800000037], [151.9922867, -3.228280399999985], [151.939696, -3.202652300000032], [151.88565370000003, -3.200899100000012], [151.83651210000002, -3.1864536], [151.7791818, -3.172503599999967], [151.74078480000003, -3.138187100000025], [151.70432290000002, -3.091739399999984], [151.67472359999996, -3.0476562], [151.62471240000002, -3.0296393], [151.57730540000003, -3.010369599999986], [151.53085840000003, -2.983904699999986], [151.4804141, -2.971531799999962], [151.4468666, -2.92895], [151.4035594, -2.8999427], [151.34325860000004, -2.905560599999959], [151.29787859999996, -2.867197300000026], [151.23395249999996, -2.876361899999981], [151.1836314, -2.850137], [151.1802038, -2.795653199999972], [151.1307288, -2.780196499999967], [151.085642, -2.748478399999989], [151.03927009999998, -2.7201], [150.99485660000002, -2.68878540000004], [150.9419287, -2.672787400000011], [150.90183509999997, -2.642068099999985], [150.862044, -2.607097600000021], [150.8239155, -2.570108899999958]]], [[[147.29444750000002, -2.540771100000018], [147.29444750000002, -2.540771100000018]]], [[[150.536012, -2.5646551], [150.536012, -2.5646551]]], [[[150.52669019999996, -2.5173042], [150.49712570000003, -2.47349250000002], [150.51617740000003, -2.522362600000029], [150.52669019999996, -2.5173042]]], [[[150.48999720000003, -2.47506019999997], [150.48999720000003, -2.47506019999997]]], [[[150.44567889999996, -2.4309997], [150.44567889999996, -2.4309997]]], [[[150.41985589999996, -2.413279], [150.41985589999996, -2.413279]]], [[[147.34001150000003, -2.3661364], [147.3107282, -2.4157695], [147.3636734, -2.404393699999964], [147.34001150000003, -2.3661364]]], [[[150.19899, -2.360460100000019], [150.15613820000002, -2.391188700000015], [150.10573010000002, -2.39554], [150.05294989999996, -2.41603], [150.01728, -2.45226], [149.9746601, -2.4818899], [150.01779090000005, -2.518044399999965], [150.06340989999998, -2.544809899999969], [150.08647, -2.594830100000014], [150.1226, -2.64035], [150.16697, -2.66762], [150.22137989999996, -2.671100100000025], [150.27057, -2.66116], [150.32099350000001, -2.676403100000037], [150.3679099, -2.65494], [150.4205508, -2.6586886], [150.44560350000003, -2.611404699999966], [150.45352970000002, -2.5574845], [150.4407735, -2.5080874], [150.40646010000003, -2.46131989999996], [150.35261059999996, -2.4438682], [150.29234, -2.418079900000027], [150.24628990000002, -2.39532], [150.19899, -2.360460100000019]]], [[[150.31302579999996, -2.352274], [150.31302579999996, -2.352274]]], [[[147.7291277, -2.337836], [147.7291277, -2.337836]]], [[[147.8201585, -2.242599300000016], [147.787751, -2.289704199999989], [147.75070279999997, -2.329995099999984], [147.8057863, -2.349395299999959], [147.85716520000003, -2.329614799999959], [147.84986810000004, -2.279375900000026], [147.8201585, -2.242599300000016]]], [[[148.2025375, -2.221808], [148.2025375, -2.221808]]], [[[147.18800889999997, -2.202777899999965], [147.18800889999997, -2.202777899999965]]], [[[147.783776, -2.229165200000029], [147.783776, -2.229165200000029]]], [[[147.72661439999996, -2.184498299999984], [147.72661439999996, -2.184498299999984]]], [[[146.4004538, -2.1183212], [146.4004538, -2.1183212]]], [[[146.42631770000003, -2.10122580000003], [146.42631770000003, -2.10122580000003]]], [[[147.6551862, -2.066457], [147.60382219999997, -2.0844097], [147.65398569999996, -2.0788397], [147.6551862, -2.066457]]], [[[147.78730769999999, -2.03522220000001], [147.74008109999997, -2.055612800000041], [147.7932483, -2.057638], [147.78730769999999, -2.03522220000001]]], [[[147.34033660000003, -1.971346099999984], [147.34033660000003, -1.971346099999984]]], [[[147.2114082, -1.954771699999959], [147.2114082, -1.954771699999959]]], [[[146.8710358, -1.959496099999971], [146.81516859999996, -1.961182200000035], [146.77042, -1.984278500000027], [146.71770840000002, -1.9886901], [146.66447740000004, -1.982115899999972], [146.6159203, -1.996821299999986], [146.56414179999996, -1.997143299999983], [146.56478480000004, -2.047272199999963], [146.60241790000006, -2.088424199999974], [146.56144859999998, -2.124498300000035], [146.51364239999998, -2.144477499999955], [146.51113589999997, -2.1956827], [146.54194929999997, -2.237084399999969], [146.582992, -2.20831650000002], [146.630422, -2.1836355], [146.67995970000004, -2.19642859999998], [146.6814548, -2.141369899999958], [146.7383949, -2.127087899999982], [146.773536, -2.1681723], [146.82460309999996, -2.1886709], [146.8780937, -2.19239], [146.933402, -2.203374400000026], [146.98862369999998, -2.208909699999985], [147.0515488, -2.205363600000034], [147.0964706, -2.180281200000024], [147.1512595, -2.194898300000016], [147.21167450000002, -2.191352099999968], [147.25685589999998, -2.150787299999958], [147.2603181, -2.100187800000032], [147.3038294, -2.074595400000014], [147.35777370000002, -2.0758104], [147.4117229, -2.078079399999979], [147.43411479999997, -2.0329001], [147.36750030000002, -1.972977300000036], [147.407516, -2.024341399999987], [147.382004, -2.072386799999972], [147.34286670000003, -2.0343965], [147.2904885, -2.034676299999962], [147.23793819999997, -2.014710199999971], [147.18720269999997, -1.990932], [147.1346381, -2.0045847], [147.07975180000003, -1.973168799999982], [146.986082, -1.96775250000001], [146.93131910000002, -1.969594600000015], [146.8710358, -1.959496099999971]]], [[[142.8440621, -1.7266186], [142.8440621, -1.7266186]]], [[[149.98031159999996, -1.662395200000024], [149.929995, -1.655867400000012], [149.9750327, -1.684372599999985], [150.02513459999997, -1.676312500000023], [149.98031159999996, -1.662395200000024]]], [[[149.5666, -1.5636899], [149.5666, -1.5636899]]], [[[149.63288, -1.5569099], [149.63288, -1.5569099]]], [[[145.02531880000004, -1.545160499999955], [145.02531880000004, -1.545160499999955]]], [[[145.08806830000003, -1.5140868], [145.0413726, -1.53927340000002], [145.0955262, -1.519795700000028], [145.08806830000003, -1.5140868]]], [[[143.0710576, -1.4668935], [143.0710576, -1.4668935]]], [[[144.05529609999996, -1.4877765], [144.05529609999996, -1.4877765]]], [[[144.51502490000001, -1.4127356], [144.51502490000001, -1.4127356]]], [[[144.18652969999997, -1.407318599999964], [144.18652969999997, -1.407318599999964]]], [[[149.554965, -1.3157749], [149.52788029999996, -1.368221499999979], [149.50812669999996, -1.415947299999988], [149.54854989999998, -1.45088], [149.58084, -1.49], [149.62490009999996, -1.5208601], [149.6792899, -1.52414], [149.72857, -1.53425], [149.7207, -1.48056], [149.6948358, -1.432446600000016], [149.67055, -1.383259900000013], [149.6212517, -1.351441800000021], [149.57502, -1.31936], [149.554965, -1.3157749]]], [[[144.41610279999998, -1.155671100000035], [144.41610279999998, -1.155671100000035]]], [[[144.5054207, -1.138420500000016], [144.5054207, -1.138420500000016]]], [[[144.40058340000002, -1.080149400000032], [144.40058340000002, -1.080149400000032]]], [[[145.54717869999996, -0.90014989999996], [145.54717869999996, -0.90014989999996]]]]}}]}