{"type": "FeatureCollection", "features": [{"type": "Feature", "properties": {"code": "POL", "name": "Poland", "tier": "country"}, "geometry": {"type": "MultiPolygon", "coordinates": [[[[18.774946454715177, 54.598497544725944], [18.774946454715177, 54.598497544725944]]], [[[18.490844655156764, 54.80451287117211], [18.433973289835535, 54.823764010700586], [18.376081810027586, 54.837719022914655], [18.304298683337606, 54.86814215963301], [18.198257304231277, 54.86814215963301], [17.85581174861335, 54.85974368242506], [17.739068945275676, 54.83901995790478], [17.646647559337453, 54.82108815169687], [17.509474765348216, 54.804830571973355], [17.31879485379949, 54.7835176314336], [17.21956347037792, 54.758825450534175], [17.167029209730288, 54.74478908834578], [17.10184781102771, 54.720073270565024], [16.970512157610017, 54.66046869197663], [16.924787892647203, 54.62725462440147], [16.841122217116663, 54.622185686520254], [16.774967961502284, 54.6041576789338], [16.697139426543345, 54.58837662118418], [16.565578072969743, 54.582161681716286], [16.509448122233096, 54.56683856594714], [16.438470894216437, 54.528400495786286], [16.39537757701362, 54.484036228788966], [16.329108022017635, 54.44552014693727], [16.217934506072652, 54.36015069320001], [16.17882460547122, 54.32405244586374], [16.106036733708322, 54.30165983593275], [16.013331782535772, 54.28432889196483], [15.822127820742367, 54.26466423696502], [15.752033281810554, 54.24583658549011], [15.635473101102775, 54.223679293065004], [15.526268660670212, 54.202503008107385], [15.347467607144381, 54.1766797282869], [15.252974645463553, 54.156804689484886], [15.152257597310324, 54.13725158998892], [15.083792637120553, 54.122332000921176], [15.00287950218734, 54.10243085749812], [14.923098019258248, 54.08218823250098], [14.813893578825628, 54.05994314735841], [14.717137313136561, 54.04034432093374], [14.658291396330924, 54.02339551329237], [14.564717902409313, 54.00303119473392], [14.506367083973771, 53.98328075969937], [14.45597319540667, 53.96352095462839], [14.40823161709551, 53.93646603438003], [14.295066393299464, 53.92813791203508], [14.20842426936457, 53.94114987266852], [14.218644503241308, 53.85686459572457], [14.249199113648217, 53.81011675928107], [14.260515636387538, 53.63904404234876], [14.30465007354212, 53.526178331464905], [14.341994596873178, 53.47771502113136], [14.38160242511185, 53.360704185649695], [14.418381122890537, 53.289734244839565], [14.422907731806447, 53.23829186008135], [14.373680859284264, 53.20848113739464], [14.375944164191878, 53.15660171629622], [14.36220106732543, 53.07221846900717], [14.284280332971036, 53.02067259116723], [14.210722937413664, 52.99888407743828], [14.124151541560423, 52.94913785542775], [14.163193544246724, 52.87987497265192], [14.115098323728716, 52.84468936722055], [14.173378414082606, 52.81699908943648], [14.22430276416128, 52.815973184215125], [14.291070246794504, 52.765331810314876], [14.346521205789088, 52.75300472388898], [14.396879730315334, 52.7180590297005], [14.426868514270552, 52.6738228774239], [14.485148604624442, 52.65391914485269], [14.546257825438317, 52.625763915772154], [14.599387995759457, 52.609202359801145], [14.641104091180921, 52.56229410768697], [14.615576331282739, 52.51116754504625], [14.621179986267407, 52.4603608083047], [14.567011325612214, 52.441767570517015], [14.52529523019075, 52.398479454763105], [14.553313503315565, 52.32776021256382], [14.583199660236176, 52.277503674754826], [14.669744991937876, 52.25997662821885], [14.724537506001127, 52.23322454387767], [14.673480761328108, 52.1978141286192], [14.703366919148039, 52.14779221134154], [14.683442814234525, 52.09694904756054], [14.738856731053318, 52.08241177378437], [14.73716784112304, 52.0137324628829], [14.71146108735934, 51.96172300521255], [14.702121662984382, 51.90221688440175], [14.648575629961385, 51.87839233703676], [14.593784341674052, 51.84340117492434], [14.626161011821296, 51.79798748723283], [14.656047169641226, 51.732094870481944], [14.716442112913228, 51.70007722768196], [14.751309297186367, 51.61007520240872], [14.700253778289266, 51.55707209550087], [14.760026093029808, 51.52066922980117], [14.81917578013821, 51.50516981633399], [14.868986042871654, 51.49354179541757], [14.925645216753423, 51.47570640192896], [14.978327216228081, 51.446039702070664], [14.96673868364337, 51.39574926251851], [14.982927018267333, 51.33082689374618], [15.030246768673464, 51.26113722870019], [14.995379584400325, 51.215138688499735], [14.972342337728776, 51.146054621523604], [14.98784707608172, 51.08665344170305], [14.947437206362054, 51.052215894148276], [14.926890472917023, 51.00326610634579], [14.88019335194167, 50.962500480113135], [14.824156806591418, 50.909530160688405], [14.881438608105327, 50.86475267229804], [14.934984641128324, 50.850603470373926], [14.989775929415657, 50.86318075089099], [14.984794903861768, 50.93425715164631], [14.986040160025425, 51.00561687751696], [15.065113952047284, 51.02089398576891], [15.12364101062417, 50.996996801960904], [15.176564415115706, 50.97857581851929], [15.23135570430236, 50.99307805560784], [15.286769621121152, 50.95701006596181], [15.267468144739155, 50.892252721885654], [15.372692324291393, 50.82740521627778], [15.4050689953379, 50.78018673942654], [15.485388043523415, 50.784910734243056], [15.545160359163276, 50.778218266459874], [15.613026842115119, 50.766011889737], [15.680893325066961, 50.75301450441589], [15.776155451712782, 50.74001350831679], [15.840908793805852, 50.738437385277166], [15.871417579257923, 50.67613806731799], [15.982868042326345, 50.68205611629679], [16.013999456309932, 50.609409805018515], [16.0706586301917, 50.612965769354844], [16.108638955323556, 50.65008978521547], [16.17588281064326, 50.64416770637462], [16.24437192122724, 50.64456253483314], [16.291069043101913, 50.66311573210538], [16.36204866691247, 50.6564058471522], [16.40936841641934, 50.625212036406424], [16.464332392525932, 50.59520181711025], [16.413104186708892, 50.552477805606316], [16.387129228131414, 50.5066372843832], [16.337766164077266, 50.49706125647185], [16.273635450515656, 50.469724870006814], [16.216353649001746, 50.437614150972365], [16.25869237205535, 50.39952877693156], [16.300408466577494, 50.35863228585134], [16.37076546275597, 50.36776756951775], [16.398161107349267, 50.32286861959119], [16.451707139472944, 50.308555613350904], [16.490932721667832, 50.272754242114615], [16.53140356002632, 50.23931532334353], [16.57800020694407, 50.20963957990273], [16.607122612818387, 50.14098102625343], [16.658419730086507, 50.110516015301926], [16.74309717709309, 50.09374260513715], [16.7991337224434, 50.12888015529501], [16.822793596747147, 50.180342019368766], [16.899625927494583, 50.201883691679086], [17.016779665249373, 50.21743994949412], [17.055033946359572, 50.2731521831268], [16.9560360494242, 50.33757471949775], [16.931130918057477, 50.38484186226219], [16.89999950407389, 50.434044948615565], [16.94813645313485, 50.45337491282203], [16.99386071809772, 50.42053406929193], [17.05709640297664, 50.421153918918264], [17.127159207531463, 50.40778320613009], [17.169796792388127, 50.37678991542231], [17.234350892379837, 50.386699809448714], [17.268620353046913, 50.341707507195736], [17.312054902711623, 50.316269268511974], [17.366248468292213, 50.323902169949235], [17.401314892868072, 50.27681308395671], [17.455508458448662, 50.26458775761898], [17.524445862186838, 50.28317919766192], [17.58262424910987, 50.270700812892244], [17.656343438099213, 50.27171957929522], [17.70455977211583, 50.30125431983106], [17.764730569260394, 50.3193225765757], [17.751948959177184, 50.26897859048961], [17.780669853730842, 50.20443424544413], [17.730859590997397, 50.185556919915996], [17.669493347540026, 50.18836348098989], [17.627254245087386, 50.151099326472774], [17.683041738485485, 50.11763894448177], [17.73643834015735, 50.1201939966557], [17.777880478701206, 50.07290344903498], [17.80975904674267, 50.02351814924327], [17.855584489032992, 49.98868762043736], [17.93209305215271, 49.97587593342763], [18.028525721085202, 50.008667039952], [18.109860345778372, 50.04362526439451], [18.163699705277224, 49.99901989545185], [18.222497952618482, 49.99355516683755], [18.28767191392774, 49.97351251688917], [18.33726079774766, 49.92610577865884], [18.43998062890296, 49.947079898718414], [18.494528400565287, 49.91333445322249], [18.544825697448005, 49.91561529490997], [18.59795664388406, 49.91652760226708], [18.588747280362725, 49.84805670295452], [18.61708378488879, 49.77903122770903], [18.640461401572452, 49.71357194928606], [18.707052188108037, 49.704867914822444], [18.796312179163806, 49.684246873994084], [18.815439320168537, 49.59662461043746], [18.836691698563072, 49.543332021655544], [18.886988995445847, 49.518503553895926], [18.954996607207704, 49.51620398382687], [18.961372320276382, 49.394633072058696], [19.02867151987482, 49.395094136485284], [19.109232204202897, 49.41045434389292], [19.173159358917303, 49.409864365248325], [19.217590998625724, 49.46705934261462], [19.267463248030538, 49.54243106014536], [19.319602416718226, 49.53448717674189], [19.369728560924386, 49.56434948004454], [19.408320613905232, 49.59840174274626], [19.481732563906746, 49.59181890411918], [19.524096771948507, 49.51746526501], [19.591125075062223, 49.446394298857854], [19.643645086851336, 49.409215379386296], [19.68978145085333, 49.379943123976034], [19.766965555915704, 49.41261360803162], [19.792500147963494, 49.35764674240329], [19.769867214000783, 49.30583478304885], [19.755649089833696, 49.24014063318373], [19.76435406408882, 49.19029109795588], [19.8308020346862, 49.18498096190194], [19.91407962217687, 49.23294114561742], [19.96427830749792, 49.220055233062624], [20.013316329584995, 49.1864982018306], [20.06293468328903, 49.16847797427914], [20.06293468328903, 49.23767776871409], [20.117776022445526, 49.287290257039786], [20.173487857678538, 49.33628564316797], [20.302031312195368, 49.35178754056261], [20.30029031734432, 49.40373996143012], [20.354261157726285, 49.40204056921692], [20.429704268836986, 49.41771050853322], [20.506598209439858, 49.386554512480814], [20.57565767186412, 49.38768780394906], [20.655163104293877, 49.40090760869924], [20.706522452848958, 49.41922060065025], [20.751207988258102, 49.36955200092416], [20.795893522767926, 49.33628564316797], [20.869305472769383, 49.32002230868267], [20.93633377498378, 49.30072627319902], [21.009455559626417, 49.35518974241273], [21.067198555968616, 49.35859170864052], [21.025995011160887, 49.4143126333214], [21.073582203755734, 49.42978993875471], [21.133356361207177, 49.42544923589355], [21.193420684017383, 49.41166967871277], [21.24478003257252, 49.455637471492196], [21.29671971274462, 49.45808944966842], [21.36663153821496, 49.441418297816256], [21.419677475335277, 49.414584000151535], [21.49357908011052, 49.419008246433464], [21.56294684452132, 49.436111579186104], [21.6404755221277, 49.42343209341641], [21.698962068944354, 49.41074933141658], [21.744753860402398, 49.36913867161246], [21.79734641420572, 49.381537022115936], [21.85356603994086, 49.374157428222816], [21.909785665675997, 49.35526061888248], [21.9705391326749, 49.304439455216766], [22.01270385220107, 49.26865591843597], [22.041267048835266, 49.20441707758613], [22.112901733428316, 49.20323216683107], [22.195417636514776, 49.18219528308589], [22.270679393938906, 49.14098449513841], [22.3205516424444, 49.15106800058783], [22.376317883963225, 49.127932207105744], [22.500998506575854, 49.08727011802159], [22.560391820925872, 49.086379334139], [22.627039280038787, 49.07331267224208], [22.67872506540948, 49.03736162593833], [22.78028309928567, 49.04865483825023], [22.82970196447411, 49.01952501746564], [22.887281741958873, 49.01119907867462], [22.871866684000338, 49.07004547032227], [22.842396718034138, 49.1163602607175], [22.795698158143523, 49.1433572691227], [22.718622864753456, 49.16707876137576], [22.729504082347546, 49.21863378711964], [22.72406347355053, 49.27368492551898], [22.751266518435102, 49.31862738374684], [22.73313115517874, 49.39127638849459], [22.711822103307497, 49.45438785901251], [22.689152899686633, 49.508292636995634], [22.638827266964825, 49.522421772346945], [22.66376339076794, 49.57272364857755], [22.719529633186085, 49.6129866158397], [22.753533438617353, 49.65350987657962], [22.809753064352492, 49.70719525145972], [22.86098546550687, 49.74090163849985], [22.896349423587083, 49.78570951318352], [22.949848745823033, 49.80590343899257], [22.967077340646824, 49.85649756251257], [23.065461685908133, 49.9230957001065], [23.122134695859586, 49.964818698724], [23.167926488216892, 50.00737972789216], [23.20193029364816, 50.05281428435177], [23.254522847451483, 50.07522447333082], [23.519752533952328, 50.25267976425977], [23.597224538981322, 50.28368845046168], [23.651063898480174, 50.33255130979518], [23.696402305721904, 50.35425202181341], [23.731822937278764, 50.40755746370604], [23.781411821098743, 50.4147807077635], [23.90963450632745, 50.421551499302325], [23.959223390147372, 50.4359926211626], [24.011645924419952, 50.43418772138631], [24.064068458692475, 50.48514964244208], [24.103739565928265, 50.54190970406967], [24.114365754675873, 50.67677812920738], [24.078945124018333, 50.72972046352862], [24.030064652361887, 50.779915531776396], [23.965599103216107, 50.831399108182325], [24.121449880807404, 50.859131935590426], [24.096655438897415, 50.909634852566455], [24.03148147758816, 50.93374966061839], [23.9698495797943, 51.00156128762336], [23.93301212301111, 51.04255708364258], [23.898299904517046, 51.09953441967775], [23.86854657386533, 51.16399433547025], [23.795580073361748, 51.19907601794392], [23.738907063410295, 51.241227498550245], [23.688609767426897, 51.299731813272615], [23.638312470544122, 51.30061766976968], [23.640437708833247, 51.352410508638116], [23.67656675255364, 51.400167375424076], [23.67231627687471, 51.4536135872973], [23.60643390250266, 51.5096427995756], [23.56817962139246, 51.55415233496234], [23.530633751546475, 51.60653842960488], [23.535592640288144, 51.731316771651734], [23.5887235867242, 51.77122587637314], [23.63547882009152, 51.79927269937565], [23.604308665112853, 51.850063128710474], [23.633353582701716, 51.895113537959446], [23.593682475465926, 51.926141430082964], [23.647521834964778, 51.970242767689626], [23.65035548541738, 52.07050978879579], [23.60643390250266, 52.104462365246036], [23.546502194620643, 52.12301218736263], [23.4726005898454, 52.162522265590155], [23.417741115859883, 52.18059617097657], [23.363335026090624, 52.19838484288624], [23.289886805531694, 52.20922132550385], [23.22006565690458, 52.21588861676628], [23.184248314608055, 52.25892410756154], [23.191259828578268, 52.30972010999511], [23.222341432711005, 52.35355162760561], [23.303233299577187, 52.415571946188436], [23.337104277840183, 52.464639936384], [23.38372668403929, 52.50443712946998], [23.45864131844212, 52.54540999097833], [23.54311952424672, 52.59021813186138], [23.6024933574825, 52.606918636685805], [23.66027326200151, 52.60982242256682], [23.71924861373259, 52.61079030802637], [23.772246733000372, 52.63546416883639], [23.8296281551153, 52.67703957341763], [23.903347344104702, 52.71712718637059], [23.922872967513513, 52.81935260623783], [23.905339754326235, 52.90115249878886], [23.912512432203016, 52.96408137905246], [23.912910914607096, 53.03434770468289], [23.865093062095184, 53.074345961896654], [23.87186725846726, 53.137501021654884], [23.906933683043064, 53.173343273373405], [23.85433404617936, 53.200085978685024], [23.79655414076103, 53.2587658914328], [23.778622446069107, 53.30569955658933], [23.730406112052492, 53.35805187989041], [23.706497185796536, 53.40558916011173], [23.68298674194466, 53.45876792440026], [23.66346111943517, 53.505955759550716], [23.64393549602636, 53.559719022914635], [23.616838713236064, 53.61175927337183], [23.591734340667358, 53.665388199605786], [23.5742011283794, 53.74699985775726], [23.52917265089718, 53.77244160919298], [23.53076657961401, 53.858076263109126], [23.49051988738296, 53.90951393631917], [23.478565424254953, 53.97588992068336], [23.491715333695765, 54.09173547401298], [23.461829175875835, 54.15222103926959], [23.412815877051116, 54.181614535882204], [23.37177222091134, 54.21168624812191], [23.33670579543616, 54.249186918941234], [23.211582415895805, 54.26757541077666], [23.1482237622169, 54.299677409984554], [23.083271178921848, 54.310140045326875], [23.02132760668377, 54.31961797429011], [22.98564306457581, 54.38492844099483], [22.924675302623143, 54.38933716947486], [22.841392543131406, 54.40372025268755], [22.78122174598684, 54.37425271579025], [22.678637037968997, 54.36516419417228], [22.4507248366819, 54.35716428390464], [22.308851779186284, 54.348629329180255], [21.98025547191253, 54.342226949414226], [21.779802571931214, 54.343294082256136], [21.683695016911543, 54.33422257311332], [21.280958596562016, 54.34436118721908], [21.138170228873037, 54.35983109392987], [20.79877326347537, 54.38981544692541], [20.542193550492016, 54.39970590480374], [20.152552928275043, 54.438191235237355], [19.877959914318637, 54.462305192530664], [19.629109995729777, 54.47892723420455], [19.705338403844337, 54.52161018805981], [19.75793804160736, 54.558135663729956], [19.81412401830886, 54.59878378814136], [19.757539559203337, 54.57684807517859], [19.699361173179625, 54.54588709081662], [19.64835546413343, 54.51675307469469], [19.594958862461567, 54.49315316268837], [19.540765295981657, 54.46699224589548], [19.482586909958002, 54.45100965097464], [19.427994861973332, 54.435947874594774], [19.367824063929447, 54.41972130349541], [19.276970145056225, 54.40348830763935], [19.22317506098034, 54.38794499016922], [18.97173285558688, 54.37866259090589], [18.906556655865018, 54.40529650882689], [18.850594296489646, 54.38075131402201], [18.764522162867593, 54.40789504232242], [18.691599937786975, 54.43154415533854], [18.635413961984796, 54.45726445289222], [18.574047717628105, 54.45656952246554], [18.544560042212254, 54.49893871634873], [18.52104959836032, 54.5509718504706], [18.51746325942196, 54.602015420974965], [18.480005942220487, 54.63524018778452], [18.450518266804636, 54.6767330049243], [18.424616929427827, 54.72577812086365], [18.362852204465696, 54.772005766952645], [18.422624519206238, 54.80210583391715], [18.4716378180309, 54.78303739975627], [18.53141013277144, 54.7625805310667], [18.585205216847328, 54.74740358930427], [18.645774496395916, 54.72439737913578], [18.69894794748984, 54.693972327760775], [18.735417029372456, 54.64722213149622], [18.793308509180406, 54.61858505015999], [18.78744285290537, 54.67731360363996], [18.747148342821788, 54.70811950081435], [18.693683613008375, 54.72657852377989], [18.643606753448978, 54.74729319032855], [18.5747490467312, 54.7746628265283], [18.502678827665818, 54.792115525211386], [18.490844655156764, 54.80451287117211]]]]}}]}