{"type": "FeatureCollection", "features": [{"type": "Feature", "properties": {"code": "PRK", "name": "Democratic Peoples Republic of Korea (the)", "tier": "country"}, "geometry": {"type": "MultiPolygon", "coordinates": [[[[125.09504776500012, 37.677283455000065], [125.09504776500012, 37.677283455000065]]], [[[125.23721270500005, 37.73741378900007], [125.23721270500005, 37.73741378900007]]], [[[125.3380738510001, 37.76599738900006], [125.28379120400007, 37.742839107000066], [125.23471123100012, 37.70651206900004], [125.2965474130001, 37.72314490800005], [125.33408262400008, 37.757124359000045], [125.3380738510001, 37.76599738900006]]], [[[125.91166780100002, 37.77004755100006], [125.91166780100002, 37.77004755100006]]], [[[125.26606806200004, 37.79470540900007], [125.26606806200004, 37.79470540900007]]], [[[125.77236776900008, 37.80989106000004], [125.77236776900008, 37.80989106000004]]], [[[125.19706797100002, 37.806587411000066], [125.13382716500007, 37.79382465400005], [125.18459989000007, 37.80426274300004], [125.19706797100002, 37.806587411000066]]], [[[125.34068992200002, 37.78910328500007], [125.34068992200002, 37.78910328500007]]], [[[126.16699825900002, 37.828904229000045], [126.16699825900002, 37.828904229000045]]], [[[125.75479851400007, 37.829506679000076], [125.75479851400007, 37.829506679000076]]], [[[125.04783734900002, 37.83452599800006], [124.99681906, 37.812343422000026], [125.04976584200006, 37.829919225000026], [125.04783734900002, 37.83452599800006]]], [[[125.90982771100005, 37.826710528000035], [125.90982771100005, 37.826710528000035]]], [[[126.17355316900012, 37.80284174800005], [126.2154757830001, 37.84264269300007], [126.16673305000006, 37.81354832000005], [126.17355316900012, 37.80284174800005]]], [[[125.37625080200007, 37.83410690300008], [125.37625080200007, 37.83410690300008]]], [[[126.3752132520001, 37.834103629000026], [126.3752132520001, 37.834103629000026]]], [[[124.96462403800001, 37.913407567000036], [124.96462403800001, 37.913407567000036]]], [[[124.87616876400011, 38.52586604600003], [124.82765195000002, 38.547789962000024], [124.77926610300005, 38.53350798400004], [124.8382111840001, 38.50757647000006], [124.88778555800002, 38.49593675700004], [124.87616876400011, 38.52586604600003]]], [[[125.07443352100006, 38.59251527400005], [125.07443352100006, 38.59251527400005]]], [[[125.0010820440001, 38.65220359400007], [125.0010820440001, 38.65220359400007]]], [[[127.5299088490001, 39.216436661000046], [127.5299088490001, 39.216436661000046]]], [[[127.63191923300008, 39.219553681000036], [127.63191923300008, 39.219553681000036]]], [[[127.46631770500005, 39.39312129100006], [127.46631770500005, 39.39312129100006]]], [[[127.44719648800003, 39.388720791000026], [127.44719648800003, 39.388720791000026]]], [[[124.73562781800001, 39.41154510700005], [124.73562781800001, 39.41154510700005]]], [[[124.61496769900009, 39.424121237000065], [124.61496769900009, 39.424121237000065]]], [[[124.78469796900004, 39.44802603200003], [124.78469796900004, 39.44802603200003]]], [[[124.63144665200002, 39.45620493600006], [124.63144665200002, 39.45620493600006]]], [[[124.62693155700003, 39.483937250000054], [124.62693155700003, 39.483937250000054]]], [[[124.81099619100007, 39.50947913600004], [124.81099619100007, 39.50947913600004]]], [[[125.20818381600009, 39.51308728300006], [125.20818381600009, 39.51308728300006]]], [[[124.70242434800002, 39.497047070000065], [124.70242434800002, 39.497047070000065]]], [[[125.14298177500007, 39.51545779000003], [125.14298177500007, 39.51545779000003]]], [[[125.15619637000009, 39.54866453400007], [125.15619637000009, 39.54866453400007]]], [[[124.73692439400008, 39.54171672200005], [124.73692439400008, 39.54171672200005]]], [[[124.68621715200004, 39.56312659200006], [124.63617784400003, 39.55704971200004], [124.59226125400005, 39.52778180800004], [124.63984820100006, 39.54739742600003], [124.69290957800001, 39.54131399800008], [124.68621715200004, 39.56312659200006]]], [[[125.41475517000003, 39.55158182900004], [125.41475517000003, 39.55158182900004]]], [[[124.89328618200011, 39.606712489000074], [124.85762052900009, 39.56563134000004], [124.85478181400003, 39.51396148900005], [124.9085242210001, 39.52791277500006], [124.91187370800003, 39.588494946000026], [124.89328618200011, 39.606712489000074]]], [[[124.90580010200006, 39.622431832000075], [124.90580010200006, 39.622431832000075]]], [[[124.76154296100003, 39.62401326200006], [124.76154296100003, 39.62401326200006]]], [[[124.8390133580001, 39.63861938300005], [124.8390133580001, 39.63861938300005]]], [[[124.52307780900003, 39.70578265900008], [124.52307780900003, 39.70578265900008]]], [[[127.56552866400011, 39.73481482200003], [127.56552866400011, 39.73481482200003]]], [[[124.35405803700007, 39.85373635000008], [124.35405803700007, 39.85373635000008]]], [[[124.38272021700004, 39.84639891100005], [124.38272021700004, 39.84639891100005]]], [[[124.34047018500007, 39.87900975400004], [124.34047018500007, 39.87900975400004]]], [[[124.25144847800004, 39.80633930600004], [124.26864775100012, 39.85584164900007], [124.27644357600002, 39.905612474000066], [124.2260964940001, 39.890004453000074], [124.18910152300009, 39.82213722900008], [124.22955402900004, 39.78432371300005], [124.25144847800004, 39.80633930600004]]], [[[124.30177264000008, 39.91340502500003], [124.30177264000008, 39.91340502500003]]], [[[124.30161220500008, 39.92369905000004], [124.30161220500008, 39.92369905000004]]], [[[124.36060312400002, 39.93966068300006], [124.36060312400002, 39.93966068300006]]], [[[130.28071530400007, 42.14464806600006], [130.28071530400007, 42.14464806600006]]], [[[130.29176239100002, 42.18392186700004], [130.29176239100002, 42.18392186700004]]], [[[129.95687915700012, 43.00812163200004], [129.89451583100004, 43.002591540000026], [129.8548884180001, 42.965082523000035], [129.86755295000012, 42.916140065000036], [129.83749269400005, 42.871866589000035], [129.8125303380001, 42.82830361100008], [129.7930587840001, 42.77594290800005], [129.76956326100003, 42.731476255000075], [129.78929020100009, 42.68533977100003], [129.74705654100012, 42.64695982100005], [129.77714626400007, 42.60405822700005], [129.73579335800002, 42.570573178000075], [129.73693932100002, 42.520317773000045], [129.74374306900006, 42.46782610300005], [129.70323162800003, 42.42713785600006], [129.64981009000007, 42.42560881300005], [129.61454716100002, 42.462420430000066], [129.59626740800002, 42.41419501800004], [129.55541872600008, 42.37765515800004], [129.50738649000004, 42.393106018000026], [129.46041836300003, 42.42236737400003], [129.4009232200001, 42.45048276600005], [129.34492490200012, 42.45104265100008], [129.30557252100004, 42.416958427000054], [129.2673661020001, 42.38469464700006], [129.22499165200009, 42.35166143500004], [129.19506891100002, 42.31157563700003], [129.21603349200007, 42.264574768000045], [129.20459023, 42.212675725000054], [129.1582638420001, 42.184855009000046], [129.11576824700012, 42.14460877600004], [129.06277562700006, 42.15117023500005], [129.031402425, 42.11155591800008], [128.98385476800001, 42.09213020200008], [128.95110968400002, 42.04790911400005], [128.9156797710001, 42.009571728000026], [128.85766455700002, 42.023830786000076], [128.81071607600006, 42.041098817000034], [128.75581460900003, 42.03782791000003], [128.7046653530001, 42.02889267000006], [128.6500258200001, 42.01555693100005], [128.5994429970001, 42.02950166800008], [128.54702663400008, 41.99991289400003], [128.488936114, 41.99741142000005], [128.44222992200002, 42.02935760400004], [128.38295087400002, 42.033139283000025], [128.32810834200006, 42.03843363400006], [128.2618258220001, 42.03531661300008], [128.186860173, 42.00884486000007], [128.13836627800003, 41.99587255500006], [128.08238105700002, 41.99409467400005], [128.0758523400001, 41.93269395800007], [128.09977678100006, 41.888115983000034], [128.09704611400002, 41.83674080900005], [128.11557143000005, 41.78795223800006], [128.14622431300006, 41.745387884000024], [128.17982395800004, 41.70779046400003], [128.22822617600002, 41.67763198200004], [128.2714093500001, 41.65171029100003], [128.3004775290001, 41.60950937200005], [128.2902981000001, 41.559699256000044], [128.2609548900001, 41.51133305400003], [128.23272817500003, 41.46581211600005], [128.2058864390001, 41.41283914100006], [128.15595845300004, 41.38600067900006], [128.10653796500003, 41.36069453400006], [128.06498860800002, 41.39250647700004], [128.01690725900005, 41.40886755900004], [127.96582021300003, 41.43539824800007], [127.91414708800005, 41.43631501900006], [127.86653067400005, 41.41458428000004], [127.81591183500007, 41.416241015000026], [127.76541741500012, 41.41927290700005], [127.70298860600008, 41.41657170700006], [127.65207509100003, 41.42608975200005], [127.58849377000001, 41.42380109900006], [127.53865746100007, 41.45215223300005], [127.49387321300003, 41.47526140200006], [127.44255042500004, 41.457092972000055], [127.39285163200009, 41.47842098700005], [127.3375474400001, 41.46289482000003], [127.28933839900003, 41.48305067900003], [127.24044178000008, 41.497100190000026], [127.19821139300007, 41.53159696100005], [127.14022892100002, 41.524089264000054], [127.13810070400007, 41.57984201800008], [127.1044781390001, 41.61856903100005], [127.06459206600005, 41.65700136800007], [127.04844707900008, 41.70855662200006], [127.00411139400012, 41.74313852200004], [126.96250310100004, 41.774115549000044], [126.91828201300007, 41.80442464200007], [126.86570848800011, 41.77576901000003], [126.84078214800002, 41.72197749000003], [126.79071009800009, 41.71205017300008], [126.72332090400005, 41.74366239100004], [126.70072905500001, 41.688060249000046], [126.65712678600005, 41.658969151000065], [126.60578108000004, 41.66556990000004], [126.59030075200008, 41.617252810000025], [126.58679083000004, 41.562279311000054], [126.55145914200011, 41.510838653000064], [126.52020381000011, 41.45409382200006], [126.50340398800006, 41.401251814000034], [126.53009838500009, 41.35423130100003], [126.48030136600005, 41.34504394900006], [126.42989207500011, 41.34933967400008], [126.39559175500005, 41.30377617100004], [126.3555059570001, 41.25999382300006], [126.313170796, 41.22244551500006], [126.29145970200011, 41.16974757100007], [126.24545418500009, 41.148121606000075], [126.201828997, 41.12122748300004], [126.14779518700004, 41.08695335600004], [126.12552748200005, 41.041360385000075], [126.08978324800012, 41.00166094100007], [126.05476260800003, 40.96484277500008], [126.01299388100006, 40.932038755000065], [125.97084862300005, 40.902682448000064], [125.9172666500001, 40.88019864700004], [125.87139864800008, 40.905223213000056], [125.82589735500005, 40.87311986800006], [125.77897506700003, 40.89043046300003], [125.71932931100002, 40.870739538000066], [125.67931227100007, 40.837319973000035], [125.63249148200009, 40.80730555500003], [125.68087732900005, 40.783980290000045], [125.61235199500004, 40.75670963600004], [125.56284965200007, 40.77245189900003], [125.5350813230001, 40.72050046800007], [125.47765218800009, 40.71981943900005], [125.45024729300007, 40.67761852000007], [125.41870055900006, 40.63514584300003], [125.36633985600008, 40.649224822000065], [125.29598098000008, 40.65486623600003], [125.26048885800003, 40.617461992000074], [125.20155359900002, 40.607449546000055], [125.12860812000008, 40.57286764600008], [125.06851052800005, 40.54841933700004], [125.00453303100005, 40.52202288900003], [125.04113837500006, 40.48133136800004], [124.9924316580001, 40.468306676000054], [124.93937028000005, 40.452862364000055], [124.89703512000006, 40.48066998300004], [124.86274789600009, 40.43838066100005], [124.81178199400006, 40.40309481200006], [124.76307527800009, 40.386737004000054], [124.73359782600005, 40.34524658200007], [124.64701210900012, 40.292823670000075], [124.58891176700001, 40.267681234000065], [124.54567620600005, 40.237614429000075], [124.50621905100002, 40.202967046000026], [124.45633690300008, 40.17386285100008], [124.40371754000012, 40.13402916500007], [124.35384521500009, 40.08425833900003], [124.36450267400005, 40.028882115000044], [124.36367103200007, 39.96730131900006], [124.33099470600007, 39.92345021300008], [124.36403774000007, 39.881190358000026], [124.402686173, 39.849001885000064], [124.413278149, 39.79781988700006], [124.45848149200003, 39.83274230200004], [124.50644824400001, 39.813899390000074], [124.56205693400011, 39.82454375200007], [124.54900277400009, 39.76956043100006], [124.55548892700006, 39.71460330200006], [124.61208969400002, 39.70119553100005], [124.62925622500006, 39.65091720700008], [124.63099809000005, 39.59828147300004], [124.67636841600006, 39.62294260500005], [124.72741617200006, 39.63356404800004], [124.75924776000011, 39.67390850600003], [124.74992289200009, 39.727313673000026], [124.8019037900001, 39.72051319900004], [124.8521264530001, 39.71599482900007], [124.89922227300008, 39.674674665000055], [124.93891189500005, 39.63617684400003], [124.9973527520001, 39.63080718700007], [125.05087251500004, 39.61770391500005], [125.10368505500003, 39.61327722200008], [125.12412904100006, 39.56630254700008], [125.17571376300009, 39.573073554000075], [125.219725304, 39.60762926000007], [125.26360260400008, 39.63485080100003], [125.22128381400012, 39.58724093500007], [125.2542122530001, 39.54645446200004], [125.31305583400001, 39.526514700000064], [125.36062641, 39.54929645100003], [125.40574789800007, 39.57827622700006], [125.39787349300002, 39.518005103000064], [125.35878632000004, 39.47165579700004], [125.35067617400011, 39.42177692300004], [125.39002855500007, 39.37668162800003], [125.40955249700005, 39.32454356900007], [125.42709228500007, 39.27583357800006], [125.38440023800001, 39.24314742900003], [125.33876797700009, 39.209122140000034], [125.30251297100006, 39.17217955600006], [125.28649240300001, 39.12162292700003], [125.26101600100003, 39.076167472000066], [125.23071345500011, 39.024897071000055], [125.19553238000003, 38.98765653600003], [125.16706010200005, 38.906905410000036], [125.12502289200006, 38.867720011000074], [125.13849614700007, 38.819203197000036], [125.16977767300011, 38.77040807700007], [125.21048883900005, 38.73839968400006], [125.22162760300012, 38.79799632700008], [125.26719765500002, 38.77276221300008], [125.23153527500006, 38.72684509900006], [125.2692505660001, 38.69326182400005], [125.318412394, 38.70756999500003], [125.3618935180001, 38.73867471500006], [125.43359480800007, 38.73125542100007], [125.48834238900008, 38.714481791000026], [125.54194728000004, 38.70915469900007], [125.49079147600003, 38.68764005500003], [125.44313904600006, 38.707039578000035], [125.39420968500008, 38.68282700900005], [125.34140041900002, 38.671459053000035], [125.30782369300005, 38.62666825700006], [125.26480095400007, 38.65646003000006], [125.21082280600001, 38.645871328000055], [125.16577007500007, 38.618168483000034], [125.13256988000012, 38.65738334900004], [125.12753418900002, 38.60478363100003], [125.08513027100003, 38.575866064000024], [125.0379395000001, 38.55250478200003], [125.01519703800011, 38.500147354000035], [124.96956477800006, 38.451997248000055], [124.92368367900008, 38.41551632300008], [124.8948217730001, 38.37100383200004], [124.85962760200005, 38.328167722000046], [124.86650993, 38.26599429800007], [124.89379040600011, 38.22302394700006], [124.95015870700001, 38.22569567800008], [124.91539672700003, 38.187217503000056], [124.87816601500003, 38.225518873000055], [124.81916199800003, 38.19191267900004], [124.7679210660001, 38.167578965000075], [124.72178785500012, 38.13514165400005], [124.6664902120001, 38.13991213600008], [124.76248919900002, 38.09501329100004], [124.81739721500003, 38.102347457000064], [124.86918493600001, 38.11244830500004], [124.91934866300005, 38.11292961000004], [124.99047697200001, 38.07826585500004], [125.03951110700007, 38.06770989600005], [125.0907978780001, 38.081166780000046], [125.14251684100009, 38.08702756400004], [125.1978832420001, 38.08777080300007], [125.2545167510001, 38.08136650500006], [125.23417753900003, 38.03265324000006], [125.18784460300003, 38.055850812000074], [125.13168257600012, 38.04549130400005], [125.11913264100008, 37.992285862000074], [125.17307149900012, 37.98458171400006], [125.10704109000005, 37.95786439700004], [125.06041020400005, 37.98078693800005], [125.00660558700008, 37.95544150300003], [125.01215205000005, 37.90563138700003], [125.06207348800001, 37.901240710000025], [125.10798732800004, 37.874202524000054], [125.16121568900007, 37.864677931000074], [125.21331773200006, 37.880132065000055], [125.2392721650001, 37.92371796300006], [125.28943589200003, 37.90225570700005], [125.27845101500009, 37.84665029000007], [125.23272052800007, 37.823665540000036], [125.2825633860001, 37.79626719300006], [125.33119807100002, 37.82364589500003], [125.37706607300004, 37.85380437600003], [125.43189878200008, 37.851466611000035], [125.39016607100007, 37.879015570000035], [125.43668236100007, 37.899060106000036], [125.4913317160001, 37.889365256000076], [125.47577608200004, 37.84014121800004], [125.53053348500009, 37.845324247000065], [125.49001222100003, 37.801833301000045], [125.44434394400002, 37.83130747800004], [125.393371494, 37.79438781300007], [125.44225174300004, 37.77656317200007], [125.3948907140001, 37.75447554600004], [125.34442903600007, 37.74480361600007], [125.33753361100003, 37.69082219300003], [125.38086739700009, 37.726297945000056], [125.43332632500005, 37.72491951400008], [125.47946281000009, 37.744950954000046], [125.50309912300008, 37.794947698000044], [125.5477818710001, 37.76249074200007], [125.60563010100009, 37.75749434100004], [125.61261720300001, 37.807792310000025], [125.6376581400001, 37.852920347000065], [125.63110977800011, 37.90439374700003], [125.69055908300004, 37.89130684500003], [125.734917687, 37.922971450000034], [125.68135863400005, 37.93045295300004], [125.68483581400005, 37.987227252000025], [125.62751145300001, 37.96726129600006], [125.58685922100005, 38.001728600000035], [125.62236771500011, 38.037034094000035], [125.67093691600007, 38.024860689000036], [125.7065796500001, 37.98817021600007], [125.75581351000005, 38.00735036900005], [125.80563344900008, 37.989826952000044], [125.81764969300002, 37.94121191200003], [125.85941187200001, 37.90962261400006], [125.89087020300008, 37.86448148000005], [125.94567017100007, 37.836012476000064], [125.97619536000002, 37.88989894700006], [126.02275094000004, 37.84875558900006], [126.065711469, 37.82165519200004], [126.10030319200007, 37.785213558000066], [126.13215769900012, 37.739781022000045], [126.17088471200009, 37.774854049000055], [126.15030648400011, 37.82692007600008], [126.2119527640001, 37.848919298000055], [126.26421196800004, 37.840085557000066], [126.32082255700004, 37.86917338200004], [126.37574694400007, 37.883838438000055], [126.42301956900008, 37.85167615800003], [126.47184743100001, 37.81601705300005], [126.52510853400008, 37.80475387000007], [126.57444716700002, 37.769494215000066], [126.63555975600002, 37.787315582000076], [126.66583283400007, 37.83301987500005], [126.69007873500004, 37.89813232400007], [126.68578338600003, 37.95236206100003], [126.74150085400004, 37.96250534100005], [126.79322052000009, 37.97984695400004], [126.84042358400006, 38.018390656000065], [126.87429046600005, 38.08091735800008], [126.91841888400006, 38.11333084100005], [126.96690368700001, 38.13895034800004], [126.9694137570001, 38.19206619300007], [127.01175689700005, 38.22770690900006], [127.05745697000009, 38.25956344600007], [127.10009765600012, 38.28760147100007], [127.15577697800006, 38.30260849000007], [127.20716095000012, 38.31245422400008], [127.2748718260001, 38.32289886500007], [127.32559204100005, 38.31391525300006], [127.37966918900008, 38.330249786000024], [127.43530273400006, 38.31533050500008], [127.4989166260001, 38.29781723000008], [127.55505371100003, 38.32455444300007], [127.61361694300001, 38.32114410400004], [127.68184661900011, 38.31896591200007], [127.7423400880001, 38.32872772200005], [127.79717254600007, 38.336143494000055], [127.83348083500005, 38.30041503900003], [127.88852691700004, 38.326354980000076], [127.94187927200005, 38.318397522000055], [128.00080871600005, 38.31157684300007], [128.06800842300004, 38.306934357000046], [128.11605835000012, 38.33098602300004], [128.17613220200008, 38.35614776600005], [128.23066711400008, 38.39411926300005], [128.2891845700001, 38.43442535400004], [128.30966186500007, 38.48474502600004], [128.31500244100005, 38.55332946800007], [128.359923352, 38.612441567000076], [128.35700953800006, 38.66714040800008], [128.31947432700008, 38.705363197000054], [128.27767940600006, 38.73732247800007], [128.2207806890001, 38.73044342400004], [128.16264433100002, 38.77309945400003], [128.12173343900008, 38.81596830600006], [128.07264691700004, 38.84103543600003], [128.02279751100002, 38.84982661200007], [127.96949057000006, 38.88348846700006], [127.93083231500009, 38.917720030000055], [127.89708860500002, 38.96115204100005], [127.8499895110001, 38.983062860000075], [127.8173361040001, 39.026196921000064], [127.78265270400004, 39.07534892600006], [127.74484901000005, 39.12734946900008], [127.6867355710001, 39.10376226900007], [127.6213370800001, 39.131952968000064], [127.56899929600002, 39.147518424000054], [127.52787885700002, 39.11662652600006], [127.49429230800001, 39.15785828800006], [127.444298838, 39.152442793000034], [127.39965865400006, 39.18622906600007], [127.36502109300011, 39.226082398000074], [127.37432959000012, 39.27891458300007], [127.38877200200011, 39.328141894000055], [127.43399171600004, 39.298012881000034], [127.47004044900007, 39.34283969300003], [127.42003715700002, 39.35023606800007], [127.36901886800001, 39.366577505000066], [127.41586257600011, 39.387473328000056], [127.3611084470001, 39.38400924500007], [127.40747739800008, 39.41225560500004], [127.4578310280001, 39.405081874000075], [127.5098577650001, 39.41203296000003], [127.54102469400004, 39.35738360500005], [127.51310575200011, 39.30611320400004], [127.56646835400011, 39.30657813800008], [127.54376190900007, 39.37996235700007], [127.51873079500001, 39.44425090100003], [127.51450382700011, 39.50599540700006], [127.54782844200008, 39.55226285900005], [127.55747090500006, 39.60276382700005], [127.51228393300005, 39.63117717000006], [127.48816631500006, 39.686615603000064], [127.51410765100002, 39.73747673100007], [127.5483719560001, 39.777294046000065], [127.56967050300011, 39.828754349000064], [127.62008634300003, 39.81809689000005], [127.67578016200002, 39.81135207700004], [127.71914668900001, 39.84759398700004], [127.77291201600008, 39.85323867500006], [127.81723787800001, 39.87956963900007], [127.87023049800007, 39.88176661400007], [127.8697131780001, 39.93649455000008], [127.90216686000008, 39.981311539000046], [127.9587938200001, 40.005298190000076], [128.02705394600002, 40.01236714600003], [128.1082470870001, 40.01307437000003], [128.16082716000005, 40.00741985900004], [128.2106634690001, 39.98265395400006], [128.26229730400007, 40.006008687000076], [128.31672728900003, 39.99611411200004], [128.33456502700005, 40.05755084400005], [128.36772265900004, 40.09511552300006], [128.42541372800008, 40.10077658200004], [128.46911749600008, 40.131380352000065], [128.52003428500007, 40.13389164900008], [128.5563973400001, 40.16849974200005], [128.60429533400008, 40.184179795000034], [128.6496885790001, 40.20845457300004], [128.62182529900008, 40.266247142000054], [128.65034341600006, 40.31567090500005], [128.7060241380001, 40.33321069300007], [128.76808296500008, 40.351310365000074], [128.8321848810001, 40.36514378000004], [128.8833930720001, 40.384900188000074], [128.93929971300008, 40.43280473100003], [128.98825199300006, 40.46295011500007], [129.04277038100008, 40.48154418900003], [129.10217384700002, 40.494107222000025], [129.13420188600003, 40.53751304000008], [129.17057803700004, 40.57241580900006], [129.19230550200007, 40.632896481000046], [129.21142672000008, 40.68779140000004], [129.25855855500004, 40.704869528000074], [129.2993941410001, 40.67594868700007], [129.3276372260001, 40.71838534700004], [129.38615339000012, 40.75540978600003], [129.45028804700007, 40.778771068000026], [129.49867389400004, 40.792011856000045], [129.54846109100004, 40.80698141200003], [129.59169010300002, 40.834252065000044], [129.6478717750001, 40.84031257400005], [129.69862485500005, 40.84345578800003], [129.7377480440001, 40.88538495000006], [129.76510710000002, 40.93834810200008], [129.73063652300004, 40.98152472700008], [129.727860017, 41.073047909000024], [129.71792615200002, 41.12276962200008], [129.72163252500002, 41.19531237700005], [129.74144132000004, 41.250587101000065], [129.78172356900006, 41.31197472100007], [129.80012446600006, 41.36458098700007], [129.7432715870001, 41.408432093000044], [129.68051208600002, 41.44043393900006], [129.65251128900002, 41.490309538000076], [129.65017679800007, 41.549454344000026], [129.68039094100004, 41.604368908000026], [129.69699103900007, 41.65159896900008], [129.74023314700003, 41.68414760300004], [129.75590665200002, 41.73349605900006], [129.7976524600001, 41.77140125300008], [129.84780963900005, 41.75894299400005], [129.87065032600003, 41.80555096100005], [129.88860920800005, 41.857738132000065], [129.90283225100006, 41.90624839800006], [129.95349037900007, 41.89211375800005], [129.97490024900003, 41.938338646000034], [129.9985954970001, 41.99659614900003], [130.044509338, 42.02199397100003], [130.07923857600008, 42.06508219300008], [130.13198890600006, 42.08749723600005], [130.17965770700005, 42.10814422200008], [130.21081481400006, 42.148442842000065], [130.24618579100002, 42.192827640000075], [130.2946174770001, 42.23222586000003], [130.31130925200011, 42.179442788000074], [130.34983981400012, 42.218310590000044], [130.39308192300007, 42.25227039600003], [130.40060271700008, 42.30532849900004], [130.45397841500005, 42.304126875000065], [130.5045023030001, 42.33572927000006], [130.57634110800007, 42.31301627600004], [130.58729651800002, 42.258026406000056], [130.64889368600006, 42.27617519200004], [130.64613355100005, 42.33892159700008], [130.6478721410001, 42.39798782200006], [130.60444667800004, 42.43133208200004], [130.56384355900002, 42.46479421200007], [130.5508123190001, 42.51408700700006], [130.52499540200006, 42.55920522100007], [130.51704569000003, 42.61023660600006], [130.46282852700006, 42.60444130600007], [130.47158696100007, 42.55273543900006], [130.41708494400007, 42.56844168600003], [130.37631156800012, 42.60348851900005], [130.3314978520001, 42.645470068000066], [130.29032830000006, 42.695794231000036], [130.2471156590001, 42.72299940100004], [130.23829501500006, 42.77444333300008], [130.2411795690001, 42.82600841000004], [130.268492787, 42.88032379900005], [130.21211139000002, 42.90391099900006], [130.16059870000004, 42.91324896300006], [130.10643064900012, 42.91238785300004], [130.1448531630001, 42.97047182400007], [130.09062290300005, 42.984141530000045], [130.0406785460001, 42.97218094700003], [129.97343341600003, 42.973022412000034], [129.95687915700012, 43.00812163200004]]]]}}]}