{"type": "FeatureCollection", "features": [{"type": "Feature", "properties": {"code": "PRT", "name": "Portugal", "tier": "country"}, "geometry": {"type": "MultiPolygon", "coordinates": [[[[-16.04920873033364, 30.033645211379977], [-16.04920873033364, 30.033645211379977]]], [[[-16.02719202069749, 30.036747213782288], [-16.02719202069749, 30.036747213782288]]], [[[-15.861572349538346, 30.15498467638376], [-15.861572349538346, 30.15498467638376]]], [[[-16.493210132032754, 32.44619381489898], [-16.463078409866302, 32.403773393145514], [-16.48933072985698, 32.44947388894107], [-16.493210132032754, 32.44619381489898]]], [[[-16.493579089442356, 32.48149117729691], [-16.509447750503977, 32.533670008578106], [-16.4937654730784, 32.485383649847705], [-16.493579089442356, 32.48149117729691]]], [[[-16.543879656525963, 32.59070250470501], [-16.543879656525963, 32.59070250470501]]], [[[-16.65548644107975, 32.730938655450444], [-16.65548644107975, 32.730938655450444]]], [[[-16.676990248000152, 32.7401795795099], [-16.676990248000152, 32.7401795795099]]], [[[-17.164838397330954, 32.87051186516449], [-17.164838397330954, 32.87051186516449]]], [[[-17.19471036666003, 32.87055908905228], [-17.243740410335118, 32.83305898393227], [-17.243116628933045, 32.78171287266056], [-17.21260358023349, 32.73696950805892], [-17.15909699105666, 32.71162464628574], [-17.1043366617181, 32.67824910303589], [-17.049723474797858, 32.664866003725656], [-16.99459700674369, 32.65083230447544], [-16.94630279062636, 32.63308046858899], [-16.895831762416567, 32.647078874326276], [-16.842318178184165, 32.639598934882876], [-16.80157538260733, 32.673946592067104], [-16.761306182910914, 32.707375996760916], [-16.725285605716223, 32.742394698290724], [-16.772521263815115, 32.75935767626402], [-16.82236518775645, 32.76809450904312], [-16.859479130574037, 32.803732093971696], [-16.900428254592022, 32.83476489419466], [-16.959493943820412, 32.828258713099046], [-17.01602981325775, 32.81550970171098], [-17.082483900741146, 32.81618470917691], [-17.13682549765791, 32.83563960162198], [-17.17815226960854, 32.86659634763458], [-17.19471036666003, 32.87055908905228]]], [[[-16.383304548113923, 33.021000885061454], [-16.383304548113923, 33.021000885061454]]], [[[-16.409458292871015, 33.04096030331325], [-16.409458292871015, 33.04096030331325]]], [[[-16.287123959471202, 33.05819844511286], [-16.287123959471202, 33.05819844511286]]], [[[-16.28832093937907, 33.10381029750435], [-16.28832093937907, 33.10381029750435]]], [[[-16.36947794478958, 33.10342091993047], [-16.36947794478958, 33.10342091993047]]], [[[-16.321318046853165, 33.10743685866705], [-16.3684033393065, 33.08169141893544], [-16.397860487852256, 33.04067138885841], [-16.339761142298947, 33.05365716177158], [-16.293998837553907, 33.07565802219215], [-16.321318046853165, 33.10743685866705]]], [[[-16.285197216989108, 33.12802607771907], [-16.285197216989108, 33.12802607771907]]], [[[-8.991673021273918, 37.030554915066496], [-8.991673021273918, 37.030554915066496]]], [[[-25.088645333996812, 37.01655620503409], [-25.138111603689154, 37.00462530317396], [-25.185560584366627, 36.984893899762355], [-25.157488551890392, 36.93994301981074], [-25.108155945313474, 36.950882013088496], [-25.063002642074355, 36.929216668902406], [-25.01320833053572, 36.940500530884236], [-25.046090420004532, 36.98400223361174], [-25.08494349394384, 37.015901567642665], [-25.088645333996812, 37.01655620503409]]], [[[-8.796675514740347, 37.834051851373935], [-8.796675514740347, 37.834051851373935]]], [[[-25.44258481436721, 37.70638386475791], [-25.44258481436721, 37.70638386475791]]], [[[-25.780639323133006, 37.910542032105205], [-25.827519534759325, 37.88179568314284], [-25.840798442232995, 37.82819781672247], [-25.797816299641642, 37.800681658896345], [-25.751205021993172, 37.77175401605629], [-25.7079159547038, 37.74069392236946], [-25.656146752729462, 37.73635953179447], [-25.596410283044776, 37.74576274647056], [-25.544089647625, 37.728157321474484], [-25.496484711335096, 37.711300232563126], [-25.443216336649265, 37.7116636759095], [-25.3905168515593, 37.71670858392426], [-25.340887522069448, 37.726061693087075], [-25.29109246055116, 37.73613458525976], [-25.22374539198631, 37.74032968221706], [-25.170738952964648, 37.74224478665653], [-25.138981337979622, 37.78148638248974], [-25.148971762333225, 37.85041868927034], [-25.22991072329117, 37.8535091657884], [-25.281838771850218, 37.857510549144685], [-25.334840483723926, 37.85226862453152], [-25.384707270558696, 37.83297481137925], [-25.435270501507198, 37.831063786790686], [-25.486217097803245, 37.84244010210699], [-25.53775265041313, 37.82128668684102], [-25.599312266940682, 37.82027906237768], [-25.650822911551, 37.83232648678158], [-25.69784400579031, 37.85585404894681], [-25.737288697505544, 37.893945790591665], [-25.780639323133006, 37.910542032105205]]], [[[-28.476663707357556, 38.560016141448415], [-28.52939257766458, 38.5379684058494], [-28.53924245403836, 38.488227012471896], [-28.47891918567198, 38.4351920315833], [-28.426079144549206, 38.42147803618832], [-28.367598013523246, 38.41240209743476], [-28.303778659369513, 38.410565789835104], [-28.254460448305004, 38.40048819935353], [-28.196895961245932, 38.39500718148863], [-28.138068588200085, 38.40629481016612], [-28.08516348861039, 38.400794835317555], [-28.036119663550426, 38.4112015295603], [-28.073220003248554, 38.44660448521716], [-28.131994635901886, 38.45061573379273], [-28.18163945291585, 38.463115886112284], [-28.23208146455084, 38.48709904936482], [-28.281853674918768, 38.50705736448569], [-28.329669396123954, 38.536330005454985], [-28.38062840202739, 38.55283937269407], [-28.431433788330768, 38.55727099520377], [-28.476663707357556, 38.560016141448415]]], [[[-27.287080457059773, 38.80115421924195], [-27.349988836219026, 38.78608201803967], [-27.378384619215083, 38.73058962009991], [-27.35101821149101, 38.68673345764841], [-27.286599897660167, 38.65497095027236], [-27.235470679354744, 38.65674781602679], [-27.18187743942981, 38.654153314085576], [-27.132004622352255, 38.64351401460987], [-27.07702143564344, 38.64350005221262], [-27.04825364473848, 38.687804258828336], [-27.053752554070662, 38.73970555934618], [-27.092564252347664, 38.780553940381466], [-27.144530826564317, 38.78901728261168], [-27.19424135502797, 38.797497491971455], [-27.24515151036191, 38.79821731995436], [-27.287080457059773, 38.80115421924195]]], [[[-28.71457400304674, 38.64391468621267], [-28.75505715142297, 38.61076644087614], [-28.813493868447107, 38.60841994392335], [-28.78148824418303, 38.56462246778665], [-28.74854647839765, 38.52483515778037], [-28.67980508454466, 38.52069170896727], [-28.62813817259093, 38.52635536428413], [-28.608385799447607, 38.57925854680883], [-28.64614710517368, 38.616066623429326], [-28.69940117305737, 38.641441777637716], [-28.71457400304674, 38.64391468621267]]], [[[-28.31675800539106, 38.7559752432922], [-28.278412998475247, 38.72265372089096], [-28.23007419959803, 38.70115756111677], [-28.190835676982584, 38.66695076234229], [-28.137776209528806, 38.64713555367875], [-28.079694197939922, 38.62871208355087], [-28.034042722193906, 38.608159062477675], [-27.981848468143877, 38.59380229211679], [-27.928810153601294, 38.58044288599701], [-27.877313610016255, 38.555832500209505], [-27.829018393355486, 38.53366834067923], [-27.776060218470498, 38.53697824190028], [-27.817266189940472, 38.57795393822284], [-27.881415911598694, 38.605569186691305], [-27.928116574801884, 38.62803463260259], [-27.976928527419112, 38.64402949360769], [-28.02375229295955, 38.67211910583811], [-28.0784541289485, 38.68116178211591], [-28.13437322080478, 38.69898464284135], [-28.18719053490469, 38.718821509109105], [-28.236959384890184, 38.734084377781784], [-28.28776331256739, 38.75192780975796], [-28.31675800539106, 38.7559752432922]]], [[[-9.505499921687262, 39.41998891505475], [-9.505499921687262, 39.41998891505475]]], [[[-28.035417174655937, 39.09677854127688], [-28.046633057156278, 39.033520511757246], [-27.998720509419847, 39.0143056031547], [-27.948087514521497, 39.01802158482326], [-27.9777629718994, 39.06509808458978], [-28.019641340105427, 39.09458377180139], [-28.035417174655937, 39.09677854127688]]], [[[-31.22782135385172, 39.52054930548843], [-31.25749005099504, 39.463808519105115], [-31.25640690945646, 39.41261171515011], [-31.224683330863726, 39.37218606085911], [-31.169051342554297, 39.37751354273427], [-31.146679939435, 39.42475412428085], [-31.148379519246642, 39.48269584886406], [-31.19583416116019, 39.503889481801664], [-31.22782135385172, 39.52054930548843]]], [[[-31.120139456934695, 39.725615550801464], [-31.121306441188832, 39.67461045446277], [-31.08217762325777, 39.706945154048746], [-31.120139456934695, 39.725615550801464]]], [[[-8.191227090892445, 42.14262579147998], [-8.24389007349453, 42.139770297045914], [-8.289126138431262, 42.11446821473821], [-8.331890764942928, 42.083834528139626], [-8.38164330174259, 42.07634583442154], [-8.431661452569765, 42.07318764666759], [-8.486086842583047, 42.081906417241576], [-8.54604977817058, 42.0541852341109], [-8.600944322962441, 42.054582669315884], [-8.654024253907828, 42.033340076399014], [-8.688709160899561, 41.990060079080955], [-8.744162906025815, 41.96587885829336], [-8.788219506069801, 41.916492643035575], [-8.852532979394258, 41.87523716316766], [-8.87693503737956, 41.82979417966805], [-8.871702247474213, 41.77825593746259], [-8.87195365974802, 41.72660458963219], [-8.846747341441612, 41.67994010504781], [-8.820010537719554, 41.63563953259025], [-8.80565086651223, 41.58401030127832], [-8.790793969586137, 41.53315845263326], [-8.776414992926913, 41.477999008936], [-8.78605482659307, 41.42030561613775], [-8.7719548716907, 41.370593706614294], [-8.739388225479335, 41.32326086623574], [-8.727868718161305, 41.270207932275376], [-8.715948265178943, 41.220033159188006], [-8.691075293796736, 41.174705384407105], [-8.667993183801938, 41.127502123076596], [-8.659450724550858, 41.069067607059914], [-8.644177750059473, 41.017819083860395], [-8.657519077020098, 40.95771953213059], [-8.667487612146209, 40.90275269661871], [-8.720318125677863, 40.74341912063442], [-8.75144951465904, 40.65640152186062], [-8.766009450953327, 40.584284432625594], [-8.786119632359886, 40.51211551899221], [-8.828078343613496, 40.37964117954848], [-8.844685109894694, 40.33069628123884], [-8.871683990128979, 40.26431838844278], [-8.909237546789102, 40.186537075855526], [-8.871449150876222, 40.147084010648726], [-8.8784639238985, 40.090066733546486], [-8.895683996867009, 40.041975930339476], [-8.940685933064085, 39.945291213206175], [-8.972583194432605, 39.879613828124995], [-9.018733403134878, 39.78620098244508], [-9.051157776383743, 39.71860138021614], [-9.0799973606625, 39.632965496173014], [-9.112685516361516, 39.547050374496784], [-9.14120943408099, 39.502710128383896], [-9.195340083590292, 39.47508170658078], [-9.262142165552522, 39.410072225171064], [-9.323370828842863, 39.375596338964], [-9.372810028632735, 39.36528309383092], [-9.34863675372176, 39.31414309464752], [-9.336552902090315, 39.263173810638335], [-9.347097245945234, 39.21287746367903], [-9.366802902696294, 39.16146006450701], [-9.39270517186861, 39.11782335701969], [-9.421980034071426, 39.07463905762562], [-9.424012766289382, 39.02389006315957], [-9.421584268091635, 38.970203949401345], [-9.431384413194708, 38.91178029704293], [-9.449229417311187, 38.86393594190538], [-9.476370574064887, 38.81634013323095], [-9.495124599486122, 38.76867523768176], [-9.479069966594658, 38.72025264899771], [-9.430232476480054, 38.68991088991954], [-9.373322883168557, 38.693750093410145], [-9.327007627922427, 38.67432001620011], [-9.280582714507501, 38.69870000383265], [-9.23031441939545, 38.69509378013963], [-9.17083252555502, 38.69225571999903], [-9.113633879173868, 38.70925733544127], [-9.090011247730642, 38.754577588172666], [-9.068371854755783, 38.8163337420067], [-9.028342703830674, 38.859090632923625], [-9.008970529792967, 38.81102501882314], [-8.960025383116866, 38.79832959711184], [-9.010413006786642, 38.764936464759266], [-8.95391419831048, 38.76247312806046], [-9.005591690291295, 38.753879277092985], [-9.044648816583168, 38.71603083408931], [-9.075299021447213, 38.67067227993811], [-9.129211090109756, 38.655855544956616], [-9.180065072614275, 38.67907392478111], [-9.234439543445188, 38.673438831555586], [-9.21194117837545, 38.60577711211532], [-9.19067582680383, 38.56030986885779], [-9.183978688513774, 38.49091910868964], [-9.207533961908114, 38.4436405104938], [-9.158597538089992, 38.43104499247955], [-9.107215585649644, 38.43827706351975], [-9.054324912094197, 38.440969789683265], [-8.996894313941299, 38.46065409854986], [-8.942249437451965, 38.48367539705333], [-8.864999279184154, 38.45391948505075], [-8.825684731581735, 38.419411269025936], [-8.78755482019689, 38.33762937804006], [-8.775528247257636, 38.235124358989516], [-8.780368781126494, 38.183239134198374], [-8.799247930331706, 38.11394030115838], [-8.819485687142501, 38.06196631499183], [-8.861328418114441, 37.98351301972042], [-8.889033059066263, 37.94082833701772], [-8.837632933024762, 37.937915746245615], [-8.799390080048397, 37.90459958281254], [-8.796105778128172, 37.849871617080275], [-8.801746613352107, 37.79551644068521], [-8.812081303869808, 37.744361640391716], [-8.792062384381497, 37.697656357298385], [-8.806034454387824, 37.648825706594394], [-8.81737450826989, 37.59933931700853], [-8.791991158889765, 37.55157309652249], [-8.79211961143558, 37.500916170465885], [-8.801552059459256, 37.451578690233845], [-8.816712762051083, 37.39786604005858], [-8.846200190381593, 37.355268495833414], [-8.877428575311603, 37.31443559804383], [-8.87044939072092, 37.245688088565565], [-8.90420433539231, 37.19817950007802], [-8.91558959945254, 37.14693960218393], [-8.946471297602839, 37.102503419759906], [-8.974052122451878, 37.05910196039053], [-8.952526116809615, 37.00926285559174], [-8.900780674342965, 37.0328818208255], [-8.855126189005292, 37.05456147025682], [-8.79568751975146, 37.06544316498173], [-8.743061638754265, 37.07752730950059], [-8.685742372908884, 37.085342197086256], [-8.640095259743505, 37.118738558278515], [-8.580103473703227, 37.119137318849575], [-8.529512615667276, 37.11573683161363], [-8.482230338494938, 37.099051139053145], [-8.431288949288504, 37.08653690289477], [-8.380908316171867, 37.098643455260664], [-8.330713097891007, 37.089317808590565], [-8.278039707890644, 37.07421499832889], [-8.22708487673941, 37.085813054841715], [-8.125752244248128, 37.073542127399094], [-8.057722954314473, 37.043970559172344], [-7.997185669506217, 37.008385164140996], [-7.952927551057967, 36.979880641822845], [-7.900897388585815, 36.96330153187603], [-7.814599763754837, 36.99610703320205], [-7.7697994337468, 37.02900318968012], [-7.710509312442817, 37.062605300630025], [-7.64899587700496, 37.09269960043363], [-7.601539405282052, 37.128009389295165], [-7.554910871700327, 37.146900113275045], [-7.506191166982541, 37.16759107152589], [-7.440316348127997, 37.17657745075772], [-7.41257122262031, 37.22149088485918], [-7.421691213409412, 37.273784890125164], [-7.439029283869989, 37.326921076085576], [-7.440476563795149, 37.39101532492909], [-7.459230721110649, 37.439879967426954], [-7.470766995773482, 37.49329521650792], [-7.511721315239652, 37.524884185447334], [-7.50766538181554, 37.5760014574764], [-7.479722389056891, 37.61842692326985], [-7.443570703538696, 37.66460628618422], [-7.436169928783232, 37.718317837329515], [-7.407603743578637, 37.76716545269029], [-7.360503498981839, 37.793677709308525], [-7.320265819870418, 37.82348054720607], [-7.28351387876967, 37.86886044882424], [-7.261398728759578, 37.918146471983654], [-7.24967423816066, 37.96689364053157], [-7.205712294660274, 37.997646916664785], [-7.150479943448615, 37.99779881847325], [-7.113863079117481, 38.035763325574074], [-7.064234854852742, 38.02842703710934], [-7.014710946438743, 38.0211238883465], [-6.990677380878112, 38.0667983095312], [-6.97239059786259, 38.114825041442444], [-6.969144906649658, 38.16631280339867], [-6.931499445376927, 38.20829782882392], [-6.983076404817675, 38.211143409712726], [-7.029504865117484, 38.1824816894366], [-7.085337241164195, 38.16929847471542], [-7.117804759143337, 38.211412319916015], [-7.142710548352788, 38.25563484183708], [-7.183017471371985, 38.296916002397744], [-7.214502354984309, 38.34092278997139], [-7.256632081960644, 38.380406965390904], [-7.284400686270056, 38.42328679608831], [-7.333815192162214, 38.43465617640038], [-7.295996924000391, 38.47921652617202], [-7.303360820609837, 38.54310174384552], [-7.269627690293406, 38.58462825266288], [-7.272498009697602, 38.638405953356674], [-7.267160020669769, 38.699349731654465], [-7.228479856401401, 38.73674598188244], [-7.190318128808614, 38.770124726798485], [-7.128607319392761, 38.81375885514693], [-7.06860664524663, 38.8541997512661], [-7.041667309885073, 38.89787607832113], [-7.010907452753547, 38.95179415085625], [-6.975102495075976, 38.99484990452089], [-6.959416366416837, 39.054470559064555], [-6.996028052659997, 39.09929341079976], [-7.053691568608326, 39.11771299632913], [-7.105334004367442, 39.09920012779989], [-7.142052431181606, 39.13919019334637], [-7.181232788327395, 39.18136600112142], [-7.228049739146873, 39.20072331831423], [-7.248018394713662, 39.25337551148865], [-7.267003582820911, 39.30101762499396], [-7.307485483248003, 39.336109301402125], [-7.321412008847431, 39.386605573723], [-7.304935470324313, 39.43765602249876], [-7.338088193949189, 39.47896882089663], [-7.386380161574174, 39.498427445213196], [-7.42198061606164, 39.5344804898839], [-7.46121191737388, 39.57278860843742], [-7.503912686896252, 39.60085281947608], [-7.527577880494198, 39.64754468576184], [-7.476899513419647, 39.662764825783135], [-7.425245143106701, 39.651090677630066], [-7.375162791789602, 39.65077675669276], [-7.318381500158365, 39.64853812794954], [-7.251521669299037, 39.66681051188313], [-7.201502338958631, 39.66216525590428], [-7.151349662554424, 39.65307184789571], [-7.08940095584867, 39.66335895049385], [-7.036887278347553, 39.66594450075392], [-7.002430963972452, 39.7051770793725], [-6.987029010485527, 39.75424163236352], [-6.987204093207117, 39.81002716715497], [-6.943797604156246, 39.83566874984598], [-6.90359115114723, 39.8707054185041], [-6.903623689550236, 39.92110787428632], [-6.879567324140673, 39.97184107688681], [-6.874262753059363, 40.023771102030636], [-6.907588387537047, 40.06321040408948], [-6.94297842630554, 40.10398198812988], [-6.993011665266358, 40.11248730087269], [-7.014407259794051, 40.15818046336461], [-7.010721246805499, 40.22288522517116], [-6.962450436189854, 40.23872556427978], [-6.907321700583536, 40.253898944681914], [-6.862412012949471, 40.277107350354406], [-6.832300459842576, 40.31735180117305], [-6.793904066988027, 40.355442365037476], [-6.834463895799724, 40.40770612185521], [-6.835230027110262, 40.47540579454816], [-6.795268128333972, 40.511368542195896], [-6.823191306221038, 40.558190076767694], [-6.815360379961788, 40.61822650367475], [-6.805556223230803, 40.66851806220552], [-6.819915897539861, 40.72806835770199], [-6.825666446903123, 40.78486466361647], [-6.821209124269449, 40.836927675354254], [-6.838479736456046, 40.89051666357795], [-6.85913067038959, 40.949726033451796], [-6.903531066905508, 40.98972983797915], [-6.916119184551739, 41.03838511923675], [-6.83377370005621, 41.02848064028985], [-6.790794107120077, 41.056523525904126], [-6.758690514058137, 41.09784382703241], [-6.745501868973115, 41.147017924244295], [-6.701469628115252, 41.18028137804597], [-6.671443343981502, 41.22318174182577], [-6.620354743083045, 41.24758047096454], [-6.56705984892729, 41.242640856182625], [-6.524940799793145, 41.27112237145806], [-6.477426010133568, 41.295030152741745], [-6.433836491614845, 41.32024596646299], [-6.39207300668958, 41.3498927928373], [-6.366608758195786, 41.393411266045035], [-6.315408617293031, 41.390068590762304], [-6.29486040188209, 41.4362658873941], [-6.268658357563595, 41.4871160001356], [-6.226595601914347, 41.53465307291467], [-6.189159287248939, 41.574831802541766], [-6.230088339971808, 41.603670975892015], [-6.282982347190468, 41.652361923606435], [-6.354666609783637, 41.67640523968789], [-6.406040368183668, 41.68090411681354], [-6.457362471118326, 41.66659778851551], [-6.512554844241075, 41.661223694185836], [-6.553789458603673, 41.6932672187317], [-6.566563931904771, 41.741697876454666], [-6.543462408719511, 41.78915180430611], [-6.53005328467067, 41.83993498639976], [-6.571179403038686, 41.88349543005276], [-6.547587885652042, 41.92769750835705], [-6.588307093508199, 41.96756649408473], [-6.635757916363369, 41.94205125768155], [-6.700005796844092, 41.93331505934521], [-6.750582398880196, 41.94364552023555], [-6.785546706074628, 41.98873874524626], [-6.821606723337588, 41.94600536454074], [-6.874736530199614, 41.943828407949596], [-6.925888680383082, 41.943921817578726], [-6.979364885864256, 41.973782705606666], [-7.036413849294118, 41.95108207769033], [-7.087510232526872, 41.97347710269517], [-7.141458759453315, 41.99075777554592], [-7.186905972684169, 41.96632984140724], [-7.182015642765217, 41.91286640787354], [-7.219568719900924, 41.872826502035636], [-7.272017731491691, 41.859629599155994], [-7.334905737813222, 41.84514821335816], [-7.386256066585038, 41.84125426388634], [-7.427635754534389, 41.807366629015924], [-7.448842729742721, 41.85282056787523], [-7.502225423848905, 41.869383939628904], [-7.544064853616772, 41.83678630635298], [-7.598779866490009, 41.833125060157634], [-7.585873250545614, 41.88187113536867], [-7.653871435225273, 41.881198453105895], [-7.697306490905892, 41.907207231609554], [-7.749785010609602, 41.89484621745467], [-7.802874586905205, 41.88194534204647], [-7.849453344684689, 41.86167123600412], [-7.887405230475617, 41.90730975267124], [-7.92848884523569, 41.87784293461323], [-7.987692488733884, 41.869215702053715], [-8.030099789795832, 41.82956735367654], [-8.078890332173204, 41.81361412887649], [-8.13090283322777, 41.80886048937105], [-8.161772352354593, 41.860975047292364], [-8.205487920653262, 41.893653709960134], [-8.180131890529507, 41.95368265411075], [-8.140760337432633, 41.98867819943094], [-8.093138946956259, 42.011763067680924], [-8.096600756526037, 42.072257488784636], [-8.149645079026415, 42.079316377411736], [-8.188783666995295, 42.11121058351157], [-8.191227090892445, 42.14262579147998]]]]}}]}