{"type": "FeatureCollection", "features": [{"type": "Feature", "properties": {"code": "PRY", "name": "Paraguay", "tier": "country"}, "geometry": {"type": "Polygon", "coordinates": [[[-55.636472552405074, -23.018368591865897], [-55.63689109573538, -22.96484575463857], [-55.64814197564496, -22.9132314956014], [-55.66016923211714, -22.864416515154847], [-55.65350681086885, -22.812121701767737], [-55.629787828514914, -22.766763198019376], [-55.61340989167299, -22.71706315996846], [-55.614455723672656, -22.65514377095554], [-55.64144494968833, -22.612752028967705], [-55.69123012557904, -22.578751602930854], [-55.73837661349612, -22.525424234629018], [-55.752053841115924, -22.47720042212826], [-55.736183401529416, -22.429191016820212], [-55.78890794233826, -22.382787674364298], [-55.82048271931439, -22.34208434739688], [-55.83797326660125, -22.29409709272989], [-55.88893689758432, -22.28278787363322], [-55.94568668058011, -22.283419276271218], [-55.99772959103093, -22.284467068908494], [-56.04776551251207, -22.279379881686353], [-56.09813811590525, -22.28317246793958], [-56.15081604056298, -22.281780832114958], [-56.2012931095526, -22.27814350515906], [-56.23820220211584, -22.236544467728688], [-56.29038058541409, -22.225845096891735], [-56.336305676767644, -22.199149545231386], [-56.36620045176375, -22.15814600352601], [-56.384365039296625, -22.11054294148624], [-56.4256369393253, -22.082000860521852], [-56.4769514770761, -22.088140139041986], [-56.522466084553606, -22.118489875442734], [-56.54721189731278, -22.16332938161711], [-56.576103642636326, -22.20681179773187], [-56.61849282554179, -22.238775679979913], [-56.667719778143045, -22.248988460362092], [-56.72055509011667, -22.256925052649375], [-56.77160180856189, -22.254398436585806], [-56.81573547625172, -22.288283155223706], [-56.86726256649937, -22.28864520184741], [-56.91181054980772, -22.25882562029042], [-56.95876134495028, -22.2379208429289], [-57.00891337704126, -22.23370300173819], [-57.059661999602866, -22.229464247020744], [-57.11224603404668, -22.241239768468276], [-57.160314536945016, -22.22360521019659], [-57.21047696052837, -22.218416579748986], [-57.25947874017956, -22.239364002240244], [-57.31019792553356, -22.227892049900607], [-57.36025021765305, -22.234022495807434], [-57.40550542641765, -22.199830053328547], [-57.454695005116534, -22.18863781636635], [-57.50614881437366, -22.184913082440435], [-57.55763090869335, -22.17767134117103], [-57.594712923844305, -22.142244238306482], [-57.61152364571822, -22.094518369223422], [-57.66497347210507, -22.10615776779363], [-57.71527072003104, -22.104111418737645], [-57.76285259229741, -22.135731506910613], [-57.8198547793998, -22.137736132982152], [-57.871251919359935, -22.129118199126637], [-57.93001709615833, -22.12045599055443], [-57.961093048067426, -22.079087611415634], [-58.00633408675935, -22.050621505722386], [-57.966065593862375, -22.00512827019931], [-57.93781126390137, -21.93051097718905], [-57.913578132114, -21.884005930066138], [-57.955573258537356, -21.854948087676892], [-57.91484483393068, -21.793248586939114], [-57.94638484139172, -21.75082644103998], [-57.89645462669861, -21.70460633126172], [-57.93327019435093, -21.653464103830796], [-57.91621084753336, -21.59791233927448], [-57.95956589803717, -21.561960811780697], [-57.96228715786478, -21.51143232058885], [-57.92653619672821, -21.46950683519568], [-57.90990015271509, -21.421358866216696], [-57.88111602763857, -21.369606574997132], [-57.852180914198904, -21.322050802612843], [-57.90304017426838, -21.30267694868539], [-57.88146952633999, -21.251249272760205], [-57.84898571608446, -21.20416495824013], [-57.86178707077834, -21.15030151228678], [-57.847152749588716, -21.101401191457555], [-57.86859897203873, -21.046679911938245], [-57.83958303379462, -21.00415522551042], [-57.81877058243914, -20.948818059680626], [-57.874631153672574, -20.939791819084693], [-57.91870945299047, -20.904579749238025], [-57.871322700001464, -20.853687202947043], [-57.8930903685668, -20.791097888758344], [-57.943841671079426, -20.800958213168293], [-57.935788297024686, -20.74717141769877], [-57.878144341864584, -20.75037633232792], [-57.8934257061049, -20.697878222247464], [-57.93132451448695, -20.664935059372517], [-57.97932512567872, -20.706238989339006], [-57.97013290168145, -20.64466072288659], [-58.01224279879962, -20.614403194663204], [-57.995244825058, -20.563489562669176], [-58.01939319399903, -20.515438131501625], [-57.998008716710885, -20.454623874734864], [-58.02172001663369, -20.40237718099131], [-58.071133252781216, -20.3891204013983], [-58.09622816400893, -20.339178906685348], [-58.090402430806236, -20.282013004662588], [-58.14439576939268, -20.272040894344016], [-58.15462223282297, -20.215632432060723], [-58.169034636350304, -20.166577552812456], [-58.13901538395265, -20.12428462185136], [-58.15747711528292, -20.07624837143033], [-58.17628069485082, -20.029153631793314], [-58.18653714561177, -19.97036311270292], [-58.199707637806846, -19.91869504459691], [-58.20207183236324, -19.863353443824032], [-58.16469999985221, -19.82779999893429], [-58.235699998702174, -19.77509999950974], [-58.69678444027116, -19.506910476851665], [-59.0679000002196, -19.289600000476256], [-59.977500000278, -19.294799999594844], [-60.60459999875086, -19.456099999438152], [-60.998508983090254, -19.51877703553206], [-61.38463856559466, -19.579306558329705], [-61.73600000053641, -19.633600000508437], [-61.92240000039975, -20.089200000415623], [-62.26680000029743, -20.562999999443306], [-62.26210000009631, -21.058199999711654], [-62.34535661140954, -21.319780013573105], [-62.51493619850528, -21.848389102880446], [-62.63809289774611, -22.22877788680648], [-62.64027999786428, -22.29961791933865], [-62.58342351646096, -22.32054522761739], [-62.53998175210416, -22.350456515521962], [-62.48640796593674, -22.373392503370933], [-62.444923317151684, -22.420329517264555], [-62.39920896411835, -22.442378949827987], [-62.3469135453673, -22.455372781876722], [-62.30750186104899, -22.488029623090974], [-62.25635404953118, -22.524174118390047], [-62.23706046675248, -22.571172114214907], [-62.23863709737383, -22.635509089793256], [-62.198182560641136, -22.666768016515434], [-62.19134010837404, -22.718741287436647], [-62.14806659351824, -22.747145062381865], [-62.131165309034735, -22.79546393340643], [-62.08291266675701, -22.81332161628393], [-62.06019231046047, -22.85955981225038], [-62.03745003813992, -22.913999113643953], [-62.00215924504364, -22.951726031515825], [-61.98496057441172, -23.017545382549095], [-61.93985558214139, -23.045734531751712], [-61.89192921266693, -23.07353596255774], [-61.83838878150654, -23.109343665480782], [-61.80756470755931, -23.14894764932482], [-61.76003255360809, -23.171634328760234], [-61.73947286266646, -23.219909841162863], [-61.70119008184167, -23.25507793581742], [-61.63065245232218, -23.277498044167718], [-61.583509700440224, -23.305923402858927], [-61.5478834172923, -23.347136843717916], [-61.50917525345052, -23.389868073257688], [-61.47474371749142, -23.426602454856212], [-61.419638001686195, -23.447056005593044], [-61.36487017941741, -23.454544414375174], [-61.31719525269863, -23.4709911767184], [-61.27364575524126, -23.50504438361431], [-61.24202534922636, -23.54581523054788], [-61.191651994804346, -23.550957748237874], [-61.15079361910752, -23.580727187182756], [-61.100393664432566, -23.60517959481738], [-61.10060219025433, -23.657281746156574], [-61.06907193472651, -23.699999997926376], [-61.03935911104139, -23.742133486449198], [-61.00584873339938, -23.784658948898404], [-60.96506267124198, -23.817241802941954], [-60.91306434570274, -23.819243407230314], [-60.870849287052025, -23.851817608896738], [-60.81122842683431, -23.873275761031994], [-60.75529415956538, -23.873771268036666], [-60.69851598912688, -23.895662276996973], [-60.641693484843344, -23.90816161381952], [-60.589207209129086, -23.91558324499403], [-60.55252186113991, -23.96460921337091], [-60.50016365635178, -23.973162268085343], [-60.44164260165619, -23.97562459880644], [-60.39800248405303, -24.001679929888105], [-60.35096597147207, -24.03364689469347], [-60.283062786307596, -24.04810646078594], [-60.18964962495186, -24.043313217741865], [-60.096000285160024, -24.02642488135189], [-60.04262500115345, -24.013848649098342], [-59.88531732582432, -24.098382948382376], [-59.77360214516734, -24.158861398307337], [-59.47524069033879, -24.33305339166125], [-59.44750900488953, -24.37882148866501], [-59.40860350863362, -24.41147341045253], [-59.36634891681345, -24.44160714079233], [-59.33939670335613, -24.490203479625535], [-59.29363345243235, -24.51552170565456], [-59.24323891655579, -24.538958980900635], [-59.185800842978225, -24.56352043081935], [-59.14415661411326, -24.604889145599703], [-59.094333951415635, -24.616528845096127], [-59.047039077859935, -24.645069461301535], [-58.99903956790869, -24.66365385638429], [-58.950136490063954, -24.67818098042995], [-58.90334403252815, -24.704723648669177], [-58.85543575396255, -24.73241713755163], [-58.81254218665493, -24.766324518201174], [-58.743297870701895, -24.780889263145674], [-58.70482959465837, -24.813817538168422], [-58.648429807729734, -24.82446557656379], [-58.59706049274205, -24.82488779945546], [-58.541907544362886, -24.838458034561747], [-58.494117288760776, -24.859407639729977], [-58.44073204197338, -24.87936533868433], [-58.41487438314805, -24.922584012893264], [-58.37893993541819, -24.95761260635305], [-58.34172112678136, -24.992107081245237], [-58.29431418092612, -24.971304723160866], [-58.25763782119136, -24.935647114709077], [-58.209616421669686, -24.951688666800372], [-58.162363333148974, -24.971414221872564], [-58.13111123059647, -25.01218107799765], [-58.08116675766841, -25.023780088842248], [-58.031650277021, -25.039234367003612], [-57.994231071165615, -25.07646561108396], [-57.94364254594695, -25.077918297294662], [-57.893415015460704, -25.079646754503223], [-57.84677443769624, -25.101906758519906], [-57.81669096424807, -25.142798974504817], [-57.769948894741475, -25.16473722311527], [-57.75659795908801, -25.21432850667322], [-57.72284117389493, -25.25281488371611], [-57.699455447303706, -25.304287382250298], [-57.67097974232962, -25.347414413560628], [-57.62729282750623, -25.386833598882138], [-57.55940717305721, -25.443750061229316], [-57.570247935500944, -25.49532970781287], [-57.5713935646222, -25.55288804798916], [-57.60859681987068, -25.605266012576596], [-57.66847179016563, -25.596060336782674], [-57.67064367041364, -25.649706292954285], [-57.725444990519996, -25.645426047156846], [-57.764929382483636, -25.687786392485098], [-57.76128618258534, -25.743500728137732], [-57.81346045122715, -25.751480754282593], [-57.797968751430666, -25.808732785937934], [-57.839905882071356, -25.84938792108273], [-57.84052727666776, -25.90364988397393], [-57.882016218603276, -25.934029727484106], [-57.85627431902645, -25.98588857334336], [-57.9201969127787, -26.03239667323489], [-57.97116911455296, -26.07923552062301], [-58.01705150075527, -26.10386327731051], [-58.08950851339583, -26.115075850368893], [-58.119425060116804, -26.16474151985377], [-58.11203252651518, -26.21454118572126], [-58.15676643740699, -26.2595100130504], [-58.15412195121031, -26.31744263784785], [-58.19291365430421, -26.367086685216275], [-58.218138329683434, -26.414561986763637], [-58.18035854586128, -26.45416404653202], [-58.22976622947021, -26.46659286847974], [-58.22257397107664, -26.524668083622323], [-58.196885009522674, -26.584738002097104], [-58.19137303471827, -26.638360827793402], [-58.24801443114527, -26.641173166794015], [-58.256532812546595, -26.71416594882618], [-58.28895554445282, -26.75550821511345], [-58.304212586734906, -26.80716199645818], [-58.35582904807948, -26.81063273804298], [-58.32190985463537, -26.847696800582273], [-58.369443826316015, -26.863368994882194], [-58.46363412799851, -26.930337739811346], [-58.46931484349598, -26.983032364672162], [-58.518050207960016, -27.003044555780594], [-58.50286393656281, -27.051729941340326], [-58.55298162610552, -27.035248806551234], [-58.55312749703259, -27.098629658561], [-58.62303136438392, -27.11389092561944], [-58.664337203887996, -27.165550026962478], [-58.607262964897515, -27.2138863259995], [-58.59532888817547, -27.263881685903876], [-58.53733639727563, -27.295881822620057], [-58.48090997738937, -27.274051040449795], [-58.41567069881897, -27.290213900282897], [-58.35690373169198, -27.283233796264824], [-58.305736754806574, -27.275242705997012], [-58.249104526068756, -27.256238733037016], [-58.19651996290361, -27.274522155655486], [-58.139505669949614, -27.276600953367055], [-58.07372949255372, -27.261326845894015], [-58.01501334876862, -27.26017265869398], [-57.953317220810945, -27.286833297382792], [-57.90101565936572, -27.29653353689931], [-57.84835714013077, -27.291502975939338], [-57.81663646853897, -27.332154154934326], [-57.75693334355186, -27.332175068162098], [-57.70395989621651, -27.33570095819164], [-57.63905404089307, -27.374263127169304], [-57.56605111574975, -27.40791373779867], [-57.51981000440345, -27.433736419311302], [-57.452834499242456, -27.440204106158724], [-57.38365221971458, -27.42328973897221], [-57.326244664180216, -27.415036202085382], [-57.27778022588666, -27.43720346555047], [-57.23334968066263, -27.466991017361938], [-57.13397051426206, -27.486062869074598], [-57.08002121594562, -27.483179103136465], [-57.024875290025605, -27.471846750012304], [-56.973860391938636, -27.43802363747285], [-56.925096090232664, -27.409257896111413], [-56.86407628176047, -27.4267359524698], [-56.823737764227715, -27.461557546758538], [-56.773916870854784, -27.488803707391792], [-56.721561069621345, -27.48321105771527], [-56.67585718494015, -27.452207817000925], [-56.58933911896804, -27.438194580985616], [-56.53307555986558, -27.477187221047924], [-56.48168211770324, -27.55581253658494], [-56.429091827059864, -27.585844898143904], [-56.376956993263306, -27.587814955261877], [-56.35360287582889, -27.535073387037198], [-56.29577905547956, -27.47890915327513], [-56.29249332441846, -27.41105172428417], [-56.20912027101903, -27.385060988966], [-56.17563684290346, -27.34016608659617], [-56.11049587920609, -27.311413421079408], [-56.046522439739356, -27.30662319864505], [-56.00387379810446, -27.334254495178097], [-55.94055865139038, -27.348805618321133], [-55.88864795937159, -27.341201623626873], [-55.863624883450115, -27.39189222433422], [-55.8163785148144, -27.42631265636692], [-55.74769996471909, -27.44467960985792], [-55.688416789229116, -27.38270155255371], [-55.62878738091326, -27.35714863142213], [-55.589876983529486, -27.320760323581347], [-55.577542887885635, -27.265363441643938], [-55.6023018600645, -27.218387700127785], [-55.61169492520042, -27.16765527482172], [-55.562304309611825, -27.15951682339099], [-55.55519445095978, -27.106018625079372], [-55.484358499020004, -27.10930937028788], [-55.45654332013548, -27.05833197273106], [-55.436530556322055, -27.010670910025244], [-55.39047484107671, -26.973298219335803], [-55.3287295955357, -26.961851799791155], [-55.2717309787149, -26.940937505091696], [-55.21363573556631, -26.965613120738926], [-55.139812610570154, -26.952345551859565], [-55.14945331546952, -26.88981734687825], [-55.11935393385439, -26.847456515702902], [-55.068199390779675, -26.807883088235492], [-54.99826911456933, -26.787910197033234], [-54.94903450485287, -26.770224693384566], [-54.948090856615984, -26.70174116907908], [-54.87649652101376, -26.656411442027125], [-54.82272174910612, -26.67385062449838], [-54.788283903914504, -26.633442819520866], [-54.78770390775549, -26.58241897726947], [-54.79962939923826, -26.533569445648194], [-54.757951174342594, -26.497306419811913], [-54.71162244901444, -26.455819044159675], [-54.69646082550941, -26.404360764988684], [-54.67455541485638, -26.344069388540344], [-54.652064632934284, -26.298250689451393], [-54.64843856314816, -26.237813124379446], [-54.658353340376635, -26.17715584016684], [-54.65830833384133, -26.12536046632545], [-54.64658732332699, -26.07522491841214], [-54.67752766482208, -26.01510851043853], [-54.62411147982296, -25.985364411713437], [-54.62251810210537, -25.915542660907672], [-54.596324566739064, -25.86094210292966], [-54.61671825152441, -25.79127456719403], [-54.63598424284173, -25.733669004657852], [-54.657681728266354, -25.677032719365563], [-54.60496812201761, -25.66857273922842], [-54.59651902868694, -25.608374713590983], [-54.59364334060781, -25.553999422348014], [-54.59662619675123, -25.50186798000986], [-54.61923639350095, -25.452889756110594], [-54.58447543327674, -25.397266342732113], [-54.53414280348079, -25.34481931931953], [-54.48728601400166, -25.291635877938386], [-54.46949069302239, -25.2143018761056], [-54.417017187500676, -25.161003857086147], [-54.45496974010034, -25.089816352540502], [-54.4454526422636, -24.99939577370087], [-54.428535521343214, -24.90962327145931], [-54.40322837705265, -24.841490945501917], [-54.38002526070356, -24.755495464957985], [-54.34580722364977, -24.70766014151859], [-54.316512337251126, -24.61246887112187], [-54.33718755229451, -24.529039401772575], [-54.32695702991344, -24.475334555392433], [-54.29762471453923, -24.429528973059785], [-54.26477008710291, -24.377053548868584], [-54.27394585807679, -24.304052583719834], [-54.31542771452385, -24.25826626527154], [-54.327904377681314, -24.19749655610852], [-54.33981828999926, -24.124534745229106], [-54.277123277543176, -24.06420491962322], [-54.300982372216815, -24.013367571055074], [-54.351804038614375, -24.00763885248542], [-54.393930609607004, -23.96531176807519], [-54.433418666431855, -23.928960972234044], [-54.47740655208475, -23.897785741956753], [-54.52195530724982, -23.874138196652158], [-54.58126542881779, -23.845532192521365], [-54.63138837575297, -23.829759857552887], [-54.68144773999349, -23.82829152231007], [-54.72136505870065, -23.865295428540897], [-54.77380493717872, -23.86580559713289], [-54.82149621014763, -23.889739689778096], [-54.869269442429115, -23.90600968593501], [-54.927227706065445, -23.924651270224558], [-54.96657932297467, -23.96588671950157], [-55.020085583189605, -23.972080447910923], [-55.07158171522917, -23.98727289252331], [-55.12278518479075, -23.97826979042836], [-55.17806031934665, -23.993360511047964], [-55.228951910393654, -24.013437721524063], [-55.27103044635895, -23.985303775114893], [-55.31799495824206, -23.962719074792545], [-55.364242816172094, -23.981802380178948], [-55.4137687040982, -23.964641850797538], [-55.43817098659838, -23.918956063314575], [-55.43956390684082, -23.865051192974814], [-55.443906339902306, -23.808764624916275], [-55.442646102478555, -23.75596993624169], [-55.41573357545644, -23.704869504089206], [-55.46222800430865, -23.683800981479482], [-55.48855155895731, -23.635629374530517], [-55.53466792139961, -23.599673668721795], [-55.53499085974536, -23.549664345828965], [-55.55136489795183, -23.489116746830426], [-55.537986760940754, -23.43914127606572], [-55.504369137166414, -23.37850564938186], [-55.53445497693968, -23.333396176795326], [-55.55479341430496, -23.283074194910466], [-55.53643381023734, -23.23573902128064], [-55.53823873149619, -23.18275190275356], [-55.57056415620217, -23.142425974679256], [-55.61095831237644, -23.091511010289608], [-55.61389667740657, -23.04103253517384], [-55.636472552405074, -23.018368591865897]]]}}]}