{"type": "FeatureCollection", "features": [{"type": "Feature", "properties": {"code": "PSE", "name": "State of Palestine", "tier": "country"}, "geometry": {"type": "MultiPolygon", "coordinates": [[[[34.52694400006561, 31.570277999829898], [34.51057110027608, 31.58177550033912], [34.49124849971855, 31.59498730022375], [34.47208089821493, 31.569866217352114], [34.456491598408604, 31.549041136539245], [34.43380859109368, 31.52666132665894], [34.40902340320753, 31.49808659621948], [34.34905834126948, 31.436419779549226], [34.30818499873874, 31.39958885544138], [34.26425738497039, 31.36114096468384], [34.218975998343694, 31.32327735806365], [34.235519600249404, 31.29661530035588], [34.26749939957767, 31.220128900128714], [34.29191059989432, 31.24120029985403], [34.31618799997625, 31.25170259979518], [34.33636089963585, 31.26839940031215], [34.36654750026696, 31.29052870043921], [34.36505509961319, 31.364411200016946], [34.3802663999744, 31.3895734997173], [34.404199800380525, 31.411641699904578], [34.42360269960494, 31.423372700389848], [34.4370599001943, 31.440270100085115], [34.4647268001018, 31.461139500387674], [34.477906700134156, 31.47621229975789], [34.512710500189485, 31.500694999774453], [34.54675309967587, 31.513034500441904], [34.56454559999952, 31.531913100309396], [34.52694400006561, 31.570277999829898]], [[34.52113640941781, 31.56771432855345], [34.52113640941781, 31.56771432855345]], [[34.51587547527299, 31.55481772395882], [34.51587547527299, 31.55481772395882]], [[34.512421940120475, 31.505011113372234], [34.512421940120475, 31.505011113372234]], [[34.289721282211474, 31.370212456739523], [34.289721282211474, 31.370212456739523]], [[34.2318377434172, 31.307287296971253], [34.2318377434172, 31.307287296971253]]], [[[35.231647100433406, 32.542661700077474], [35.20452440008103, 32.54096549955818], [35.18712589994038, 32.52368770012731], [35.16407000043023, 32.50879859987555], [35.14474830009402, 32.49631480028785], [35.126037299681684, 32.48390339972218], [35.10681970036893, 32.4754052002898], [35.08579310037135, 32.46896389966429], [35.0724055001138, 32.45386209985605], [35.060738200407684, 32.436747799871114], [35.053739800351536, 32.41653190002722], [35.04020230019603, 32.380599899565766], [35.048271899828364, 32.359629800375046], [35.028556700231604, 32.34694460031312], [35.01490580006265, 32.3027367002386], [35.00899039958733, 32.281224999634105], [35.03062749985929, 32.265663499670836], [35.01922989964021, 32.24245799973693], [35.005098899994266, 32.22388279965156], [34.98908759961307, 32.20754060001872], [34.96435489975886, 32.199958299835714], [34.95958869975874, 32.17566430006747], [34.97729009965843, 32.15873510034464], [34.990430300018375, 32.142151799665896], [34.988807399641814, 32.119355299707365], [34.982505400403966, 32.08956480007549], [34.999455700020576, 32.05306430037723], [35.00519489992473, 32.02185120007289], [34.999154199606664, 31.99355219997409], [34.994068500161234, 31.97278339963424], [35.000810699554165, 31.95016880015004], [35.013704800436244, 31.927151700090917], [35.03520529998468, 31.91788879992822], [35.03822589970554, 31.877265799876795], [35.03033339996648, 31.856272699625436], [34.99560730043663, 31.85289380010886], [34.978058000176645, 31.837329899855035], [35.01574439988423, 31.82849799978294], [35.046934599851966, 31.850229699740908], [35.06893729971665, 31.85654399990574], [35.096134900105596, 31.835072099697697], [35.12026190026654, 31.825324500025715], [35.15991200023865, 31.809133700360007], [35.18762829990618, 31.809370699598162], [35.20671369977748, 31.823375000056274], [35.21380709971794, 31.847115399656047], [35.20417220038678, 31.872577099853345], [35.22561029957569, 31.86745040031576], [35.2300734999921, 31.842647600106716], [35.25104050011902, 31.84390399976985], [35.26504579972391, 31.825546500370763], [35.256484500259546, 31.803772300251524], [35.253555699735784, 31.770678099714587], [35.26336500009472, 31.74857269997017], [35.24978849993937, 31.725502100141853], [35.231246699775454, 31.712946999604412], [35.205758199781144, 31.723609299729446], [35.1797630999871, 31.72054529962594], [35.15403299982313, 31.733605599718715], [35.13284209998295, 31.733746799575215], [35.12051840040391, 31.715567599764995], [35.093184600389066, 31.70083260014445], [35.06897920003013, 31.684007999669518], [35.029280999818354, 31.659871599794542], [35.00528159996594, 31.65193600004642], [34.97546300011743, 31.618000200448932], [34.95239369980948, 31.59466340039569], [34.94524809962013, 31.565314799738246], [34.94202570012601, 31.528541200216296], [34.942269400212695, 31.499577000378338], [34.92502640004835, 31.464386900135366], [34.899379300114674, 31.43640729965722], [34.88591119974211, 31.409640499709326], [34.88186859965623, 31.390009099840142], [34.890959499980966, 31.370494000297924], [34.91001969994926, 31.35554070014325], [34.92644389976624, 31.341690399592324], [34.947422900446554, 31.349604000124543], [34.97081039978019, 31.349916900344738], [35.0084723001566, 31.357748899991805], [35.06683350036582, 31.358053600193557], [35.13354340030776, 31.35485460015974], [35.159232899678614, 31.363282100288757], [35.20640720003229, 31.371625199943082], [35.23074450035847, 31.374464199563192], [35.27627829970385, 31.409656100248867], [35.29362439994617, 31.421878099994387], [35.321389899724124, 31.439063799854523], [35.37978559972572, 31.477801700388227], [35.39463279966401, 31.491619899638692], [35.39743798387593, 31.51480743111813], [35.40444207933854, 31.53550666619975], [35.41163136409625, 31.555628664231506], [35.411542585721804, 31.584758026361897], [35.421411639735425, 31.604430076486892], [35.43498497157924, 31.624944999112472], [35.438604769794324, 31.646576236703993], [35.44788978698415, 31.665190836088243], [35.45000008213816, 31.690666143028125], [35.464950451402274, 31.70423947577126], [35.48267006976795, 31.71739891622707], [35.49085693200186, 31.73695613281933], [35.50186624992756, 31.754513195127913], [35.52180542657925, 31.75977246192963], [35.54558542602666, 31.757628348669414], [35.547348400308465, 31.783135200229367], [35.54288410002124, 31.80490819975364], [35.54764250020128, 31.82926009967389], [35.54354209978811, 31.849399499587264], [35.54520400016452, 31.871031399979188], [35.531334499987224, 31.88687419978453], [35.52428090044327, 31.90796980026613], [35.53529579956154, 31.925024200006874], [35.544099299942786, 31.944372999614302], [35.54168120012736, 31.96537050024841], [35.5345059996522, 31.985734200073352], [35.52375770005784, 32.004894800354805], [35.522346410158775, 32.02527263302562], [35.51928249998741, 32.04627440004356], [35.534578000274564, 32.063798100202234], [35.54630870038625, 32.08109140034787], [35.537250699959884, 32.09977820000398], [35.54766379974461, 32.122117200448486], [35.54422740027434, 32.14246870007048], [35.55636629996485, 32.158837599675564], [35.55954389973124, 32.17903970032194], [35.56919479980024, 32.19969299983211], [35.567622923359295, 32.22010996830045], [35.563360000163925, 32.24179189977639], [35.56481139982628, 32.2618567998515], [35.566874899656966, 32.28601440034436], [35.56002049994618, 32.305357900246975], [35.555084800223426, 32.32569530029792], [35.55949519964378, 32.348303199832856], [35.563828500185195, 32.36944629980695], [35.554301700263295, 32.389076099782244], [35.527619399715604, 32.39367520035029], [35.49635629980344, 32.401049300285024], [35.453000500173005, 32.41299200028067], [35.4321464000364, 32.40847239978149], [35.41099510004386, 32.43676899958973], [35.42030110021568, 32.45889249998896], [35.40511709967444, 32.48365280003674], [35.390618600168295, 32.50516449974191], [35.371249599989085, 32.514804099829405], [35.34250369978599, 32.51909929969298], [35.306331899597524, 32.509914199880484], [35.25250629972601, 32.52305929974693], [35.23675970039989, 32.53600469975714], [35.231647100433406, 32.542661700077474]], [[35.51017312129255, 32.069774373988196], [35.51017312129255, 32.069774373988196]], [[35.5227722112686, 32.06898488254632], [35.5227722112686, 32.06898488254632]], [[35.50471554948308, 32.061037775972636], [35.50471554948308, 32.061037775972636]], [[35.51973193258266, 32.058093030469024], [35.51973193258266, 32.058093030469024]], [[35.49064397703796, 32.057148922185036], [35.49064397703796, 32.057148922185036]], [[35.4566418686274, 31.909702937740462], [35.4566418686274, 31.909702937740462]], [[35.02503064554793, 31.84585952609632], [35.02503064554793, 31.84585952609632]], [[35.50012778217149, 31.796407230409386], [35.50012778217149, 31.796407230409386]], [[35.49098264373407, 31.790190783677758], [35.49098264373407, 31.790190783677758]], [[35.47729903971896, 31.771178696539664], [35.47729903971896, 31.771178696539664]], [[35.362949215434014, 31.69545633873912], [35.362949215434014, 31.69545633873912]]]]}}]}