{"type": "FeatureCollection", "features": [{"type": "Feature", "properties": {"code": "QAT", "name": "Qatar", "tier": "country"}, "geometry": {"type": "MultiPolygon", "coordinates": [[[[51.3512114, 24.639444199999957], [51.341867, 24.620675800000033], [51.3512114, 24.639444199999957]]], [[[51.5819469, 25.349991100000032], [51.5819469, 25.349991100000032]]], [[[51.52888940000001, 25.377291499999973], [51.52888940000001, 25.377291499999973]]], [[[51.54036030000001, 25.375792400000016], [51.56013, 25.3665186], [51.543826199999984, 25.3798757], [51.54036030000001, 25.375792400000016]]], [[[51.251982199999965, 26.15902989999997], [51.233420900000034, 26.1450529], [51.20882580000002, 26.1403394], [51.18868470000003, 26.140725900000014], [51.16086449999998, 26.11595209999996], [51.152769, 26.09374420000002], [51.1282555, 26.072019700000023], [51.107614200000015, 26.076473600000035], [51.086524799999985, 26.073527900000023], [51.068277, 26.055265899999988], [51.049469600000016, 26.04793949999998], [51.03789, 26.020143], [51.03205310000004, 25.98995039999997], [51.01879570000002, 25.9721863], [50.99989819999998, 25.964823700000025], [50.99288150000002, 25.984628900000025], [50.989791599999975, 25.95838960000004], [50.992924400000014, 25.935228], [50.992784, 25.911294], [50.97941239999998, 25.89430750000002], [50.97657289999996, 25.864968399999974], [50.95908229999998, 25.85415559999998], [50.95837860000002, 25.83372090000003], [50.979708599999974, 25.8256182], [50.985114, 25.80515940000002], [50.98326939999998, 25.776592299999987], [50.9618135, 25.764724199999986], [50.9592479, 25.78698549999999], [50.94246820000004, 25.80345060000003], [50.924278300000026, 25.79417749999998], [50.906666, 25.777181499999976], [50.91094629999996, 25.755051299999984], [50.9112462, 25.733690699999986], [50.89393019999998, 25.7151491], [50.89835790000004, 25.68607050000001], [50.89951439999999, 25.66162180000003], [50.90733979999998, 25.641295199999966], [50.925802, 25.62946709999999], [50.946100800000046, 25.627674399999986], [50.97179079999997, 25.638233599999957], [50.97250469999997, 25.6181594], [50.96697529999997, 25.598341], [50.942846399999986, 25.60682669999997], [50.92128040000004, 25.598066199999966], [50.916186500000016, 25.576702], [50.91265480000001, 25.55456650000004], [50.9145159, 25.531404600000037], [50.9149582, 25.506955], [50.8977915, 25.517753500000037], [50.88954919999996, 25.536278], [50.86761989999998, 25.54317539999998], [50.87189590000002, 25.563714200000017], [50.86007779999998, 25.58418520000004], [50.87254650000003, 25.60017019999997], [50.87965339999999, 25.62159309999997], [50.865149, 25.6388664], [50.84614590000002, 25.647677800000043], [50.84205559999998, 25.62772730000001], [50.822619599999975, 25.6200885], [50.801347, 25.6152654], [50.79837730000002, 25.59446530000001], [50.825150699999966, 25.599022], [50.83569219999998, 25.57263629999998], [50.8301405, 25.545408], [50.818087200000036, 25.528955800000016], [50.83673190000003, 25.509910800000032], [50.84126170000002, 25.4899003], [50.84903829999997, 25.470810699999976], [50.82933380000004, 25.46090110000002], [50.82219989999997, 25.490002799999964], [50.80908879999998, 25.5164133], [50.7926384, 25.529383599999974], [50.77263380000002, 25.518333499999976], [50.7568033, 25.504118400000028], [50.769757100000035, 25.488626400000033], [50.7612164, 25.46020970000001], [50.756932, 25.43358339999998], [50.75842719999998, 25.41063289999997], [50.7592068, 25.386192], [50.761678300000035, 25.363675400000027], [50.76666179999999, 25.341951800000015], [50.7684717, 25.316176], [50.76679950000001, 25.29355669999996], [50.762914299999984, 25.271411699999987], [50.76423579999999, 25.24183310000002], [50.76368470000004, 25.216673099999984], [50.76624949999998, 25.184235299999965], [50.77464550000003, 25.162441099999974], [50.773440984673876, 25.137880448473013], [50.771060400000046, 25.113533300000043], [50.794276900000035, 25.09194729999996], [50.8061885, 25.066225100000036], [50.8130136, 25.037664199999984], [50.800892500000025, 25.0209186], [50.7975366, 25.0003233], [50.803792499999986, 24.973563500000026], [50.82216859999996, 24.95814340000003], [50.834482, 24.9347354], [50.85035160000001, 24.920861599999963], [50.8586645037118, 24.89271269995966], [50.859092099999955, 24.86639889999996], [50.858864500000045, 24.84132820000003], [50.862419400000014, 24.814562800000036], [50.86907180000003, 24.790888600000013], [50.86139887385544, 24.77212071333524], [50.83725990000002, 24.75340610000004], [50.81162480000002, 24.744367799999964], [50.84330939999998, 24.696243400000014], [50.873393, 24.646014099999988], [50.928351, 24.54682], [50.994484100000015, 24.503973799999986], [51.02455910000002, 24.492388], [51.09853449999998, 24.470753399999964], [51.15555609999996, 24.478793699999976], [51.220469799999954, 24.493202300000036], [51.2658281, 24.505604099999964], [51.30142759999997, 24.5054844], [51.29743590000001, 24.52553279999997], [51.301143900000035, 24.546632200000026], [51.299794500000026, 24.570830399999974], [51.308706, 24.589216], [51.290163, 24.6048259], [51.27103470000004, 24.612325899999984], [51.246263800000044, 24.61520010000003], [51.22599450000001, 24.616776099999957], [51.217861300000045, 24.635320800000024], [51.237587199999965, 24.64249810000004], [51.257309400000025, 24.64684130000004], [51.27591579999996, 24.6554306], [51.28933409999997, 24.673037500000014], [51.297875400000045, 24.651657], [51.3161494, 24.638749799999967], [51.334772299999976, 24.652479800000012], [51.35304730000002, 24.6412416], [51.358758100000024, 24.619607], [51.34393009999999, 24.602653500000024], [51.3307858, 24.58260590000004], [51.3366404, 24.5614863], [51.36886506440391, 24.579823374586493], [51.37179889999997, 24.6018149], [51.3838433, 24.628039], [51.3960098, 24.646539899999972], [51.41589109999999, 24.65446539999999], [51.4380442, 24.66727220000003], [51.45343130000003, 24.716131], [51.477938300000034, 24.7508025], [51.482290399999975, 24.782962], [51.47940780000003, 24.803304799999978], [51.49617019999998, 24.82276649999998], [51.50302319999999, 24.844176100000034], [51.53161720000002, 24.86977480000004], [51.55472870000003, 24.89922470000002], [51.56816659999998, 24.9147862], [51.58411770000003, 24.940326], [51.59569409999997, 24.962574], [51.6046363, 24.9810398], [51.620635899999975, 24.993896700000015], [51.65738940000003, 25.022356400000042], [51.61034259999998, 25.0059901], [51.592419600000014, 25.0339803], [51.60669750000001, 25.0148267], [51.65417909999997, 25.033198499999973], [51.6294738, 25.0423028], [51.625869, 25.02205089999999], [51.6107507, 25.049366], [51.614846300000025, 25.0774325], [51.617946300000014, 25.10392910000004], [51.61785879999997, 25.137620300000027], [51.61128150000004, 25.159877100000013], [51.61591929999999, 25.179346899999974], [51.61888050000004, 25.20214140000004], [51.6053943, 25.22410840000003], [51.6149598, 25.2477681], [51.6089624, 25.30202910000002], [51.58588409999999, 25.293571300000014], [51.564103599999974, 25.29118449999997], [51.54613609999997, 25.301041899999962], [51.51967459999999, 25.299311300000035], [51.53875050000004, 25.3170733], [51.522498, 25.33599410000001], [51.53182369999997, 25.35387], [51.50840629999996, 25.36421059999999], [51.54156209999997, 25.384537800000015], [51.534290400000046, 25.4068707], [51.50873540000001, 25.41835519999996], [51.53100660000004, 25.411086099999988], [51.5321879, 25.438667], [51.515161100000014, 25.455542], [51.5367533, 25.445625], [51.518397, 25.45652619999997], [51.5059764, 25.472343699999985], [51.52538170000004, 25.48023349999998], [51.49867469999999, 25.47668119999996], [51.48453519999999, 25.4997609], [51.480289300000045, 25.525719799999965], [51.49743420000002, 25.5388958], [51.4994285, 25.56747240000002], [51.491430600000044, 25.58825430000001], [51.5039927, 25.606226699999976], [51.52832401972523, 25.615035642630154], [51.5477155, 25.623876499999984], [51.551304, 25.649476099999976], [51.5344788, 25.664281], [51.54053909999997, 25.6845074], [51.51912489999998, 25.684942799999963], [51.5329921, 25.701424400000036], [51.555261100000024, 25.70615229999998], [51.56255359999998, 25.68630810000004], [51.5813329, 25.677279], [51.58208020000002, 25.697443], [51.59523589999998, 25.72005119999997], [51.57665620000004, 25.73991749999996], [51.550729100000034, 25.734071300000036], [51.5375713, 25.74965489999997], [51.56184350000002, 25.74322790000004], [51.56862790000004, 25.769152], [51.586354, 25.79044179999997], [51.59023830000001, 25.8151218], [51.58529650000004, 25.850913100000014], [51.66204050000002, 25.8986944], [51.64201779999996, 25.90016210000002], [51.61868920000002, 25.8786251], [51.583583, 25.861875699999967], [51.5748674, 25.8902293], [51.60073350000002, 25.892299699999985], [51.633135, 25.906973300000033], [51.60054519999998, 25.893354699999968], [51.6104265, 25.91749750000004], [51.63256490000004, 25.923215], [51.6118994, 25.920697300000025], [51.58733680000002, 25.915917200000024], [51.606295599999974, 25.92466040000002], [51.62607340000002, 25.94179949999996], [51.651725700000014, 25.9276433], [51.62687159999998, 25.942596199999976], [51.5967893, 25.939305099999984], [51.57490760000004, 25.921591600000035], [51.550975900000026, 25.9274167], [51.51597720000004, 25.949492800000037], [51.49636439999997, 25.9549422], [51.4749763, 25.95219909999996], [51.453316899999976, 25.948245300000025], [51.43278179999998, 25.9503993], [51.40427470000003, 25.96522080000002], [51.39890779999997, 26.0108541], [51.38042749999999, 26.02068310000004], [51.35788120000003, 26.052908900000013], [51.360272900000034, 26.07523250000002], [51.36095069999998, 26.09921130000002], [51.341384200000014, 26.11255249999996], [51.30985790000001, 26.133303], [51.27726470000001, 26.1417938], [51.2619572, 26.156438599999973], [51.251982199999965, 26.15902989999997]]], [[[51.261985, 26.168920100000012], [51.27463610000004, 26.15216920000004], [51.2927147, 26.140681399999973], [51.27578939999998, 26.157571199999982], [51.261985, 26.168920100000012]]], [[[51.21637230000003, 26.1781312], [51.238053099999966, 26.1805423], [51.21637230000003, 26.1781312]]]]}}]}