{"type": "FeatureCollection", "features": [{"type": "Feature", "properties": {"code": "REU", "name": "R\u00c3\u00a9union", "tier": "country"}, "geometry": {"type": "MultiPolygon", "coordinates": [[[[55.75585496237767, -21.11510221663241], [55.75585496237767, -21.11510221663241]]], [[[55.66444143286611, -20.92528115084599], [55.66444143286611, -20.92528115084599]]], [[[55.28510278971788, -20.957275844505148], [55.281376492256015, -20.986637998685353], [55.2637342701849, -21.012030558045694], [55.23464640260573, -21.01871911351367], [55.217010496813316, -21.03668690905363], [55.22181552916447, -21.05804757710115], [55.23148585072863, -21.091911165550414], [55.254829567147, -21.11025892473822], [55.26709328042, -21.126831129700747], [55.27251781252045, -21.149581642266583], [55.28748161436539, -21.16322671255847], [55.28671975709585, -21.188232684950947], [55.2888301508587, -21.21830815097303], [55.302022335186564, -21.23587365657437], [55.32040657746404, -21.248060477925037], [55.33218324642496, -21.265317692098165], [55.3759723406817, -21.28627883357882], [55.397342384455555, -21.295810054453682], [55.411030440534034, -21.313325183345114], [55.42978257315514, -21.325972742145552], [55.45281823939223, -21.32989699354016], [55.47033325862577, -21.34473217796426], [55.493332255355085, -21.34974975967731], [55.523737703082475, -21.36084649657539], [55.54674531890072, -21.368201890986086], [55.572287144211316, -21.375933937384787], [55.598794460988415, -21.37876534095443], [55.62547442272023, -21.38244843331495], [55.645793540776765, -21.38858693520308], [55.67125090778978, -21.383477284953415], [55.70868705372004, -21.376081141771692], [55.72812864765103, -21.369451066711974], [55.75076206781222, -21.36748525651859], [55.77423542146698, -21.36502111824427], [55.79874170602437, -21.3480577426256], [55.805849932163255, -21.325731012891424], [55.805358709895984, -21.292076431862938], [55.803923028493045, -21.271879472393096], [55.808244898412056, -21.235986384605837], [55.81405078681178, -21.21410710181783], [55.82552921994801, -21.186076728447404], [55.83258187160607, -21.165626854646575], [55.825415965559955, -21.143886683513472], [55.806443706235484, -21.13313460050989], [55.783041849347796, -21.124764544156108], [55.752927191692606, -21.119617215548942], [55.76980161305147, -21.108529492507103], [55.755996552294334, -21.088979381396655], [55.735767441210896, -21.06817305454149], [55.72608572622062, -21.0453107350678], [55.70884653976003, -21.028622007920205], [55.700533615025336, -21.005824814106177], [55.69989514450816, -20.97835423191134], [55.67647552308608, -20.984352010177986], [55.6996756538191, -20.977489208754662], [55.690692106953406, -20.958084328193877], [55.667517723829235, -20.92957891253741], [55.650626020430025, -20.917197278944627], [55.630747550547085, -20.911547411403944], [55.59195678212552, -20.896234942195974], [55.57090510731501, -20.89308788094729], [55.54781676155835, -20.895793134392818], [55.51960578209014, -20.888296473555215], [55.48937966843209, -20.886129279886973], [55.46740660644866, -20.88365845249814], [55.449366985168695, -20.871717589073057], [55.42843639430038, -20.874308808190563], [55.3954764723527, -20.88187764978477], [55.37687065589148, -20.895161150123727], [55.36048946353458, -20.90819158672315], [55.344162036308035, -20.922077646079913], [55.323436801261664, -20.928547451047677], [55.29473496139627, -20.92685922266668], [55.27940714560475, -20.951798896062996], [55.28510278971788, -20.957275844505148]], [[55.63449753405479, -20.982738113213486], [55.63449753405479, -20.982738113213486]], [[55.689879236959825, -20.98813793945277], [55.689879236959825, -20.98813793945277]], [[55.62107851197743, -20.990199590404416], [55.62107851197743, -20.990199590404416]], [[55.48949261577883, -21.014534699419244], [55.48949261577883, -21.014534699419244]], [[55.42502036210385, -21.014538471641345], [55.42502036210385, -21.014538471641345]], [[55.273923732845674, -21.02058536555495], [55.273923732845674, -21.02058536555495]], [[55.71269942597672, -21.041769726083828], [55.71269942597672, -21.041769726083828]], [[55.640701742787655, -21.094043436008405], [55.640701742787655, -21.094043436008405]], [[55.74182361215924, -21.129458526236988], [55.74182361215924, -21.129458526236988]], [[55.52234783663266, -21.16433750036947], [55.52234783663266, -21.16433750036947]], [[55.528336546214064, -21.181704986243517], [55.528336546214064, -21.181704986243517]], [[55.58627314003837, -21.19102983148082], [55.58627314003837, -21.19102983148082]], [[55.4560521741476, -21.214104162993863], [55.4560521741476, -21.214104162993863]], [[55.45671950655009, -21.228400314428825], [55.45671950655009, -21.228400314428825]], [[55.6444785704802, -21.239786371987464], [55.6444785704802, -21.239786371987464]], [[55.45460763240891, -21.27639486607694], [55.45460763240891, -21.27639486607694]], [[55.61217935761505, -21.282735445024343], [55.61217935761505, -21.282735445024343]], [[55.38310862820549, -21.282951075765254], [55.38310862820549, -21.282951075765254]], [[55.613563192895924, -21.279169247685218], [55.613563192895924, -21.279169247685218]], [[55.391716356481425, -21.286524817548468], [55.391716356481425, -21.286524817548468]], [[55.391521100126, -21.28604004314917], [55.391521100126, -21.28604004314917]], [[55.61765908039473, -21.29719831990269], [55.61765908039473, -21.29719831990269]], [[55.41311240007656, -21.300676045475086], [55.41311240007656, -21.300676045475086]], [[55.2831764781987, -20.94238153269316], [55.2831764781987, -20.94238153269316]]]]}}]}