{"type": "FeatureCollection", "features": [{"type": "Feature", "properties": {"code": "ROU", "name": "Romania", "tier": "country"}, "geometry": {"type": "MultiPolygon", "coordinates": [[[[28.983668000178113, 44.69244300024434], [28.916531999652136, 44.69754800004023], [28.87058899978257, 44.66854199971357], [28.824385999614265, 44.61732000011796], [28.891274000394844, 44.66382599987003], [28.95935000020239, 44.682574000190016], [28.983668000178113, 44.69244300024434]]], [[[26.722882000104278, 48.26311500035706], [26.672131999791986, 48.24663400025895], [26.607200000179887, 48.23674700027391], [26.542469999990544, 48.21425199982997], [26.475058000226568, 48.22149500019418], [26.427113999811297, 48.19826199989143], [26.370863000327233, 48.188054000391844], [26.31672200012025, 48.14147299987911], [26.244455000397977, 48.061528000416956], [26.20438099958352, 48.01748299994057], [26.1345780001746, 47.9851380003185], [26.065437999863832, 47.98559599985555], [25.980089000307146, 47.97601000026134], [25.902556999705837, 47.96909000040324], [25.84347700016349, 47.964370000375254], [25.775390999894796, 47.9460599995694], [25.699743999885754, 47.954099999815185], [25.627679999632335, 47.942607000412806], [25.290793999843288, 47.91217099979184], [25.226547000343828, 47.89918499988789], [25.2000109997079, 47.844070999776875], [25.161322999856623, 47.81050100032098], [25.114221999645622, 47.76015099956902], [25.055375000056245, 47.75015199981499], [25.007824999823924, 47.73146100032494], [24.896391999791035, 47.72563999988614], [24.845782999685753, 47.79115600034919], [24.789881000108096, 47.83031100015256], [24.7417479999703, 47.84828199971457], [24.68056399962893, 47.88492199955067], [24.639880000361757, 47.93026799976843], [24.59692499978894, 47.9636549997785], [24.546430000444218, 47.95930100044086], [24.424179999807222, 47.977497999633044], [24.38288000001205, 47.937655999624724], [24.333770999831813, 47.92695099968893], [24.24543900030966, 47.90916000033383], [24.173046000172803, 47.91983399973935], [24.100171000291482, 47.922171999638124], [24.048232000006863, 47.95416700020695], [23.99791099969292, 47.97043999970629], [23.931789000062338, 47.96039499962956], [23.879404999940846, 47.937980000176935], [23.81944100010213, 47.984222000345085], [23.75268299992058, 47.99927500024114], [23.692902999573846, 47.982175000376], [23.636776999558947, 47.99545300025579], [23.55385300031577, 48.0065460000979], [23.48607399981529, 47.97190499981593], [23.42092700018094, 47.97847799985988], [23.32909600028023, 48.02404000014593], [23.27736699978726, 48.04953500043996], [23.251380000186884, 48.10107100012658], [23.18793599994649, 48.10194800010015], [23.125621999655607, 48.09706799988834], [23.096236999837743, 48.05284200005832], [23.01570999961683, 48.00530400037934], [22.96534800011017, 48.01447699981372], [22.908814000166046, 48.00537199991794], [22.888680999828352, 47.95596000015394], [22.84682400042732, 47.91388299960079], [22.78639299973719, 47.89299000018843], [22.771263999933694, 47.8435970004013], [22.716904000419333, 47.839599000393605], [22.68173500007026, 47.79038599991401], [22.62670800037398, 47.77734400012554], [22.570153000360733, 47.77307800034947], [22.514186999630397, 47.79400699962338], [22.46693599969666, 47.81336600024076], [22.424026000299705, 47.75616900029917], [22.37326999971077, 47.74703600001146], [22.3154160000484, 47.766017000284364], [22.267190000118433, 47.73203299972323], [22.231026999796256, 47.694996999611874], [22.196967000226948, 47.65778799961652], [22.174351999645125, 47.59328800014117], [22.12292999981969, 47.585747000423794], [22.076088999907483, 47.563674999701504], [22.037895000354013, 47.53113800021856], [22.00949900027871, 47.47989699974681], [22.035297000156504, 47.43451699975981], [22.012681000427904, 47.38306100016507], [21.95072699965135, 47.37683900011979], [21.915442000248163, 47.34125899970314], [21.879389999648822, 47.29416799995329], [21.853714000001162, 47.24455299982111], [21.852049999707788, 47.189918000215584], [21.79535400038685, 47.139258999603214], [21.754253999922184, 47.11039400038288], [21.705173000133925, 47.08277500016618], [21.666578000074708, 47.046413999706374], [21.67069900035864, 46.98711099977288], [21.633645000316562, 46.93515799974193], [21.60352399983276, 46.888263000037455], [21.564767000396785, 46.85662099955954], [21.51125300032578, 46.83910899958073], [21.48460299982861, 46.778438000413416], [21.530535000090254, 46.73962400014756], [21.49592799957759, 46.700801000365914], [21.441522999786685, 46.69336199995638], [21.415075999657688, 46.64397799968498], [21.363118000295515, 46.64099499971951], [21.312683000120387, 46.621524000232455], [21.301125999565272, 46.55789300036173], [21.254868999604696, 46.50887299978916], [21.300843000004477, 46.47470899992044], [21.288055000238103, 46.416845999843076], [21.22229300012191, 46.41659600000543], [21.189994999969315, 46.37067300015889], [21.174833999589453, 46.32280000031983], [21.112694000128045, 46.30244499963709], [21.082627000335833, 46.26077299977419], [21.024019000076862, 46.26950499955615], [20.961766999947145, 46.264533999644414], [20.889209000295182, 46.2762139995765], [20.77602899973857, 46.27671100001271], [20.75745900043256, 46.20623400009907], [20.711966999777246, 46.17012799970746], [20.656018999877006, 46.15313700037234], [20.58693600039618, 46.15559100022455], [20.525551999824984, 46.18450199976752], [20.457208000249068, 46.14395799976194], [20.399492999802135, 46.15955699965588], [20.31079599963573, 46.15196999961586], [20.260754999643552, 46.12673999985117], [20.2951310002955, 46.08642599966021], [20.339110000426217, 46.037582000009365], [20.40845200015974, 45.965297000356315], [20.47079600003542, 45.952369999575865], [20.502028999638696, 45.893960000353786], [20.561715000147217, 45.90565900026269], [20.586811000027694, 45.86174500043148], [20.647943999815766, 45.829088999957435], [20.693299000448576, 45.75266299999748], [20.748816000258273, 45.74702399985779], [20.801646000262735, 45.77489600005043], [20.793122000180233, 45.65067600029721], [20.763968000223088, 45.5921589997381], [20.82011000007651, 45.54275899962818], [20.77039499982942, 45.50038999999856], [20.823047999765436, 45.47677600011235], [20.86778699987019, 45.427001999842446], [20.91597900003086, 45.41310100001118], [20.9510529995963, 45.36624400026045], [21.009400999556533, 45.332543000159376], [21.078809999681766, 45.30628499975296], [21.13564500001678, 45.307290000233365], [21.195058999673165, 45.26898900024224], [21.251909999846646, 45.231296999556946], [21.331115000257114, 45.22779199980101], [21.384955000073262, 45.216497999682986], [21.45792599988505, 45.17932799968747], [21.508541000266973, 45.157274999841434], [21.46778799961652, 45.11660799955956], [21.433359000117832, 45.057952999831116], [21.377103000403224, 45.0279680002231], [21.40988400034638, 44.97387799966998], [21.472299999945108, 44.94962299990158], [21.540109000030384, 44.92154400005563], [21.517350000002523, 44.86789299996201], [21.466741999943395, 44.861125999965], [21.41217399983026, 44.87001699988468], [21.365150999619004, 44.85045299970625], [21.388022000315118, 44.780383999721835], [21.436953000380697, 44.76360700036281], [21.534083000030478, 44.756823999627954], [21.59144200024815, 44.733299000248735], [21.602627999882316, 44.6775169999097], [21.679965999631236, 44.65030200033709], [21.741355000432975, 44.643634999555616], [21.800276999883692, 44.63759299971724], [21.851202000172236, 44.63456000014395], [21.9023459997681, 44.62716600001096], [21.95792499973902, 44.62207700005354], [22.01715499990337, 44.580989000142324], [22.041174999626605, 44.52428200031409], [22.096760999920264, 44.47970200034712], [22.149108000134163, 44.46740799997929], [22.191190000018537, 44.503708000324025], [22.22428500005276, 44.556624999843905], [22.25735799997176, 44.61816400036838], [22.2959410003769, 44.653412999910074], [22.34625999969927, 44.664096999776746], [22.39761800017061, 44.68653800042841], [22.45961700032433, 44.69892899987349], [22.526471000436345, 44.656357999921795], [22.58095600031919, 44.618827000365854], [22.641733999924213, 44.604522999936535], [22.69621000029133, 44.585574000239944], [22.74322199999534, 44.54425400042186], [22.685547999640505, 44.50567900038561], [22.636858999942945, 44.525743000239345], [22.56305400034188, 44.53187999996209], [22.536525000028803, 44.47590899990047], [22.464506000051927, 44.46756800016311], [22.47891900011183, 44.41143699991767], [22.493257000310393, 44.36296400028846], [22.53043499977548, 44.3144420001982], [22.61759800024754, 44.28147199963314], [22.671489999763708, 44.28974499983195], [22.683519999648297, 44.236518000405454], [22.755239000179756, 44.204151999815], [22.801272999749187, 44.179296000210286], [22.88525700021046, 44.14434099983731], [22.942304000429317, 44.113073000418694], [23.00714600038765, 44.10393800003874], [23.057541999663613, 44.0693179998259], [23.017261000095118, 44.02416300032223], [22.949660999755395, 44.00649600039014], [22.899322000410052, 43.99436400029845], [22.855199999980073, 43.92863199976705], [22.847829000008403, 43.86520600035669], [22.942246999599377, 43.829277000033585], [23.000085000322542, 43.81249599959074], [23.066609999651803, 43.80826200039104], [23.127460999925233, 43.8171710002415], [23.192828999858534, 43.83156799956356], [23.260991000034664, 43.85274799962053], [23.337239999926112, 43.86060899970562], [23.417882000054306, 43.86168699995511], [23.479479999702278, 43.856235000345066], [23.549784999777955, 43.82827499969153], [23.61026600007591, 43.80544700007903], [23.68183600003141, 43.81431499983745], [23.746886999735295, 43.81746899959472], [23.814099000168767, 43.791177000318385], [23.861554999663554, 43.775205000310564], [23.942493999998135, 43.75863299961327], [23.99559800004772, 43.75639799996776], [24.071331000425403, 43.72851700025939], [24.120910999842806, 43.71226399988376], [24.184505999852036, 43.69651800040543], [24.254229000068335, 43.70217000024536], [24.307748000369997, 43.7118860004386], [24.368363999698886, 43.715881000307945], [24.42083000000457, 43.73764500031655], [24.477084999673025, 43.77036600019079], [24.528456999890693, 43.7816319999169], [24.60012499986891, 43.77097000016545], [24.668402999998477, 43.74165600002442], [24.73024500010672, 43.72797899973108], [24.780064999799947, 43.73241900033668], [24.857104000149548, 43.727309000310186], [24.948189999868646, 43.74408100033793], [25.00792299984664, 43.74324899974158], [25.059930999715903, 43.71324400011059], [25.11326999981071, 43.70358099966347], [25.172912000088786, 43.71841600029825], [25.245758000431408, 43.705768999839506], [25.30032999982967, 43.676046999769255], [25.34735099994873, 43.6536540004318], [25.397292999872093, 43.63888300005044], [25.45914200030313, 43.646548000090206], [25.51033400031389, 43.66372099972443], [25.571023000311243, 43.65981000013147], [25.663256999910686, 43.70611499960762], [25.7163019999374, 43.70844900022121], [25.765247999795406, 43.72251999979818], [25.81055299992107, 43.76202000022289], [25.87086999985064, 43.78829899979905], [25.925852000169698, 43.85115299981112], [25.98093899993495, 43.89027399984525], [26.040025999800093, 43.92655500021317], [26.075095000034253, 43.96578900006233], [26.125413000209846, 43.99798399996166], [26.1833809997334, 44.000512999675266], [26.23374999956286, 44.01790599956229], [26.292530999705946, 44.04307199997288], [26.354997999857858, 44.05289699979676], [26.409272999949053, 44.05306600039563], [26.47535899971814, 44.056826000219814], [26.546493000251814, 44.07412300017637], [26.606300000044996, 44.06770900027021], [26.65901400009608, 44.07486300012738], [26.70746399956397, 44.08884400005064], [26.76116500016468, 44.09048500018264], [26.853524000132552, 44.13347100038641], [26.91962100040888, 44.1484230001214], [26.971968999769558, 44.14981699965489], [27.043217000164475, 44.15331600003344], [27.119235000195147, 44.15253399994418], [27.175224000187484, 44.12724300006448], [27.236850000227378, 44.13048999961387], [27.28219300030679, 44.07734100018706], [27.333240999972247, 44.0625699998057], [27.3746280001821, 44.02777599966271], [27.470718999582232, 44.02781499966255], [27.575826000169798, 44.01845899988297], [27.624432999683222, 44.04350700024793], [27.67059699985174, 44.017144000395376], [27.701071000426396, 43.96597999987716], [27.757296999656887, 43.960913000034964], [27.823491999955877, 43.96676600015081], [27.87753800027855, 44.00803000008449], [27.920301000091115, 43.976382000229194], [27.960008000169125, 43.894815999758634], [27.983900000284848, 43.84010600029171], [28.141983000415166, 43.7912249998339], [28.191379000340646, 43.78064100008214], [28.35009800012267, 43.755511000432364], [28.410016999684842, 43.74114599988803], [28.470033000122896, 43.73562299970172], [28.56704699981924, 43.73986400012353], [28.576641999828496, 43.79571500004727], [28.599310000156436, 43.856359999814174], [28.610864999720036, 43.91581599960875], [28.630304000429305, 43.96582700001608], [28.658695000274122, 44.00944999991759], [28.62657300014388, 44.070636000351215], [28.631028999688624, 44.13841299986012], [28.64482500007375, 44.19068900039713], [28.61829299962227, 44.24025800020661], [28.623861000085128, 44.307143999995674], [28.680169000399076, 44.331890999969744], [28.721884000446323, 44.388023000261285], [28.760060000069018, 44.42637900009083], [28.807904000369376, 44.45658900018225], [28.885130000349307, 44.530934000403875], [28.929489000017384, 44.5897450001317], [28.857450000017536, 44.563576000232274], [28.808919999558384, 44.5231559996497], [28.75969999965531, 44.46141199956418], [28.758493999798304, 44.517543999855775], [28.733708999870487, 44.56936700018696], [28.78588300020033, 44.576054000092086], [28.811922000400045, 44.62380699979326], [28.780628999828537, 44.665988999792546], [28.731273999995153, 44.70387799967], [28.79410799998425, 44.72032800013716], [28.852406000336714, 44.73923100041037], [28.930191000014702, 44.73923100041037], [28.939499000278715, 44.7943299998297], [28.899221999995348, 44.85181400041586], [28.852030000084483, 44.87114299964975], [28.850138000068682, 44.94046800039797], [28.908850999773847, 44.96931899987197], [28.961647000009123, 44.98616899989946], [29.012536000436114, 44.987415999848565], [29.066900000134922, 44.98703000003451], [29.045904999616084, 44.93761900031666], [29.025471999832973, 44.87706700034187], [29.058015999638712, 44.82789199981602], [29.099387000010097, 44.8560529998461], [29.141190999664957, 44.828040000345766], [29.117629000378088, 44.78105800022661], [29.042084999722988, 44.74747099998672], [28.976992999927063, 44.733846000292715], [28.99140800007922, 44.675885000192636], [29.054407999629518, 44.71780799993928], [29.129591999870968, 44.76422400003764], [29.242620999759367, 44.794418000290534], [29.306785999973954, 44.78969199998585], [29.3727919996511, 44.79110699958841], [29.457527999717456, 44.806303999829765], [29.538180000306795, 44.81281999994309], [29.584277000083546, 44.837686000008944], [29.57183800022358, 44.8970910001496], [29.62423299995305, 44.886825999820076], [29.625862999577805, 44.93834599966823], [29.665675000001272, 45.021434000179], [29.669024999803923, 45.08085600020428], [29.681231999757017, 45.13609299969221], [29.634705999981975, 45.216530000259354], [29.66249499994433, 45.26978700016997], [29.651813000169852, 45.31974099974741], [29.604503000213356, 45.36539399973333], [29.554074000314927, 45.39464899985154], [29.460675000051253, 45.4141590002377], [29.412749999612856, 45.42979399999314], [29.360645999813073, 45.417663999993636], [29.30528600004891, 45.42079599963574], [29.248099999715294, 45.421981000322944], [29.186941999673593, 45.40423500034507], [29.144482000344112, 45.374113999861265], [29.05458799983637, 45.34801599963873], [28.995217000364335, 45.32607899974607], [28.947259000202735, 45.30841800009068], [28.90570600043162, 45.27275400029691], [28.8430929998421, 45.300213000329734], [28.792500999621495, 45.31824600005291], [28.75380100011614, 45.277260000348804], [28.787091000149587, 45.23924199991842], [28.69115899998792, 45.21739899986403], [28.63016999964583, 45.23638600041363], [28.57521499967254, 45.23740499974099], [28.508375000206172, 45.2642740004448], [28.379531000355428, 45.29629999974526], [28.32829600016032, 45.33691899961218], [28.29228999988362, 45.37632100001417], [28.279809999931615, 45.435264000433335], [28.202088999607724, 45.45517000019538], [28.173629000178266, 45.499876999723824], [28.163063000357226, 45.54966000040872], [28.116416000398146, 45.58265799956706], [28.15566500003979, 45.627341999833504], [28.163014999942334, 45.680712999605305], [28.161512999925037, 45.73840199975251], [28.13245699999061, 45.780718999682165], [28.107582000409025, 45.82928500000281], [28.110957999612026, 45.88931700027939], [28.114524000382346, 45.94622799962252], [28.095054000042126, 45.99464100008214], [28.10236099976038, 46.04929699975679], [28.10464199972853, 46.10047900020572], [28.12953500014021, 46.149371000271515], [28.1301820002991, 46.209289999833686], [28.135029999934602, 46.26109000000355], [28.185367000087012, 46.28536499979498], [28.18904299963475, 46.33711300026482], [28.218450999613992, 46.38628799989135], [28.26142600020978, 46.423547000393796], [28.248372999914068, 46.48042700010603], [28.217458999733083, 46.52356400007858], [28.22817800031453, 46.579007000073034], [28.249878000069714, 46.62971100006263], [28.22500299958881, 46.67607100027652], [28.20675199970509, 46.72351800025558], [28.18166300014741, 46.76946300021734], [28.145301999687604, 46.818295000214164], [28.1178790004156, 46.86206399965391], [28.0896089998555, 46.90677200012777], [28.099666999632404, 46.962874999981295], [28.06145700024041, 46.998956000119335], [28.005099000318637, 47.0281609997304], [27.945540000270853, 47.04169399967839], [27.903858999992906, 47.069859999939126], [27.85679699978175, 47.098611000197536], [27.81494100042687, 47.12918600003394], [27.801778999601197, 47.183930000169426], [27.76920300011841, 47.226056000284245], [27.737249999687776, 47.26814699968435], [27.687425999810102, 47.28290200022718], [27.636760999820353, 47.31547999980222], [27.612378000444437, 47.36772399976286], [27.584009999861678, 47.40933899969514], [27.58005299994602, 47.46794499986191], [27.524893999558458, 47.478855000258136], [27.473763999708865, 47.48870600038168], [27.45560400042433, 47.53817400003015], [27.429071999972848, 47.58168700025493], [27.37821099993772, 47.61213699972279], [27.32977200007781, 47.635344999771974], [27.297408999625702, 47.683475999817574], [27.276699999705272, 47.735252999826116], [27.263837000077558, 47.79050900019024], [27.2301650004145, 47.82808700011503], [27.231409000225256, 47.880358999568216], [27.186797999727958, 47.91507699980377], [27.16247500042101, 47.965251999680106], [27.14176699964736, 48.021016000088366], [27.09147299967924, 48.041863000077456], [27.0555420001632, 48.0837580003315], [27.03333699960291, 48.13896999956586], [26.96981900044659, 48.13040500029058], [26.955061999811505, 48.183113000064964], [26.894937999788908, 48.19027999962236], [26.867073999965157, 48.23231500003726], [26.820666000235747, 48.25352399963293], [26.761132999588312, 48.2478860004386], [26.722882000104278, 48.26311500035706]]]]}}]}