{"type": "FeatureCollection", "features": [{"type": "Feature", "properties": {"code": "RWA", "name": "Rwanda", "tier": "country"}, "geometry": {"type": "MultiPolygon", "coordinates": [[[[30.602095769384846, -1.349929422719242], [30.568819507139608, -1.337674196945954], [30.5586801251128, -1.314602584941724], [30.558487127704723, -1.291605452392048], [30.551340960029677, -1.271326841859604], [30.54478325899788, -1.244736711648784], [30.532745835186233, -1.22578226072153], [30.52084070232536, -1.205078617260256], [30.512003701901108, -1.182200583849863], [30.50097723360483, -1.164203652280548], [30.477293118007196, -1.161323527830859], [30.467285851479403, -1.140110765979102], [30.476187944666094, -1.122041120442987], [30.4527517430123, -1.103003724493192], [30.452516286174045, -1.080817093332485], [30.466262789762993, -1.065811298102801], [30.45039089960369, -1.048587900468078], [30.430425800193348, -1.058187900026496], [30.409440200247047, -1.063250699918115], [30.389153099723103, -1.067637300651427], [30.368600699746196, -1.0654576998013], [30.34860250011269, -1.071777499825998], [30.340868600201077, -1.092245599528781], [30.34002299985451, -1.113651899388401], [30.329559600393168, -1.135755900405854], [30.311333500133912, -1.144351700098639], [30.297177599951738, -1.159347999340127], [30.291639399986934, -1.186361900456973], [30.277610700350692, -1.206747100113091], [30.25494470015593, -1.219763199784154], [30.24317270056565, -1.241100300407197], [30.226424000165423, -1.256361100051436], [30.21085820043305, -1.276457700303013], [30.191028699918206, -1.281721399886521], [30.169669200489636, -1.274415999661926], [30.17453930002148, -1.301686799892423], [30.16198670038193, -1.317610300023659], [30.169929900568036, -1.34517250047827], [30.145289100646664, -1.350554699690349], [30.12887359975832, -1.363269199893807], [30.124050800119562, -1.382993999685596], [30.104185799981224, -1.372391800400237], [30.082156600220117, -1.372962600353787], [30.070622800605577, -1.391656400545855], [30.052277899946716, -1.401015099867948], [30.055867500448358, -1.421283800034644], [30.025505399652502, -1.417813699634905], [30.000047099584833, -1.435122099841237], [29.979421799525994, -1.45594139914914], [29.95111280010883, -1.465119499532022], [29.92619319995407, -1.481314999956794], [29.902504599860663, -1.460442199423994], [29.889703999625624, -1.431862799861733], [29.88351240015743, -1.405378100519556], [29.88094420030359, -1.379517300263672], [29.881404199712676, -1.357519599876014], [29.8614914002182, -1.360951899616055], [29.849645999286224, -1.338748199631482], [29.83756719987349, -1.319123399833188], [29.8094070998078, -1.329466399737953], [29.796788000582865, -1.349656299709807], [29.79736479984365, -1.370314700038591], [29.776793699637494, -1.366397299734444], [29.75823589915467, -1.345505399789829], [29.731661499838594, -1.340764399355407], [29.71190200054224, -1.345770600034712], [29.69707130029161, -1.360637899444782], [29.6825198997376, -1.378859800042278], [29.64520689937808, -1.384824499841329], [29.616915400040853, -1.387208300163422], [29.591164000357082, -1.387697999788827], [29.567368800782276, -1.386628499756625], [29.547734600298497, -1.400609000403335], [29.52919759940761, -1.41077980029911], [29.518368200248347, -1.429369500121709], [29.496547200325608, -1.442480900509509], [29.450325799532948, -1.506155999876853], [29.361813299791947, -1.508912199740223], [29.353332500129056, -1.536818200266509], [29.328043300727074, -1.565121600082932], [29.31034989963473, -1.599724699957108], [29.294223899711255, -1.614132599959476], [29.268321800452213, -1.629409600374402], [29.26159170049698, -1.649551000174483], [29.2433666000627, -1.668343499836453], [29.244752696176988, -1.698199077146569], [29.26911947248408, -1.713786647166557], [29.255581976315966, -1.728857814785499], [29.2760253145226, -1.735948802746861], [29.276503202423726, -1.758976200799509], [29.27851813922996, -1.779413924536072], [29.275527468935422, -1.800820056632233], [29.287490193977078, -1.819736171256068], [29.294696804931505, -1.844303688627178], [29.283859868862805, -1.865881939321184], [29.283279209842192, -1.88676259210996], [29.276293844098916, -1.906295684357985], [29.290465731520726, -1.921168064646338], [29.30313197597934, -1.93904453732182], [29.321179163635122, -1.926449614178296], [29.324928708512005, -1.948175507889573], [29.329699472857726, -1.969447682239036], [29.335334119920958, -1.992927834666375], [29.346385502427722, -2.010705176854742], [29.362696195901947, -2.022791551827254], [29.37867256522901, -2.036643151277417], [29.358303750339815, -2.038736295897309], [29.359957781992478, -2.060261384577757], [29.343636824565294, -2.047608474485628], [29.3221330533259, -2.05304994868834], [29.34060079987995, -2.066052885898216], [29.319043120954802, -2.066294220385032], [29.325679687746003, -2.085200421960167], [29.32805526652737, -2.110293769543091], [29.313443213425444, -2.096249084958345], [29.29762418084914, -2.083283782242916], [29.279289865685143, -2.096917119169404], [29.279687001715843, -2.121631051392853], [29.280404601170574, -2.142782426909889], [29.271690943635292, -2.11511431844724], [29.269624818652915, -2.089691998009357], [29.25910944258436, -2.111131027390854], [29.253018707554588, -2.131908251114055], [29.266660378460244, -2.149879117067371], [29.275760820347557, -2.168332213363442], [29.28205736079485, -2.190244349573732], [29.269646881765482, -2.168533193846542], [29.252646661187043, -2.155448671368219], [29.229649791815746, -2.159850415896358], [29.217253041920003, -2.175840426631225], [29.197490107303906, -2.180421834201468], [29.209855231942242, -2.197977668000703], [29.194753820752567, -2.21120492083503], [29.186885272550228, -2.230874865790554], [29.19162653899673, -2.251673056050549], [29.20755123765406, -2.26405498023604], [29.187395553311717, -2.259874217740617], [29.166640612016522, -2.261244762518061], [29.154780197532887, -2.279410906758415], [29.153292998980533, -2.299718094066179], [29.13541652630505, -2.308701246164389], [29.129755934249488, -2.328890441874705], [29.119516347091235, -2.310677539625999], [29.10280042485408, -2.323819961326421], [29.087266831058628, -2.339064300256439], [29.0786632039775, -2.364897617448094], [29.064173002420773, -2.38076507482856], [29.05460862108214, -2.400748377394734], [29.058201531016834, -2.37741946475478], [29.048100287910188, -2.357030604452916], [29.04293164186197, -2.337488915047686], [29.05335290976234, -2.313673648938561], [29.041198766381854, -2.297489412630114], [29.019314845076565, -2.296439419002468], [29.020657756134483, -2.320474702157071], [29.010515742325083, -2.338294942405696], [29.007100422903136, -2.363012646851132], [28.997455191002302, -2.38180278680295], [28.976551192106342, -2.390553727928477], [28.95711684654384, -2.396248642818875], [28.935256572904223, -2.400804434369206], [28.91147471398847, -2.408228956942821], [28.904549517380474, -2.433567060329665], [28.898694113082684, -2.45342175644106], [28.898261310911494, -2.480638777324657], [28.89059545385129, -2.504773278692369], [28.86532199911352, -2.51888437193054], [28.870449427603887, -2.538500453064216], [28.89107478923279, -2.557085401680524], [28.899297712477164, -2.580932336909882], [28.899076911379723, -2.600963187019147], [28.90195278111372, -2.62102123221797], [28.906474792634867, -2.645613839252292], [28.910719740597642, -2.66887414130764], [28.928229142498424, -2.680473206602528], [28.944285227430953, -2.692705031440084], [28.96684588976251, -2.703025655578301], [28.988885130118433, -2.699344493192029], [29.012465992102193, -2.713066784378668], [29.0315248590137, -2.731577341266643], [29.048708799837584, -2.719884699705347], [29.052515600398635, -2.6985893001671], [29.057639899799597, -2.677782700520709], [29.05215120060012, -2.656908799819405], [29.055095200771916, -2.635621000098126], [29.059543899705602, -2.612995899541147], [29.07628169994814, -2.598393099168504], [29.098852399671046, -2.595418600326695], [29.121384800620035, -2.603596399582784], [29.14150220040375, -2.604008900049337], [29.163320800027975, -2.595074600524867], [29.175258899910887, -2.615641799388357], [29.1990885004696, -2.617551799933381], [29.219863599991925, -2.625937000263662], [29.24061530019776, -2.627008400044247], [29.263779499760687, -2.618416600127034], [29.283155599890392, -2.626242800372154], [29.30789449943427, -2.643967899888821], [29.328040100029625, -2.653191399617526], [29.33694699937797, -2.673524799302072], [29.3398495000784, -2.698725699838633], [29.348266600204624, -2.719520099296915], [29.341213200171865, -2.742910100351423], [29.33854289959919, -2.763617000191516], [29.353838000105668, -2.782461899622774], [29.35222049989335, -2.803639400486759], [29.360651000188568, -2.82296870043956], [29.376811999373672, -2.836894800197456], [29.38829799963196, -2.819782499709447], [29.40902139931302, -2.814801499445366], [29.430385599625538, -2.803870199311348], [29.45051769944064, -2.799638499865296], [29.471565899385553, -2.807993399464806], [29.49233060001012, -2.808076599322817], [29.508064300259093, -2.821630000258779], [29.531799299235104, -2.826685900104167], [29.556554799645426, -2.817078700255422], [29.57626889988387, -2.811643899920512], [29.598348799661437, -2.806388900499655], [29.620899199255632, -2.805250899893622], [29.639060400727033, -2.789122300668851], [29.660162399876015, -2.787727600117705], [29.678903899546413, -2.799640000055717], [29.701119799766445, -2.810839999618452], [29.720542500001443, -2.815900099623946], [29.745103059212738, -2.806817030011587], [29.761995300109675, -2.794281500414115], [29.767084099887313, -2.770389799342809], [29.785543297529898, -2.762488507998569], [29.809738593081192, -2.760866452507344], [29.828243299875453, -2.777056199417075], [29.852367400523576, -2.765953999931298], [29.873146100493614, -2.760738399492993], [29.89093259938869, -2.749095700135797], [29.899723100432368, -2.727940300205432], [29.9123344004841, -2.707611600058556], [29.92325970018976, -2.686712700130158], [29.92987820064053, -2.664050100045074], [29.93560979980134, -2.641938899546346], [29.92963789950545, -2.608025599991151], [29.929220199966323, -2.58133790021617], [29.921979900048882, -2.562201499948685], [29.928630800036956, -2.540813900550575], [29.93361090007204, -2.519824300181767], [29.942502999676094, -2.500290599814321], [29.963565799939488, -2.48865250035044], [29.96674654653941, -2.468423708171258], [29.96724889979089, -2.445813200169198], [29.960687600464098, -2.42484089982355], [29.954772900393948, -2.397330299715463], [29.947462099794734, -2.375860699958139], [29.956901479599992, -2.349041656667453], [29.96402247584649, -2.320109849329071], [29.985487220698076, -2.337177137063236], [30.013468675047022, -2.339805147126071], [30.037639407291692, -2.348432043553714], [30.055920121811653, -2.36915785978556], [30.066900884812412, -2.391232201545051], [30.092311099049823, -2.377918977137938], [30.107092244199293, -2.39933721543531], [30.082774132115276, -2.396774736208727], [30.098761423341273, -2.419834943820661], [30.121421512235088, -2.422779294737381], [30.14600087262903, -2.429594208678793], [30.17270109908901, -2.425392391920354], [30.196231800434475, -2.409914500308503], [30.198665600643665, -2.387757800226098], [30.21453090048857, -2.369858300274359], [30.22445300031245, -2.34960820039106], [30.244543900693486, -2.359803700271016], [30.26729369068329, -2.371493479330866], [30.290031768075437, -2.368890119744492], [30.29875112780678, -2.350137877465329], [30.296507532934584, -2.328920356472906], [30.30424462358377, -2.309360244587708], [30.32516940259802, -2.3170008365326], [30.345816616248783, -2.319491555813556], [30.348971071162282, -2.342771078662281], [30.37315793164487, -2.352345627290333], [30.378055956054425, -2.331608284014806], [30.393506977663435, -2.312653833087552], [30.414356487688735, -2.314053766106781], [30.433914669599687, -2.328014321366766], [30.45140251567568, -2.317908012077964], [30.461399430524466, -2.339771021675347], [30.47103666838518, -2.358767844306385], [30.489670919066384, -2.376605717500297], [30.51062377043104, -2.391917166892426], [30.535951873043473, -2.40524188341783], [30.56379139829511, -2.414452158375411], [30.58416841557414, -2.413565686188292], [30.601779604539445, -2.402774148373737], [30.6237051628421, -2.399734526918223], [30.64440255581951, -2.409772234400918], [30.669049200378538, -2.403246499608997], [30.688096116358793, -2.383670299907124], [30.6953429935906, -2.3634772442486], [30.715799841616104, -2.355463026866516], [30.73895970607134, -2.373868400167055], [30.76240345216968, -2.381775854891998], [30.783248899904777, -2.382850299869347], [30.795873062727253, -2.366384750205725], [30.825182000065126, -2.35521634108818], [30.839184488398416, -2.327304704986773], [30.848683294481248, -2.307713099433613], [30.85209689227861, -2.273307626897179], [30.845844127152134, -2.251478567298591], [30.842252971739242, -2.23075283879291], [30.843359899602035, -2.205662561623399], [30.85190775481857, -2.186506165226206], [30.862001519276077, -2.160937342209877], [30.8676377454085, -2.139548492154518], [30.87325537360948, -2.120350162683906], [30.885768974663335, -2.102867316995344], [30.895356208649446, -2.083710131063071], [30.889590674253043, -2.063675859636191], [30.875992076859802, -2.048459329878369], [30.85922849742184, -2.029366973529932], [30.848000785464308, -2.010942914571388], [30.827556569996773, -2.016817492503719], [30.822773743313235, -2.043344372200295], [30.80715884935921, -2.065909629185512], [30.790040505594504, -2.076707044648629], [30.799432636746246, -2.058080601589438], [30.80762941213129, -2.03693922684721], [30.815138414934268, -2.014501084972949], [30.81539896143562, -1.990194026376912], [30.827109988827942, -1.97146949381505], [30.81236959994493, -1.9468694996051], [30.793166186348742, -1.938764778805819], [30.783016452643153, -1.967071971868279], [30.787269238262468, -1.942034067177133], [30.798213770386212, -1.919541184219895], [30.81096791639186, -1.903407565868008], [30.816726959057178, -1.880120323123037], [30.803527164490504, -1.896067523523698], [30.78405267327389, -1.885502143581107], [30.777579891101766, -1.909492861879698], [30.76198289327141, -1.928017191764525], [30.74249419042752, -1.936559432510819], [30.73858213295972, -1.958781592739911], [30.725208991630268, -1.977960096113179], [30.72009122671693, -1.958135490052314], [30.728535389689114, -1.939720028251031], [30.73347700060407, -1.918248540214279], [30.71820862472441, -1.938812238622972], [30.71299365929849, -1.915476921978097], [30.73051080589005, -1.896330526355655], [30.755536253475555, -1.884513645946072], [30.76019924631362, -1.865023364032368], [30.75683231879873, -1.843736802603189], [30.770440741514676, -1.820991443945218], [30.78291451492123, -1.805167761885912], [30.803982813826508, -1.803035666880191], [30.826087333362523, -1.816925953538203], [30.815839521882936, -1.837588782433841], [30.827702019861874, -1.819249115978266], [30.827522808190054, -1.773699567208496], [30.828142580309418, -1.800673203149699], [30.824006119491628, -1.776950137166239], [30.824192249267355, -1.742468872636323], [30.82068009969123, -1.70953540013204], [30.818997485840327, -1.68646242499517], [30.832365012699995, -1.665858679624421], [30.80687447301773, -1.606730222516546], [30.78266151286391, -1.593169583220117], [30.74510060018008, -1.523392099633668], [30.729174386563216, -1.509679035952388], [30.734469884544296, -1.53057613738406], [30.716585341068253, -1.541948027178137], [30.70835224707929, -1.521205762303566], [30.722104716042736, -1.505520029528384], [30.73206232960098, -1.487670971257444], [30.7401544216076, -1.468813419917069], [30.737797400226498, -1.445461599543137], [30.71729908057432, -1.446968607369001], [30.686222030018996, -1.400375962931662], [30.629471199539807, -1.385056999441872], [30.617435776666866, -1.359832167029936], [30.602095769384846, -1.349929422719242]], [[30.527494024800376, -1.345216601459242], [30.527494024800376, -1.345216601459242]], [[30.51086852623564, -1.331741873311785], [30.51086852623564, -1.331741873311785]], [[30.33260910178592, -1.325374976536182], [30.33260910178592, -1.325374976536182]], [[30.314523577826776, -1.286314823208954], [30.314523577826776, -1.286314823208954]], [[30.36443139173764, -1.278580561726812], [30.36443139173764, -1.278580561726812]], [[30.326813038708394, -1.256906755384023], [30.326813038708394, -1.256906755384023]], [[30.469863770498648, -1.229375521560826], [30.469863770498648, -1.229375521560826]], [[30.381969066235342, -1.156921827165945], [30.381969066235342, -1.156921827165945]], [[30.345215867952163, -1.357274202272549], [30.345215867952163, -1.357274202272549]], [[30.298845521084672, -1.377526473045123], [30.298845521084672, -1.377526473045123]], [[30.67090671445709, -1.401672378805074], [30.67090671445709, -1.401672378805074]], [[30.286206559441496, -1.409439471778342], [30.286206559441496, -1.409439471778342]], [[30.656038895925747, -1.412353820370754], [30.656038895925747, -1.412353820370754]], [[30.67833729013114, -1.413357055989934], [30.677240713947526, -1.437955891576735], [30.6731198683745, -1.45927469234573], [30.686768469641606, -1.474605836246155], [30.68711744404618, -1.497824214006869], [30.673826238889262, -1.512893276199577], [30.667212217704673, -1.490977630945395], [30.651143779840993, -1.503720986641042], [30.649734898759903, -1.47643128468809], [30.661444226977494, -1.451438339620609], [30.66901726982917, -1.428899970682949], [30.67833729013114, -1.413357055989934]], [[30.7104024059131, -1.434310784615491], [30.7104024059131, -1.434310784615491]], [[30.716998355521866, -1.440940991264426], [30.716998355521866, -1.440940991264426]], [[29.743396260313887, -1.529951790767768], [29.725604794224353, -1.520514875444917], [29.715907814893228, -1.499229410591909], [29.725924731291457, -1.481313636625941], [29.74680985811125, -1.476052878178564], [29.75854225829147, -1.49231238347619], [29.767759024980023, -1.510310927012483], [29.774028808968865, -1.532467073355292], [29.7596216401609, -1.559837921945928], [29.754765211284223, -1.535711052748752], [29.753367559142816, -1.515129589805895], [29.747240066879726, -1.492931334937452], [29.745941808404098, -1.515974743002289], [29.743396260313887, -1.529951790767768]], [[29.676099379909942, -1.537886572171431], [29.676099379909942, -1.537886572171431]], [[29.756297873884478, -1.475946334836522], [29.749458133458347, -1.453821287394248], [29.744833564649525, -1.431765938334138], [29.755703178688407, -1.411733509155113], [29.767507865170955, -1.395511791872593], [29.7820238143363, -1.381190792021016], [29.799343664940864, -1.398357604453395], [29.78406028789908, -1.412122486658973], [29.787887075602498, -1.432201454531366], [29.798730985895588, -1.413937715010547], [29.8168930070093, -1.426055232746876], [29.809602091278236, -1.44613898169132], [29.803805414117733, -1.466360241289294], [29.805753284324737, -1.489821006249713], [29.79383332575378, -1.464522072563796], [29.787398528981043, -1.485339650290484], [29.765942393010732, -1.486051328233771], [29.756297873884478, -1.475946334836522]], [[29.48765425405594, -1.459824077013877], [29.48765425405594, -1.459824077013877]], [[30.5591864801317, -1.531897906452969], [30.5591864801317, -1.531897906452969]], [[30.56062729351106, -1.53522706788408], [30.56062729351106, -1.53522706788408]], [[30.65666929564253, -1.455437421373915], [30.65666929564253, -1.455437421373915]], [[30.639125129413628, -1.43540078134231], [30.639125129413628, -1.43540078134231]], [[30.64024433893013, -1.429100907302995], [30.64024433893013, -1.429100907302995]], [[30.465917499854015, -1.418927443688688], [30.465917499854015, -1.418927443688688]], [[30.65485529545589, -1.417459040452457], [30.65485529545589, -1.417459040452457]], [[30.635153769106125, -1.414787780868437], [30.635153769106125, -1.414787780868437]], [[29.708721293214694, -1.563638611136355], [29.708721293214694, -1.563638611136355]], [[29.985589058969936, -1.576074574596305], [29.985589058969936, -1.576074574596305]], [[30.752342321819185, -1.579676871223342], [30.752342321819185, -1.579676871223342]], [[30.46192052352717, -1.583461550401239], [30.46192052352717, -1.583461550401239]], [[29.975610742053732, -1.586545648986657], [29.975610742053732, -1.586545648986657]], [[30.769972284168546, -1.586955680753476], [30.769972284168546, -1.586955680753476]], [[30.574301159893707, -1.598055356475868], [30.574301159893707, -1.598055356475868]], [[30.76801458863929, -1.607027235770829], [30.750911509214745, -1.624808788811777], [30.767682457644923, -1.609957331197222], [30.76801458863929, -1.607027235770829]], [[30.764649240193876, -1.60698565360201], [30.764649240193876, -1.60698565360201]], [[30.724244355492885, -1.609077833234551], [30.711243172804586, -1.625013585379975], [30.717419967132912, -1.605944915077316], [30.724244355492885, -1.609077833234551]], [[29.53970104947126, -1.625573497179516], [29.53970104947126, -1.625573497179516]], [[29.516032680707383, -1.626430844302945], [29.516032680707383, -1.626430844302945]], [[30.763950063219397, -1.627075060879633], [30.763950063219397, -1.627075060879633]], [[30.77178751252052, -1.632898713813745], [30.77178751252052, -1.632898713813745]], [[30.741527448863565, -1.635209945505039], [30.738602836318194, -1.65591488292614], [30.7457363714355, -1.677544979742095], [30.734140209880195, -1.697950727317163], [30.713410358248325, -1.699549886297575], [30.69491436389194, -1.686335967829621], [30.702930598974604, -1.66616471210591], [30.7213050049632, -1.655955894875262], [30.741527448863565, -1.635209945505039]], [[30.781413872345013, -1.639986543635757], [30.781413872345013, -1.639986543635757]], [[30.779332483021847, -1.648856397482632], [30.779332483021847, -1.648856397482632]], [[30.79296266180927, -1.650629648898018], [30.79296266180927, -1.650629648898018]], [[30.76122493981319, -1.660144772034698], [30.76122493981319, -1.660144772034698]], [[30.789604331451642, -1.659009508643067], [30.789604331451642, -1.659009508643067]], [[30.77048741179675, -1.670758006561755], [30.77048741179675, -1.670758006561755]], [[30.75889423292881, -1.675611057984156], [30.75889423292881, -1.675611057984156]], [[30.77681474410406, -1.679707515702717], [30.769266790915367, -1.701091496959918], [30.774719143153334, -1.727257690817964], [30.752585323101528, -1.73960864769208], [30.738898648709664, -1.720250261961837], [30.751082224195045, -1.701382045785635], [30.77034880456705, -1.694346281400669], [30.77681474410406, -1.679707515702717]], [[30.7980574424854, -1.711989578116345], [30.7980574424854, -1.711989578116345]], [[30.794902285762987, -1.712893683248637], [30.794902285762987, -1.712893683248637]], [[30.7801858824713, -1.713243359462126], [30.7801858824713, -1.713243359462126]], [[30.78914499761987, -1.734735594720291], [30.78914499761987, -1.734735594720291]], [[30.35995736090723, -1.746218633476246], [30.35995736090723, -1.746218633476246]], [[30.777100906624582, -1.75099961791193], [30.777100906624582, -1.75099961791193]], [[29.654283391499348, -1.731174397768541], [29.690390399368425, -1.731437444463381], [29.709889102987802, -1.752284805199452], [29.732539103380418, -1.747420173932596], [29.74516078298302, -1.764285822681586], [29.762197892384506, -1.776637218186352], [29.769495650750855, -1.795916518842375], [29.786049301644596, -1.818395628802932], [29.80205624351578, -1.839780706636247], [29.823956185798522, -1.856256544483472], [29.845372757300026, -1.859016758327357], [29.871072116745495, -1.861539322180988], [29.89413416660534, -1.862507379635986], [29.918298231666768, -1.864035217301307], [29.93476003333899, -1.877686099446805], [29.954320671580604, -1.890445684470308], [29.96704428890513, -1.907864226931508], [29.985264296967216, -1.921351412184208], [29.993388698324395, -1.940383062074829], [29.984884004346895, -1.921887594075088], [29.966978669786442, -1.908737978834779], [29.953434813476008, -1.89134882461542], [29.93869507504337, -1.876977097149563], [29.91865755775069, -1.87014376072807], [29.89467254164839, -1.863406396654682], [29.872663819007755, -1.861879260797878], [29.853524441472473, -1.873500775194486], [29.840863460579612, -1.857657179311673], [29.816569824076453, -1.853741612800548], [29.79621719465149, -1.846068913104887], [29.790288314266775, -1.82513816871608], [29.770247024751882, -1.809978660919796], [29.764086459751354, -1.783257467923477], [29.74537386966682, -1.76647989617345], [29.73201555404745, -1.74891616702547], [29.7080417668854, -1.752155847840129], [29.694707575941322, -1.734049006439818], [29.663839394996103, -1.733166569653349], [29.663644204435343, -1.75349147763194], [29.65581052735638, -1.773395212630248], [29.66138008165717, -1.753632278014152], [29.649091498036114, -1.727366778216719], [29.63435658453824, -1.707962160834541], [29.64872673293422, -1.724757146214415], [29.654283391499348, -1.731174397768541]], [[29.65509187518802, -1.773934201756106], [29.65509187518802, -1.773934201756106]], [[30.53219579257228, -1.730338675127314], [30.53219579257228, -1.730338675127314]], [[30.776898785702485, -1.759910220529775], [30.776898785702485, -1.759910220529775]], [[30.757987496013925, -1.769856517421886], [30.779375819712754, -1.775006653263972], [30.757987496013925, -1.769856517421886]], [[30.82241160999422, -1.784240175636455], [30.82241160999422, -1.784240175636455]], [[30.815212104853856, -1.787281025257357], [30.815212104853856, -1.787281025257357]], [[30.81051577609952, -1.793431852661797], [30.81051577609952, -1.793431852661797]], [[30.769562603306497, -1.793080158748182], [30.769562603306497, -1.793080158748182]], [[30.743627085214257, -1.795989594679213], [30.761546719128546, -1.809148157981213], [30.74714683158612, -1.825810150601512], [30.741715709062817, -1.801556517197298], [30.743627085214257, -1.795989594679213]], [[30.45606182401781, -1.825345816382253], [30.475053295357043, -1.837263406348427], [30.488908052946726, -1.858106336916649], [30.462791994551935, -1.844155080622841], [30.46375522707183, -1.867391091328273], [30.4532449391167, -1.844541777248253], [30.422673447823684, -1.850529434116538], [30.444031593745933, -1.866509619528813], [30.433571836021656, -1.888828717092622], [30.423442103865625, -1.867962275931177], [30.394851643243157, -1.862304644631024], [30.405026992968487, -1.88143796906553], [30.390106363328016, -1.868063950474948], [30.391171358117845, -1.892242314889813], [30.375692790515416, -1.873764567561352], [30.356275145807786, -1.879795912024861], [30.363143923571783, -1.898620352879675], [30.352784699951712, -1.879777664996993], [30.332361889651224, -1.87664180801562], [30.31537881952397, -1.856174959215423], [30.304049608474998, -1.839396904971977], [30.275019201487737, -1.833133174083514], [30.253998625577935, -1.843643462038301], [30.217706691100943, -1.842834978349515], [30.201668431014014, -1.830576309327057], [30.189070612909234, -1.814422513973511], [30.166259371954368, -1.792988572705269], [30.183391050085618, -1.804117592806108], [30.198463358143954, -1.820310601724145], [30.220154336869484, -1.840659634379051], [30.24385968218178, -1.844333954129979], [30.25840958134603, -1.826901024589233], [30.28048988848002, -1.823770167995292], [30.303136467555134, -1.830258565412066], [30.321044521624685, -1.856040124207823], [30.346285775403373, -1.870472909035527], [30.356740795918654, -1.847642017435419], [30.375948248903, -1.865251276426193], [30.393355913328662, -1.855279188062525], [30.406471666296284, -1.836505189712], [30.428117553809273, -1.826688902892158], [30.45606182401781, -1.825345816382253]], [[30.662929254308665, -1.844071126750123], [30.662929254308665, -1.844071126750123]], [[30.75082904668585, -1.85126896509496], [30.74343864956313, -1.873317252204345], [30.74760090185248, -1.85222491634903], [30.75082904668585, -1.85126896509496]], [[30.280005377258817, -1.895509146930806], [30.280005377258817, -1.895509146930806]], [[30.161603572655736, -1.832642434309719], [30.161603572655736, -1.832642434309719]], [[30.79951773105796, -1.787747377176913], [30.79951773105796, -1.787747377176913]], [[30.810346464736767, -1.788447870043228], [30.810346464736767, -1.788447870043228]], [[30.79271825690921, -1.792170000515512], [30.79271825690921, -1.792170000515512]], [[30.54247290456749, -1.925886763554502], [30.54247290456749, -1.925886763554502]], [[30.353309828354554, -1.935945788478364], [30.353309828354554, -1.935945788478364]], [[29.996758696252755, -1.940138218544405], [29.996758696252755, -1.940138218544405]], [[30.672349984167283, -1.940622729765551], [30.672349984167283, -1.940622729765551]], [[29.99729768537867, -1.946642669836649], [29.99729768537867, -1.946642669836649]], [[30.002955843035522, -1.958102592766863], [30.002955843035522, -1.958102592766863]], [[30.601114991646, -1.958200670540805], [30.601114991646, -1.958200670540805]], [[30.485850973998538, -1.960071955866965], [30.485850973998538, -1.960071955866965]], [[30.279742988509554, -1.962887612602913], [30.279742988509554, -1.962887612602913]], [[30.589210736045914, -1.962990427585908], [30.589210736045914, -1.962990427585908]], [[30.660535910992735, -1.966502629513684], [30.660535910992735, -1.966502629513684]], [[30.00256019834802, -1.970395738144646], [29.99327088217933, -1.993284967598015], [30.00947722546408, -2.007406324789372], [29.992788915015012, -1.99283545908861], [29.99835557435472, -1.971905416508434], [30.00256019834802, -1.970395738144646]], [[30.42150019903312, -1.972282463263582], [30.42150019903312, -1.972282463263582]], [[30.789045516228214, -1.983705892138175], [30.774029265144748, -2.003022651836659], [30.782416406155278, -1.984202685012747], [30.789045516228214, -1.983705892138175]], [[30.806993397944723, -1.987716202831848], [30.80507360008818, -2.008036899958086], [30.793819394850402, -2.027100218968997], [30.773063751746122, -2.04181828905655], [30.766128126698675, -2.060856079773771], [30.77348887240123, -2.079973350332807], [30.759267068831207, -2.095756064305874], [30.73796348853972, -2.095668338211226], [30.74879064314922, -2.069659568830104], [30.757991882318606, -2.04874373787743], [30.732109701691968, -2.051382012449608], [30.711241067378353, -2.063012036277485], [30.713234555154315, -2.03293146021042], [30.735266086579657, -2.03290435284714], [30.75627490719296, -2.025550449779928], [30.774751952712847, -2.016748802971563], [30.760074675259034, -2.032075165799938], [30.783754404551814, -2.017020227508624], [30.800829236173797, -2.001120048294524], [30.806993397944723, -1.987716202831848]], [[30.34122503245169, -2.102088747904816], [30.36262142695159, -2.106641118137588], [30.342874283032245, -2.110383425611815], [30.317989460376452, -2.113923173533237], [30.33799811578399, -2.127733892623382], [30.35900518187526, -2.128406927222102], [30.381241641457677, -2.131364875683516], [30.35775280414748, -2.134475116645206], [30.33724472408261, -2.138735973065252], [30.359283624499767, -2.147854135623334], [30.38405992997633, -2.155647195520714], [30.400826492101714, -2.141571455898315], [30.39760448809534, -2.164466650726126], [30.371958817020015, -2.157534096091808], [30.350879464626644, -2.154321391051326], [30.37510853472463, -2.177579771911155], [30.388591860029067, -2.198000038154873], [30.37326383040488, -2.181318833519981], [30.345325174666243, -2.167982712602111], [30.327367643079356, -2.154954598002973], [30.330091713772106, -2.134127721310051], [30.310901104198138, -2.127460362660145], [30.283518631899653, -2.124553470785827], [30.304622021243063, -2.148752889463481], [30.283316598703777, -2.138232688459993], [30.288673592677014, -2.114575329321383], [30.307807706646145, -2.098675150107397], [30.324700769800017, -2.083723728607765], [30.35257152554135, -2.084409571216156], [30.36945388611167, -2.068456229988897], [30.391995632503836, -2.075656261486301], [30.4151495315852, -2.082540479042336], [30.43641416149012, -2.070055388969422], [30.42224569538581, -2.088604983969731], [30.397826084210294, -2.083653460006076], [30.373154348238756, -2.080578923564644], [30.34203351614076, -2.096429362082972], [30.34122503245169, -2.102088747904816]], [[30.523523366301447, -2.116611276527408], [30.523523366301447, -2.116611276527408]], [[30.859536766918666, -2.156487786960213], [30.859536766918666, -2.156487786960213]], [[30.844238388714416, -2.193134748942384], [30.844238388714416, -2.193134748942384]], [[30.370265352487877, -2.199192148055886], [30.360042981575816, -2.217565413605769], [30.37498922723563, -2.231861784356113], [30.39171175086136, -2.247269118369786], [30.414669845298988, -2.254032010737205], [30.388261308104575, -2.256267359356514], [30.370402731552076, -2.24587120305074], [30.350926836718145, -2.235039398958747], [30.340356193209914, -2.217059409491583], [30.349331099055064, -2.193340378908147], [30.370265352487877, -2.199192148055886]], [[30.601274653138205, -2.211032451332812], [30.601274653138205, -2.211032451332812]], [[30.466360341180064, -2.22354096427307], [30.466360341180064, -2.22354096427307]], [[30.825388858196504, -2.225475061483053], [30.825388858196504, -2.225475061483053]], [[30.454505387645497, -2.226933244629379], [30.454505387645497, -2.226933244629379]], [[30.8077185418436, -2.249287169452657], [30.8077185418436, -2.249287169452657]], [[30.469278111090375, -2.25206422670675], [30.469278111090375, -2.25206422670675]], [[30.45805355727208, -2.252313017911433], [30.45805355727208, -2.252313017911433]], [[30.45662818368544, -2.257473505432756], [30.45662818368544, -2.257473505432756]], [[30.826808441861317, -2.266793964365206], [30.826808441861317, -2.266793964365206]], [[30.834031808499503, -2.267505510719332], [30.834031808499503, -2.267505510719332]], [[30.835524731179362, -2.268320222960938], [30.835524731179362, -2.268320222960938]], [[30.367557072492218, -2.279051054317847], [30.367557072492218, -2.279051054317847]], [[30.34862876394078, -2.280342645610347], [30.349726743742394, -2.302371632978804], [30.34221317918258, -2.28265010507954], [30.34862876394078, -2.280342645610347]], [[30.85087153418766, -2.286583743166261], [30.85087153418766, -2.286583743166261]], [[30.753483287407107, -2.289802501307179], [30.753483287407107, -2.289802501307179]], [[30.662165160024074, -2.294416981615086], [30.662165160024074, -2.294416981615086]], [[30.728441873672182, -2.289975233987604], [30.728441873672182, -2.289975233987604]], [[30.484946517961873, -2.297638196086666], [30.484946517961873, -2.297638196086666]], [[30.293734335628642, -2.309210057513553], [30.293734335628642, -2.309210057513553]], [[29.9654597801823, -2.309779224416047], [29.9654597801823, -2.309779224416047]], [[30.14656012648271, -2.291902751740565], [30.13282467638203, -2.258846331088648], [30.11918107550241, -2.241142240189504], [30.093308807924643, -2.234727532692148], [30.070652491252986, -2.23252411637128], [30.099809662447058, -2.230064539853913], [30.129175270842495, -2.238645292355784], [30.139776267579293, -2.256110856003488], [30.151943613737103, -2.286864203491007], [30.14656012648271, -2.291902751740565]], [[29.96146324248565, -2.290889778525127], [29.96146324248565, -2.290889778525127]], [[29.614757522266984, -2.287231512649555], [29.614757522266984, -2.287231512649555]], [[30.032754379708024, -2.282467371624193], [30.032754379708024, -2.282467371624193]], [[29.974892089885373, -2.269983860620925], [29.974892089885373, -2.269983860620925]], [[29.973740070809868, -2.265727039601245], [29.973740070809868, -2.265727039601245]], [[29.979742992018544, -2.249322610794877], [29.979742992018544, -2.249322610794877]], [[29.713519033334364, -2.249815192816868], [29.713519033334364, -2.249815192816868]], [[29.98171928548055, -2.246268339081553], [29.98171928548055, -2.246268339081553]], [[29.986210861529287, -2.2278528772801], [29.986210861529287, -2.2278528772801]], [[30.2327983866262, -2.216623937157408], [30.23012624978105, -2.196075327637061], [30.235633869459264, -2.173719560565701], [30.237189428570503, -2.196416582145446], [30.2327983866262, -2.216623937157408]], [[30.242363689088677, -2.216038277749021], [30.24859004866056, -2.242311716757911], [30.248390120890804, -2.222073920791217], [30.242363689088677, -2.216038277749021]], [[30.326855498138514, -2.213206918042374], [30.33625727916052, -2.237663023273171], [30.333976927054607, -2.217688931947237], [30.326855498138514, -2.213206918042374]], [[30.25822070706414, -2.211144214377498], [30.252780724204968, -2.189812561735721], [30.25822070706414, -2.211144214377498]], [[30.276055860749068, -2.197399026680046], [30.276055860749068, -2.197399026680046]], [[30.3010728866293, -2.205402892383063], [30.3010728866293, -2.205402892383063]], [[30.272455669548265, -2.203646615967045], [30.272455669548265, -2.203646615967045]], [[30.27055025877121, -2.199056786691813], [30.27055025877121, -2.199056786691813]], [[30.295189009731075, -2.237876460861742], [30.295189009731075, -2.237876460861742]], [[30.29271601112123, -2.237914007630025], [30.29271601112123, -2.237914007630025]], [[30.26962931022888, -2.219857871912666], [30.26962931022888, -2.219857871912666]], [[30.34889983757347, -2.245241066512392], [30.34889983757347, -2.245241066512392]], [[30.33511648902487, -2.250131094483663], [30.33400798209209, -2.270110273923308], [30.33439783685725, -2.248693790148081], [30.33511648902487, -2.250131094483663]], [[30.35299296170035, -2.263246496547254], [30.35299296170035, -2.263246496547254]], [[30.32909777711916, -2.274565268190941], [30.32909777711916, -2.274565268190941]], [[30.323691919710825, -2.281625727471464], [30.315220561649255, -2.263152015543255], [30.323691919710825, -2.281625727471464]], [[30.329367271682145, -2.286423028960769], [30.343963139319726, -2.301431911052418], [30.328157879740388, -2.288530736112136], [30.329367271682145, -2.286423028960769]], [[30.303260599979126, -2.294798765579174], [30.303260599979126, -2.294798765579174]], [[30.27246075766152, -2.283056101445823], [30.28335397002013, -2.25950208364668], [30.27874185831672, -2.282500970718502], [30.27246075766152, -2.283056101445823]], [[30.26033508139858, -2.268774468679112], [30.274031054756904, -2.25031075752571], [30.26033508139858, -2.268774468679112]], [[30.26354287377768, -2.254356334109275], [30.26354287377768, -2.254356334109275]], [[30.300420467662946, -2.248634750486247], [30.3132235648294, -2.265245686519677], [30.300420467662946, -2.248634750486247]], [[29.990702437578648, -2.224618942524842], [29.990702437578648, -2.224618942524842]], [[30.217426493954406, -2.217363819040258], [30.217426493954406, -2.217363819040258]], [[29.98850981156727, -2.208575769776587], [29.98850981156727, -2.208575769776587]], [[29.584522635999292, -2.202143166155906], [29.601778885185468, -2.190703244775307], [29.60876047870653, -2.171807307153301], [29.60191161476655, -2.191560942803335], [29.584522635999292, -2.202143166155906]], [[29.605968771194796, -2.160587490544287], [29.605968771194796, -2.160587490544287]], [[29.601266389339912, -2.155773521097046], [29.601266389339912, -2.155773521097046]], [[29.594539640123912, -2.150908845967024], [29.594539640123912, -2.150908845967024]], [[29.987775544154488, -2.145279287017445], [30.00983769198689, -2.131162842487242], [29.993650560717185, -2.145880737122809], [29.987775544154488, -2.145279287017445]], [[29.599059551701373, -2.138048726839202], [29.610301475286292, -2.121222861874116], [29.617127530441905, -2.101533880355817], [29.62944944997855, -2.078917566783161], [29.634938559450575, -2.057483011432339], [29.630298375397047, -2.034715107167926], [29.630339957565866, -2.012717350289279], [29.632769619485316, -1.989124733008339], [29.631879375075926, -2.014395725933184], [29.631613740461034, -2.037851139601571], [29.63955102205813, -2.057083155892542], [29.633172984068665, -2.080349519826996], [29.618440614627332, -2.099393802275358], [29.61099030058199, -2.118100339258831], [29.599059551701373, -2.138048726839202]], [[30.00940853593147, -2.018843877565246], [30.00940853593147, -2.018843877565246]], [[30.171463371618643, -2.028791314896694], [30.171463371618643, -2.028791314896694]], [[30.1788571023327, -2.033027081653699], [30.1918395116366, -2.051880121215277], [30.181264832728402, -2.03400856120129], [30.1788571023327, -2.033027081653699]], [[30.575992343547625, -2.050937065697099], [30.579881241326007, -2.071831316030909], [30.575992343547625, -2.050937065697099]], [[30.6318300028297, -2.048638992920132], [30.6318300028297, -2.048638992920132]], [[30.246183283252265, -2.08771570454752], [30.246183283252265, -2.08771570454752]], [[30.246273114773373, -2.087536041505587], [30.232985067755408, -2.068992148701511], [30.21347873196629, -2.076170599579314], [30.23203964363313, -2.068627120421468], [30.24457491303201, -2.08500198553395], [30.246273114773373, -2.087536041505587]], [[30.017502584060082, -2.083671794759709], [30.00375581729304, -2.067854341253167], [30.02517177471185, -2.067565020592838], [30.045044981028695, -2.059231743404098], [30.026904540534588, -2.070018894913915], [30.017502584060082, -2.083671794759709]], [[30.00512618661827, -2.079490330455542], [30.00512618661827, -2.079490330455542]], [[30.000148344826187, -2.07013837785513], [30.000148344826187, -2.07013837785513]], [[29.994751874110193, -2.06875555142426], [29.98493383276883, -2.04961424391513], [29.99699064404706, -2.029864205034869], [29.984551522447816, -2.045788684377158], [29.99155513521896, -2.065473367316827], [29.994751874110193, -2.06875555142426]], [[30.163440557079014, -2.03208639474002], [30.163440557079014, -2.03208639474002]], [[30.153928065725438, -2.034264195041146], [30.153928065725438, -2.034264195041146]], [[30.132357798105943, -2.04448867137944], [30.132357798105943, -2.04448867137944]], [[30.11147451353429, -2.057335631593162], [30.11147451353429, -2.057335631593162]], [[30.104382472859697, -2.059904514824439], [30.104382472859697, -2.059904514824439]], [[30.156711088354143, -2.062832373235551], [30.156711088354143, -2.062832373235551]], [[30.2036700773171, -2.065313442646186], [30.2036700773171, -2.065313442646186]], [[30.078707852173522, -2.067241048125197], [30.05726759462641, -2.065976476469928], [30.077316428585107, -2.068832224030757], [30.078707852173522, -2.067241048125197]], [[30.20669083766205, -2.067460451088039], [30.20669083766205, -2.067460451088039]], [[30.208680377764324, -2.079560335879137], [30.208680377764324, -2.079560335879137]], [[30.036277810575655, -2.075082094196432], [30.036277810575655, -2.075082094196432]], [[30.054620196540554, -2.073629437793954], [30.054620196540554, -2.073629437793954]], [[30.087450985676412, -2.061664563462671], [30.087450985676412, -2.061664563462671]], [[30.075099414719602, -2.059007076875616], [30.075099414719602, -2.059007076875616]], [[30.081581759036396, -2.064467938545363], [30.081581759036396, -2.064467938545363]], [[30.32484885144794, -2.083080082250831], [30.32484885144794, -2.083080082250831]], [[30.246709902998873, -2.09333377137898], [30.26328759084214, -2.109209913642871], [30.246362946294255, -2.09615986751993], [30.246709902998873, -2.09333377137898]], [[30.02079599710777, -2.112060046733973], [30.02079599710777, -2.112060046733973]], [[29.7536370537062, -2.108197291331635], [29.7536370537062, -2.108197291331635]], [[29.786032195055782, -2.094473859705658], [29.786032195055782, -2.094473859705658]], [[29.988905807158744, -2.131912812870894], [29.988905807158744, -2.131912812870894]], [[29.633503535993327, -2.135182188968543], [29.633503535993327, -2.135182188968543]], [[29.76125501231826, -2.134033766662867], [29.76125501231826, -2.134033766662867]], [[30.266934364599194, -2.126882247695903], [30.266934364599194, -2.126882247695903]], [[30.236740534144133, -2.13887782616041], [30.25170344776194, -2.156002486204272], [30.23148038977905, -2.144257541192417], [30.236740534144133, -2.13887782616041]], [[30.267875051512988, -2.141387494277978], [30.267875051512988, -2.141387494277978]], [[30.268551331977164, -2.144758720371442], [30.267653016767213, -2.164791149550581], [30.268551331977164, -2.144758720371442]], [[30.30352369053753, -2.165588404299285], [30.302075244987407, -2.186575293388728], [30.27130908949016, -2.180880203046286], [30.29136853830647, -2.166408116928096], [30.30352369053753, -2.165588404299285]], [[30.268666867243837, -2.186516867809758], [30.268666867243837, -2.186516867809758]], [[30.221308812275765, -2.173576479305211], [30.221308812275765, -2.173576479305211]], [[29.98315658981619, -2.1752116059846], [29.98315658981619, -2.1752116059846]], [[29.984144736546853, -2.192728752576045], [29.984144736546853, -2.192728752576045]], [[29.982887095252806, -2.169013231036786], [29.982887095252806, -2.169013231036786]], [[30.01335094662801, -2.166831219882908], [30.01335094662801, -2.166831219882908]], [[30.13424461095093, -2.153564139401851], [30.13424461095093, -2.153564139401851]], [[30.05891754701571, -2.137758704370128], [30.05891754701571, -2.137758704370128]], [[29.985265174228687, -2.19488909538444], [29.985265174228687, -2.19488909538444]], [[29.968365531617508, -2.200782446700828], [29.968365531617508, -2.200782446700828]], [[30.02331127969495, -2.229469844657956], [30.02331127969495, -2.229469844657956]], [[30.34733357587851, -2.305197816846089], [30.34733357587851, -2.305197816846089]], [[30.284673545936755, -2.309391387351411], [30.284673545936755, -2.309391387351411]], [[30.306314433062425, -2.308513512321497], [30.306314433062425, -2.308513512321497]], [[30.51862842566908, -2.091948488617277], [30.51862842566908, -2.091948488617277]], [[30.015408562179232, -2.011337067914951], [30.015408562179232, -2.011337067914951]], [[30.017887789341785, -2.00659371797417], [30.017887789341785, -2.00659371797417]], [[30.407341031895157, -2.003274074824219], [30.407341031895157, -2.003274074824219]], [[30.304920026786647, -1.998337113392267], [30.304920026786647, -1.998337113392267]], [[30.179168968599413, -1.996985868355466], [30.179168968599413, -1.996985868355466]], [[30.442824482682738, -1.98755355865211], [30.442824482682738, -1.98755355865211]], [[30.347120927824903, -1.992976347196645], [30.347120927824903, -1.992976347196645]], [[29.643056556802946, -1.97913062539493], [29.643056556802946, -1.97913062539493]], [[29.646378217652966, -1.977312765260308], [29.646378217652966, -1.977312765260308]], [[29.652118311482184, -1.97547376313679], [29.66982424462924, -1.963658374070974], [29.661469913178223, -1.943715776412887], [29.66129025013595, -1.923144358107947], [29.669694497735122, -1.902708125714923], [29.67102793437482, -1.880008735530453], [29.663266543597786, -1.85999279885732], [29.666715933641456, -1.835925320225897], [29.665512331622153, -1.85819616843753], [29.672331280963874, -1.877215975305489], [29.673280038678172, -1.901805248748133], [29.661845731767983, -1.920035520763463], [29.66189055980226, -1.944008255212509], [29.673776831552573, -1.960514270836597], [29.6588462888638, -1.974612731517254], [29.652118311482184, -1.97547376313679]], [[29.624509242681086, -1.954804968866824], [29.624509242681086, -1.954804968866824]], [[29.999466011261916, -1.96558475138454], [29.999466011261916, -1.96558475138454]], [[30.00313664651651, -1.965171736930813], [30.00313664651651, -1.965171736930813]], [[30.09539107450854, -1.939234025686119], [30.09539107450854, -1.939234025686119]], [[29.66915121003086, -1.826345367505439], [29.66915121003086, -1.826345367505439]], [[29.670992054402006, -1.808339674292313], [29.670992054402006, -1.808339674292313]], [[29.67230040137872, -1.808019474046773], [29.670023207411987, -1.788033013341305], [29.67230040137872, -1.808019474046773]], [[29.673148010905834, -1.785342804920958], [29.673148010905834, -1.785342804920958]], [[29.671710706569854, -1.775371506091915], [29.671710706569854, -1.775371506091915]], [[30.413027612806218, -1.711541166183338], [30.413027612806218, -1.711541166183338]], [[29.63737348493561, -1.694247501818154], [29.638529013054836, -1.67158241253685], [29.63737348493561, -1.694247501818154]], [[30.248302570248484, -1.661950964598589], [30.248302570248484, -1.661950964598589]], [[30.594948373544185, -1.660695779635489], [30.594948373544185, -1.660695779635489]], [[30.370869434375834, -1.666136376577185], [30.370869434375834, -1.666136376577185]], [[30.54244588493043, -1.68399039137239], [30.54244588493043, -1.68399039137239]], [[30.007855345424787, -1.714473893392665], [30.007855345424787, -1.714473893392665]], [[30.534452634084857, -1.722370908712151], [30.534452634084857, -1.722370908712151]], [[30.753493814538274, -1.684752204779045], [30.753493814538274, -1.684752204779045]], [[29.525285327368465, -1.648259903901703], [29.525285327368465, -1.648259903901703]], [[29.529079305512596, -1.63889255537174], [29.529079305512596, -1.63889255537174]], [[29.52631531944678, -1.636374290096796], [29.52631531944678, -1.636374290096796]], [[29.63393023571814, -1.636067468080739], [29.63393023571814, -1.636067468080739]], [[29.536085067573026, -1.639814644353123], [29.536085067573026, -1.639814644353123]], [[30.596077057478738, -1.645385295230312], [30.596077057478738, -1.645385295230312]], [[29.534369890832465, -1.634078103431023], [29.534369890832465, -1.634078103431023]], [[30.75566029817361, -1.631059711690341], [30.75566029817361, -1.631059711690341]], [[29.520564215993033, -1.623596194867673], [29.520564215993033, -1.623596194867673]], [[29.487300454715864, -1.622336755188996], [29.487300454715864, -1.622336755188996]], [[29.52124290892459, -1.617088366120811], [29.52124290892459, -1.617088366120811]], [[29.52591414801543, -1.614123925928311], [29.52591414801543, -1.614123925928311]], [[29.528747569285485, -1.607522844342895], [29.528747569285485, -1.607522844342895]], [[30.29216482806811, -1.60276962521624], [30.29216482806811, -1.60276962521624]], [[30.5068522501673, -1.603301771706811], [30.5068522501673, -1.603301771706811]], [[30.38540582372144, -1.603573503285247], [30.38540582372144, -1.603573503285247]], [[30.77951302332474, -1.603883132536453], [30.77951302332474, -1.603883132536453]], [[30.805474332888764, -1.614932409617211], [30.805474332888764, -1.614932409617211]], [[30.794370665629117, -1.618108664465467], [30.794370665629117, -1.618108664465467]], [[30.734588490224098, -1.591862332819858], [30.734588490224098, -1.591862332819858]], [[29.972598842043624, -1.580569308784561], [29.972598842043624, -1.580569308784561]], [[29.966627589955294, -2.316786083052818], [29.966627589955294, -2.316786083052818]], [[29.726507934369067, -2.321277659101781], [29.726507934369067, -2.321277659101781]], [[29.726507934369067, -2.321277659101781], [29.73665889624033, -2.344544023036349], [29.727046923494925, -2.325230246024944], [29.726507934369067, -2.321277659101781]], [[29.90317670926936, -2.333900742321703], [29.90317670926936, -2.333900742321703]], [[29.745642048338766, -2.342477898053687], [29.745642048338766, -2.342477898053687]], [[29.698754117512124, -2.363868239452813], [29.698754117512124, -2.363868239452813]], [[29.873377383062177, -2.366754427968772], [29.873377383062177, -2.366754427968772]], [[29.857122965877863, -2.420451658266529], [29.857122965877863, -2.420451658266529]], [[29.821100525963516, -2.454228310155713], [29.821100525963516, -2.454228310155713]], [[29.912141438888057, -2.456246185786313], [29.912141438888057, -2.456246185786313]], [[29.960519046528475, -2.46051651662458], [29.960519046528475, -2.46051651662458]], [[29.695646683785412, -2.461553702242327], [29.695646683785412, -2.461553702242327]], [[29.767413033262585, -2.504676955440345], [29.767413033262585, -2.504676955440345]], [[29.82714423980633, -2.531669572973669], [29.82714423980633, -2.531669572973669]], [[29.767418823184755, -2.550388391610568], [29.767418823184755, -2.550388391610568]], [[29.026680437646007, -2.594046159903712], [29.026680437646007, -2.594046159903712]], [[29.758547521857224, -2.605889358141553], [29.758547521857224, -2.605889358141553]], [[29.694527912899332, -2.614397912067489], [29.694527912899332, -2.614397912067489]], [[29.723794653985806, -2.734284568549526], [29.723794653985806, -2.734284568549526]], [[29.793516459099806, -2.741649174200177], [29.793516459099806, -2.741649174200177]], [[29.806777398754264, -2.754764400811382], [29.806777398754264, -2.754764400811382]], [[29.54873135434491, -2.761362280394451], [29.54873135434491, -2.761362280394451]], [[29.55115680541138, -2.76244025864645], [29.55115680541138, -2.76244025864645]], [[29.569533141374734, -2.767060792054849], [29.569533141374734, -2.767060792054849]], [[30.280626916639847, -2.324442202516252], [30.280626916639847, -2.324442202516252]], [[30.014268473852383, -2.33253677700128], [30.014268473852383, -2.33253677700128]], [[30.29438201738577, -2.336982998659437], [30.29438201738577, -2.336982998659437]], [[30.28796783624506, -2.348380285157987], [30.28796783624506, -2.348380285157987]], [[30.353219996833445, -2.313864014564047], [30.353219996833445, -2.313864014564047]], [[30.35816073048767, -2.315211487378861], [30.35816073048767, -2.315211487378861]], [[30.360137901210123, -2.324752138808833], [30.360137901210123, -2.324752138808833]], [[30.73265974430592, -2.32418884955473], [30.73265974430592, -2.32418884955473]], [[30.72399714335768, -2.339782952424173], [30.72399714335768, -2.339782952424173]], [[30.82972884355422, -2.347238968665806], [30.82972884355422, -2.347238968665806]], [[30.727706378094297, -2.346927891933831], [30.727706378094297, -2.346927891933831]], [[30.49852002569213, -2.361432348980884], [30.49852002569213, -2.361432348980884]], [[30.617546790993686, -2.377422359715752], [30.617546790993686, -2.377422359715752]], [[30.632588658096836, -2.381065536703147], [30.632588658096836, -2.381065536703147]], [[30.639423047231105, -2.385919333797176], [30.639423047231105, -2.385919333797176]], [[30.641398814336412, -2.390045442935616], [30.641398814336412, -2.390045442935616]], [[30.52848901416661, -2.399104039475503], [30.52848901416661, -2.399104039475503]], [[30.61309521804378, -2.397145378958953], [30.61309521804378, -2.397145378958953]], [[30.62435240596892, -2.394595005933581], [30.62435240596892, -2.394595005933581]], [[30.61488202314058, -2.387159517597979], [30.61488202314058, -2.387159517597979]], [[30.81132882154543, -2.358168324175153], [30.81132882154543, -2.358168324175153]], [[30.75427036592879, -2.378051180362604], [30.75427036592879, -2.378051180362604]], [[30.83604705234717, -2.022782165135027], [30.83604705234717, -2.022782165135027]]], [[[30.613539095157535, -1.351665180371015], [30.613539095157535, -1.351665180371015]]], [[[30.62215786715035, -1.369729113929054], [30.62215786715035, -1.369729113929054]]], [[[30.626134246247773, -1.378063137369395], [30.626134246247773, -1.378063137369395]]], [[[29.795278086807514, -1.393816265776991], [29.795278086807514, -1.393816265776991]]], [[[30.683657099574248, -1.397617600697572], [30.683657099574248, -1.397617600697572]]], [[[29.760144049054816, -1.435589567898205], [29.760144049054816, -1.435589567898205]]], [[[29.788132357762947, -1.438143976323886], [29.788132357762947, -1.438143976323886]]], [[[29.789529746725748, -1.449323044161815], [29.789529746725748, -1.449323044161815]]], [[[29.767541288812765, -1.449507663728298], [29.767541288812765, -1.449507663728298]]], [[[29.770659249671155, -1.475815096598808], [29.770659249671155, -1.475815096598808]]], [[[30.740217826681487, -1.469684783062519], [30.73213637042494, -1.488213337837806], [30.73004989298829, -1.510134071205755], [30.740217826681487, -1.469684783062519]]], [[[29.787345103789107, -1.480811580186014], [29.787345103789107, -1.480811580186014]]], [[[29.732029239318308, -1.499091329718681], [29.732029239318308, -1.499091329718681]]], [[[29.734574524229856, -1.507347232491838], [29.734574524229856, -1.507347232491838]]], [[[29.716040807652803, -1.514364311218628], [29.716040807652803, -1.514364311218628]]], [[[30.719325904266498, -1.531748421187672], [30.719325904266498, -1.531748421187672]]], [[[30.781232981137748, -1.576240508504384], [30.791453772980276, -1.59624447056575], [30.783568893316954, -1.575712139168445], [30.781232981137748, -1.576240508504384]]], [[[30.83863639993791, -1.654645699631658], [30.83863639993791, -1.654645699631658]]], [[[30.731620716440375, -1.661320389429875], [30.731620716440375, -1.661320389429875]]], [[[30.831132477852975, -1.671230980534517], [30.831132477852975, -1.671230980534517]]], [[[30.797790404253305, -1.807033783646489], [30.797790404253305, -1.807033783646489]]], [[[30.80336645028501, -1.808646715623695], [30.80336645028501, -1.808646715623695]]], [[[30.762355553721477, -1.811947059032946], [30.762355553721477, -1.811947059032946]]], [[[29.281615616044917, -1.820510090863536], [29.281615616044917, -1.820510090863536]]], [[[29.270929656585395, -1.827327987492254], [29.270929656585395, -1.827327987492254]]], [[[29.288651073388564, -1.828040498833388], [29.288651073388564, -1.828040498833388]]], [[[29.286872470681317, -1.831875532789638], [29.286872470681317, -1.831875532789638]]], [[[30.827948014893877, -1.830528324529325], [30.827948014893877, -1.830528324529325]]], [[[29.283239250605902, -1.847276638250889], [29.283239250605902, -1.847276638250889]]], [[[30.7448433197913, -1.90494584293873], [30.7448433197913, -1.90494584293873]]], [[[30.8137903673059, -1.900120194260978], [30.798585378123505, -1.920164478122786], [30.78728678348159, -1.936722164416437], [30.808069387271132, -1.936445537199859], [30.8137903673059, -1.900120194260978]]], [[[29.26813540501678, -1.904962159992351], [29.264636581318598, -1.926429875806832], [29.26813540501678, -1.904962159992351]]], [[[29.28376464218718, -1.920824616985556], [29.28376464218718, -1.920824616985556]]], [[[29.15295251207533, -1.920888130678065], [29.147505642717817, -1.940384027061668], [29.15295251207533, -1.920888130678065]]], [[[30.78772594031159, -1.947122707026892], [30.78772594031159, -1.947122707026892]]], [[[29.322126386142827, -1.959167850734957], [29.322126386142827, -1.959167850734957]]], [[[30.827484111852755, -1.972097973752625], [30.816099542027928, -1.990326141875585], [30.817555795200008, -2.011973959362706], [30.837628578382464, -2.008817135844538], [30.855647869140284, -2.019940541475364], [30.827484111852755, -1.972097973752625]]], [[[29.303035477274875, -1.979205894383995], [29.303035477274875, -1.979205894383995]]], [[[29.307764089232307, -1.98723335840657], [29.307764089232307, -1.98723335840657]]], [[[29.33336291457249, -1.999197794107431], [29.33336291457249, -1.999197794107431]]], [[[29.34080971957411, -2.003233545368516], [29.34080971957411, -2.003233545368516]]], [[[29.338565598345554, -2.004827353057124], [29.338565598345554, -2.004827353057124]]], [[[29.300867721611553, -2.010676402695708], [29.300867721611553, -2.010676402695708]]], [[[29.339642699336196, -2.013643825575457], [29.339642699336196, -2.013643825575457]]], [[[29.310408329178642, -2.018275938828083], [29.310408329178642, -2.018275938828083]]], [[[30.857006224080635, -2.021691433703154], [30.857006224080635, -2.021691433703154]]], [[[30.819617884782474, -2.023356420151174], [30.819617884782474, -2.023356420151174]]], [[[30.717550854466197, -2.03820081581506], [30.717550854466197, -2.03820081581506]]], [[[29.334123850718413, -2.036062579982683], [29.334123850718413, -2.036062579982683]]], [[[29.338304350035457, -2.039158433864998], [29.338304350035457, -2.039158433864998]]], [[[29.351952074041662, -2.039839276086184], [29.351952074041662, -2.039839276086184]]], [[[30.75907301870967, -2.04589579793884], [30.75907301870967, -2.04589579793884]]], [[[29.336728964826534, -2.046483036416589], [29.336728964826534, -2.046483036416589]]], [[[29.343165823162792, -2.059912322447076], [29.343165823162792, -2.059912322447076]]], [[[29.33335291379774, -2.065891118979607], [29.33335291379774, -2.065891118979607]]], [[[29.319794012462694, -2.076194636529351], [29.319794012462694, -2.076194636529351]]], [[[30.74993511778041, -2.082130271823473], [30.74993511778041, -2.082130271823473]]], [[[29.614112998649375, -2.107249674056675], [29.614112998649375, -2.107249674056675]]], [[[29.257444401306884, -2.146587107637231], [29.257444401306884, -2.146587107637231]]], [[[29.21137861750833, -2.159495563843393], [29.21137861750833, -2.159495563843393]]], [[[29.211548411364674, -2.162567117597291], [29.211548411364674, -2.162567117597291]]], [[[29.22534222125006, -2.171007332895556], [29.22534222125006, -2.171007332895556]]], [[[29.210928297532746, -2.199480591455369], [29.210928297532746, -2.199480591455369]]], [[[29.19444120881394, -2.202799445070411], [29.19444120881394, -2.202799445070411]]], [[[29.182067530881, -2.202389237851548], [29.182067530881, -2.202389237851548]]], [[[29.186033890801127, -2.223403497482536], [29.186033890801127, -2.223403497482536]]], [[[29.174433167489383, -2.229775306919578], [29.174433167489383, -2.229775306919578]]], [[[29.186550180800168, -2.24841394390603], [29.186550180800168, -2.24841394390603]]], [[[29.163300989248683, -2.258897914032559], [29.163300989248683, -2.258897914032559]]], [[[29.137351237597727, -2.272098234955649], [29.137351237597727, -2.272098234955649]]], [[[30.322118464476148, -2.278275818818997], [30.322118464476148, -2.278275818818997]]], [[[29.14691496099067, -2.276900887736588], [29.14691496099067, -2.276900887736588]]], [[[29.14643873988564, -2.281566863261958], [29.14643873988564, -2.281566863261958]]], [[[29.13763213655318, -2.28321927198175], [29.13763213655318, -2.28321927198175]]], [[[29.158593058718452, -2.292262077824546], [29.158593058718452, -2.292262077824546]]], [[[30.85364560875456, -2.314874619175043], [30.85364560875456, -2.314874619175043]]], [[[30.848453803017378, -2.320688753828165], [30.848453803017378, -2.320688753828165]]], [[[30.33614621792458, -2.333715991166173], [30.33614621792458, -2.333715991166173]]], [[[29.07918177485476, -2.33908702131481], [29.07918177485476, -2.33908702131481]]], [[[30.31458665288875, -2.352221284488564], [30.31458665288875, -2.352221284488564]]], [[[30.31413372306173, -2.354346185954853], [30.31413372306173, -2.354346185954853]]], [[[28.932390830051077, -2.374500905309901], [28.911241307747787, -2.375585989375338], [28.90379050572585, -2.395016354366362], [28.886941127425985, -2.416041579759394], [28.906974968446775, -2.404102321447567], [28.925120804095968, -2.393727043952538], [28.93517690664447, -2.375008225315469], [28.932390830051077, -2.374500905309901]]], [[[28.938595663832928, -2.384339386831471], [28.938595663832928, -2.384339386831471]]], [[[29.06035976839894, -2.384291927014146], [29.06035976839894, -2.384291927014146]]], [[[30.766541316604446, -2.388154770142592], [30.766541316604446, -2.388154770142592]]], [[[28.89498335958814, -2.447087581498636], [28.89498335958814, -2.447087581498636]]], [[[28.887407997477737, -2.45237632457048], [28.887407997477737, -2.45237632457048]]], [[[28.979024300342417, -2.694821000146078], [28.979024300342417, -2.694821000146078]]], [[[29.022871458339637, -2.72367146561146], [29.022871458339637, -2.72367146561146]]]]}}]}