{"type": "FeatureCollection", "features": [{"type": "Feature", "properties": {"code": "SAU", "name": "Saudi Arabia", "tier": "country"}, "geometry": {"type": "MultiPolygon", "coordinates": [[[[41.90805320000002, 16.424891900000034], [41.90805320000002, 16.424891900000034]]], [[[42.25781579999999, 16.431171600000035], [42.25781579999999, 16.431171600000035]]], [[[42.04832230000002, 16.564209099999967], [42.04832230000002, 16.564209099999967]]], [[[41.99322850000002, 16.598033300000033], [41.99322850000002, 16.598033300000033]]], [[[41.92210910000003, 16.631473600000042], [41.92210910000003, 16.631473600000042]]], [[[42.036302900000024, 16.651922800000037], [42.016488100000025, 16.60403], [42.036302900000024, 16.651922800000037]]], [[[41.853209, 16.666591300000018], [41.853209, 16.666591300000018]]], [[[41.74255040000001, 16.738335099999986], [41.79564480000004, 16.6929818], [41.74255040000001, 16.738335099999986]]], [[[42.21703, 16.763557400000025], [42.21703, 16.763557400000025]]], [[[42.44807810000002, 16.797696500000033], [42.44807810000002, 16.797696500000033]]], [[[42.0089673, 16.795639900000044], [42.0089673, 16.795639900000044]]], [[[41.7387245, 16.80606820000002], [41.7387245, 16.80606820000002]]], [[[42.024658, 16.842961], [42.024658, 16.842961]]], [[[42.41009459999998, 16.88873079999996], [42.41009459999998, 16.88873079999996]]], [[[41.58614, 16.891955300000035], [41.61336470000001, 16.841214300000036], [41.588536, 16.88504960000002], [41.58614, 16.891955300000035]]], [[[41.75834530000002, 16.89295570000003], [41.78339860000002, 16.84961170000002], [41.81581719999996, 16.80431860000003], [41.83934329999999, 16.75476470000002], [41.888710900000035, 16.7161469], [41.9332565, 16.685676899999986], [41.98341029999999, 16.6712316], [42.04713769999997, 16.693896], [42.09819659999998, 16.686651299999962], [42.07755389999996, 16.63629349999996], [42.12620570000003, 16.620503900000035], [42.159346, 16.58145319999998], [42.17967770000004, 16.64208440000002], [42.19020309999997, 16.6983352], [42.148359700000036, 16.7286462], [42.11082430000004, 16.7646691], [42.09367140000002, 16.812295799999973], [42.047764200000024, 16.791825700000025], [42.03939360000004, 16.73714840000003], [41.98075070000002, 16.738485399999988], [41.910898199999956, 16.747743899999985], [41.8700194, 16.781478700000026], [41.85291640000002, 16.838597200000034], [41.80310290000002, 16.8683517], [41.75834530000002, 16.89295570000003]]], [[[41.56986149999997, 16.898242400000026], [41.57693520000003, 16.846783499999958], [41.6256599, 16.810674300000013], [41.57930320000003, 16.87846429999996], [41.56986149999997, 16.898242400000026]]], [[[41.733528100000015, 16.921890799999957], [41.733528100000015, 16.921890799999957]]], [[[41.92303289999999, 16.955197], [41.8875285, 16.919406600000027], [41.836947199999976, 16.899074899999984], [41.865458, 16.855771400000037], [41.910844500000046, 16.800622600000022], [41.962645399999985, 16.78544], [42.0111013, 16.76170230000001], [41.98158570000001, 16.803989200000043], [41.93420089999997, 16.826704400000033], [41.9803296, 16.849518600000042], [41.939209400000045, 16.8972857], [41.933837600000025, 16.9518824], [41.92303289999999, 16.955197]]], [[[41.68606809999997, 16.961131199999986], [41.65112279999996, 16.919270100000013], [41.70746690000002, 16.89896060000003], [41.704694300000035, 16.95075680000003], [41.68606809999997, 16.961131199999986]]], [[[41.791648599999974, 16.985591], [41.791648599999974, 16.985591]]], [[[41.86079819999997, 17.01264670000003], [41.9062325, 16.9851767], [41.86079819999997, 17.01264670000003]]], [[[41.75028109999999, 17.064745899999963], [41.75028109999999, 17.064745899999963]]], [[[41.93581419999997, 17.07179620000004], [41.93581419999997, 17.07179620000004]]], [[[40.89402469999999, 19.284003399999968], [40.89402469999999, 19.284003399999968]]], [[[40.743523, 19.687923], [40.743523, 19.687923]]], [[[40.20863890000004, 20.168832], [40.20863890000004, 20.168832]]], [[[39.99923080000003, 20.258986500000027], [40.0590979, 20.23481550000002], [40.11834049999998, 20.202260199999962], [40.17893559999997, 20.17160860000003], [40.125755599999955, 20.209294599999968], [40.07274820000002, 20.23614929999998], [40.018791, 20.24574120000003], [39.99923080000003, 20.258986500000027]]], [[[39.095896199999956, 22.31933880000004], [39.095896199999956, 22.31933880000004]]], [[[38.9250064, 22.901942100000035], [38.9250064, 22.901942100000035]]], [[[38.85381330000004, 22.949521700000027], [38.85381330000004, 22.949521700000027]]], [[[38.78677480000001, 23.177654499999985], [38.78677480000001, 23.177654499999985]]], [[[37.2006629, 24.7999438], [37.2006629, 24.7999438]]], [[[37.095776599999965, 24.976438], [37.095776599999965, 24.976438]]], [[[36.893127, 25.386364900000043], [36.893127, 25.386364900000043]]], [[[36.85159040000001, 25.421008200000024], [36.897213500000035, 25.39568479999997], [36.850618, 25.419964900000032], [36.85159040000001, 25.421008200000024]]], [[[36.974893099999974, 25.475885100000013], [37.00817180000002, 25.434277300000037], [36.974893099999974, 25.475885100000013]]], [[[36.968378100000045, 25.509368699999964], [36.968378100000045, 25.509368699999964]]], [[[36.953377699999955, 25.541318], [36.953377699999955, 25.541318]]], [[[36.90979469999998, 25.569000700000018], [36.93356639999998, 25.52251690000001], [36.9106677, 25.567727], [36.90979469999998, 25.569000700000018]]], [[[36.85389760000004, 25.57024940000004], [36.85389760000004, 25.57024940000004]]], [[[50.31461929999996, 25.574219900000024], [50.341739900000036, 25.5181124], [50.3336681, 25.567488300000026], [50.31461929999996, 25.574219900000024]]], [[[36.9174035, 25.604610899999976], [36.9174035, 25.604610899999976]]], [[[36.50569019999996, 25.662852199999982], [36.5138168, 25.613091900000036], [36.50569019999996, 25.662852199999982]]], [[[36.58071550000002, 25.74912649999997], [36.58358859999997, 25.698373400000037], [36.5822932, 25.748381100000024], [36.58071550000002, 25.74912649999997]]], [[[36.54477540000003, 25.77733230000004], [36.55120269999998, 25.727155099999973], [36.54477540000003, 25.77733230000004]]], [[[36.361792800000046, 26.186905700000025], [36.361792800000046, 26.186905700000025]]], [[[36.002677900000045, 26.9116285], [36.002677900000045, 26.9116285]]], [[[49.59084040000002, 27.127580500000022], [49.59084040000002, 27.127580500000022]]], [[[35.7534152, 27.13311039999998], [35.77500280000003, 27.082029800000036], [35.7534152, 27.13311039999998]]], [[[49.48609889999997, 27.155045800000018], [49.48609889999997, 27.155045800000018]]], [[[49.3624934, 27.2299308], [49.3624934, 27.2299308]]], [[[49.345945, 27.2397688], [49.345945, 27.2397688]]], [[[49.3163092, 27.382312199999966], [49.3163092, 27.382312199999966]]], [[[49.22483, 27.417704500000013], [49.22483, 27.417704500000013]]], [[[35.1300788, 27.790246499999956], [35.1300788, 27.790246499999956]]], [[[34.69174430000002, 27.95832689999998], [34.65192849999998, 27.924668100000012], [34.70233940000003, 27.914195500000012], [34.69174430000002, 27.95832689999998]]], [[[35.190760300000036, 27.97604910000003], [35.225034899999976, 27.93820919999997], [35.190760300000036, 27.97604910000003]]], [[[34.51729929999998, 28.014261900000033], [34.5053531, 27.958199900000043], [34.54217229999998, 27.920650300000023], [34.594394100000024, 27.912618299999988], [34.587025099999956, 27.964071799999964], [34.518068799999966, 27.96841289999997], [34.51729929999998, 28.014261900000033]]], [[[35.03435490000002, 28.069881199999987], [35.03435490000002, 28.069881199999987]]], [[[34.7214056, 28.08303819999996], [34.7214056, 28.08303819999996]]], [[[44.91679, 29.183906599999972], [44.7219353, 29.198486299999978], [44.39777760000001, 29.44063759999996], [44.062404600000036, 29.689127], [43.73130040000004, 29.93242259999996], [43.4096947, 30.166809099999988], [43.083457900000035, 30.40263369999999], [42.761316100000045, 30.633517500000018], [42.4288201, 30.869797799999972], [42.085599100000024, 31.11165780000001], [41.44072609999996, 31.3732074], [40.9232045, 31.6647174], [40.413254399999985, 31.94807619999996], [39.797032, 32.05453230000003], [39.20091639999996, 32.154337700000035], [39.00631159999999, 32.00063039999997], [38.415607500000036, 31.858568200000022], [38.06613889999997, 31.77185990000001], [37.678734, 31.67209030000003], [37.4020276, 31.6012271], [37.0008966, 31.5001143], [37.264274, 31.2411052], [37.4641096, 31.04184260000001], [37.5321278, 30.974785100000013], [37.57229819999996, 30.93851980000003], [37.7450213, 30.767368400000016], [37.78985279999998, 30.7131364], [37.99714609999998, 30.500660700000026], [37.66555740000004, 30.332622700000044], [37.6363859, 30.27669130000002], [37.52084, 30.0424659], [37.142513400000034, 29.936624399999985], [36.75353630000004, 29.8684958], [36.50453580000001, 29.499940799999987], [36.16458589999998, 29.25525540000003], [36.07281170000003, 29.183401], [36.00237639999997, 29.195137099999975], [35.845859599999976, 29.2207736], [35.23184980000003, 29.316358500000035], [35.18010789999999, 29.32696820000001], [35.02701959999999, 29.349180100000012], [34.96069060000004, 29.3573886], [34.95152259999998, 29.302239599999965], [34.937716899999984, 29.25389], [34.91612869999998, 29.2048274], [34.89239559999997, 29.14936179999997], [34.873989800000025, 29.095616399999987], [34.853557600000016, 29.04189539999998], [34.85669210000002, 28.98810410000002], [34.84335230000002, 28.936853599999964], [34.8215244, 28.883916100000036], [34.828565700000034, 28.8316439], [34.81874360000003, 28.77822070000003], [34.80571009999998, 28.724265600000017], [34.78021850000004, 28.67936850000002], [34.797523500000025, 28.6130719], [34.80106329999999, 28.5601421], [34.79345429999996, 28.50649030000004], [34.7675116, 28.46104990000003], [34.74419670000004, 28.41038820000002], [34.72509890000004, 28.3582009], [34.70340110000003, 28.31037690000003], [34.67641970000002, 28.266985900000037], [34.6618249, 28.21572249999998], [34.658708099999956, 28.1643182], [34.608766899999964, 28.143565099999986], [34.5769298, 28.103318500000015], [34.611378599999966, 28.05679180000001], [34.66029269999997, 28.069387299999978], [34.67831880000003, 28.11906730000003], [34.728503199999984, 28.109698599999973], [34.73901190000004, 28.059795400000016], [34.78501269999996, 28.088783599999985], [34.83200539999998, 28.106425300000033], [34.87474990000003, 28.079098899999984], [34.927468200000035, 28.075796500000035], [34.97485010000001, 28.09801250000002], [35.024564100000035, 28.088929499999978], [35.07945180000003, 28.09299469999998], [35.14627420000003, 28.06997639999996], [35.2007709, 28.055225900000032], [35.16745250000004, 28.01280830000002], [35.210164, 27.982939500000022], [35.25592320000004, 27.958385300000018], [35.28786020000001, 27.91017670000003], [35.3249618, 27.87175269999996], [35.3522565, 27.815742900000025], [35.39887580000003, 27.7852383], [35.4394166, 27.755598899999974], [35.47030679999996, 27.70375720000003], [35.48380310000003, 27.654262400000025], [35.5258112, 27.622388], [35.5322992, 27.571868400000017], [35.5427985, 27.51407529999997], [35.576378099999985, 27.47604169999996], [35.598056399999976, 27.429224299999973], [35.64195309999998, 27.379586], [35.681353500000014, 27.348800900000032], [35.731550300000016, 27.325974900000023], [35.76302750000004, 27.28042229999997], [35.807275299999965, 27.225202799999966], [35.792299, 27.172637500000015], [35.800038, 27.113448899999966], [35.84804130000001, 27.073625700000033], [35.88266289999997, 27.034736700000035], [35.91583330000003, 26.996128700000018], [35.96168560000002, 26.97151709999997], [36.00164329999998, 26.93988840000002], [36.03986620000001, 26.8987867], [36.0471751, 26.849316299999966], [36.07426730000003, 26.795426700000043], [36.095155, 26.7495179], [36.139989, 26.722749600000036], [36.17393860000004, 26.6694919], [36.2170854, 26.641588100000043], [36.245823, 26.5932177], [36.2748577, 26.55173829999998], [36.30729990000003, 26.50323769999999], [36.3412743, 26.436633], [36.358281499999954, 26.379721500000038], [36.38892960000004, 26.33090649999997], [36.41694960000002, 26.278764], [36.4496403, 26.23734], [36.47463710000003, 26.184740700000038], [36.49271930000002, 26.129579200000038], [36.540391500000034, 26.08449039999999], [36.59096439999998, 26.057963800000035], [36.6505734, 26.058291], [36.69771159999997, 26.03603009999996], [36.71146980000004, 25.97991669999998], [36.69453219999998, 25.9217724], [36.6641954, 25.880645600000037], [36.678067499999976, 25.825565], [36.7055556, 25.7781573], [36.743022, 25.742473399999984], [36.78965150000004, 25.7168213], [36.83886089999997, 25.727978599999986], [36.87455209999997, 25.68528580000003], [36.9210598, 25.655599899999977], [36.95726279999998, 25.61314860000002], [36.980489800000036, 25.56484850000001], [37.000716, 25.516759699999987], [37.03634289999997, 25.479165199999983], [37.07330120000001, 25.44543739999999], [37.085317500000016, 25.393366700000016], [37.098579, 25.34233959999997], [37.131563300000046, 25.29619260000003], [37.164131, 25.257236100000043], [37.20120589999998, 25.21806890000003], [37.239249500000014, 25.17864540000004], [37.264243399999984, 25.1308248], [37.24389020000003, 25.071662099999966], [37.2628406, 25.02346749999998], [37.28437320000002, 24.964065], [37.25380169999997, 24.9202241], [37.265827, 24.867358], [37.22717450000004, 24.82869279999998], [37.16428620000003, 24.8391269], [37.17895280000003, 24.790675199999963], [37.23021770000003, 24.79309159999997], [37.22095580000002, 24.7309692], [37.262072500000045, 24.691567200000016], [37.305651799999985, 24.655525699999988], [37.33887760000001, 24.61292280000001], [37.3664159, 24.5622729], [37.4028885, 24.515056699999967], [37.43349969999996, 24.473431200000036], [37.4589281, 24.428657600000044], [37.4245487, 24.3904743], [37.4693976, 24.341266099999988], [37.501787299999954, 24.2860018], [37.5519073, 24.273362599999977], [37.60858610000004, 24.250472], [37.64610049999999, 24.28632669999998], [37.6978206, 24.294499799999965], [37.732610899999976, 24.25503], [37.774812699999984, 24.21586949999997], [37.818342800000025, 24.18198240000003], [37.8612538, 24.152066200000018], [37.913738899999984, 24.148330800000036], [37.917931500000044, 24.199966499999988], [37.9495646, 24.1578475], [37.9789642, 24.115026299999982], [38.0184415, 24.083019700000026], [38.071164, 24.08223410000004], [38.10905080000002, 24.047748], [38.150860700000024, 24.01977109999996], [38.19193230000004, 23.983721299999956], [38.23056509999998, 23.9519165], [38.279277199999974, 23.9400667], [38.3114853, 23.900654699999986], [38.3632386, 23.871866100000013], [38.3953307, 23.826532699999976], [38.4418508, 23.80429870000001], [38.463969099999986, 23.751085900000042], [38.477052199999974, 23.702721400000033], [38.501883299999974, 23.658559700000044], [38.52552240000002, 23.6130695], [38.54709489999997, 23.554440199999956], [38.59729049999996, 23.531409399999966], [38.556420700000025, 23.563219600000014], [38.60452950000002, 23.538121200000013], [38.6392983, 23.4844023], [38.651582, 23.429853900000015], [38.67471449999997, 23.382535499999964], [38.69128429999997, 23.3326258], [38.69656520000002, 23.278058699999978], [38.72717639999998, 23.2307454], [38.75594459999996, 23.18934419999997], [38.792766, 23.1497502], [38.80800880000002, 23.10033940000001], [38.788209, 23.03749630000001], [38.81442419999996, 22.9886133], [38.86476360000004, 22.980811600000013], [38.918999099999986, 22.95754949999998], [38.93653960000001, 22.901947], [38.97253480000003, 22.86308139999998], [38.92183990000002, 22.851607199999975], [38.90110630000003, 22.90321610000002], [38.863972500000045, 22.93768790000002], [38.88751, 22.87797649999997], [38.918517500000014, 22.83294030000001], [38.9536502, 22.787822300000034], [38.9862995, 22.741284800000024], [39.017936799999966, 22.69444619999997], [39.031937, 22.642951200000024], [39.068112099999965, 22.5968536], [39.0854113, 22.547411700000016], [39.07959120000002, 22.49334659999996], [39.08256949999998, 22.429234600000044], [39.097211, 22.376444599999974], [39.139464400000044, 22.410915], [39.11145949999999, 22.36472], [39.0989207, 22.3158733], [39.08592990000002, 22.263162199999982], [39.055622399999955, 22.22017659999996], [39.038602600000026, 22.171260499999963], [39.02822579999996, 22.121054], [39.0526988, 22.164819600000037], [39.05558089999999, 22.114094799999958], [39.053664400000045, 22.062547], [39.01053329999997, 22.03453389999997], [38.98112829999998, 21.98226370000001], [38.98857789999997, 22.03607859999997], [38.938871300000024, 22.0237084], [38.947866, 21.968609799999957], [38.96839489999997, 21.91784940000004], [39.00155619999999, 21.84244890000003], [39.03562539999999, 21.804391600000013], [39.0528235, 21.755408299999964], [39.08305510000001, 21.71259540000002], [39.11928459999996, 21.748142], [39.160894700000036, 21.784955800000024], [39.12734409999996, 21.7407357], [39.0885639, 21.705399499999974], [39.09862939999997, 21.65481170000004], [39.10777480000003, 21.603715200000025], [39.113561299999986, 21.550258], [39.15533989999997, 21.509988900000028], [39.16852839999998, 21.44803519999999], [39.18724829999998, 21.40140050000002], [39.158012699999965, 21.354179400000024], [39.10646430000004, 21.342429500000033], [39.1125589, 21.29217839999998], [39.139844599999975, 21.2403652], [39.17444150000002, 21.18944579999998], [39.177491, 21.139128500000044], [39.2023854, 21.094036099999965], [39.24458659999996, 21.05998890000001], [39.27196279999996, 21.01617019999998], [39.28528710000001, 20.956147600000026], [39.3224884, 20.91771160000003], [39.3713575, 20.9019551], [39.39056620000003, 20.853448400000037], [39.434591099999984, 20.825015600000015], [39.447134199999965, 20.75957419999997], [39.48686939999999, 20.728049199999983], [39.45660690000001, 20.768433200000043], [39.50404209999996, 20.747828399999964], [39.50373969999998, 20.697613599999983], [39.53428420000002, 20.643110500000013], [39.57370870000001, 20.600568500000012], [39.61515319999997, 20.5690089], [39.62588610000002, 20.518754500000032], [39.6593453, 20.4807754], [39.682098500000016, 20.4349776], [39.721017700000026, 20.4032753], [39.76727170000003, 20.367025499999965], [39.81709910000002, 20.339502800000016], [39.859227, 20.3050513], [39.906011300000046, 20.2767465], [39.95958129999999, 20.289851699999957], [40.0025291, 20.262701099999976], [40.0539841, 20.285574700000016], [40.105764700000044, 20.275342199999987], [40.13297330000003, 20.2266291], [40.168988, 20.190729900000022], [40.22052659999997, 20.189607100000025], [40.25587940000004, 20.142751900000018], [40.286336200000015, 20.0996591], [40.33743839999997, 20.08305759999996], [40.38552149999997, 20.065306900000042], [40.4279962, 20.031238500000022], [40.47296240000002, 20.003447900000022], [40.51713219999997, 19.979516600000043], [40.549261699999974, 19.937012900000013], [40.57342639999999, 19.88891050000002], [40.582736, 19.8396507], [40.624493100000024, 19.8119834], [40.6464587, 19.765437800000026], [40.701641, 19.788608], [40.75239749999997, 19.7788492], [40.7886162, 19.734208199999966], [40.80639989999999, 19.6835686], [40.80447350000003, 19.632869199999988], [40.80537349999997, 19.57956650000004], [40.86069379999997, 19.54785249999996], [40.92218759999997, 19.534979300000018], [40.96272979999998, 19.4968287], [40.95383, 19.445178800000036], [40.94924179999997, 19.39039219999997], [40.975932199999974, 19.3427345], [41.01298019999997, 19.300623599999962], [41.04715019999996, 19.257509], [41.043264, 19.2063223], [41.05497230000004, 19.15646319999996], [41.083298899999974, 19.1144821], [41.1326695, 19.0996286], [41.16669610000003, 19.04040980000002], [41.1464525, 18.99224950000003], [41.14522290000004, 18.9384605], [41.1604676, 18.8826785], [41.20699430000001, 18.85700190000002], [41.235648699999985, 18.8090462], [41.2174035, 18.759731], [41.20861479999998, 18.707319600000012], [41.24275159999997, 18.66340939999996], [41.257740099999964, 18.612259699999985], [41.30356030000004, 18.58634839999996], [41.35506320000002, 18.58223709999996], [41.383333, 18.53812240000004], [41.42380339999998, 18.49925419999999], [41.44222960000001, 18.44779460000004], [41.44189580000002, 18.395546499999956], [41.455357, 18.346467], [41.47280869999999, 18.294246600000015], [41.515379, 18.265892099999988], [41.53145329999997, 18.213172300000043], [41.5631903, 18.1733702], [41.58117330000004, 18.114445500000016], [41.602597, 18.061393699999957], [41.646500799999984, 18.0373756], [41.6731386, 17.9929982], [41.68557969999998, 17.9441829], [41.7611864, 17.87801040000004], [41.7984749, 17.8391326], [41.841794700000044, 17.808911499999976], [41.89235290000002, 17.803795100000038], [41.9262191, 17.763661800000026], [41.96689, 17.721877899999956], [42.01096290000002, 17.6945763], [42.053864600000026, 17.6595689], [42.11460160000002, 17.62581789999996], [42.136106, 17.57260330000002], [42.18399109999997, 17.555791], [42.22046369999997, 17.52156270000001], [42.25960050000004, 17.487619799999983], [42.311176400000015, 17.4455998], [42.324906100000035, 17.395852299999966], [42.314511800000034, 17.34578019999998], [42.3375111, 17.284057100000012], [42.33833490000003, 17.226669899999976], [42.351288799999985, 17.1727883], [42.36867150000001, 17.0314467], [42.373576599999964, 17.0824754], [42.38209960000003, 17.133293499999976], [42.35909750000002, 17.190142], [42.40737510000003, 17.163863900000027], [42.41448939999999, 17.1141477], [42.4471675, 17.0733768], [42.48930559999997, 17.04442779999998], [42.535356599999965, 17.02221010000003], [42.537346899999974, 16.970679900000015], [42.54599039999998, 16.9178112], [42.569213399999974, 16.8621568], [42.608852699999964, 16.82356570000004], [42.65329909999998, 16.800397599999968], [42.68241869999998, 16.75745930000004], [42.70868760000002, 16.706019400000034], [42.72997960000002, 16.65630609999998], [42.7209558, 16.6062587], [42.72628079999996, 16.5507043], [42.7372604, 16.501904600000035], [42.778206099999984, 16.468614600000027], [42.76019840000003, 16.421819700000036], [42.811303500000044, 16.395802799999977], [42.92316680000003, 16.394902], [42.937573, 16.450953499999972], [42.9903237, 16.5217254], [43.0561221, 16.527888899999972], [43.11329010000002, 16.530776200000037], [43.128259, 16.591224799999978], [43.141630300000024, 16.64827559999998], [43.22908179999998, 16.648935699999974], [43.22472310000003, 16.6994182], [43.261101899999986, 16.754343100000042], [43.24638579999998, 16.8072498], [43.2023026, 16.849699199999975], [43.15159879999997, 16.8800997], [43.16429789999998, 16.930597899999984], [43.183305900000015, 16.978997100000022], [43.17949970000004, 17.030201299999977], [43.23229769999997, 17.0221014], [43.22721240000003, 17.075381500000038], [43.1601986, 17.086999400000032], [43.17080150000003, 17.17269750000004], [43.21630080000003, 17.2103987], [43.204085299999974, 17.2602166], [43.25589959999996, 17.27849919999996], [43.31014029999998, 17.2995876], [43.2767842, 17.358211799999975], [43.22799940000004, 17.38550060000002], [43.2564979, 17.457806799999982], [43.28540059999999, 17.517298299999958], [43.3359098, 17.539805100000024], [43.3992006, 17.5563822], [43.46449959999998, 17.5523986], [43.50620610000004, 17.5239994], [43.56650419999997, 17.48339740000003], [43.61780650000004, 17.426094400000032], [43.683304300000046, 17.3666956], [43.76777170000001, 17.374396099999963], [43.83194920000002, 17.33888280000003], [43.90559790000004, 17.34169989999997], [43.96666159999998, 17.3305504], [44.01129540000004, 17.402427399999983], [44.066693, 17.40579980000004], [44.1005557, 17.366072], [44.13801339999996, 17.4088972], [44.2082981, 17.413899800000017], [44.388628900000036, 17.435148], [44.46760280000004, 17.43500630000004], [44.516344, 17.421449], [44.56668489999998, 17.4074106], [44.64971759999998, 17.435138], [45.073886, 17.43338190000002], [45.21722, 17.43517910000004], [45.27016280000002, 17.4075791], [45.40000240000004, 17.3333006], [45.74807479999996, 17.291883700000017], [46.09995950000001, 17.2500037], [46.36671590000003, 17.233300499999967], [46.75000060000003, 17.283299500000034], [47.000224, 16.95102659999997], [47.18330109999997, 16.94999560000002], [47.466699, 17.116698500000023], [47.60000029999998, 17.449999399999967], [47.849136599999966, 17.75646530000002], [48.1833017, 18.166702], [48.649573100000026, 18.392150299999972], [49.11670229999996, 18.616699399999977], [49.712942500000025, 18.677175499999972], [50.12983590000002, 18.71944780000004], [50.783337600000024, 18.7833027], [51.42485259999998, 18.897596600000018], [52.0, 19.0], [52.422833599999976, 19.14131679999996], [52.91710950000002, 19.3063573], [53.63371779999997, 19.545339599999963], [54.35364689999997, 19.785073500000035], [55.0, 20.0], [55.23162769999996, 20.69615620000001], [55.422538800000034, 21.2675514], [55.66669850000001, 22.0], [55.209178599999966, 22.708791300000016], [55.13733789999998, 22.631621399999975], [54.53764109999999, 22.707558100000032], [54.14801480000003, 22.7555551], [53.807385, 22.79676219999996], [53.331348699999964, 22.85326430000004], [52.5810404, 22.939203500000012], [52.16343120000002, 23.442616899999987], [51.920229900000024, 23.7376566], [51.75809790000004, 23.930618699999957], [51.590376100000015, 24.1269707], [51.589054, 24.254614400000037], [51.5341656, 24.250749700000014], [51.5003734, 24.29616789999996], [51.44933169999999, 24.316662299999965], [51.39289, 24.32235250000004], [51.340271700000045, 24.289016699999973], [51.284115, 24.29350809999998], [51.284226899999965, 24.343702300000032], [51.3063962, 24.39140840000001], [51.337033, 24.4446257], [51.38352129999997, 24.47578879999997], [51.416028, 24.525509700000033], [51.45722620000002, 24.5587229], [51.50485120000003, 24.574658600000017], [51.45251720000004, 24.57971529999999], [51.41547760000003, 24.6145705], [51.371431500000014, 24.57273009999997], [51.329929, 24.523920800000017], [51.26582809999998, 24.505604099999985], [51.17068489999998, 24.485622500000044], [51.09853450000004, 24.470753399999985], [51.0245591, 24.492388], [50.9342636, 24.5415167], [50.873393, 24.6460141], [50.84330940000004, 24.696243400000036], [50.8116248, 24.744367799999985], [50.760308, 24.7542041], [50.7490587, 24.8113267], [50.72808180000004, 24.861223799999983], [50.68442159999998, 24.89048010000002], [50.67341429999996, 24.944764899999956], [50.64266419999997, 24.986648], [50.609739800000014, 25.039328500000043], [50.56527259999997, 25.07112019999998], [50.545685, 25.13334680000004], [50.5587947, 25.18306], [50.52325190000002, 25.231078499999978], [50.532115, 25.28103689999997], [50.51974840000004, 25.330412200000037], [50.49348459999999, 25.38102559999996], [50.462807, 25.4313603], [50.415355, 25.4564007], [50.38389520000002, 25.5108323], [50.3796312, 25.457540900000016], [50.40783489999998, 25.409103500000015], [50.370324800000034, 25.448236300000023], [50.338069700000034, 25.489271799999987], [50.30251069999996, 25.533629699999956], [50.260294299999984, 25.57202560000001], [50.223077, 25.616784600000038], [50.210307599999965, 25.665696799999978], [50.16402240000004, 25.68602660000004], [50.13429879999998, 25.7314031], [50.18433009999997, 25.70672929999996], [50.2304943, 25.68394730000004], [50.2564901, 25.636601600000038], [50.238276699999986, 25.68823470000004], [50.215328900000024, 25.74447189999996], [50.17231929999997, 25.77974720000001], [50.14089639999999, 25.821382400000033], [50.117954, 25.866922699999957], [50.1054135, 25.91653760000004], [50.1192073, 25.96626170000001], [50.0642251, 25.989333800000043], [50.01438720000002, 25.98338660000002], [50.00049069999997, 26.03445420000004], [50.012627399999985, 26.083905700000017], [50.00638360000003, 26.146173400000013], [50.032762899999966, 26.20177950000003], [50.076837500000025, 26.13925759999996], [50.10758980000003, 26.098708199999983], [50.12891739999996, 26.0523824], [50.16108469999998, 26.091527200000016], [50.172058300000046, 26.142362], [50.2146739, 26.1808158], [50.21493859999997, 26.2311456], [50.2228912, 26.284036299999965], [50.22385269999998, 26.34151820000002], [50.2016979, 26.395317799999958], [50.193434, 26.447147599999983], [50.2203975, 26.501179400000037], [50.179348, 26.45393259999996], [50.131376, 26.43691649999998], [50.13474290000004, 26.49719179999997], [50.10020789999996, 26.458759], [50.0541765, 26.491823299999957], [50.02331349999998, 26.552291199999985], [50.073955, 26.541300700000033], [50.07813420000002, 26.591619600000012], [50.027871, 26.589724200000038], [50.0120413, 26.63819619999997], [49.9871394, 26.718299299999966], [50.03153040000004, 26.6867036], [50.1004337, 26.6849691], [50.14285079999996, 26.65793640000001], [50.10592930000004, 26.696454499999962], [50.070538500000026, 26.733279199999956], [50.0336918, 26.774867700000023], [49.9969799, 26.821289200000027], [49.95454259999997, 26.852733700000016], [49.90365889999997, 26.858102499999966], [49.85257930000002, 26.8702877], [49.804380699999975, 26.89260510000003], [49.747424, 26.925211399999956], [49.69950879999998, 26.95471160000001], [49.66590690000001, 26.99221720000003], [49.70011619999997, 27.0308739], [49.65009060000001, 27.0234821], [49.66092879999997, 27.0762575], [49.7169151, 27.08737369999997], [49.61697390000004, 27.061368199999965], [49.581297800000044, 27.09756770000001], [49.56760169999997, 27.14605150000003], [49.58922190000004, 27.2074826], [49.61229890000003, 27.1548255], [49.58930140000004, 27.208496400000033], [49.60830360000004, 27.256803700000017], [49.582299499999976, 27.18135], [49.53088429999997, 27.18304859999999], [49.54303440000003, 27.2330835], [49.50297979999996, 27.2691912], [49.499676800000046, 27.3221499], [49.55636829999999, 27.325962399999966], [49.60586910000005, 27.30627070000003], [49.6661354, 27.299912800000044], [49.597290399999984, 27.324321199999975], [49.5528979, 27.3492085], [49.50134509999997, 27.3480212], [49.4600401, 27.3037113], [49.475820699999986, 27.255263600000042], [49.51013439999996, 27.21833110000001], [49.5011673, 27.16807049999997], [49.522301900000045, 27.119101599999958], [49.47263410000002, 27.130074300000036], [49.42204320000001, 27.1291293], [49.448815400000036, 27.085050599999956], [49.3998656, 27.111642499999984], [49.40259809999996, 27.161608399999977], [49.35386940000002, 27.144207400000038], [49.32119450000001, 27.19175619999997], [49.31956759999996, 27.242670700000023], [49.31621529999997, 27.3028245], [49.28363240000002, 27.3430715], [49.23774230000002, 27.312274699999957], [49.23311629999998, 27.367907400000043], [49.18462040000003, 27.391206899999972], [49.13704930000003, 27.40974219999997], [49.18228519999999, 27.4458362], [49.231715100000045, 27.43785589999997], [49.28406310000004, 27.439461500000036], [49.26746840000003, 27.5020981], [49.219792, 27.533906299999973], [49.14453289999999, 27.5379127], [49.090610800000036, 27.546426500000017], [49.0403996, 27.5605808], [49.0070967, 27.598566799999976], [48.95884460000004, 27.61776710000002], [48.91381650000004, 27.592015599999982], [48.86302219999999, 27.600892400000017], [48.86692409999998, 27.652775800000036], [48.84752989999997, 27.699155599999965], [48.81283589999997, 27.7436184], [48.808373400000036, 27.800384399999974], [48.82022349999997, 27.7500355], [48.8329946, 27.798458499999963], [48.8571366, 27.754599499999973], [48.8839354, 27.81133620000001], [48.8464386, 27.85730610000004], [48.80564050000005, 27.90025370000003], [48.76388620000003, 27.938801200000015], [48.7785311, 27.99432990000002], [48.7001785, 28.013999399999985], [48.657306100000014, 28.05352039999996], [48.61578869999997, 28.102435300000035], [48.61011110000004, 28.1622519], [48.61153540000003, 28.222191899999956], [48.5688428, 28.261296], [48.5281535, 28.306592900000023], [48.51583109999997, 28.35548120000003], [48.54340110000002, 28.401493600000023], [48.49043290000004, 28.384842699999975], [48.52958539999999, 28.418698], [48.503862900000044, 28.462999100000015], [48.46691450000003, 28.505512200000023], [47.70446060000002, 28.524362200000038], [47.653775699999954, 28.596354300000034], [47.605874800000024, 28.6552758], [47.593908100000036, 28.72756210000001], [47.59506649999996, 28.799002700000027], [47.56465870000004, 28.862111499999983], [47.513779599999985, 28.931195699999986], [47.465747400000026, 29.00030209999996], [46.84266659999996, 29.0713062], [46.7827437, 29.076128799999974], [46.5631209, 29.10004480000002], [46.42611689999998, 29.06120869999996], [46.05115019999997, 29.093201700000034], [45.66763310000002, 29.125028600000043], [45.28810120000002, 29.155324899999975], [44.91679, 29.183906599999972]]]]}}]}