{"type": "FeatureCollection", "features": [{"type": "Feature", "properties": {"code": "SDN", "name": "Sudan", "tier": "country"}, "geometry": {"type": "Polygon", "coordinates": [[[35.62217642200005, 23.142564063000066], [35.388479741000026, 22.949650140000074], [35.19812274100008, 22.784515640000052], [34.944721241000025, 22.858745140000053], [34.91236124100004, 22.786410140000044], [34.73342524100008, 22.401889139000048], [34.68631224100005, 22.296716639000067], [34.44217924000003, 22.255314139000063], [34.206612740000025, 22.211531639000043], [34.15045724000004, 22.202489639000078], [34.10334424000007, 22.059246639000037], [34.08097724000004, 21.99833213900007], [34.00340674000006, 21.76942813900007], [33.55606823900007, 21.72088713900007], [33.16413773900007, 21.998945139000057], [32.91932121700006, 21.99969186800007], [32.40813755200003, 21.99839486700006], [31.75801818800005, 21.998872387000063], [31.407921217000023, 21.99969186800007], [31.43272121700005, 22.076491868000062], [31.49462121700003, 22.149291868000034], [31.494421217000024, 22.199791868000034], [31.41502121700006, 22.18459186800004], [31.377821217000076, 22.14379186800005], [31.34052121700006, 22.055191868000065], [31.318021217000023, 22.001291868000067], [30.896021217000055, 21.996091868000065], [30.483421217000057, 21.997291868000048], [30.078221217000078, 21.999191868000025], [29.681121217000054, 21.999891868000077], [29.274421217000054, 21.999891868000077], [28.875221217000046, 21.999891868000077], [28.471921217000045, 21.999191868000025], [28.072621217000062, 21.999891868000077], [27.671921217000033, 21.999191868000025], [27.262421217000053, 21.999491868000064], [26.855021217000058, 21.999391868000032], [26.44812121700005, 21.998991868000076], [26.04292121700007, 21.99879186800007], [25.643221217000075, 21.999891868000077], [24.998821217000057, 22.000391868000065], [25.00092121700004, 21.74959186800004], [24.999721217000058, 21.477191868000034], [24.997821217000023, 21.20109186800005], [24.99952121700005, 20.929891868000027], [24.998821217000057, 20.660491868000065], [25.000721217000034, 20.38999186800004], [25.002913548000038, 20.00704743700004], [24.00014857000008, 20.00658734800004], [24.00079005400005, 19.56538488800004], [24.001505592000058, 19.073249375000046], [24.00211530400003, 18.653899438000053], [24.002993222000043, 18.05008217900007], [24.00014857000008, 16.819332531000043], [24.002584354000078, 16.763266293000072], [24.003562681000062, 16.293538867000052], [23.998962478000067, 15.972568097000021], [23.99979527200003, 15.738070286000038], [23.934568323000065, 15.717777432000048], [23.86894680000006, 15.730056150000053], [23.815646800000025, 15.752456150000057], [23.750946800000065, 15.751456150000024], [23.70037799200003, 15.760564245000069], [23.603346800000054, 15.765756150000072], [23.54534680000006, 15.75625615000007], [23.47964680000007, 15.73195615000003], [23.427346800000066, 15.706756150000047], [23.367846800000052, 15.697756150000032], [23.276905786000043, 15.703957259000049], [23.199446800000032, 15.714656150000053], [23.14574680000004, 15.718356150000034], [23.09634680000005, 15.704056150000042], [23.054246800000044, 15.659156150000058], [23.019546800000057, 15.61865615000005], [22.98144680000007, 15.58585615000004], [22.927046800000028, 15.553856150000058], [22.921985826000025, 15.49016780900007], [22.959912836000058, 15.443581772000073], [22.988046800000063, 15.399856150000062], [23.002346800000055, 15.330356150000057], [22.995146800000043, 15.273256150000066], [22.993246800000065, 15.221856150000065], [22.944746800000075, 15.177056150000055], [22.93424680000004, 15.122856150000075], [22.886246800000038, 15.090056150000066], [22.856246800000065, 15.050056150000046], [22.806246800000054, 15.021456150000063], [22.768162975000052, 14.972949537000034], [22.76200222600005, 14.91130040400003], [22.70441927400003, 14.886554009000065], [22.674913961000073, 14.846103171000038], [22.682052344000056, 14.78709253900007], [22.712509442000055, 14.719039953000049], [22.576880178000067, 14.646228445000077], [22.519297227000038, 14.642421306000074], [22.454575894000072, 14.61196420400006], [22.384143857000026, 14.518689331000076], [22.432684857000027, 14.497750075000056], [22.435540210000056, 14.408758233000071], [22.455462975000046, 14.350249537000025], [22.427662975000032, 14.295849537000038], [22.462562975000026, 14.248449537000056], [22.537762975000078, 14.239449537000041], [22.56436297500005, 14.189049537000074], [22.532562975000076, 14.110949537000067], [22.445462975000055, 14.051449537000053], [22.362686492000023, 14.019954518000077], [22.299392492000038, 13.962371518000054], [22.242761963000078, 13.95666069400005], [22.15566297500004, 13.868649537000067], [22.07239258800007, 13.776773319000029], [22.11301614000007, 13.744595182000069], [22.11682326500005, 13.686060432000033], [22.142045515000063, 13.640374807000057], [22.173930265000024, 13.597544557000049], [22.231858404000036, 13.544062018000034], [22.22813522900003, 13.491896631000031], [22.24907422900003, 13.43526563100005], [22.28900681700003, 13.393036868000024], [22.27516462600005, 13.328791169000056], [22.228527126000074, 13.283539506000068], [22.183835316000057, 13.255937456000026], [22.155757316000063, 13.199306456000045], [22.109179811000047, 13.159829400000035], [22.06057881600003, 13.142675456000063], [22.00956297500005, 13.135449537000056], [21.981063251000023, 13.091279006000036], [21.930660316000058, 13.048448956000072], [21.900326218000032, 12.986559378000038], [21.930226229000027, 13.037419131000036], [21.96639422900006, 13.073111131000076], [22.006844729000022, 13.112610131000054], [21.966917265000063, 13.073111306000044], [21.930749390000074, 13.037419556000032], [21.900768265000067, 12.986498931000028], [21.877925515000072, 12.930819556000074], [21.852703140000074, 12.868953556000065], [21.83128801500004, 12.820412556000065], [21.85175139000006, 12.771395681000058], [21.88363614000008, 12.706198431000075], [21.924562765000076, 12.656705681000062], [22.152384376000043, 12.669162631000063], [22.199063316000036, 12.70723395500005], [22.309946817000025, 12.689149955000062], [22.404214729000046, 12.64813963000006], [22.463609172000076, 12.63293395200003], [22.427450126000053, 12.538292256000034], [22.400800126000036, 12.485468256000047], [22.363752900000065, 12.44308809000006], [22.422298729000033, 12.390206130000024], [22.428961229000038, 12.33309913000005], [22.439430729000037, 12.275992130000077], [22.47374239000004, 12.232209806000071], [22.490398640000024, 12.180813306000061], [22.49420576500006, 12.122754556000075], [22.48516376500004, 12.072785930000066], [22.48088076500005, 12.021865430000048], [22.53698872900003, 12.055178130000058], [22.590335891000052, 12.061840430000075], [22.623172516000068, 12.003781555000046], [22.580818141000066, 11.851971930000047], [22.563686016000077, 11.756793430000073], [22.55321651500003, 11.707776555000066], [22.560354766000046, 11.631157930000029], [22.601757391000035, 11.573099055000057], [22.638401016000046, 11.533600055000022], [22.742621391000057, 11.48743855500004], [22.784499891000053, 11.441276930000072], [22.941544391000036, 11.426048430000037], [22.933930016000033, 11.320876180000027], [22.981519266000078, 11.301364680000063], [22.98723001600007, 11.235691555000074], [22.928695266000034, 11.09958630500006], [22.904424766000034, 11.012498055000037], [22.882057891000045, 10.942541929000072], [22.907280141000058, 10.889242054000022], [22.94011664100003, 10.820237679000059], [22.970097891000023, 10.775027929000032], [23.00436214100006, 10.716017179000062], [23.06194501600004, 10.683180679000031], [23.11381726600007, 10.65082017900005], [23.151888641000028, 10.59561655400006], [23.19614664100004, 10.55944867900007], [23.260868016000074, 10.501865804000033], [23.318450891000055, 10.46617380400005], [23.518325641000047, 10.143518929000038], [23.595420141000034, 10.023594054000057], [23.623021891000064, 9.97077005400007], [23.672038892000046, 9.89319967800003], [23.68774326700003, 9.754714928000055], [23.69868876700008, 9.675716928000043], [23.673466517000065, 9.62812780300004], [23.640154017000043, 9.569592928000077], [23.598275516000058, 9.52247955300004], [23.610648766000054, 9.471559178000064], [23.666251789000057, 9.445034427000053], [23.65057673000007, 9.396844127000065], [23.643438230000072, 9.337833127000067], [23.620166641000026, 9.283581678000075], [23.616359516000045, 9.231233553000038], [23.568770266000058, 9.197921053000073], [23.61583673000007, 9.231233127000053], [23.568218039000044, 9.198046302000023], [23.523484164000024, 9.167589302000067], [23.47113581800005, 9.151884877000043], [23.470659530000034, 9.095252817000073], [23.46590814800004, 9.042849664000073], [23.486869730000024, 8.994239127000071], [23.54350123000006, 8.985673127000041], [23.554922230000045, 9.051822127000037], [23.588226287000055, 8.999968627000044], [23.591034248000028, 8.936249394000072], [23.569619248000038, 8.883425894000027], [23.52774059500007, 8.84487832000002], [23.520602220000058, 8.76445257000006], [23.567818516000045, 8.746299427000054], [23.619690641000034, 8.725836052000034], [23.67199173000006, 8.719173127000033], [23.72862323000004, 8.692999127000064], [23.784302730000036, 8.718222127000047], [23.833795230000078, 8.725360127000044], [23.89375773000006, 8.71584212700003], [23.951816731000065, 8.690144127000053], [24.00939923100003, 8.70489662700004], [24.082210731000032, 8.680150127000047], [24.160304267000072, 8.69680667700004], [24.21074876700004, 8.695378927000036], [24.261193392000052, 8.710131552000064], [24.24834426700005, 8.661114677000057], [24.291289953000046, 8.697476341000026], [24.383613078000053, 8.789799466000034], [24.51257982800007, 8.837388591000035], [24.579204703000073, 8.924000966000051], [24.562548453000034, 8.993005341000071], [24.547319953000056, 9.044401716000039], [24.54827170300007, 9.09484634100005], [24.56397620300004, 9.167181966000044], [24.583011828000053, 9.223337216000061], [24.625842203000047, 9.320895091000068], [24.596336828000062, 9.370863841000073], [24.65629920300006, 9.416549466000049], [24.73910445300004, 9.482222591000038], [24.752905328000054, 9.542184967000026], [24.74671882800004, 9.603099217000022], [24.744339328000024, 9.654971467000053], [24.73958045300003, 9.712078467000026], [24.73720095300007, 9.76728196700003], [24.786693703000026, 9.785365842000033], [24.82381332800003, 9.822009592000029], [24.848559703000035, 9.867695217000062], [24.89662482800003, 9.902435342000047], [24.939930953000044, 9.930512967000027], [24.968960453000022, 9.971915592000073], [25.005128203000027, 10.01236646700005], [25.030350578000025, 10.05947984200003], [25.059379953000075, 10.12134584200004], [25.037488953000036, 10.167983217000028], [25.057000453000057, 10.219855467000059], [25.07365670300004, 10.267444717000046], [25.098403078000047, 10.313130342000022], [25.14646820300004, 10.333117842000036], [25.204051203000063, 10.336924967000073], [25.254495703000032, 10.351201717000038], [25.30303670400008, 10.338352592000035], [25.35586082900005, 10.344063342000027], [25.410112454000057, 10.365002592000053], [25.46293657900003, 10.374044592000075], [25.51480882900006, 10.359767842000053], [25.564301579000073, 10.370237467000038], [25.613318454000023, 10.39165259200007], [25.664934954000046, 10.403742967000028], [25.71674157900003, 10.415149842000062], [25.768072954000047, 10.412298217000057], [25.81084895400005, 10.438914342000032], [25.86455670400005, 10.436062592000042], [25.910659829000053, 10.411347592000027], [25.945234620000065, 10.346483826000053], [25.947138189000043, 10.138994826000044], [25.99092027100005, 10.112344863000033], [26.049930904000064, 10.085694899000032], [26.09371298700006, 10.038105680000058], [26.12226651900005, 9.984805753000046], [26.214370466000048, 9.903393308000034], [26.248776527000075, 9.813937550000048], [26.266651954000054, 9.747367717000031], [26.300978826000062, 9.659228918000053], [26.32447920000004, 9.605355430000031], [26.39425923500005, 9.559136932000058], [26.47680566100007, 9.533706117000065], [26.594498117000057, 9.506418551000024], [26.662191059000065, 9.486818260000064], [26.761020350000024, 9.488600807000068], [26.819889205000038, 9.520654467000043], [26.877874580000025, 9.54441896700007], [26.952558432000046, 9.571196859000054], [27.003811599000073, 9.58923038000006], [27.079482469000027, 9.616190135000068], [27.131944515000043, 9.621026326000049], [27.236718455000073, 9.625693467000076], [27.331374837000055, 9.620429454000032], [27.390713822000066, 9.623315600000069], [27.463666398000044, 9.62339915800004], [27.518565331000048, 9.618088842000077], [27.75858658100003, 9.603354842000044], [27.846044507000045, 9.605393136000032], [27.898443335000024, 9.610853281000061], [28.038866682000048, 9.343225190000055], [28.363125181000044, 9.347466031000067], [28.768585337000047, 9.348417829000027], [28.75859160400006, 9.403145419000055], [28.790952332000074, 9.44359621600006], [28.81189153100007, 9.490709585000047], [28.89325397400006, 9.567392407000057], [28.97701100200004, 9.641155699000024], [29.03744933200005, 9.708732342000076], [29.078376082000034, 9.750134967000065], [29.538087957000073, 9.750134967000065], [29.53903970700003, 10.081831842000042], [29.94226608300005, 10.28772284200005], [29.996772958000065, 10.288802217000068], [30.063692083000035, 10.24886659200007], [30.273624208000058, 10.117186842000024], [30.465747083000053, 10.000617842000054], [30.529428333000055, 9.960682217000056], [30.65085433400003, 9.861382717000026], [30.826247459000058, 9.72214746700007], [30.876976584000033, 9.73833759200005], [31.180811334000055, 9.749670717000072], [31.25906370900003, 9.756146842000021], [31.31464983400008, 9.772336967000058], [31.369156584000052, 9.82360571700002], [31.423663334000025, 9.895381967000048], [31.478812497000035, 9.938061153000035], [31.519988640000065, 9.991053407000038], [31.664672852000024, 10.162292480000076], [31.708461576000047, 10.214285249000056], [31.741836070000033, 10.25402351300005], [31.801330566000047, 10.309875488000046], [31.857558960000063, 10.40806959200006], [31.933485331000043, 10.49048087500006], [32.01914592800006, 10.507137101000069], [32.06197622600007, 10.480963030000055], [32.15477520600007, 10.466686264000032], [32.228538496000056, 10.509516563000034], [32.23091795800008, 10.56662362700007], [32.217830922000076, 10.632058804000053], [32.19284658200007, 10.714150209000024], [32.30989266900008, 10.828476530000046], [32.40860247400008, 10.924655314000063], [32.459900994000066, 10.97638783900004], [32.44779955200005, 11.04140343000006], [32.42264753500007, 11.094317578000073], [32.39770507800006, 11.14111328100006], [32.390909915000066, 11.238410791000035], [32.38049546900004, 11.485575117000053], [32.391941571000075, 11.574277807000044], [32.38830771000005, 11.68563696900003], [32.106579460000034, 11.94499821900007], [32.474920085000065, 11.946901844000024], [32.74141971000006, 11.946901844000024], [32.75617233500003, 12.003532969000048], [32.751889335000044, 12.060639969000022], [32.741895585000066, 12.129168469000035], [32.74427508500003, 12.181516594000072], [32.73405218000005, 12.234058806000064], [33.02303410400003, 12.226947966000068], [33.25585921100003, 12.214353219000031], [33.256335086000036, 12.155818469000053], [33.22237496100007, 11.992787719000034], [33.17400474800007, 11.737052299000027], [33.14052121700007, 11.62809186800007], [33.15205161000006, 11.557662978000053], [33.167721217000064, 11.478491868000049], [33.174221217000024, 11.386091868000051], [33.201721217000056, 11.21539186800004], [33.23852121700003, 11.002891868000063], [33.26572121700008, 10.829191868000066], [33.24092121700005, 10.783091868000042], [33.219021217000034, 10.734991868000066], [33.48272121700006, 10.657891868000036], [33.66782121700004, 10.44139186800004], [33.72732121700005, 10.393291868000063], [33.79392121700005, 10.337591868000061], [33.90152121700004, 10.161591868000073], [33.95952121700003, 10.158691868000062], [33.97092121700007, 10.09299186800007], [33.99232121700004, 10.042091868000057], [33.99382121700006, 9.988291868000033], [33.99332121700007, 9.929291868000064], [33.97712121700005, 9.880291868000029], [33.966221217000054, 9.82419186800007], [33.94432121700004, 9.77419186800006], [33.910021217000065, 9.711391868000021], [33.89672121700005, 9.660391868000033], [33.88672121700006, 9.597191868000039], [33.887721217000035, 9.54619186800005], [34.11272121700006, 9.498591868000062], [34.10872121700004, 9.566491868000071], [34.17162121700005, 9.778291868000053], [34.22492121700003, 9.89919186800006], [34.24292121700006, 10.05329186800003], [34.33672121700005, 10.116191868000044], [34.34812121700003, 10.170391868000024], [34.33762121700005, 10.266991868000048], [34.30052121700004, 10.396891868000068], [34.30962121700003, 10.461191868000071], [34.29052121700005, 10.514991868000038], [34.30392121700004, 10.569591868000032], [34.35192121700004, 10.627291868000043], [34.39762121700005, 10.675291868000045], [34.46802121700006, 10.809491868000066], [34.60272121700007, 10.903291868000053], [34.67842121700005, 10.83669186800006], [34.74072121700004, 10.772891868000045], [34.79498559500007, 10.749050578000038], [34.77782121700005, 10.70199186800005], [34.81972121700005, 10.73429186800007], [34.869221217000074, 10.79619186800005], [34.97678374100008, 10.883770129000027], [34.96582121700004, 10.94139186800004], [34.973421217000066, 11.047491868000066], [35.008668741000065, 11.185962129000075], [34.97012124100007, 11.22974362900004], [34.97062121700003, 11.284491868000032], [34.99202121700006, 11.341091868000035], [35.02342121700008, 11.383891868000035], [35.05292121700006, 11.427191868000023], [35.065321217000076, 11.48339186800007], [35.08622121700006, 11.531491868000046], [35.09052121700006, 11.64519186800004], [35.06772121700004, 11.690891868000051], [35.05064288600005, 11.739501692000033], [35.09532121700005, 11.816091868000058], [35.25942121700007, 11.933091868000076], [35.297021217000065, 11.999291868000057], [35.346121217000075, 12.090591868000047], [35.45742121700005, 12.288091868000038], [35.604921217000026, 12.536091868000028], [35.65682121700007, 12.61839186800006], [35.69982121700008, 12.666091868000024], [35.75296433800003, 12.658372344000043], [35.990910464000024, 12.721190094000065], [36.04373446300008, 12.71643109400003], [36.09893796400007, 12.71119634400003], [36.15128608800006, 12.69025709500005], [36.17365296400004, 12.738322219000054], [36.18221908900006, 12.859674720000044], [36.16250521300003, 12.917517469000074], [36.16202933900007, 12.972245095000062], [36.19724546400005, 13.07218247000003], [36.23341321400005, 13.207811720000052], [36.251497089000054, 13.266822345000037], [36.26910508800006, 13.328688345000046], [36.28433371400007, 13.381036470000026], [36.36856658800008, 13.530466595000064], [36.40996921400006, 13.66419234600005], [36.45089596400004, 13.773647595000057], [36.48658783900004, 13.822664471000053], [36.45851021400006, 13.978757095000049], [36.530369964000045, 14.178155971000024], [36.560351242000024, 14.256678132000047], [36.52171029700003, 14.344322746000046], [36.490330562000054, 14.682868015000054], [36.458734711000034, 14.996734367000045], [36.43281224200007, 15.166584133000072], [36.50424277800005, 15.221311683000067], [36.60984396400005, 15.414047972000049], [36.63221083900004, 15.460685472000023], [36.66409571400004, 15.602025347000051], [36.710456871000076, 15.75014900900004], [36.75537899500006, 15.819272065000064], [36.81923646400003, 15.979407973000036], [36.83431381400004, 16.032393942000056], [36.85306366900005, 16.083177437000074], [36.897805654000024, 16.226871809000045], [36.92969040400004, 16.265419184000052], [36.947727464000025, 16.317291348000026], [36.954143860000045, 16.38402028300004], [36.96676308900004, 16.43436084800004], [36.92012571400005, 16.478142973000047], [36.89014446400006, 16.532394598000053], [36.896968650000076, 16.586543181000025], [36.90660692700004, 16.636486981000076], [36.938150380000025, 16.678544918000057], [36.988094180000076, 16.720602856000028], [37.00036107900007, 16.774927691000073], [37.00386590700003, 16.835385976000055], [36.99860866500006, 16.923006678000036], [36.98294324300008, 16.971643134000033], [37.01530424300006, 17.01352163400003], [37.00323611500005, 17.073266210000043], [37.05572121700004, 17.092091868000068], [37.11362273100008, 17.082176556000036], [37.17382121700007, 17.066791868000053], [37.22232121700006, 17.082091868000077], [37.28652121700003, 17.084891868000057], [37.343221217000064, 17.081591868000032], [37.38702121700004, 17.05589186800006], [37.41822121700005, 17.104191868000044], [37.45732121700007, 17.141291868000053], [37.47982121700005, 17.189091868000048], [37.501621217000036, 17.238191868000058], [37.49902121700006, 17.309191868000028], [37.61162121700005, 17.375691868000047], [37.745121217000076, 17.381891868000025], [37.771821217000024, 17.430591868000022], [37.77292121700003, 17.48369186800005], [37.82142121700008, 17.50079186800002], [37.860921217000055, 17.467091868000068], [37.914721221000036, 17.457491873000038], [37.96662121700007, 17.484691868000027], [37.98852121700003, 17.53269186800003], [38.05062121700007, 17.558291868000026], [38.07112121700004, 17.48229186800006], [38.10982121700005, 17.533191868000074], [38.163421217000064, 17.570891868000047], [38.21412121700007, 17.563191868000047], [38.26552121700007, 17.56219186800007], [38.28122121700005, 17.62549186800004], [38.34542121700008, 17.649291868000034], [38.37112121700005, 17.709291868000037], [38.45202121700004, 17.900391868000042], [38.54722121700007, 17.990091868000036], [38.56379889100003, 18.038592591000054], [38.54282925800004, 18.084860241000058], [38.50036858500005, 18.05281936500006], [38.45888737300004, 18.08676706400007], [38.41687475100008, 18.114608761000056], [38.39736889100004, 18.163956920000032], [38.36614384100005, 18.205932811000025], [38.313545841000064, 18.18707693600004], [38.267398591000074, 18.210894936000045], [38.26789471600006, 18.26150806100003], [38.31850796600003, 18.257042186000035], [38.28774309100004, 18.298227436000047], [38.246557841000026, 18.265973936000023], [38.21430434000007, 18.222803936000048], [38.16369109000004, 18.23471293600005], [38.11853621500006, 18.262996686000065], [38.094940794000024, 18.308316045000026], [38.080694978000054, 18.36245014600007], [38.11952871500006, 18.403423436000026], [38.075403675000075, 18.43530732100004], [38.027374923000025, 18.46949728000004], [37.99237091700007, 18.507350449000057], [37.945563235000066, 18.56189157400007], [37.88491676000007, 18.59079023000004], [37.80276317300007, 18.617311870000037], [37.76629388300006, 18.66159600700007], [37.73972340100005, 18.709006084000066], [37.68088109000007, 18.718515312000022], [37.630764215000056, 18.718515312000022], [37.573454699000024, 18.709120701000074], [37.52460669100003, 18.733294630000046], [37.48242735200006, 18.774807102000068], [37.449152215000026, 18.824207562000026], [37.41789109000007, 18.87134706200004], [37.40942542100004, 18.925685763000047], [37.39694167000005, 18.979141823000077], [37.384884715000055, 19.03569214500004], [37.364078464000045, 19.08157259500007], [37.33505641200003, 19.127986539000062], [37.32995981800008, 19.191726252000024], [37.32460409000004, 19.24747256200004], [37.327497668000035, 19.29811355800007], [37.32609271500007, 19.35018756200003], [37.311206465000055, 19.398319687000026], [37.29532784000003, 19.449429062000036], [37.282294311000044, 19.497784720000027], [37.24570709000005, 19.555617562000066], [37.24074496500003, 19.617643438000073], [37.23998785100008, 19.668842360000042], [37.260097090000045, 19.738221938000038], [37.26009707500003, 19.796774388000074], [37.25960071500003, 19.846891438000057], [37.23913426100006, 19.89365656600006], [37.212212039000065, 19.943339759000025], [37.19485429100007, 20.002702660000068], [37.19885526200005, 20.053104615000052], [37.21664958900004, 20.10577987700003], [37.208053257000074, 20.17741598200007], [37.19297711300004, 20.225395891000062], [37.20640888300005, 20.276680829000043], [37.19424702600003, 20.335796897000023], [37.20414583300004, 20.392584791000047], [37.188505717000055, 20.45314465100006], [37.23670769900008, 20.466825845000074], [37.23957314300003, 20.52647918300005], [37.22550641700008, 20.587955985000065], [37.20935573100007, 20.644222889000048], [37.179919805000054, 20.686944057000062], [37.17702775200007, 20.746279564000076], [37.171667325000044, 20.80074908000006], [37.16871852300005, 20.85261883000004], [37.15852622600005, 20.90163405100003], [37.14415906100004, 20.950794158000065], [37.11729285700005, 21.00998554000006], [37.09156992900006, 21.055498947000046], [37.13165530500004, 21.087668612000073], [37.11950148200003, 21.13732077700007], [37.09747837100008, 21.189032397000062], [37.146826529000066, 21.224209632000054], [37.15981115000005, 21.166751471000055], [37.19916918800004, 21.13590710400007], [37.23968776100003, 21.10150610200003], [37.27586529600006, 21.053825111000037], [37.226548396000055, 21.089929708000057], [37.232518940000034, 21.039320753000027], [37.28903591900007, 21.01698070900005], [37.32281755300005, 21.06549202700006], [37.27125278500006, 21.134685992000072], [37.23373032300003, 21.174752350000063], [37.19366838700006, 21.215766162000023], [37.15359760600006, 21.24661740600004], [37.119712915000036, 21.28406355100003], [37.07087011600004, 21.342674910000028], [37.020325058000026, 21.33421308000004], [37.04863036200004, 21.379756362000023], [37.01515896400008, 21.422827564000045], [36.988033089000055, 21.47945868900007], [36.96090721400003, 21.521813189000056], [36.94044396400005, 21.57511306400005], [36.90094483900003, 21.61366018900003], [36.92093246400003, 21.65982193900004], [36.87524658900003, 21.690754939000044], [36.90046883900004, 21.740247689000057], [36.84716896400005, 21.73548868900008], [36.89523408900004, 21.75595206500003], [36.889523464000035, 21.81543881500005], [36.839078839000024, 21.82876356500003], [36.87671046400004, 21.86531694000007], [36.88563671400004, 21.922199315000057], [36.848517214000026, 21.959794815000066], [36.89087146400004, 22.009287565000022], [36.89610633900003, 22.06163569000006], [36.84756533900003, 22.081147315000067], [36.80187971400005, 22.117315190000056], [36.77189846400006, 22.16680794000007], [36.72050221400008, 22.163000815000032], [36.67957546400004, 22.199168565000036], [36.643883464000055, 22.23819181500005], [36.597246089000066, 22.270552440000074], [36.55631933900003, 22.303388940000048], [36.50444708900005, 22.330514815000072], [36.451623089000066, 22.349550565000072], [36.424021339000035, 22.393332565000037], [36.39356421400004, 22.435687065000025], [36.330270589000065, 22.47280656500004], [36.294102714000076, 22.513257440000075], [36.288867964000076, 22.56512969000005], [36.261266214000045, 22.611767190000023], [36.21462871400007, 22.64365194000004], [36.16323233900005, 22.65840456500007], [36.10279408900004, 22.66601881500003], [36.05472896300006, 22.680771565000043], [36.00285671300003, 22.68838581500006], [35.94860496300004, 22.691241190000028], [35.90910596300006, 22.731691940000076], [35.86151671300007, 22.759769565000056], [35.814403463000076, 22.791178440000067], [35.79869896300005, 22.85447219100007], [35.76348296300006, 22.893019441000035], [35.73159821300004, 22.93251844100007], [35.69067146300006, 22.96535506600003], [35.66497321300005, 23.011992441000075], [35.654027588000076, 23.073858441000027], [35.627853713000036, 23.12906194100003], [35.62217642200005, 23.142564063000066]]]}}]}