{"type": "FeatureCollection", "features": [{"type": "Feature", "properties": {"code": "SEN", "name": "Senegal", "tier": "country"}, "geometry": {"type": "MultiPolygon", "coordinates": [[[[-17.39917595299994, 14.671295529000076], [-17.39917595299994, 14.671295529000076]]], [[[-17.51204099499995, 14.75701345400006], [-17.51204099499995, 14.75701345400006]]], [[[-14.942361069999947, 16.635854107000057], [-14.97987147899994, 16.693237017000058], [-14.999662416999968, 16.64689074200004], [-15.053088808999973, 16.627149926000072], [-15.083226602999957, 16.675837692000073], [-15.121487911999964, 16.640138568000054], [-15.091236834999961, 16.598272337000026], [-15.140686003999974, 16.58052659300006], [-15.202354550999928, 16.568434677000027], [-15.258081292999975, 16.569729076000044], [-15.31046966699995, 16.575660022000022], [-15.360693605999927, 16.560356108000065], [-15.413208034999968, 16.537397096000063], [-15.444856873999981, 16.582494393000047], [-15.505310890999965, 16.57238572700004], [-15.516591199999937, 16.521139477000077], [-15.57739999499995, 16.515294324000024], [-15.631635226999947, 16.517831170000022], [-15.692806147999931, 16.47839708600003], [-15.750908850999963, 16.49032752900007], [-15.809514214999979, 16.506659783000032], [-15.85904654999996, 16.490643599000066], [-15.916054439999982, 16.512285172000077], [-15.96047638899995, 16.483830048000073], [-16.032727509999972, 16.482717666000042], [-16.07707665099997, 16.50998062000002], [-16.10783366499993, 16.555590954000024], [-16.157374885999957, 16.545334363000052], [-16.208630184999947, 16.51634715600005], [-16.259796878999964, 16.525299879000045], [-16.28552832799994, 16.476111531000072], [-16.30812384199993, 16.414937658000042], [-16.330588443999943, 16.35429601800007], [-16.364614440999958, 16.31498925300002], [-16.36418324899995, 16.259408368000038], [-16.38752328499993, 16.213434294000024], [-16.44271219799998, 16.201823468000043], [-16.454222029999983, 16.14884683100007], [-16.453450291999957, 16.095574073000023], [-16.505330165999965, 16.067812696000033], [-16.509999379999954, 15.998975754000071], [-16.51308155199996, 15.937867949000065], [-16.518482995999932, 15.877240739000058], [-16.528314638999973, 15.818769343000042], [-16.55049122899993, 15.747042085000032], [-16.580318705999957, 15.685723984000049], [-16.617422182999974, 15.623138464000021], [-16.69127492399997, 15.51263306800007], [-16.749642045999963, 15.429605449000064], [-16.798342420999973, 15.34523473300004], [-16.852396434999946, 15.261951165000028], [-16.886090646999946, 15.214552343000037], [-16.941529188999937, 15.143242562000069], [-17.016114416999926, 15.056789200000026], [-17.07681029899993, 14.991579855000055], [-17.114835768999967, 14.944749384000033], [-17.194777319999957, 14.876789123000037], [-17.252407587999983, 14.84929635900005], [-17.34062030499996, 14.809402411000065], [-17.419253887999957, 14.777186378000067], [-17.472042140999974, 14.762822820000054], [-17.52224724499996, 14.747383268000021], [-17.48960637199997, 14.708014822000052], [-17.448363962999963, 14.671589188000041], [-17.43106333299994, 14.719432472000051], [-17.37735086699996, 14.740471666000076], [-17.282485491999978, 14.709849590000033], [-17.23576978799997, 14.690309678000062], [-17.185150988999965, 14.64709526100006], [-17.15134007699993, 14.603170533000025], [-17.111192777999975, 14.551922797000032], [-17.09170484899994, 14.496045645000038], [-17.059317428999975, 14.45288442900005], [-17.01187427499997, 14.436305471000026], [-16.96500734899996, 14.401203505000069], [-16.932428527999946, 14.34745702300006], [-16.93062853699996, 14.290889640000046], [-16.884117903999936, 14.247647662000077], [-16.871360076999963, 14.184692970000071], [-16.828107787999954, 14.150855038000032], [-16.778256191999958, 14.06325302600004], [-16.768484977999947, 13.977028482000037], [-16.767670462999945, 13.913830217000054], [-16.761805650999975, 13.847875158000022], [-16.721441200999948, 13.811845563000077], [-16.632547604999957, 13.73709556600005], [-16.62335582399993, 13.672337747000029], [-16.586815299999955, 13.635080016000074], [-16.547416141999975, 13.602678484000023], [-16.469653706999964, 13.594489635000059], [-16.083221486999946, 13.59324188100004], [-16.02935955299995, 13.594175392000068], [-15.686076231999948, 13.593087576000073], [-15.474700447999965, 13.591744319000043], [-15.457237976999977, 13.672874752000041], [-15.419933674999982, 13.739209551000044], [-15.360230784999942, 13.777307517000054], [-15.307918667999957, 13.786420558000032], [-15.253690288999962, 13.764157553000075], [-15.123695321999946, 13.807632246000026], [-15.066021596999974, 13.827863670000056], [-14.99271850599996, 13.802825736000045], [-14.930201419999946, 13.802418077000027], [-14.880272786999967, 13.791774321000048], [-14.829748130999974, 13.767366965000065], [-14.795966982999971, 13.721515761000035], [-14.78399367399993, 13.656212082000025], [-14.716419839999958, 13.618483447000074], [-14.660190239999963, 13.645928188000028], [-14.581524849999937, 13.657201053000051], [-14.504551452999976, 13.625403406000032], [-14.473997303999965, 13.579163425000047], [-14.43607773499997, 13.51827356800004], [-14.391390310999952, 13.48889129500003], [-14.334655338999937, 13.463809936000075], [-14.273873100999936, 13.473886024000024], [-14.208971065999947, 13.507641265000075], [-14.150241133999941, 13.53930209400005], [-14.099249292999957, 13.554078013000037], [-14.027926612999977, 13.553476197000066], [-13.977464564999934, 13.58054252200003], [-13.92027048999995, 13.56297012500005], [-13.868984620999981, 13.521182753000062], [-13.81701239399996, 13.459204086000057], [-13.793150669999932, 13.413517002000049], [-13.816561738999951, 13.360676473000069], [-13.860766617999957, 13.322247599000036], [-13.918464427999936, 13.316605198000047], [-14.00509085899995, 13.291209765000076], [-14.065582477999953, 13.291457201000071], [-14.115494300999956, 13.279393360000029], [-14.13141376599998, 13.228516811000077], [-14.182917248999956, 13.229907307000076], [-14.234962140999926, 13.217880034000075], [-14.284993906999944, 13.23957170500006], [-14.347423969999966, 13.229575642000043], [-14.399351089999982, 13.244152252000049], [-14.457673300999943, 13.295823141000028], [-14.510318243999961, 13.303823785000077], [-14.554930732999935, 13.328934747000062], [-14.613829375999956, 13.342404761000068], [-14.67263049199994, 13.344259801000021], [-14.732259442999975, 13.375290879000033], [-14.760497073999943, 13.41742044800003], [-14.813970605999941, 13.41820702900003], [-14.864012285999934, 13.444823598000028], [-14.926237955999966, 13.456089212000052], [-14.974859054999968, 13.478569099000026], [-15.023055839999927, 13.510289921000037], [-15.067913880999981, 13.553920085000073], [-15.09012267299994, 13.600462810000067], [-15.141288544999952, 13.58275235900004], [-15.184328232999974, 13.536834701000032], [-15.208682881999948, 13.475960860000043], [-15.228761688999953, 13.419121339000071], [-15.271554291999962, 13.383045158000073], [-15.338666987999943, 13.360304133000056], [-15.394198924999955, 13.361806174000037], [-15.449754392999978, 13.375810389000037], [-15.498566523999955, 13.395286079000073], [-15.557465491999949, 13.359410639000032], [-15.610413783999945, 13.350879484000075], [-15.67604382099995, 13.36839883600004], [-15.73364960999993, 13.349856427000077], [-15.792926041999976, 13.348176958000067], [-15.805439176999982, 13.270351793000032], [-15.803605682999944, 13.167100662000053], [-15.895001861999958, 13.168208719000063], [-15.95152432599997, 13.170446574000039], [-16.092214206999927, 13.166938884000047], [-16.21591446599996, 13.16442984300005], [-16.355703655999946, 13.166667712000049], [-16.609702519999928, 13.166420587000061], [-16.690565900999957, 13.169561434000059], [-16.713652939999974, 13.122902793000037], [-16.736138549999964, 13.074430163000045], [-16.74052384099997, 13.011959827000055], [-16.75031604299994, 12.942511248000073], [-16.764004975999967, 12.880014463000066], [-16.778357589999928, 12.830077093000057], [-16.787090728999942, 12.771355654000047], [-16.783126616999937, 12.704919301000075], [-16.78057612999993, 12.653224514000044], [-16.765882433999934, 12.597849633000067], [-16.769576678999954, 12.536558309000043], [-16.793999072999952, 12.486464823000063], [-16.783244864999972, 12.429843014000028], [-16.74941131299994, 12.381974828000068], [-16.721833467999943, 12.338336919000028], [-16.673441433999926, 12.358064414000069], [-16.60602896299997, 12.34694458000007], [-16.547490322999977, 12.360391543000048], [-16.48486513199998, 12.358254275000036], [-16.424342492999926, 12.365810124000063], [-16.375360782999962, 12.375898472000074], [-16.311406327999975, 12.410904646000063], [-16.24020739499997, 12.444927020000023], [-16.162610607999966, 12.449674836000042], [-16.06889614399995, 12.471652991000042], [-16.001455956999962, 12.458330783000065], [-15.953417059999936, 12.442798679000077], [-15.89350120399996, 12.450010808000059], [-15.749399753999967, 12.434850445000052], [-15.683065343999942, 12.424853110000072], [-15.627921709999953, 12.449066982000033], [-15.537432928999976, 12.491988775000038], [-15.429014195999969, 12.537062625000033], [-15.369428963999951, 12.579544034000037], [-15.308196488999954, 12.623931564000031], [-15.239714439999943, 12.65961274800003], [-15.179071466999972, 12.68475449500005], [-15.000561818999927, 12.686279783000032], [-14.794371566999928, 12.678785057000027], [-14.419643234999967, 12.681278475000056], [-14.265214044999937, 12.68010072100003], [-14.10917971899994, 12.676232893000076], [-14.00102682399995, 12.67556826300006], [-13.499927816999957, 12.676368551000053], [-13.347807153999952, 12.659186507000072], [-13.288456002999965, 12.645812999000043], [-13.238145673999952, 12.652038382000057], [-13.185286193999957, 12.63845961100003], [-13.134752520999939, 12.645233219000033], [-13.077650674999973, 12.636575339000046], [-13.045629435999956, 12.59318515800004], [-13.064449986999932, 12.541225206000036], [-13.060884132999945, 12.485270318000062], [-13.00086276199994, 12.482238025000072], [-12.948790023999948, 12.480536481000058], [-12.950053633999971, 12.53488118200005], [-12.90227763699994, 12.552460789000065], [-12.855172971999934, 12.522771423000052], [-12.81707401899996, 12.47999956600006], [-12.766220063999981, 12.475362959000051], [-12.675969259999931, 12.441464482000072], [-12.61305545099998, 12.426034350000066], [-12.575661562999926, 12.385737100000028], [-12.523870441999975, 12.396934547000058], [-12.449577984999962, 12.40023082600004], [-12.396152770999947, 12.380298874000061], [-12.366043520999938, 12.336372385000061], [-12.29387060299996, 12.336912065000035], [-12.239659256999971, 12.349277364000045], [-12.187221123999961, 12.35966182900006], [-12.130071078999947, 12.386506521000058], [-12.08692978099998, 12.422854262000044], [-12.022365263999973, 12.408938126000066], [-11.962701576999962, 12.410642300000063], [-11.916037575999951, 12.440712750000046], [-11.864215731999934, 12.418912469000077], [-11.81360473899997, 12.402663035000046], [-11.760107982999955, 12.38645239300007], [-11.702363565999974, 12.401242496000066], [-11.658473890999971, 12.429245996000077], [-11.601201893999928, 12.43163837800006], [-11.541904564999982, 12.444230235000077], [-11.47470285399993, 12.450159537000047], [-11.419884064999962, 12.43737838800007], [-11.368133547999946, 12.421162461000051], [-11.352703255999927, 12.469895932000043], [-11.38121311499998, 12.522814912000058], [-11.428477097999973, 12.544661050000059], [-11.404813875999935, 12.591049483000063], [-11.415523674999974, 12.65346971200006], [-11.439718175999928, 12.701773469000045], [-11.385535328999936, 12.729103751000025], [-11.385490964999974, 12.78012116800005], [-11.384920831999978, 12.831681840000044], [-11.406568412999945, 12.878656033000027], [-11.39907734999997, 12.931439923000028], [-11.348369892999926, 12.940464693000024], [-11.366583459999958, 12.991022867000027], [-11.41223679899997, 12.970002915000066], [-11.41565763899996, 13.020202532000042], [-11.426270244999955, 13.072839940000051], [-11.477848996999967, 13.099827343000072], [-11.50206811399994, 13.144220233000055], [-11.506065303999947, 13.196173378000026], [-11.54101243699995, 13.234059132000027], [-11.543360329999928, 13.287625306000052], [-11.590974808999931, 13.309556576000034], [-11.595401477999928, 13.362060366000037], [-11.637667188999956, 13.395399128000065], [-11.691742997999938, 13.388953999000023], [-11.737059084999942, 13.41380541600006], [-11.759536218999926, 13.366374789000076], [-11.794796929999961, 13.315733870000031], [-11.847552029999974, 13.352389022000068], [-11.88863306299993, 13.386517792000063], [-11.865205969999977, 13.43476577000007], [-11.897952516999965, 13.48879461200005], [-11.951762260999942, 13.521396755000069], [-11.989031517999933, 13.564664686000071], [-12.02074134999998, 13.606092902000057], [-12.041245397999944, 13.666396943000052], [-12.074145982999937, 13.719975254000076], [-12.01961371699997, 13.748502984000027], [-11.97574948199997, 13.795073818000049], [-11.949776827999926, 13.838217457000042], [-11.933144312999957, 13.924414045000049], [-11.987893679999956, 13.963749754000048], [-12.00623104899995, 14.011615169000038], [-11.99452692899996, 14.064382351000063], [-11.984823430999938, 14.115005491000034], [-11.97511172299994, 14.183896297000047], [-12.02436978399993, 14.284496098000034], [-12.075967, 14.296939888000054], [-12.100429417999976, 14.343580306000035], [-12.124968826999975, 14.392848984000068], [-12.176663032999954, 14.398765118000028], [-12.204748324999969, 14.459000641000046], [-12.211795785999982, 14.524721250000027], [-12.181245582999964, 14.574365703000069], [-12.15247618099994, 14.617089117000035], [-12.175074485999971, 14.665332457000034], [-12.211780547999979, 14.706727451000063], [-12.23773250399995, 14.766578770000024], [-12.285053067999968, 14.78533167300003], [-12.320312337999951, 14.826057215000048], [-12.369872580999981, 14.835743616000059], [-12.41454362199994, 14.864253615000052], [-12.446339340999941, 14.906488827000032], [-12.454720348999956, 14.974911494000025], [-12.49235476299998, 15.018048908000026], [-12.550513016999957, 15.034320807000029], [-12.595837251999967, 15.078449545000069], [-12.658325269999978, 15.110273392000067], [-12.718750446999934, 15.108171576000075], [-12.780052228999978, 15.148807685000065], [-12.788340527999935, 15.206877234000046], [-12.846219472999962, 15.202008789000047], [-12.887544568999942, 15.243775295000034], [-12.834025732999976, 15.271536819000062], [-12.878552041999967, 15.336486322000042], [-12.937082594999936, 15.357194191000076], [-12.94364745699994, 15.407494386000053], [-12.957501930999967, 15.480352203000052], [-13.007691558999966, 15.49260195000005], [-13.059520387999953, 15.482761424000046], [-13.10294126599996, 15.507590914000048], [-13.08513250599998, 15.557951010000068], [-13.137514056999976, 15.605363566000051], [-13.21445654799993, 15.628233308000063], [-13.252679975999968, 15.662574730000074], [-13.206803584999932, 15.69734825100005], [-13.26852299199993, 15.749203798000053], [-13.286474865999935, 15.809388392000074], [-13.296151874999964, 15.858680724000067], [-13.33394870199993, 15.896985459000064], [-13.355061555999953, 15.955636538000022], [-13.375615688999972, 16.01422786300003], [-13.39300571299998, 16.063097153000058], [-13.44545725699993, 16.08483103800006], [-13.502357881999956, 16.083393423000075], [-13.475736647999952, 16.131023268000035], [-13.529544915999963, 16.126032573000032], [-13.602766516999964, 16.12302693500004], [-13.657359693999979, 16.110741999000027], [-13.708849031999932, 16.117793102000064], [-13.702103921999935, 16.17002078400003], [-13.757318914999928, 16.147934901000042], [-13.815259475999937, 16.137319078000075], [-13.867976176999946, 16.12850337900005], [-13.869109163999951, 16.180898176000028], [-13.918611348999946, 16.20431318200002], [-13.967622053999946, 16.222047419000035], [-13.95232578699995, 16.269716052000035], [-13.991468955999949, 16.30286227000005], [-14.027666344999943, 16.34565096500006], [-14.067570803999956, 16.395853513000077], [-14.107884833999947, 16.42846084100006], [-14.13129687199995, 16.477433721000068], [-14.179653189999954, 16.49805742500007], [-14.220902296999952, 16.543474768000067], [-14.272205080999981, 16.540270314000054], [-14.314643082999964, 16.571039496000026], [-14.327951316999929, 16.630815049000034], [-14.38325898499994, 16.637133506000055], [-14.437019121999981, 16.641769870000076], [-14.490554611999926, 16.615422249000062], [-14.539768411999944, 16.642158777000077], [-14.593171200999961, 16.62356724500006], [-14.64609883999998, 16.623465287000045], [-14.706774824999968, 16.639551157000028], [-14.762949894999963, 16.656156700000054], [-14.816290884999944, 16.65545147200004], [-14.873668944999963, 16.661523931000033], [-14.932778449999944, 16.634639883000034], [-14.942361069999947, 16.635854107000057]]]]}}]}