{"type": "FeatureCollection", "features": [{"type": "Feature", "properties": {"code": "SGP", "name": "Singapore", "tier": "country"}, "geometry": {"type": "MultiPolygon", "coordinates": [[[[103.72187139999998, 1.21354619999998], [103.72187139999998, 1.21354619999998]]], [[[103.762032, 1.211174400000024], [103.77439160000003, 1.193175399999989], [103.762032, 1.211174400000024]]], [[[103.8486849, 1.2308515], [103.8486849, 1.2308515]]], [[[103.74767289999998, 1.237373300000042], [103.76887019999998, 1.224893599999975], [103.74767289999998, 1.237373300000042]]], [[[103.76420039999995, 1.240475799999972], [103.77907060000001, 1.224136799999973], [103.76420039999995, 1.240475799999972]]], [[[103.80922429999995, 1.259953499999964], [103.82713949999999, 1.241878500000036], [103.848244, 1.251218700000043], [103.82717159999999, 1.25462770000002], [103.80922429999995, 1.259953499999964]]], [[[103.84243059999997, 1.257746300000038], [103.84243059999997, 1.257746300000038]]], [[[103.71229379999997, 1.29185429999996], [103.69496629999998, 1.279784], [103.65643149999998, 1.2709859], [103.66916850000003, 1.2453464], [103.67190490000003, 1.223556900000043], [103.69032359999999, 1.240094799999978], [103.680196, 1.26296210000003], [103.7138957, 1.258785100000013], [103.73282779999997, 1.269196500000012], [103.7247042, 1.2894169], [103.71229379999997, 1.29185429999996]]], [[[103.93478480000003, 1.427458199999963], [103.9486, 1.409840899999979], [103.97066739999997, 1.40195519999997], [103.99237870000003, 1.408265099999982], [103.96974729999997, 1.419591600000023], [103.94836969999997, 1.420005399999978], [103.93478480000003, 1.427458199999963]]], [[[104.0564354, 1.431991200000036], [104.03745590000001, 1.425042800000041], [104.01632249999999, 1.429232400000034], [104.01395539999997, 1.4090618], [104.023617, 1.386380499999971], [104.03489939999996, 1.403259499999974], [104.04712250000003, 1.385014800000038], [104.07888329999999, 1.386807699999968], [104.08345919999996, 1.406360799999982], [104.07982110000003, 1.3826473], [104.074314, 1.363257099999958], [104.08371550000003, 1.3406798], [104.07457710000003, 1.361543700000032], [104.0876107, 1.395925100000015], [104.0804893, 1.4191545], [104.0564354, 1.431991200000036]]], [[[104.04505429999996, 1.437727], [104.0238326, 1.436869], [104.04491870000003, 1.435670099999962], [104.04505429999996, 1.437727]]], [[[103.81825879999998, 1.4708518], [103.7771316, 1.451197500000044], [103.75457739999999, 1.438536199999961], [103.7318557, 1.447585200000033], [103.70662550000002, 1.4459478], [103.68828089999998, 1.4329826], [103.6716769, 1.4153383], [103.66151739999997, 1.388709899999972], [103.64930139999996, 1.372258299999983], [103.63827919999996, 1.350388200000017], [103.61810880000003, 1.297088599999972], [103.61213690000001, 1.276639199999961], [103.61400410000005, 1.25568969999996], [103.61835780000003, 1.232072500000035], [103.64264580000004, 1.2101274], [103.61040880000002, 1.219519500000031], [103.62168379999997, 1.2383153], [103.6290759, 1.2608641], [103.64040440000004, 1.279073700000042], [103.63518879999997, 1.310926599999982], [103.6570286, 1.311127399999988], [103.6647575, 1.291863600000019], [103.67993620000001, 1.307463200000035], [103.7022863, 1.3040062], [103.72192789999995, 1.29946209999998], [103.74321169999999, 1.301147800000011], [103.76304210000004, 1.294616100000033], [103.77067660000004, 1.268225799999987], [103.7953085, 1.271572200000024], [103.81605159999997, 1.2637829], [103.83965259999998, 1.267626699999978], [103.86084960000002, 1.26473330000003], [103.8737178, 1.282220099999963], [103.8936756, 1.293520599999985], [103.9165583, 1.301381199999961], [103.9485395, 1.310579], [103.97575109999995, 1.316369600000032], [104.0006331, 1.310330699999971], [104.0224125, 1.3154343], [104.02463289999996, 1.335812499999987], [104.03273090000003, 1.358403900000036], [104.01371450000002, 1.370168700000017], [103.99903920000001, 1.389038], [103.97378159999998, 1.39038], [103.94903780000001, 1.383088], [103.934197, 1.3966828], [103.9163703, 1.417248100000011], [103.88887730000002, 1.425575399999966], [103.86397369999997, 1.423858899999962], [103.85483830000003, 1.448319500000038], [103.83643730000004, 1.464131899999986], [103.81825879999998, 1.4708518]]]]}}]}