{"type": "FeatureCollection", "features": [{"type": "Feature", "properties": {"code": "SHN", "name": "Saint Helena, Ascension, and Tristan da Cunha", "tier": "country"}, "geometry": {"type": "MultiPolygon", "coordinates": [[[[-9.902128557889625, -40.315788953169886], [-9.902128557889625, -40.315788953169886]]], [[[-12.472927025363902, -37.422046167763824], [-12.472927025363902, -37.422046167763824]]], [[[-12.479754220958341, -37.409290091784385], [-12.479754220958341, -37.409290091784385]]], [[[-12.488737373056779, -37.40381036900442], [-12.488737373056779, -37.40381036900442]]], [[[-12.683402279025756, -37.32287216859942], [-12.683402279025756, -37.32287216859942]]], [[[-12.334227156967017, -37.13961586579529], [-12.217588471415581, -37.110257801844114], [-12.336832271075536, -37.08787290970946], [-12.334227156967017, -37.13961586579529]], [[-12.263566419461483, -37.07768545378303], [-12.263566419461483, -37.07768545378303]], [[-12.261419586471789, -37.073095624507744], [-12.261419586471789, -37.073095624507744]]], [[[-5.772837418421716, -15.969907700334602], [-5.772837418421716, -15.969907700334602]]], [[[-5.70448124542412, -16.002708136242063], [-5.70448124542412, -16.002708136242063]]], [[[-14.306957853524182, -7.936738915714386], [-14.306957853524182, -7.936738915714386]]], [[[-14.320042759803755, -7.970422687600944], [-14.320042759803755, -7.970422687600944]]]]}}]}