{"type": "FeatureCollection", "features": [{"type": "Feature", "properties": {"code": "SLB", "name": "Solomon Islands", "tier": "country"}, "geometry": {"type": "MultiPolygon", "coordinates": [[[[160.50367272191863, -11.736016533935867], [160.3938908214044, -11.657810154215213], [160.30811608189174, -11.626641534379246], [160.25847415515818, -11.595472915442656], [160.19336998843426, -11.556329033957695], [160.13738040478188, -11.52988046720975], [160.09669030001737, -11.4992001279835], [160.04175865993432, -11.49049244586962], [159.97608483204942, -11.491387628336327], [159.98194420656, -11.554294529169113], [160.02369225399434, -11.60068124824096], [160.0825301443507, -11.592217705982307], [160.15121504004208, -11.647149346964738], [160.20997154984718, -11.653497002984238], [160.27076256623945, -11.632989191298066], [160.2858179052722, -11.686944269262597], [160.33969160178606, -11.701348565683702], [160.3800561861441, -11.777032159106795], [160.42847741000458, -11.811211846749302], [160.48316491023252, -11.844984633434024], [160.52963300895624, -11.806817315866397], [160.58220462294503, -11.794854425191545], [160.50367272191863, -11.736016533935867]]], [[[159.80469811322746, -11.29045989440857], [159.8532007167397, -11.324476820948462], [159.80469811322746, -11.29045989440857]]], [[[161.7409774100795, -10.272556247972432], [161.7306421232355, -10.206719658985037], [161.74195397219808, -10.259047133118656], [161.7409774100795, -10.272556247972432]]], [[[162.37484785204686, -10.823663019132994], [162.30347740985462, -10.819431247554007], [162.275238477274, -10.776950778755406], [162.29175865993432, -10.707696221903063], [162.24195397209814, -10.6561825496849], [162.2153426442477, -10.596774998167575], [162.17139733182148, -10.52402109199977], [162.11361738413507, -10.456475518630214], [162.0639754574015, -10.47584400799451], [162.00928795717357, -10.478448174843322], [161.96355227981394, -10.440606377682116], [161.8951929054283, -10.433770441052957], [161.8357039715611, -10.446954033701672], [161.79102623777078, -10.411797783940528], [161.73511803466965, -10.405368748269098], [161.70020592476374, -10.365492446319308], [161.6095483728592, -10.31682708080507], [161.50220787899048, -10.250746351962505], [161.3960067074437, -10.204034113383557], [161.3408309248074, -10.214043878022494], [161.29184003978605, -10.225762627942856], [161.28492272170627, -10.276136976939881], [161.2931421232105, -10.331231378125551], [161.3440047537165, -10.344496352224837], [161.40284264407285, -10.330010675252424], [161.4526473319089, -10.344496352224837], [161.50554446720344, -10.363539321182657], [161.49040774761954, -10.42017994564793], [161.522146030415, -10.46306731630358], [161.52466881581324, -10.5642229152553], [161.58130944117784, -10.563164971686035], [161.62582441476502, -10.624444268688023], [161.67945397232302, -10.646172784146643], [161.72348066530049, -10.683689060002052], [161.76921634176085, -10.718845309763196], [161.81861412863918, -10.73316822743169], [161.87134850373047, -10.755303643848038], [161.95069420667232, -10.774102472051425], [162.01124108231022, -10.769626559717892], [162.08008873820472, -10.803806248259718], [162.13803144609437, -10.823174737624015], [162.2070418630916, -10.808038018939385], [162.2786564460382, -10.835544529256595], [162.34115644591327, -10.838148696105407], [162.39161217456228, -10.838799737817624], [162.37484785204686, -10.823663019132994]]], [[[167.1733504568582, -9.886407159063083], [167.1733504568582, -9.886407159063083]]], [[[167.0918074880252, -9.803317966950544], [167.0918074880252, -9.803317966950544]]], [[[161.97779381603186, -9.851006769446826], [161.96973717473088, -9.734958591665645], [161.9401961596251, -9.692152601561247], [161.9401961596251, -9.790134373402566], [161.9636336603652, -9.839288018627087], [161.97779381603186, -9.851006769446826]]], [[[161.39478600367124, -9.412774347158347], [161.4091903000923, -9.465997002859353], [161.39478600367124, -9.529473565752426], [161.39478600367124, -9.649021091949805], [161.43262779993313, -9.717950128395671], [161.47738691517407, -9.686618748356523], [161.5451766292981, -9.772230726766566], [161.57048587282486, -9.726332290103073], [161.55250084743625, -9.676364842063776], [161.55193118627528, -9.622979425260212], [161.50668379042463, -9.549493096828883], [161.48170006640498, -9.504652601935959], [161.4563094414276, -9.453789972329332], [161.42628014391357, -9.411716403589082], [161.38086998785968, -9.365166925213373], [161.37501061334922, -9.419610283787506], [161.39478600367124, -9.412774347158347]]], [[[160.8263452479349, -9.837334894389812], [160.80551191494294, -9.774021091699979], [160.78541100421455, -9.72747161332427], [160.72299238399137, -9.700453382717399], [160.67302493595207, -9.698011976971088], [160.66570071691467, -9.64812590858378], [160.62842858181364, -9.582289321395024], [160.5864363936247, -9.551364842313603], [160.50367272191863, -9.536309503280904], [160.4755965504405, -9.493259373321393], [160.4192000658304, -9.46111419136679], [160.37818444065942, -9.42424895632422], [160.27076256623945, -9.419610283787506], [160.21119225361963, -9.42424895632422], [160.15772545716413, -9.412774347158347], [160.10987389356535, -9.43352629959901], [160.05616295725474, -9.417413018795742], [159.9609481133648, -9.434665622820205], [159.9082137382735, -9.415622653862329], [159.87973066493828, -9.368096613367982], [159.8326929050536, -9.330254816206775], [159.77898196694423, -9.281996351650264], [159.70899498782853, -9.247735284355826], [159.64616946664762, -9.284763278702314], [159.60670006565556, -9.343926691263732], [159.61247806141353, -9.398858331346844], [159.61109459743784, -9.457126559642973], [159.59913170676293, -9.5123837219312], [159.63965905042494, -9.556410414908669], [159.67497806128858, -9.61760833135935], [159.7021590503, -9.667575779398646], [159.75074303526299, -9.720635674896414], [159.81495201862083, -9.778985283743793], [159.86784915481473, -9.785739841620341], [159.9372664718702, -9.805596613392936], [160.00326582106084, -9.816827080905], [160.07911217468722, -9.823825778636717], [160.2082625663644, -9.81015390357976], [160.32032311332114, -9.815118097422214], [160.37378990977663, -9.837334894389812], [160.42416425877354, -9.880140882695514], [160.48682701885195, -9.885186456189956], [160.57252037871262, -9.919203382729904], [160.6447860042707, -9.937107029365848], [160.7233179052971, -9.89950937295913], [160.79851321721128, -9.88404713296876], [160.8263452479349, -9.837334894389812]]], [[[159.82886803533165, -9.1726213520937], [159.84009850374298, -9.122735283706334], [159.8147078787656, -9.166192316422212], [159.82886803533165, -9.1726213520937]]], [[[160.25407962337601, -9.158949477036685], [160.30494225388202, -9.159844658604072], [160.36638431108713, -9.186211846599406], [160.40202884235725, -9.144138278758533], [160.35922285225286, -9.110935154133983], [160.33228600399593, -9.063409112740317], [160.29200280018915, -9.131605726922714], [160.25407962337601, -9.158949477036685]]], [[[159.1951603517689, -9.056573175211838], [159.17497806138852, -9.111423434743699], [159.23324628968464, -9.101006769147034], [159.22738691517407, -9.048597915361484], [159.1951603517689, -9.056573175211838]]], [[[160.09669030001737, -9.056573175211838], [160.13819420669734, -9.094821873330716], [160.18751061302441, -9.081801039985976], [160.2229923840913, -9.1179338518657], [160.28052819102322, -9.115980726729106], [160.30144290456644, -9.061618747806904], [160.25798587274994, -9.009047132918795], [160.19092858178874, -9.000420831356223], [160.14112389395257, -8.994398695743143], [160.10515384227608, -9.035088799608388], [160.09669030001737, -9.056573175211838]]], [[[159.16716556084202, -9.017998955787107], [159.11622154978477, -8.999281508135027], [159.06934655010332, -9.033786717083274], [159.06478925901718, -9.103692315647777], [159.14730878996875, -9.103692315647777], [159.1951603517689, -9.023044529281549], [159.16716556084202, -9.017998955787107]]], [[[160.07911217468722, -9.023044529281549], [160.11378014383865, -8.974297784115379], [160.0680444673783, -9.003350518611512], [160.07911217468722, -9.023044529281549]]], [[[157.61548912872036, -8.734470310356471], [157.57390384238852, -8.70647551942966], [157.52369225359473, -8.70647551942966], [157.4553328792091, -8.70647551942966], [157.52979576885969, -8.761814059571122], [157.61353600358382, -8.79306405995834], [157.63550865979687, -8.744073174937], [157.61548912872036, -8.734470310356471]]], [[[158.2287703793496, -8.77467213271268], [158.22339928544875, -8.714939059889673], [158.16521243590523, -8.749200128083373], [158.16358483207443, -8.802015882826709], [158.22396894571034, -8.813734632747071], [158.2287703793496, -8.77467213271268]]], [[[158.05689537901856, -8.528252863079103], [158.006846550428, -8.536879164641675], [157.95508873835468, -8.528252863079103], [157.93767337322765, -8.579359633440276], [157.88607832135756, -8.59661223836406], [157.87924238382902, -8.6825497380799], [157.92774498824065, -8.734470310356471], [157.9768986343646, -8.762627863285218], [158.0385848323242, -8.756768487875377], [158.10572350383666, -8.69109465909122], [158.10621178534564, -8.634535415177197], [158.0955509771959, -8.585544529256595], [158.13249759189046, -8.545505467103567], [158.07764733235854, -8.523532809991138], [158.05689537901856, -8.528252863079103]]], [[[157.3586531907922, -8.576755466591464], [157.39584394624114, -8.521172783896816], [157.40992272225594, -8.468926691213767], [157.3840438157696, -8.42498137788823], [157.3172306646635, -8.431735934865458], [157.2700301436763, -8.496514581182907], [157.21892337331508, -8.529229425197741], [157.20915774763205, -8.578383071321639], [157.26612389430238, -8.610935154233914], [157.30420983221802, -8.65471770555763], [157.3296004571954, -8.701836846892945], [157.3795679052347, -8.729750258167826], [157.33464602979052, -8.662367445900884], [157.33806399765547, -8.604099216705436], [157.3586531907922, -8.576755466591464]]], [[[159.68864993634554, -8.50790780979753], [159.64698326856308, -8.468438408805468], [159.6440535822071, -8.400323175174321], [159.5782983728717, -8.380140882995306], [159.53785240976094, -8.432793878434723], [159.56527754042622, -8.479099216955262], [159.61353600408336, -8.50790780979753], [159.65992272225594, -8.539646091693726], [159.68864993634554, -8.50790780979753]]], [[[162.73861738378525, -8.38836028360015], [162.73861738378525, -8.38836028360015]]], [[[161.36068769568067, -9.61760833135935], [161.38111412861417, -9.509047132818864], [161.3476668632352, -9.455824477117858], [161.29664147162669, -9.360284112821489], [161.24586022167193, -9.303887628211442], [161.26099694125594, -9.241875908945985], [161.28492272170627, -9.193047784127884], [161.24398847708665, -9.153903904441563], [161.22868899819878, -9.103692315647777], [161.18848717494325, -9.054131768566208], [161.16358483237423, -8.999444269237586], [161.15113366019034, -8.949639581401527], [161.10303795673633, -8.909844659103669], [161.05307050869703, -8.889743748375224], [161.0229598324304, -8.840752863353941], [160.96534264404784, -8.831231378425343], [160.93677819106074, -8.771661065805517], [160.9533797542723, -8.718519789756442], [160.98373457129355, -8.674086195821246], [161.0066024099733, -8.622816665256835], [160.97315514369495, -8.573011977420776], [160.93287194078755, -8.539320571287305], [160.88103274816285, -8.483982029347146], [160.84742272168137, -8.432793878434723], [160.81950931130575, -8.384942315735259], [160.77784264442255, -8.343357029403364], [160.7233179052971, -8.309258722312165], [160.71314537865635, -8.362399998361184], [160.6384383473519, -8.329766533998281], [160.58106529972383, -8.340508721800006], [160.6043400402607, -8.399997653868581], [160.65137780014538, -8.439629815963201], [160.6959741551832, -8.501071873168371], [160.71998131618489, -8.55339934730199], [160.6720483729341, -8.592380466785073], [160.68685957121227, -8.674574477330225], [160.68930097695863, -8.737562757814999], [160.73438561260605, -8.833672784171597], [160.7636824878566, -8.90545012822082], [160.7776798842193, -8.970310154190202], [160.7952580086502, -9.01930104011086], [160.86793053516612, -9.152113540407527], [160.94646243619252, -9.200127863310172], [160.97315514369495, -9.251397393874583], [161.04542076925316, -9.296075127664949], [161.11068769618032, -9.347263278577373], [161.17920983166846, -9.381768488424939], [161.2263289721044, -9.430433852140538], [161.2421981130525, -9.478122653737444], [161.2893986340398, -9.548597915261553], [161.36068769568067, -9.61760833135935]]], [[[157.1251733730528, -8.27507903377034], [157.11207116005608, -8.223890882857916], [157.04997806113863, -8.196709893846503], [157.0905867853519, -8.249118747632053], [157.1235457692219, -8.320407810172242], [157.1251733730528, -8.27507903377034]]], [[[157.20769290490375, -8.288750908827353], [157.20411217503693, -8.232842705726227], [157.18726647197013, -8.185723566189608], [157.12232506634882, -8.16741301859588], [157.15040123782694, -8.215915623007561], [157.1730249357522, -8.26881275830209], [157.20769290490375, -8.288750908827353]]], [[[156.8105574883375, -8.055352471639196], [156.81544029983002, -8.11199309700379], [156.8105574883375, -8.055352471639196]]], [[[157.7973738936903, -8.56243254982229], [157.88607832135756, -8.582940363307102], [157.9069116552488, -8.490899347426875], [157.87387128992816, -8.415459893858952], [157.83838951886128, -8.371270440678245], [157.80225670698155, -8.30535247203892], [157.77849368583497, -8.25335051921104], [157.7301538416266, -8.223402602248257], [157.67335045695813, -8.238457941280899], [157.63599694130585, -8.189385674808989], [157.6193139984423, -8.137953383142076], [157.61182701920166, -8.066176039992229], [157.60564212338534, -8.00758229039036], [157.5094507173768, -7.966566665219375], [157.45720462289512, -7.973565362951092], [157.3828231128964, -8.031508070840744], [157.35824628983448, -8.078220310319011], [157.32650800883755, -8.119398695693178], [157.3199975917156, -8.17652760166743], [157.27125084744875, -8.19166432125138], [157.22486412927617, -8.217705987940917], [157.22820071658987, -8.316664321001554], [157.27955162860485, -8.333428644416358], [157.3296004571954, -8.308038019438982], [157.39340253959563, -8.275567316178638], [157.45655358208217, -8.262302342079352], [157.51807701893938, -8.26580169139487], [157.56706790485998, -8.276299738442106], [157.5937606132618, -8.32333749832685], [157.62696373788629, -8.378024997655473], [157.57593834717704, -8.346856377819506], [157.56788170677544, -8.398858330647386], [157.60564212338534, -8.467461846686831], [157.6496688163628, -8.49797942481058], [157.72934003971113, -8.51392994630993], [157.77784264412276, -8.551527601817327], [157.80884850375548, -8.601332289653385], [157.7973738936903, -8.56243254982229]]], [[[156.61117597678992, -8.07268645621491], [156.6010848315998, -8.02337004988783], [156.58155358203226, -7.977146091918542], [156.53239993590842, -7.948907159337864], [156.54297936260753, -8.021172783996747], [156.53842207062212, -8.091485284418297], [156.57837975402254, -8.187107029265917], [156.61898847733642, -8.14617278374692], [156.61117597678992, -8.07268645621491]]], [[[157.10466556136657, -8.124932549797279], [157.16724694089362, -8.135511977395765], [157.1994735042988, -8.065199476974215], [157.2009383470272, -8.000746351962505], [157.17042076890345, -7.909926039854781], [157.0910750659616, -7.850518488337514], [157.03272545711422, -7.862969658722704], [156.98853600393352, -7.888116143844911], [156.96127363437074, -7.932549737780107], [156.96216881593818, -8.027439060364316], [157.00228925864246, -8.086846612780903], [157.0542098318183, -8.129082940825015], [157.10466556136657, -8.124932549797279]]], [[[156.80713951867392, -7.720147393787158], [156.74366295668017, -7.691827080655173], [156.69459069110758, -7.672295831087695], [156.65707441525217, -7.631442967019268], [156.6193953791934, -7.585137627599408], [156.57097415533303, -7.569431247753812], [156.50416100422706, -7.630059503043583], [156.51563561339287, -7.720147393787158], [156.57097415533303, -7.754327081429608], [156.61475670665675, -7.805108331384361], [156.61182701940152, -7.871189060226925], [156.6617944674408, -7.899102472401125], [156.7006942072719, -7.945489190573653], [156.70411217513686, -7.88502369638644], [156.74398847708665, -7.831963799989353], [156.7994897801293, -7.766534112858949], [156.80713951867392, -7.720147393787158]]], [[[155.57032311292141, -7.322930596669664], [155.5144149098203, -7.357517185269842], [155.57618248833126, -7.387872003190353], [155.59742272228084, -7.342054946178791], [155.57032311292141, -7.322930596669664]]], [[[155.81674238435357, -7.020684502687629], [155.74740644605072, -6.970879815750834], [155.71192467498383, -7.010674738048692], [155.67448977967967, -7.075941664975801], [155.7255965500408, -7.119561456096278], [155.78663170718755, -7.117852471714173], [155.85092207109676, -7.099297784265275], [155.86801191491804, -7.048516534310579], [155.81674238435357, -7.020684502687629]]], [[[156.11841881627538, -6.918226821210794], [156.08969160218578, -6.872328382748606], [156.0979110036899, -6.822035415202208], [156.04688561298076, -6.851657809959931], [156.0817977219873, -6.895684502937399], [156.07667076884093, -6.94752369556204], [156.13209069133245, -6.938734632896967], [156.11841881627538, -6.918226821210794]]], [[[166.9239198307357, -11.64097153061158], [166.89344522941383, -11.59378398144554], [166.80553196862547, -11.591568312727418], [166.76724825720135, -11.633490164939133], [166.80250084683667, -11.67717864357951], [166.84302083944021, -11.713315820768457], [166.98414885898273, -11.709863309044408], [166.92401641522542, -11.674288608332574], [166.9239198307357, -11.64097153061158]]], [[[166.55725160777558, -11.283643658328117], [166.55575985913026, -11.226790703028485], [166.49426631483868, -11.229276882422141], [166.48344922430238, -11.278662434923376], [166.53416335515476, -11.308094010630043], [166.55725160777558, -11.283643658328117]]], [[[166.1479045858281, -10.694046401819946], [166.08497154979727, -10.672051690632998], [166.02666374593514, -10.647016064040088], [165.92334342216122, -10.65353927941419], [165.84784080381007, -10.684607855967727], [165.827093882177, -10.749212321591301], [165.79263405301924, -10.70913670829242], [165.75303038774223, -10.751887721041442], [165.7564743406184, -10.812161111945727], [165.80008040268854, -10.837543284195135], [165.8523924156775, -10.828618244936024], [165.93421965391394, -10.775741310213277], [166.0023761511385, -10.757215740114248], [166.05450146037413, -10.766732050343819], [166.13298587269992, -10.724786065724288], [166.1479045858281, -10.694046401819946]]], [[[158.4860945969881, -7.610284112721558], [158.43433678491476, -7.595147394036985], [158.38648522221536, -7.569431247753812], [158.33073978021673, -7.577325127952236], [158.36361738443486, -7.63128020591671], [158.42115319136678, -7.643812757752528], [158.47510826933126, -7.623955987778572], [158.52361087284362, -7.658135675421022], [158.4860945969881, -7.610284112721558]]], [[[159.85938561255603, -8.511325778561798], [159.84791100428947, -8.46160247217631], [159.81788170677544, -8.420098566395666], [159.75757897189214, -8.397556248122328], [159.82504316471034, -8.357598565621288], [159.64893639369973, -8.181247653856076], [159.55640709720979, -8.126397394324215], [159.5099389975867, -8.089532159281703], [159.44792728011998, -8.043877863372643], [159.4129337896627, -7.993422132925048], [159.3527938158819, -7.973402601848534], [159.3012801436638, -7.987074476905548], [159.2507430353628, -7.954196872687476], [159.19874108163572, -7.926853122573505], [159.14942467530864, -7.908868097184893], [159.09961998837184, -7.898370050137657], [159.0568953788187, -7.859958591815541], [159.00269616009973, -7.848890882708019], [158.96876061321177, -7.790704034063879], [158.92074629030913, -7.754327081429608], [158.87232506644875, -7.733819268844115], [158.83025149770856, -7.693780205791825], [158.79818769630526, -7.654473565902322], [158.76026451859275, -7.615980727028898], [158.6757918634038, -7.593845309713231], [158.62525475420364, -7.564141534404257], [158.48951256575242, -7.546970310031725], [158.50684655032808, -7.603610935396318], [158.58497155039674, -7.668633721568938], [158.58057701861458, -7.730238539876666], [158.6442977222622, -7.791761976733767], [158.70362389412753, -7.822930596569734], [158.72852623759582, -7.872002863041644], [158.7773543633133, -7.891534112609179], [158.83204186264186, -7.917901299705193], [158.84571373769893, -7.973402601848534], [158.90406334744557, -8.000746351962505], [158.94629967459036, -8.029229425297672], [159.0032658212607, -8.062758071227961], [159.06478925901718, -8.09693775797109], [159.11378014403851, -8.116387627886695], [159.21363365956586, -8.18531666523188], [159.2771102215595, -8.193129164878997], [159.32618248803146, -8.22584400799451], [159.38062584660565, -8.261651300367191], [159.44483483176214, -8.28118254993467], [159.5083113937559, -8.318536065586898], [159.62720787914043, -8.357598565621288], [159.6738387380674, -8.398695571343524], [159.71241295659274, -8.44312916527872], [159.75782311264663, -8.485528252626693], [159.79737389418995, -8.51726653362357], [159.84156334737065, -8.541110935321342], [159.88721764417903, -8.56243254982229], [159.85938561255603, -8.511325778561798]]], [[[158.36524498826566, -7.548272394355479], [158.42115319136678, -7.561293226800956], [158.3930770189893, -7.505791924657558], [158.33611087321833, -7.494561456246174], [158.28630618628154, -7.472832940787555], [158.33765709739714, -7.518324477392696], [158.36524498826566, -7.548272394355479]]], [[[157.61158287934643, -7.40422942474811], [157.5354110044144, -7.395603123185538], [157.47559655014072, -7.411797783640736], [157.53052819112315, -7.420668226857117], [157.5804142586112, -7.452813408811721], [157.61898847713655, -7.411797783640736], [157.61158287934643, -7.40422942474811]]], [[[158.2832137379237, -7.411797783640736], [158.22429446701608, -7.419610284187229], [158.24903405028124, -7.473239841745226], [158.27662194114976, -7.430759372946682], [158.2832137379237, -7.411797783640736]]], [[[157.77621504029196, -7.407972914818117], [157.72169030026726, -7.383884373265175], [157.68897545715174, -7.42302825295144], [157.71070397171104, -7.470961196202211], [157.77027428523013, -7.47478606592415], [157.77808678487725, -7.422946873299509], [157.77621504029196, -7.407972914818117]]], [[[157.52979576885969, -7.333184502962411], [157.4555770190642, -7.314222914555842], [157.4025985041177, -7.305759373196452], [157.34489993608327, -7.281996352049987], [157.2971297539351, -7.257745050293806], [157.26612389430238, -7.206231378075586], [157.21558678510212, -7.182224217073895], [157.17269941534585, -7.147637627574397], [157.13624108216027, -7.086114190717296], [157.12330162936678, -6.998223565864805], [157.07398522214032, -6.934991143726279], [157.03272545711422, -6.895196222327741], [156.98047936263254, -6.864678644204048], [156.92725670693153, -6.849379165316179], [156.82309004017327, -6.787286066398792], [156.73511803476958, -6.745538018964339], [156.66960696708793, -6.674981377788299], [156.60515384207622, -6.643975519054891], [156.54802493610202, -6.610528252776589], [156.48780358176998, -6.602959893883963], [156.44695071680223, -6.644789320970347], [156.45443769604287, -6.719414971723495], [156.5962020192079, -6.850762628392545], [156.6705835301059, -6.885674738298462], [156.72201582087348, -6.956475519329729], [156.78305097712098, -7.028090102276337], [156.8232528003765, -7.06707122175942], [156.9277449884405, -7.208754165272467], [156.97925865975935, -7.2299130186708], [157.02279707122796, -7.268324476992973], [157.08269290515352, -7.287530206154031], [157.11833743642364, -7.342461847136462], [157.2009383470272, -7.336602471726621], [157.25757897239168, -7.359795830812914], [157.30844160199842, -7.339613540432481], [157.32545006616772, -7.391778252564279], [157.39014733193392, -7.402032158857025], [157.441742383804, -7.414239191185686], [157.485524936027, -7.377618096897606], [157.52979576885969, -7.333184502962411]]], [[[168.8122664721201, -12.26628997210446], [168.8122664721201, -12.26628997210446]]], [[[165.74529056141034, -10.421644790174867], [165.74529056141034, -10.421644790174867]]], [[[160.63575279995177, -7.8910458311002], [160.63575279995177, -7.8910458311002]]], [[[166.98487389421496, -11.614353123297974], [166.9389754566521, -11.642022393818365], [166.98552493592717, -11.623304946166286], [166.98487389421496, -11.614353123297974]]], [[[166.2524520192453, -10.264906507629178], [166.23853600433324, -10.215020441040451], [166.22868899809885, -10.27605559728795], [166.27995852956258, -10.27304452858209], [166.2524520192453, -10.264906507629178]]], [[[156.54542076925316, -7.791680597081836], [156.54542076925316, -7.791680597081836]]]]}}]}