{"type": "FeatureCollection", "features": [{"type": "Feature", "properties": {"code": "SLE", "name": "Republic of Sierra Leone", "tier": "country"}, "geometry": {"type": "MultiPolygon", "coordinates": [[[[-12.56262192106476, 7.376283621891673], [-12.56262192106476, 7.376283621891673]]], [[[-12.568640518744871, 7.400143265299505], [-12.568640518744871, 7.400143265299505]]], [[[-12.569834979400753, 7.400928196279267], [-12.569834979400753, 7.400928196279267]]], [[[-12.567241293251016, 7.420380839704023], [-12.567241293251016, 7.420380839704023]]], [[[-12.440849154664704, 7.410460731177864], [-12.440849154664704, 7.410460731177864]]], [[[-12.500829288340924, 7.428776190868575], [-12.500829288340924, 7.428776190868575]]], [[[-12.481376644916168, 7.430823837450191], [-12.481376644916168, 7.430823837450191]]], [[[-12.482878252829039, 7.441335090142331], [-12.482878252829039, 7.441335090142331]]], [[[-12.484652879626651, 7.431711150848969], [-12.484652879626651, 7.431711150848969]]], [[[-12.496392720447659, 7.447341519995177], [-12.496392720447659, 7.447341519995177]]], [[[-12.519121597683522, 7.453689224578113], [-12.519121597683522, 7.453689224578113]]], [[[-12.4973030223166, 7.46906970630198], [-12.4973030223166, 7.46906970630198]]], [[[-12.509292894451448, 7.469524358562353], [-12.509292894451448, 7.469524358562353]]], [[[-12.472662547938171, 7.513271293135745], [-12.472662547938171, 7.513271293135745]]], [[[-12.483274774711049, 7.521092710460266], [-12.483274774711049, 7.521092710460266]]], [[[-12.49516868558635, 7.531994964995704], [-12.49516868558635, 7.531994964995704]]], [[[-12.467665679927165, 7.521516125668711], [-12.459420847394142, 7.540670786827377], [-12.472650650806827, 7.525596901076199], [-12.467665679927165, 7.521516125668711]]], [[[-12.493754488179036, 7.542502972034583], [-12.493754488179036, 7.542502972034583]]], [[[-12.472655470273708, 7.545689826724185], [-12.472655470273708, 7.545689826724185]]], [[[-12.971966017517673, 7.563669270020853], [-12.971966017517673, 7.563669270020853]]], [[[-12.988922697824194, 7.58222522551381], [-12.988922697824194, 7.58222522551381]]], [[[-12.924397328473901, 7.584862759009184], [-12.924397328473901, 7.584862759009184]]], [[[-12.980429997746171, 7.591521352028849], [-12.980429997746171, 7.591521352028849]]], [[[-12.98082170285926, 7.588536466185019], [-13.005345945259137, 7.583165562940451], [-12.975452438179445, 7.567718792188543], [-12.968576012273104, 7.588159675428699], [-12.98082170285926, 7.588536466185019]]], [[[-13.003146538082206, 7.590797208924073], [-13.003146538082206, 7.590797208924073]]], [[[-12.477786148411951, 7.584946704426898], [-12.477786148411951, 7.584946704426898]]], [[[-13.017952282871533, 7.595148946466736], [-13.017952282871533, 7.595148946466736]]], [[[-12.476453649915982, 7.593524661134268], [-12.476453649915982, 7.593524661134268]]], [[[-13.01615251822409, 7.60253655062138], [-13.01615251822409, 7.60253655062138]]], [[[-13.010870743190196, 7.604267468568878], [-13.010870743190196, 7.604267468568878]]], [[[-12.945054567014608, 7.608392617425409], [-12.945054567014608, 7.608392617425409]]], [[[-12.494192532659213, 7.620924155725277], [-12.482033486356272, 7.604018084766835], [-12.494192532659213, 7.620924155725277]]], [[[-13.017370379239537, 7.616513159155033], [-13.017370379239537, 7.616513159155033]]], [[[-12.502603926829693, 7.626587272084976], [-12.502603926829693, 7.626587272084976]]], [[[-12.956627098861475, 7.630460010021466], [-12.956627098861475, 7.630460010021466]]], [[[-12.55353034175181, 7.629543752841982], [-12.55353034175181, 7.629543752841982]]], [[[-12.60448910438862, 7.637609435926777], [-12.625731949969463, 7.640641866229203], [-12.658477448275562, 7.635635275647473], [-12.692382229356326, 7.639012193058306], [-12.72344038546538, 7.624412774330096], [-12.746363827428638, 7.625367735632551], [-12.770855208600949, 7.627722676060728], [-12.803510200035646, 7.627136238047001], [-12.840450480804975, 7.618461591629227], [-12.860485178048464, 7.619411512231579], [-12.891314432415072, 7.610775866712913], [-12.914457961865423, 7.601449370092382], [-12.900283922465007, 7.580111108241113], [-12.921708498548298, 7.579384851729571], [-12.943496202887388, 7.579747979985314], [-12.898831408542605, 7.560865302591708], [-12.865647972775662, 7.550837524532199], [-12.838677494370813, 7.545393956066277], [-12.778764397958525, 7.529117620981481], [-12.666997086646177, 7.493451993414794], [-12.617862455787645, 7.473105175663363], [-12.59545924015174, 7.461463877156234], [-12.578221075642091, 7.449218186570079], [-12.564021954149837, 7.429781953974043], [-12.564033313486561, 7.408026705268298], [-12.559323726708556, 7.388164533066799], [-12.530876062380344, 7.391306070019141], [-12.534790275250941, 7.416290410074396], [-12.530437634788996, 7.468449121929496], [-12.504166252470554, 7.490549568208053], [-12.4898771681967, 7.506288887522203], [-12.499952760511462, 7.525771109649043], [-12.512697048729763, 7.544122970298872], [-12.494898611981284, 7.564197708057804], [-12.50538177434936, 7.586102727159187], [-12.530437634788996, 7.602806634118906], [-12.556932414099606, 7.611991673676869], [-12.57982309825735, 7.608253560653338], [-12.58618460293701, 7.635304290960335], [-12.60448910438862, 7.637609435926777]]], [[[-12.993538380991424, 7.633186137530288], [-12.993538380991424, 7.633186137530288]]], [[[-13.06875355892953, 7.653140461463181], [-13.06875355892953, 7.653140461463181]]], [[[-12.523340929840003, 7.625004931132707], [-12.540330281617173, 7.647074431739668], [-12.532252011620983, 7.625504617843887], [-12.523340929840003, 7.625004931132707]]], [[[-13.046981450633382, 7.638634627086446], [-13.020102109524714, 7.657206531156532], [-13.039955605067064, 7.6532206045473], [-13.057121774350378, 7.638555402210102], [-13.041767562722782, 7.62122304001133], [-13.046981450633382, 7.638634627086446]]], [[[-13.074577263629749, 7.6533007467321], [-13.074577263629749, 7.6533007467321]]], [[[-13.072787409511307, 7.667833295470246], [-13.072787409511307, 7.667833295470246]]], [[[-12.683948600347605, 7.680761651529053], [-12.702520293976363, 7.671600726392455], [-12.679617981584556, 7.6785963421475], [-12.683948600347605, 7.680761651529053]]], [[[-12.517552890453487, 7.715656447686968], [-12.541371295448869, 7.699000220084145], [-12.518968669768242, 7.696335223991468], [-12.517552890453487, 7.715656447686968]]], [[[-12.980647109376548, 7.91216454795557], [-12.980647109376548, 7.91216454795557]]], [[[-13.244414481143338, 8.095222901215948], [-13.244414481143338, 8.095222901215948]]], [[[-13.221310864504744, 8.10887935829578], [-13.242824026507549, 8.102274099570081], [-13.220372979529316, 8.103851221756543], [-13.221310864504744, 8.10887935829578]]], [[[-13.190689069345012, 8.139366931438758], [-13.206949677085902, 8.126639468636597], [-13.190689069345012, 8.139366931438758]]], [[[-13.163306044937997, 8.202369015617649], [-13.163306044937997, 8.202369015617649]]], [[[-13.131352139789385, 8.537120181351327], [-13.131352139789385, 8.537120181351327]]], [[[-13.120275748626852, 8.538952365659213], [-13.120275748626852, 8.538952365659213]]], [[[-12.935477568734768, 8.555488414159015], [-12.958899815174277, 8.555488414159015], [-12.949095722789309, 8.531748330221319], [-12.929288810330263, 8.539537865680018], [-12.935477568734768, 8.555488414159015]]], [[[-13.121524965404774, 8.55935624449512], [-13.121524965404774, 8.55935624449512]]], [[[-13.075181536098967, 8.565430351929251], [-13.087770567157918, 8.539206966428424], [-13.060521444608924, 8.545811715238528], [-13.067187900401223, 8.566334113028915], [-13.075181536098967, 8.565430351929251]]], [[[-13.10636779883481, 8.560272337098752], [-13.10636779883481, 8.560272337098752]]], [[[-13.040242576933338, 8.567684357846872], [-13.040242576933338, 8.567684357846872]]], [[[-12.948621065110046, 8.571650715208364], [-12.948621065110046, 8.571650715208364]]], [[[-13.067392227269409, 8.573597318461509], [-13.067392227269409, 8.573597318461509]]], [[[-13.000434193583146, 8.580426371679778], [-13.000434193583146, 8.580426371679778]]], [[[-12.964290180647254, 8.57351403764278], [-12.987275774757165, 8.578510905653843], [-13.009345275364126, 8.572764506676663], [-12.983944529416476, 8.570682479013271], [-12.960792373669051, 8.56843388791367], [-12.964290180647254, 8.57351403764278]]], [[[-13.104535613627604, 8.587421987434823], [-13.124897851154856, 8.568558810041111], [-13.103286396849683, 8.583757617020467], [-13.104535613627604, 8.587421987434823]]], [[[-13.109282638283105, 8.597082598383281], [-13.109282638283105, 8.597082598383281]]], [[[-13.150900546622893, 8.851323394159351], [-13.150900546622893, 8.851323394159351]]], [[[-13.263580769636746, 8.851893408753881], [-13.263580769636746, 8.851893408753881]]], [[[-13.150317579092928, 8.853405422722119], [-13.150317579092928, 8.853405422722119]]], [[[-13.171221143740752, 8.862816191214279], [-13.171221143740752, 8.862816191214279]]], [[[-13.159478503330206, 8.862899472033064], [-13.159478503330206, 8.862899472033064]]], [[[-13.273241381484524, 8.873213379294043], [-13.273241381484524, 8.873213379294043]]], [[[-13.237263931085522, 8.88620523648251], [-13.237263931085522, 8.88620523648251]]], [[[-13.234182529100394, 8.889036795112077], [-13.234182529100394, 8.889036795112077]]], [[[-13.257251404029034, 8.893367414774445], [-13.257334684847763, 8.872547130046087], [-13.235764870951982, 8.880292275867873], [-13.253503752795893, 8.890202731071213], [-13.257251404029034, 8.893367414774445]]], [[[-13.266828734158707, 8.891951635459634], [-13.266828734158707, 8.891951635459634]]], [[[-13.272908257310178, 8.89611569168585], [-13.272908257310178, 8.89611569168585]]], [[[-13.245092357726094, 8.895199599082275], [-13.245092357726094, 8.895199599082275]]], [[[-13.19504039499816, 8.898031157711785], [-13.19504039499816, 8.898031157711785]]], [[[-13.269577011969488, 8.902445058192939], [-13.269577011969488, 8.902445058192939]]], [[[-13.15689763521766, 8.903944118326422], [-13.15689763521766, 8.903944118326422]]], [[[-13.195873206783006, 8.906942239492821], [-13.195873206783006, 8.906942239492821]]], [[[-13.215360992116075, 8.916103164629419], [-13.235431745878316, 8.913937855247866], [-13.2312676896521, 8.889619763541305], [-13.198205078701392, 8.896698660115135], [-13.2119464659566, 8.913937855247866], [-13.215360992116075, 8.916103164629419]]], [[[-13.143655934673575, 8.898197720248618], [-13.121836276522913, 8.918518317366477], [-13.141573906110807, 8.909190830592422], [-13.143655934673575, 8.898197720248618]]], [[[-10.614937078483365, 8.538156753431451], [-10.59611528968884, 8.547362167130359], [-10.584876901847508, 8.570467982611376], [-10.573009038036616, 8.589817523260137], [-10.555511776147512, 8.60328285821737], [-10.5377728943036, 8.616191434587108], [-10.516203080407763, 8.615608466157823], [-10.493198895512592, 8.625492985812684], [-10.479276927987769, 8.640453905923096], [-10.47233086128017, 8.661158767163442], [-10.469926352918833, 8.682843179868883], [-10.48145570561627, 8.699703412382632], [-10.4994444308158, 8.712445426215481], [-10.505857078141617, 8.736013987855301], [-10.519431903759312, 8.782817986061275], [-10.53712914519383, 8.795518359484731], [-10.555034589574575, 8.805262252151238], [-10.559656692102635, 8.830538076870823], [-10.56169708025601, 8.854148278919979], [-10.571149489157563, 8.87550989076891], [-10.5759381542224, 8.8987869677444], [-10.575396827101827, 8.921231233834419], [-10.584349549292199, 8.940760660476144], [-10.585307282305166, 8.963787894096072], [-10.589637901068215, 8.98410849121393], [-10.588305402572246, 9.004512370049895], [-10.579935648811102, 9.027872728743489], [-10.580201353509608, 9.048651151829233], [-10.59617042082823, 9.06181090794712], [-10.617359887149007, 9.073043878272415], [-10.644676427375202, 9.083000374267897], [-10.66484471441197, 9.080192131461729], [-10.689863601923662, 9.075341530986918], [-10.71105306734512, 9.06181090794712], [-10.726881343099478, 9.048280284907264], [-10.742199029661435, 9.062576792185268], [-10.727902522383431, 9.078149772893767], [-10.72407310119263, 9.1128698622544], [-10.719222499818443, 9.134569917767521], [-10.704925993439815, 9.149632309283675], [-10.685395943567869, 9.170311185512844], [-10.666759425007399, 9.188947703173994], [-10.658717639607346, 9.21626424429951], [-10.650548207134023, 9.23592194124467], [-10.643910543136997, 9.263493776516611], [-10.656037044773768, 9.293107969457253], [-10.662164119578392, 9.319403331298759], [-10.69050183818922, 9.334721016961396], [-10.710670125226045, 9.339826912482067], [-10.731349001455214, 9.344422218810394], [-10.721775447578807, 9.371483463990728], [-10.750879051327104, 9.387056444699226], [-10.770536749171583, 9.395991762310018], [-10.78789679340224, 9.4059482583055], [-10.807299196200916, 9.418968291253691], [-10.844444585349265, 9.449603663478342], [-10.845210469587471, 9.474877846035838], [-10.85899638677381, 9.494535542980998], [-10.844572232422536, 9.510108524588816], [-10.873165246978544, 9.545849792334081], [-10.885674690734334, 9.566273373517447], [-10.887589401329762, 9.58822872407643], [-10.90980004603523, 9.597929925026051], [-10.92282007898342, 9.629075887342367], [-10.945541313780552, 9.651541827093695], [-10.969411374934964, 9.678858367319833], [-10.989069071880124, 9.696984295788695], [-11.011790306677256, 9.694686643074192], [-11.025707226307418, 9.714065356830815], [-11.01565675925201, 9.732730508905888], [-11.009913635605756, 9.753980066127212], [-11.044372377483171, 9.784418621722068], [-11.056083949014976, 9.803186919740597], [-11.073061051126558, 9.82412109101557], [-11.088123442642711, 9.840204661815733], [-11.138671807757703, 9.856288232615896], [-11.154500083512005, 9.8705847398939], [-11.155648909869228, 9.9019859963567], [-11.162286573866254, 9.92266487258587], [-11.162286573866254, 9.95330024481052], [-11.184880160690795, 9.967086162896123], [-11.201474320683303, 9.981127375128324], [-11.21908965995982, 9.997721535120775], [-11.503232739299449, 9.99925330359713], [-11.787375817739758, 9.998742714404784], [-11.89782303040846, 9.997112372138304], [-11.916705129538059, 9.971399023646086], [-11.957013353383502, 9.95698416198951], [-11.977834819821055, 9.938832114510546], [-11.99972405402184, 9.93135774196628], [-12.048307476009143, 9.908400740901527], [-12.075001663795717, 9.900926367457942], [-12.104365270540768, 9.88597762236941], [-12.125453679143959, 9.868893342653678], [-12.145474319983862, 9.877435482961232], [-12.168431321947878, 9.882774319978921], [-12.186049485994943, 9.89291811148172], [-12.21594697617195, 9.909468507765496], [-12.219150278562438, 9.930823858534268], [-12.245310582917, 9.923883369422015], [-12.269335351745042, 9.916942880309705], [-12.302169203046219, 9.899858600593973], [-12.340074949199504, 9.878503249825144], [-12.364633602358822, 9.894519762676964], [-12.393463325671917, 9.897189181635497], [-12.421225281221723, 9.895587530440253], [-12.476749191422016, 9.86035120234618], [-12.494367355469024, 9.845936340689605], [-12.489028517552015, 9.81176778035882], [-12.507180565930355, 9.781870290181814], [-12.515722706237852, 9.758913288217741], [-12.527468148935895, 9.737024054016956], [-12.517324357433097, 9.716202587579403], [-12.549891266568636, 9.707126563839893], [-12.564840011657168, 9.68416956187582], [-12.572314384201434, 9.656407607225333], [-12.581390407940944, 9.635052256456504], [-12.588330897053197, 9.609425836433275], [-12.612191944302765, 9.608102971474977], [-12.622102399506105, 9.590697214704733], [-12.62747403300017, 9.570917944707446], [-12.627723876355788, 9.549931098341574], [-12.647810806223674, 9.545544940146897], [-12.644338462649898, 9.519824968147816], [-12.659537270528574, 9.491717584798721], [-12.66772342859332, 9.470319476662553], [-12.677609276546832, 9.448994362000235], [-12.679108336680372, 9.420678775704971], [-12.699436123877945, 9.416481645111901], [-12.709381030310283, 9.398817477144917], [-12.731148819162627, 9.394356509745194], [-12.755643700496307, 9.389031944069018], [-12.752167698480434, 9.365248785303265], [-12.747731993037007, 9.34455981688211], [-12.772633052273477, 9.34231122668183], [-12.77798035730757, 9.319868550593185], [-12.787790219742817, 9.298505348742879], [-12.808955548259917, 9.284468332747394], [-12.833844687881992, 9.287595520117236], [-12.855497782596558, 9.289261142787552], [-12.879018479619106, 9.291843377869668], [-12.888606037738384, 9.270455746835296], [-12.907781155775695, 9.25865567392026], [-12.917368714794293, 9.277093287625178], [-12.942130036471951, 9.28884942416164], [-12.949440480593637, 9.265629918186221], [-12.956982268117144, 9.246583681991353], [-12.955046772390574, 9.220470014679506], [-12.956087703484684, 9.18416771566757], [-12.975643759052218, 9.167352558074128], [-12.990410395922993, 9.141679495612266], [-12.998905071811578, 9.123274364520341], [-13.04237573465241, 9.094192161938793], [-13.07293476432784, 9.082875980042502], [-13.091424086352447, 9.062253275468322], [-13.10875114345049, 9.049941889406739], [-13.128663765820079, 9.05215440330312], [-13.148598757926266, 9.06182659931818], [-13.167014001894643, 9.077229556898601], [-13.178181672446158, 9.097951888368982], [-13.19979995620298, 9.097667437302448], [-13.258464564288147, 9.072067025672766], [-13.289954124283383, 9.061927011322553], [-13.307594850521866, 9.047479156238126], [-13.284026288882103, 8.99534516494748], [-13.29622697559438, 8.97473308406461], [-13.294769555870289, 8.95378787810813], [-13.271284275049197, 8.948124760849055], [-13.258375698679515, 8.974025194407261], [-13.245050717316701, 8.950206789411823], [-13.204576085617816, 8.92463948092734], [-13.18267314664837, 8.908482940935016], [-13.161144973161925, 8.907441926204001], [-13.141032578990291, 8.922640733183357], [-13.119806373565268, 8.933126467612453], [-13.08479395237896, 8.927729881528876], [-13.109177544408112, 8.928012366677422], [-13.123876664676288, 8.912480434624399], [-13.139366956319918, 8.897406549772484], [-13.178967135824621, 8.896032410867122], [-13.199121171304967, 8.89103554285606], [-13.165475591924974, 8.871880881697393], [-13.14771236003736, 8.854530760586158], [-13.168264663883065, 8.848616757657283], [-13.192999160582758, 8.854363155735086], [-13.220523576401888, 8.846159963611456], [-13.234514807012715, 8.831752327108234], [-13.247006977489946, 8.806767986153659], [-13.244591824752888, 8.757049148499448], [-13.238137537017678, 8.728608640076743], [-13.245770332334928, 8.707221625077977], [-13.246363967622983, 8.678727132151494], [-13.241614885318654, 8.657752018341], [-13.231720964151123, 8.640338717158102], [-13.211928774493288, 8.616246526156317], [-13.202434957207458, 8.590077596404], [-13.186406804430419, 8.55287645198672], [-13.171535287723316, 8.535412917372298], [-13.148591486008229, 8.517246412392069], [-13.13521478733253, 8.534991370055707], [-13.128603861978604, 8.56926669969846], [-13.11615333191071, 8.58837972044779], [-13.105007440241138, 8.607082490264759], [-13.090294539661215, 8.590420107701846], [-13.070223785898975, 8.58342449284612], [-13.046321109931228, 8.59044460883166], [-13.022586975908155, 8.602662434823571], [-13.002432941327129, 8.599247908664097], [-12.98048836194829, 8.598956423999823], [-12.960209405239823, 8.594667445646166], [-12.95003213827249, 8.57395474321686], [-12.932527258226344, 8.55813302441959], [-12.913098452231736, 8.54660515110686], [-12.94409446428807, 8.52940446404483], [-12.964113962089641, 8.533171573909044], [-12.967881071953855, 8.553729230519593], [-12.99202279941261, 8.5598559312063], [-13.013426050771557, 8.555442030725203], [-13.035370630150396, 8.539243850323487], [-13.02350306851173, 8.518881611896916], [-13.045406007481233, 8.526959882792426], [-13.062686843023357, 8.500767965469265], [-13.08367368938923, 8.48669345314039], [-13.106326158425418, 8.48569407971803], [-13.110817245019803, 8.465809943374211], [-13.13179235793092, 8.455520265647806], [-13.121400044176653, 8.431394779045888], [-13.087546261850434, 8.41861112480359], [-13.065700963128904, 8.412778524909072], [-13.071637316009287, 8.392594925115759], [-13.04111186522033, 8.375702088580567], [-13.064446844146516, 8.374471271032405], [-13.080294779980079, 8.38726472518698], [-13.093524487165325, 8.413556331459574], [-13.115351913659822, 8.415216735364083], [-13.131630704793167, 8.427403407041652], [-13.151452939901219, 8.437777665107205], [-13.165888843895004, 8.45612222865799], [-13.179286642464547, 8.473427532054984], [-13.199387679098038, 8.481804267253153], [-13.216207056310566, 8.49407295260471], [-13.237007518182395, 8.490718120744702], [-13.2577262775456, 8.48593985903733], [-13.27872410913028, 8.474244859312876], [-13.279097934821777, 8.49456220358286], [-13.282747776688495, 8.471787822450096], [-13.279589321689798, 8.44439278669779], [-13.28974964003379, 8.426384272815994], [-13.272878962793868, 8.40547477354204], [-13.263606812204557, 8.386884402792987], [-13.237638171364495, 8.352378629070529], [-13.21930718757659, 8.342726730754066], [-13.197013653257443, 8.32007816477551], [-13.192733787734085, 8.29751097844894], [-13.17503545811985, 8.281760208966546], [-13.175918019500955, 8.259455706515666], [-13.164311939344486, 8.237811912589734], [-13.157562231511747, 8.217566353104758], [-13.16227775291594, 8.197193532355698], [-13.16454204527912, 8.174595850917854], [-13.12932530351992, 8.197221110965529], [-13.10745286325897, 8.202501572989263], [-13.089341900408328, 8.216614495362705], [-13.075793297222845, 8.233270885742854], [-13.047547630518693, 8.240310972073758], [-13.017187931977446, 8.239763659065659], [-12.98975961501418, 8.236905810554788], [-12.974661882839598, 8.262638884776777], [-12.985877499846708, 8.240051805446512], [-12.98812609094631, 8.21956464579182], [-12.976588908751069, 8.188321945201665], [-12.945383043492598, 8.154689887128654], [-12.935575693763212, 8.135034292798423], [-12.923965614321617, 8.11453220619643], [-12.9130897872638, 8.096475127125473], [-12.898448754206584, 8.08207141436435], [-12.903384802866299, 8.059482718952381], [-12.90095860915244, 8.016647858811666], [-12.886023417746458, 7.999869009547183], [-12.884094529338995, 7.976546814483925], [-12.871852202217326, 7.954394032158916], [-12.850782075032669, 7.944317015318063], [-12.872102045572888, 7.942401549292128], [-12.895670607212708, 7.943900609425611], [-12.915866282203126, 7.933948513812936], [-12.933521883228309, 7.921789467509939], [-12.956132711855105, 7.916167990660313], [-12.935020944261112, 7.893807006288341], [-12.924694083165377, 7.873736252526101], [-12.899001852553397, 7.866782277180391], [-12.877890084959404, 7.84308879431245], [-12.864356899751101, 7.822726556785199], [-12.847034423799585, 7.810067823771078], [-12.81942672716167, 7.794869016791722], [-12.79393246970767, 7.802746601274691], [-12.788701937144651, 7.770866204012179], [-12.773378208037798, 7.750962011887395], [-12.754098624751691, 7.744674286689019], [-12.742064500576191, 7.725477984221641], [-12.72232687188756, 7.712985813744353], [-12.693719800928022, 7.705032465875661], [-12.671941784086016, 7.702325828474272], [-12.629010358341304, 7.692706857935207], [-12.59673891876605, 7.686668975193072], [-12.569880752194933, 7.700368722038945], [-12.541315322544051, 7.720439475801243], [-12.511209192350293, 7.741634525113284], [-12.491346641534221, 7.756250364562732], [-12.47410744640149, 7.742009289697023], [-12.461115589213023, 7.724936657101068], [-12.448456856198902, 7.74084335373783], [-12.459464299038132, 7.720944799462984], [-12.48657230806549, 7.744138595619745], [-12.505602047996092, 7.724442607340507], [-12.518302421419548, 7.691921323510314], [-12.545160587091402, 7.683218444675504], [-12.537373800860166, 7.65044731838907], [-12.51076547854393, 7.635664916402845], [-12.488154649917135, 7.62554625825328], [-12.475287714856108, 7.602519024633352], [-12.468167176973566, 7.583156160528461], [-12.47045740848256, 7.562460797927542], [-12.449762045881641, 7.556922602795908], [-12.425277392537566, 7.556756040259074], [-12.400584535348003, 7.548636128954229], [-12.379504511124253, 7.537286190105647], [-12.419559845610365, 7.527086915828534], [-12.442554574134249, 7.520225585042738], [-12.457297162234227, 7.505853880052598], [-12.48001372865059, 7.462182439068329], [-12.477417549580196, 7.439002268539923], [-12.458687972771656, 7.423425195016762], [-12.43902710751496, 7.428404907560491], [-12.418076314070618, 7.418603719086434], [-12.444223545879879, 7.407662678589816], [-12.477243010956158, 7.406796360763508], [-12.498063294785197, 7.395220282889795], [-12.52155259377713, 7.386522363816084], [-12.488819088829814, 7.380479522212227], [-12.454793704166093, 7.373726909569257], [-12.392525395730388, 7.354876305597088], [-12.269330713041938, 7.309991421067252], [-12.215850851235757, 7.288026477440042], [-12.052546271293352, 7.225951637458138], [-11.959955065473821, 7.191516120572544], [-11.919432176153975, 7.174929102995748], [-11.788787301892398, 7.112132948277008], [-11.733930890997783, 7.082539358804411], [-11.698562941726323, 7.061607307231498], [-11.66247319748004, 7.039231665708826], [-11.62710524820858, 7.007472690412385], [-11.595346273811458, 6.969217562140841], [-11.504691676179846, 6.925955816307919], [-11.467588579449341, 6.927353458994958], [-11.437994989077424, 6.941789356693505], [-11.431811715638105, 6.968113059769962], [-11.416888606623843, 6.985336754187927], [-11.395769987994527, 7.002420126487721], [-11.37756000439066, 7.010824385437104], [-11.370897513709224, 7.030573912156342], [-11.363164265018781, 7.049133707754436], [-11.375418489271794, 7.068883234473731], [-11.35101870584856, 7.079652178905008], [-11.335139218200311, 7.097697050578461], [-11.339012735849053, 7.117781158373816], [-11.35293258277244, 7.139434253987702], [-11.328781053602711, 7.147881340451534], [-11.32057191246372, 7.169772381390317], [-11.313671475558124, 7.192972126562438], [-11.303082873975427, 7.214268302839969], [-11.294516814399401, 7.195827480354012], [-11.28618870104765, 7.214387275952049], [-11.272506800348538, 7.232233233776753], [-11.249663974512771, 7.232709126225245], [-11.233721585582657, 7.251982760496048], [-11.209570055513609, 7.251506868047557], [-11.187560041462689, 7.261500604069681], [-11.17637657431942, 7.286009052575764], [-11.167096676970004, 7.307305228853295], [-11.14898111588576, 7.320338104120253], [-11.143483476581139, 7.34092232670406], [-11.128282719871606, 7.357061641981261], [-11.112709147409191, 7.372885057799238], [-11.101924240910932, 7.390332455878195], [-11.081353800437512, 7.391664953474844], [-11.059242658521839, 7.403615796831616], [-11.041628697906049, 7.425143970318004], [-11.026221687980467, 7.438052546687743], [-11.004693514494079, 7.45500025805552], [-10.981957764639105, 7.471823047295857], [-10.968583495032249, 7.487226038151164], [-10.946120152522951, 7.504397012512186], [-10.921662221634165, 7.49739035578034], [-10.896927724934528, 7.514296426738724], [-10.879813451029918, 7.525914145021829], [-10.860122140124645, 7.538465773276869], [-10.84354919334055, 7.552956690598819], [-10.826226717389034, 7.563866520123838], [-10.814150952804198, 7.590516482849466], [-10.792997543901492, 7.601343030656381], [-10.783782274532314, 7.629240818908727], [-10.77567313890421, 7.653568225793038], [-10.7560404952726, 7.659543378124454], [-10.738541834038358, 7.682590395030729], [-10.716988605439724, 7.703503428640374], [-10.7058918940956, 7.722282479852595], [-10.695221978511427, 7.739781140187517], [-10.674735741561165, 7.747036682496969], [-10.657663876986305, 7.765388937049863], [-10.636324046717334, 7.766669327027842], [-10.615411013107746, 7.771364089381279], [-10.605808089171944, 7.817884919853213], [-10.60623488583127, 8.013784563107151], [-10.604954495853235, 8.040672749048156], [-10.575078733296834, 8.04878188467626], [-10.561421241996698, 8.071402104923266], [-10.546056564059143, 8.088473969498125], [-10.534533055156317, 8.108106614029055], [-10.499322335257546, 8.145664715554233], [-10.476275318351213, 8.150359477907614], [-10.455789081400951, 8.15633463023903], [-10.433595657813328, 8.154627443601669], [-10.402012708619566, 8.15078627456694], [-10.386221234022685, 8.163163375889155], [-10.366161793731749, 8.161029393491788], [-10.344395165904132, 8.157615020217065], [-10.328176895547244, 8.178528053826653], [-10.314519403347731, 8.196026715060896], [-10.299154725410176, 8.213098579635812], [-10.302782497014562, 8.235718799882761], [-10.310891632642665, 8.264314172461127], [-10.319427564930152, 8.284373612752063], [-10.300648513717874, 8.297177510733604], [-10.29638054802382, 8.318517341901838], [-10.289338404044088, 8.342417952126823], [-10.293606369738143, 8.365464968133836], [-10.286350827428691, 8.385951205983417], [-10.278241691800588, 8.405157052955701], [-10.278668488459914, 8.425643289905963], [-10.27055935283181, 8.445275934436893], [-10.280802471756601, 8.465335374727829], [-10.277814895141262, 8.486675204996743], [-10.302142302025572, 8.493077154886862], [-10.320921353237793, 8.505881052868347], [-10.338846810232042, 8.493503950646868], [-10.357625861444319, 8.483260832621397], [-10.379392488372616, 8.493503950646868], [-10.393903572991462, 8.468749748002494], [-10.39923853033389, 8.44740991773358], [-10.428687496230907, 8.418814544255838], [-10.447039750783802, 8.399181900624285], [-10.462404428721356, 8.384670816005382], [-10.480756682374931, 8.370586528045862], [-10.497828546949847, 8.34284474788683], [-10.537734030101376, 8.313822578649138], [-10.556513080414277, 8.304859849702325], [-10.57571892828588, 8.327053274189325], [-10.601753520908233, 8.335589205577435], [-10.623093352076467, 8.336869595555413], [-10.649981538017528, 8.351380680174316], [-10.673455351583186, 8.333455223180067], [-10.682844877189268, 8.315102968627173], [-10.687112842883323, 8.293763138358202], [-10.698209555126823, 8.31467617196779], [-10.67900370725522, 8.349673494436274], [-10.67900370725522, 8.371440121364571], [-10.658517470304957, 8.381256442730717], [-10.640592012411389, 8.393633544952195], [-10.644433182345438, 8.418387747596512], [-10.643579589026785, 8.439727578764803], [-10.6421466569426, 8.463726314018231], [-10.631597317062472, 8.481010718969571], [-10.626055868183698, 8.501037101081408], [-10.62001180799848, 8.527722196722038], [-10.614937078483365, 8.538156753431451]]]]}}]}