{"type": "FeatureCollection", "features": [{"type": "Feature", "properties": {"code": "SLV", "name": "El Salvador", "tier": "country"}, "geometry": {"type": "Polygon", "coordinates": [[[-90.1790975, 13.6345804], [-89.9514804, 13.5373439], [-89.9086957, 13.4593387], [-89.8445187, 13.3989972], [-89.7215128, 13.4021187], [-89.5525135, 13.3625769], [-89.3332421, 13.3428035], [-88.8005731, 13.1085233], [-88.4026758, 13.0282959], [-88.2533902, 13.0412304], [-88.1491767, 13.0408006], [-87.9400727, 12.9937461], [-87.901532, 12.976046], [-87.8111392, 13.0551348], [-87.7200474, 13.1089345], [-87.6629056, 13.1277424], [-87.6351394, 13.1972566], [-87.677883, 13.2350663], [-87.7390939, 13.324416], [-87.7419931, 13.3468109], [-87.7989572, 13.3816879], [-87.8216306, 13.4053454], [-87.800136, 13.4118648], [-87.784206, 13.429272], [-87.7585262, 13.4408674], [-87.7336905, 13.4467778], [-87.7163629, 13.4673704], [-87.7237465, 13.4928128], [-87.7370451, 13.5118421], [-87.7572094, 13.5174476], [-87.7784325, 13.5136153], [-87.7808105, 13.5353473], [-87.7785718, 13.5668912], [-87.7693504, 13.5859138], [-87.754399, 13.6039101], [-87.7541901, 13.6240428], [-87.7516429, 13.6448181], [-87.7531458, 13.6679615], [-87.7554536, 13.6892778], [-87.7402826, 13.708359], [-87.7310422, 13.7269476], [-87.7369306, 13.7481619], [-87.7212871, 13.7651223], [-87.7129186, 13.7849938], [-87.7134979, 13.8116774], [-87.7312226, 13.8237482], [-87.7448322, 13.8402446], [-87.7525167, 13.8617086], [-87.7714799, 13.8754578], [-87.7959202, 13.8884094], [-87.7963933, 13.9131339], [-87.8311322, 13.9186245], [-87.8443448, 13.8979769], [-87.864507, 13.8993529], [-87.8885261, 13.9013473], [-87.9094125, 13.8980329], [-87.9303605, 13.8889484], [-87.9514547, 13.8913096], [-87.9754981, 13.8893723], [-87.998093, 13.8769624], [-88.0165332, 13.8864483], [-88.0282437, 13.9038724], [-88.0435913, 13.9222012], [-88.0572679, 13.9429599], [-88.0729642, 13.9762365], [-88.1064127, 14.0007764], [-88.1371937, 13.9894395], [-88.1597028, 13.983547], [-88.1805221, 13.9893042], [-88.2079718, 13.9966748], [-88.2290325, 13.9984289], [-88.2363872, 13.9780032], [-88.2193589, 13.9535808], [-88.2360116, 13.9391976], [-88.2599477, 13.9374482], [-88.2658968, 13.9144813], [-88.2898114, 13.9143465], [-88.3071278, 13.9023388], [-88.3268635, 13.8913603], [-88.3496918, 13.8912145], [-88.356543, 13.870244], [-88.3747007, 13.8797407], [-88.394667, 13.8811234], [-88.4186755, 13.8857713], [-88.433948, 13.8728533], [-88.4508969, 13.8599815], [-88.4684948, 13.8487914], [-88.4862417, 13.860919], [-88.501089, 13.8939579], [-88.5097364, 13.9181817], [-88.5070104, 13.9415518], [-88.5000581, 13.9605856], [-88.5250134, 13.9818041], [-88.5473156, 13.9826757], [-88.5689771, 13.9782771], [-88.5767931, 13.9967248], [-88.5940642, 14.0091834], [-88.6181183, 14.0149294], [-88.6400695, 14.0168031], [-88.6626892, 14.0244255], [-88.6793095, 14.0115288], [-88.68232, 14.0321301], [-88.6991374, 14.0453436], [-88.737571, 14.1312383], [-88.7988753, 14.1645851], [-88.8079845, 14.1403652], [-88.8076308, 14.1184322], [-88.8271733, 14.106019], [-88.8361983, 14.1245198], [-88.8500626, 14.145372], [-88.8597508, 14.1631509], [-88.8711716, 14.1800703], [-88.8911863, 14.1917826], [-88.9183517, 14.207977], [-88.9404745, 14.202735], [-88.9610498, 14.208328], [-88.9766763, 14.2321754], [-88.9881347, 14.2531607], [-89.0144794, 14.2714563], [-89.022982, 14.2911747], [-89.0223114, 14.3142388], [-89.0362643, 14.3326386], [-89.063022, 14.3344941], [-89.0826397, 14.3410791], [-89.0818484, 14.3620302], [-89.0903483, 14.3908814], [-89.1076345, 14.4084218], [-89.1685862, 14.3660815], [-89.1892202, 14.3661663], [-89.2095024, 14.373986], [-89.2251628, 14.3875573], [-89.2452835, 14.391237], [-89.2764913, 14.4012557], [-89.2973281, 14.4176623], [-89.3186799, 14.4187801], [-89.3357868, 14.4383806], [-89.3548252, 14.4206884], [-89.3735681, 14.4318218], [-89.3874362, 14.446345], [-89.4076644, 14.4315101], [-89.4261057, 14.4190581], [-89.446368, 14.4204727], [-89.4707244, 14.4296006], [-89.4914083, 14.4199896], [-89.5095132, 14.4095933], [-89.520875, 14.3919689], [-89.5430269, 14.4123531], [-89.5739159, 14.4169276], [-89.5811252, 14.3776494], [-89.5680181, 14.3621478], [-89.5875451, 14.3470401], [-89.5922664, 14.3115038], [-89.5694998, 14.3171383], [-89.5521334, 14.3030274], [-89.5465217, 14.2810463], [-89.5240571, 14.2419588], [-89.5254472, 14.2199807], [-89.5489019, 14.2227668], [-89.5657229, 14.2086388], [-89.5943924, 14.2019335], [-89.6301834, 14.2042993], [-89.666846, 14.1853918], [-89.7140691, 14.1379756], [-89.7255273, 14.1193358], [-89.7369983, 14.0823622], [-89.7459087, 14.0636537], [-89.742384, 14.04107], [-89.7648369, 14.0336596], [-89.7856898, 14.0384154], [-89.7993756, 14.0536912], [-89.8222586, 14.0616098], [-89.8462437, 14.0564274], [-89.8607198, 14.0415505], [-89.8927633, 14.0431503], [-89.9041513, 14.023187], [-89.9205906, 14.0068522], [-89.9386548, 13.9869096], [-89.959855, 13.9782321], [-89.9753045, 13.9649003], [-89.9929803, 13.9542436], [-90.0118684, 13.9432168], [-90.0269185, 13.9295183], [-90.0353364, 13.9032588], [-90.054156, 13.8901748], [-90.0812677, 13.8770432], [-90.0958569, 13.8603835], [-90.1027715, 13.8384706], [-90.1041924, 13.8157114], [-90.1171291, 13.7981728], [-90.1128561, 13.777253], [-90.1006458, 13.7579172], [-90.1154801, 13.740342], [-90.1350959, 13.7470683], [-90.1790975, 13.6345804]]]}}]}