{"type": "FeatureCollection", "features": [{"type": "Feature", "properties": {"code": "SMR", "name": "San Marino", "tier": "country"}, "geometry": {"type": "Polygon", "coordinates": [[[12.509585099999981, 43.99094830000002], [12.478759300000025, 43.980702200000025], [12.446451700000033, 43.96564859999997], [12.419859399999972, 43.95780279999998], [12.405239099999982, 43.94264029999998], [12.408212, 43.92116410000001], [12.411137300000036, 43.9007866], [12.4320285, 43.90230949999997], [12.455004900000027, 43.89392780000004], [12.487404299999977, 43.8964693], [12.492935400000032, 43.91844860000004], [12.5072967, 43.933564900000036], [12.506368700000042, 43.95808020000002], [12.510015, 43.98092540000002], [12.509585099999981, 43.99094830000002]]]}}]}