{"type": "FeatureCollection", "features": [{"type": "Feature", "properties": {"code": "SOM", "name": "Somalia", "tier": "country"}, "geometry": {"type": "MultiPolygon", "coordinates": [[[[41.926704406000056, -1.161921977999953], [41.926704406000056, -1.161921977999953]]], [[[41.98221969600007, -1.080402969999966], [41.98221969600007, -1.080402969999966]]], [[[42.03179550200008, -1.01986491699995], [42.03179550200008, -1.01986491699995]]], [[[42.10599136400003, -0.935842096999977], [42.10599136400003, -0.935842096999977]]], [[[42.115047883000045, -0.914003839999964], [42.115047883000045, -0.914003839999964]]], [[[42.186103821000074, -0.831298946999937], [42.22223663400007, -0.795733033999966], [42.179229736000025, -0.829308092999952], [42.137466431000064, -0.872060954999938], [42.180061340000066, -0.842167913999958], [42.186103821000074, -0.831298946999937]]], [[[42.23782730100004, -0.781308948999936], [42.23782730100004, -0.781308948999936]]], [[[42.25505065900006, -0.750093042999936], [42.25505065900006, -0.750093042999936]]], [[[42.26817321800007, -0.73960393699997], [42.26817321800007, -0.73960393699997]]], [[[42.33584594700005, -0.648533045999955], [42.33584594700005, -0.648533045999955]]], [[[42.559181213000045, -0.383138000999963], [42.559181213000045, -0.383138000999963]]], [[[43.46797180200008, 11.427394867000032], [43.46797180200008, 11.427394867000032]]], [[[43.33861541700003, 11.447710991000065], [43.36746597300004, 11.492903709000075], [43.33499908500005, 11.44763374400003], [43.33861541700003, 11.447710991000065]]], [[[43.455993652000075, 11.494044304000056], [43.455993652000075, 11.494044304000056]]], [[[50.798770905000026, 11.983558655000024], [50.75313568100006, 11.96239852900004], [50.67337799000006, 11.933105468000065], [50.623149872000056, 11.927113533000067], [50.55880355800008, 11.891977310000073], [50.52180862400007, 11.79971504200006], [50.541366577000076, 11.849751473000026], [50.53112793000008, 11.79485225700006], [50.492862701000035, 11.73155498500006], [50.43152618400006, 11.670402527000022], [50.37827682400007, 11.651505470000075], [50.318931579000036, 11.618366241000047], [50.27617263800005, 11.589532852000048], [50.21569824200003, 11.561661720000075], [50.15667724600007, 11.550554275000025], [50.11185455400005, 11.524689674000058], [50.06401443500005, 11.503651619000038], [50.00829315200008, 11.502389908000055], [49.95491790700004, 11.509157181000035], [49.89963531500007, 11.489253998000038], [49.84482193000008, 11.462443352000037], [49.76206588700006, 11.456341744000042], [49.69215011600005, 11.47732925400004], [49.64015579200003, 11.457831382000052], [49.57582092300004, 11.451201439000045], [49.52850341800007, 11.402718544000038], [49.474208832000045, 11.373306274000072], [49.435306549000074, 11.339747429000056], [49.386150361000034, 11.327788353000074], [49.33442688000008, 11.329151153000055], [49.28131866500007, 11.317631721000055], [49.21611023000003, 11.29620742800006], [49.143917084000066, 11.27866840400003], [49.08057403600003, 11.268018722000022], [49.03191375800003, 11.255537987000025], [48.95531845100004, 11.238403320000032], [48.87960434000007, 11.246534347000022], [48.81874466000005, 11.27329635600006], [48.71615219100005, 11.305456161000052], [48.662052155000026, 11.322547912000061], [48.60409164400005, 11.30697822600007], [48.54327392500005, 11.310464859000035], [48.48721313500005, 11.288210869000068], [48.404079437000064, 11.280787468000028], [48.354988098000035, 11.267266273000075], [48.31718444900008, 11.230108261000055], [48.241611480000074, 11.204507828000033], [48.190830231000064, 11.160380364000048], [48.13559341400003, 11.124958038000045], [48.07366943400007, 11.123970985000028], [48.00760650600006, 11.114212990000055], [47.94054031400003, 11.117075920000048], [47.88121414200003, 11.111002922000068], [47.818317413000045, 11.116847992000032], [47.76410675000005, 11.111928939000052], [47.69976806600005, 11.089695931000051], [47.641899109000065, 11.109784126000022], [47.59630584700005, 11.137527466000051], [47.55742645300006, 11.169445991000032], [47.506343842000035, 11.181048393000026], [47.45606613100006, 11.178163528000027], [47.40327072200006, 11.169737815000076], [47.35520553600003, 11.153060913000047], [47.30950546200006, 11.132026673000041], [47.256336212000065, 11.11437511400004], [47.15039825500003, 11.062493324000059], [47.118629456000065, 11.022464752000076], [47.082977295000035, 10.975733757000057], [47.03075790400004, 10.960576058000072], [46.98477554300007, 10.926614761000053], [46.93372726400003, 10.912137986000062], [46.88848495500008, 10.875869751000039], [46.83948135400004, 10.844386101000055], [46.78100585900006, 10.807746887000064], [46.71691131600005, 10.776785851000056], [46.66678619400005, 10.745031357000073], [46.61024856600005, 10.727223396000056], [46.51883316100003, 10.710417747000065], [46.44966125500008, 10.680721283000025], [46.39804840100004, 10.68153953600006], [46.34472274800004, 10.689684868000029], [46.29197311400003, 10.747011185000076], [46.245342254000036, 10.777048111000056], [46.16862869200003, 10.775236130000053], [46.11157608000008, 10.763525963000063], [46.04803848200004, 10.768044472000042], [45.99491119400005, 10.776814461000072], [45.91199874900008, 10.821513176000053], [45.859390258000076, 10.825207711000076], [45.81985855100004, 10.858714104000057], [45.767871857000046, 10.850446701000067], [45.71553802500006, 10.817111969000052], [45.67108154200008, 10.786861420000037], [45.618133545000035, 10.765449524000076], [45.57670211800007, 10.736376762000077], [45.53293609600007, 10.70841312400006], [45.48006439200003, 10.683760643000028], [45.421802521000075, 10.662696839000034], [45.360225677000074, 10.661339760000033], [45.296577454000044, 10.628909111000041], [45.25638198900003, 10.583716393000032], [45.210887909000064, 10.551079750000042], [45.16308593700006, 10.532649994000053], [45.08797073300008, 10.508499146000077], [45.04786682200006, 10.475002289000031], [44.985553742000036, 10.450796127000046], [44.94348907500006, 10.410817146000056], [44.88318252600004, 10.406386375000068], [44.82748413100006, 10.417647361000036], [44.77663040200008, 10.417257309000036], [44.72576522900005, 10.41754817900005], [44.658702850000054, 10.401462555000023], [44.59447097800006, 10.383341789000042], [44.54122543300008, 10.387003899000035], [44.48155593900003, 10.39904499100004], [44.41039657600004, 10.391789437000057], [44.320262909000064, 10.417722702000049], [44.25824356100003, 10.454268456000023], [44.20168304500004, 10.50767993900007], [44.148620606000065, 10.547588348000033], [44.09608841000005, 10.57186794300003], [44.04677200400005, 10.620564461000072], [43.99502944900007, 10.662080765000042], [43.838344574000075, 10.784708977000037], [43.78913497900004, 10.835435868000047], [43.73024749800004, 10.902509689000055], [43.69219970800003, 10.940807342000028], [43.65898513800005, 10.99184608400003], [43.62571334800003, 11.04494857800006], [43.584205627000074, 11.112128258000041], [43.555961609000065, 11.178894996000054], [43.499824524000076, 11.23173046100004], [43.49340057300003, 11.290221214000042], [43.483695984000065, 11.349330902000077], [43.431781769000054, 11.367529869000066], [43.35428619400005, 11.413670540000055], [43.31511306800007, 11.46500396700003], [43.26119985100007, 11.461990598000057], [42.968055, 10.997431], [42.93133, 10.94796], [42.87626, 10.87149], [42.84093, 10.82286], [42.81088, 10.78031], [42.76653, 10.72197], [42.7226, 10.65121], [42.68502, 10.61296], [42.69542, 10.55823], [42.73944, 10.52115], [42.75691, 10.47156], [42.79185, 10.4041], [42.80483, 10.35185], [42.83263, 10.27788], [42.85833, 10.23407], [42.94323, 10.15143], [43.0, 10.1012], [43.0859, 9.9088], [43.13813, 9.8863], [43.25687, 9.84264], [43.26906, 9.78737], [43.28958, 9.65753], [43.3069, 9.60827], [43.36067, 9.58622], [43.39824, 9.55279], [43.43223, 9.4708], [43.4683, 9.41941], [43.53487, 9.38106], [43.59387, 9.36069], [43.64669, 9.35833], [43.7656, 9.23715], [43.87187, 9.13015], [43.98564, 9.01339], [44.03379, 8.98606], [44.17962, 8.93829], [44.23446, 8.92254], [44.32072, 8.89379], [44.37903, 8.87647], [44.44437, 8.85329], [44.50245, 8.83456], [44.55684, 8.81575], [44.69203, 8.77143], [44.781, 8.7403], [44.83078, 8.71989], [44.9911, 8.67043], [45.10109, 8.63401], [45.23892, 8.58673], [45.48166, 8.50802], [45.55018, 8.48782], [45.61164, 8.46779], [45.66517, 8.44991], [45.76573, 8.41518], [45.82895, 8.39533], [45.89476, 8.37091], [46.05171, 8.32049], [46.11374, 8.29987], [46.18941, 8.27503], [46.23938, 8.2593], [46.29399, 8.24017], [46.34628, 8.22238], [46.4508, 8.18884], [46.52413, 8.16229], [46.57913, 8.14608], [46.62908, 8.12776], [46.75021, 8.08509], [46.88931, 8.03703], [46.98967, 8.00306], [47.98618, 8.0], [47.55915508500004, 7.561850468000046], [47.36230917800003, 7.35987644000005], [46.89863266800006, 6.884120487000075], [46.52423215300007, 6.499966297000071], [45.53619118600005, 5.486185434000049], [44.98174, 4.9173], [44.59208163000005, 4.93477432100002], [44.01514, 4.96044], [43.81386, 4.90997], [43.65906, 4.86803], [43.54343, 4.83132], [43.43492, 4.79468], [43.32432, 4.74144], [43.23519, 4.69626], [43.16958, 4.65962], [43.12245, 4.63124], [43.08014, 4.60268], [43.03479, 4.56029], [43.01233, 4.48229], [42.99016, 4.43695], [42.93967, 4.36436], [42.89805, 4.31856], [42.84902, 4.27955], [42.7502, 4.26455], [42.67155, 4.25049], [42.58788, 4.21541], [42.52662, 4.20291], [42.47553, 4.20273], [42.37098, 4.18945], [42.29863, 4.18439], [42.19674, 4.17894], [42.08767, 4.17937], [42.00871, 4.10152], [41.94623, 4.05566], [41.9264, 4.00261], [41.333217, 3.156423], [40.99565, 2.82169], [40.99487488200003, 2.311588212000061], [40.994316999000034, 1.944448], [40.99565, 1.707357], [40.99565, 1.232742876000032], [40.99564999900008, 0.008611733000066], [40.99564999900008, -0.197314220999942], [40.99564999900008, -0.833242], [41.564494, -1.601221], [41.564532961000054, -1.664914401999965], [41.598937988000046, -1.615374088999943], [41.66024017400008, -1.534936904999938], [41.69729614200003, -1.47452986299993], [41.733169555000075, -1.410689949999949], [41.77528381400003, -1.354139923999981], [41.834732056000064, -1.253723978999972], [41.83100509600007, -1.185489057999973], [41.78011322000003, -1.149487017999945], [41.71026992800006, -1.197358012999928], [41.74800109900008, -1.158567070999936], [41.80012893700007, -1.141227006999941], [41.841362, -1.171584963999976], [41.876544952000074, -1.212352037999949], [41.898643493000066, -1.165675997999926], [41.94148635800008, -1.094640969999944], [41.97774124100005, -1.027585982999938], [41.961818695000034, -0.972599088999971], [41.96530151400003, -0.91648405799998], [41.92610168400006, -0.883588969999948], [41.97249603300003, -0.906292020999956], [41.96873855600006, -0.958274066999934], [41.97888565000005, -1.007577060999949], [42.025054932000046, -0.96937507399997], [42.051136016000044, -0.912548899999933], [42.08929061900005, -0.853294074999951], [42.04133987500006, -0.834061979999944], [41.99309158300008, -0.808397054999944], [41.98858642500005, -0.732845961999942], [41.99309539800004, -0.788404047999961], [42.04547119100005, -0.795639991999963], [42.07436370900007, -0.745684980999954], [42.054924011000026, -0.803348958999948], [42.106670380000025, -0.834946095999953], [42.164833068000064, -0.808556973999941], [42.19816970800008, -0.768428980999943], [42.23424911500007, -0.728728890999946], [42.28806686400003, -0.663323103999971], [42.31770706100008, -0.620249985999976], [42.352821350000056, -0.577115058999937], [42.390941620000035, -0.53762203499997], [42.421035767000035, -0.495235055999956], [42.45713043200004, -0.458750992999967], [42.494720459000064, -0.413981049999961], [42.52592849700005, -0.370204061999971], [42.56998825000005, -0.33247995399995], [42.59913635200007, -0.288727938999955], [42.65129470800008, -0.241950034999945], [42.71602630600006, -0.178715943999975], [42.764785767000035, -0.134963079999977], [42.80465316800007, -0.092233977999967], [42.843627929000036, -0.051582079999946], [42.88512420700005, -0.012047992999953], [42.971569061000025, 0.085607052000057], [43.03935241700003, 0.155552030000024], [43.08115386900005, 0.206119046000026], [43.12232971200007, 0.25254708500006], [43.16107559200003, 0.292746007000062], [43.207851410000046, 0.348197997000057], [43.25765228200004, 0.399553924000031], [43.29350280800003, 0.434894055000029], [43.376522065000074, 0.533271969000054], [43.43383407600004, 0.587932050000063], [43.486118317000034, 0.643910051000034], [43.53240966800007, 0.685804009000037], [43.588222503000054, 0.733781994000026], [43.655258178000054, 0.79888892200006], [43.71457290600006, 0.84161907400005], [43.760162354000045, 0.887177050000048], [43.81084442200006, 0.92681705900003], [43.87194824200003, 0.974157095000066], [43.91722106900005, 1.008906960000047], [43.96061325000005, 1.048689962000026], [44.004783631000066, 1.080207944000051], [44.051074981000056, 1.126915097000051], [44.10971832300004, 1.172379017000026], [44.16795730500007, 1.233924985000044], [44.21714401300005, 1.268249035000053], [44.25071716300005, 1.310216904000072], [44.302356720000034, 1.350770116000035], [44.35736084000007, 1.397335053000063], [44.40310287500006, 1.434833050000066], [44.47249221800007, 1.482925058000035], [44.512752533000025, 1.521281004000059], [44.568271637000066, 1.564623952000034], [44.60791015700005, 1.597684026000024], [44.65917205800008, 1.633620977000021], [44.71616745000006, 1.668236017000027], [44.761508941000045, 1.703418017000047], [44.81328201300005, 1.735445023000068], [44.880306243000064, 1.773832083000059], [44.930961608000075, 1.80446207500006], [45.028392792000034, 1.866135955000061], [45.07404708900003, 1.89509892500007], [45.13182830900007, 1.923030019000066], [45.18120956400003, 1.945587039000031], [45.236072541000055, 1.968883037000069], [45.28950119000007, 1.998832107000055], [45.34866333000008, 2.027451992000067], [45.42961883600003, 2.072371006000026], [45.475093842000035, 2.099014044000057], [45.51942825400005, 2.125415087000022], [45.56578063900008, 2.156200886000022], [45.63899230900006, 2.200801134000073], [45.68404388400006, 2.224671126000032], [45.75706481900005, 2.266729831000021], [45.80186081000005, 2.294270992000065], [45.87806320200008, 2.339570045000073], [45.92807769800004, 2.373360872000035], [45.97944259700006, 2.409692049000057], [46.029613495000035, 2.452450991000035], [46.076576232000036, 2.496329069000069], [46.11767578100006, 2.531184912000072], [46.15613555900006, 2.580507994000072], [46.19124221800007, 2.621520042000043], [46.22818756100003, 2.661857128000065], [46.28277587900004, 2.69958090800003], [46.31027984600007, 2.747888088000025], [46.345191956000065, 2.786593914000036], [46.40525054900007, 2.828496933000054], [46.44651794500004, 2.874154091000037], [46.49655151400003, 2.912289143000066], [46.53657531700003, 2.943209171000035], [46.60475921600005, 3.001728058000026], [46.67429351800007, 3.064625025000055], [46.74302673400007, 3.143153906000066], [46.80687332200006, 3.204157114000054], [46.87211608900003, 3.293234110000071], [46.91136932300003, 3.339317084000072], [46.96861267000003, 3.399109125000052], [47.00425338700006, 3.439870119000034], [47.072246551000035, 3.50295591400004], [47.138359070000035, 3.574306011000033], [47.19715499900008, 3.645597934000023], [47.24830627500006, 3.698426009000059], [47.28739166300005, 3.741500139000038], [47.377956390000065, 3.826811075000023], [47.428512573000035, 3.869499922000045], [47.53510284400005, 3.993557930000065], [47.57786560100004, 4.039865970000051], [47.62399673400006, 4.096086979000063], [47.65950012300004, 4.132906914000046], [47.71501159600007, 4.19355726200007], [47.77168273900003, 4.253748894000069], [47.82691574100005, 4.324512005000031], [47.86013412500006, 4.362689018000026], [47.904796600000054, 4.403926850000062], [47.96852874800004, 4.475653172000023], [48.00780105600006, 4.537097931000062], [48.03859329200003, 4.598718166000026], [48.08631896900005, 4.667340756000044], [48.11735534700006, 4.728267193000022], [48.15367126500007, 4.789682865000032], [48.197360993000075, 4.883577824000042], [48.24147796600005, 4.946643829000038], [48.31491851800007, 5.056346894000058], [48.35455703700006, 5.103734970000062], [48.38847351100003, 5.149707794000051], [48.43263626100003, 5.209767818000046], [48.534271241000056, 5.33432102200004], [48.57183456400003, 5.388122082000052], [48.65135574400006, 5.492747784000073], [48.68726348900003, 5.557800293000071], [48.725925446000076, 5.623783112000069], [48.785575867000034, 5.717009067000049], [48.82886123700007, 5.780015946000049], [48.85843658500005, 5.831910134000054], [48.895095825000055, 5.890965939000068], [48.923091888000044, 5.939395905000026], [48.94765853900003, 5.984817982000038], [48.98706817600004, 6.047787190000065], [49.03319168100006, 6.14642000200007], [49.05455398500004, 6.192505836000066], [49.08373260500008, 6.282536984000046], [49.08062744100005, 6.350564957000074], [49.089969635000045, 6.411525727000026], [49.11325836100008, 6.487260819000028], [49.14419555600006, 6.551075935000028], [49.17349624600007, 6.621315956000046], [49.199146271000075, 6.687395096000046], [49.22776794400005, 6.757390022000038], [49.25696945200008, 6.804174900000021], [49.28569030700004, 6.855549812000049], [49.31233978300003, 6.907832145000043], [49.361206054000036, 6.98019886000003], [49.397445678000054, 7.049516201000074], [49.475364685000045, 7.159900189000041], [49.518119812000066, 7.216594219000058], [49.575054169000055, 7.293786049000062], [49.67885589600007, 7.44097709600004], [49.74208450300006, 7.559723854000026], [49.76669693000008, 7.616995811000038], [49.78028106700003, 7.67008495400006], [49.82378006000005, 7.725358009000047], [49.831615448000036, 7.777957916000048], [49.81175231900005, 7.847888947000058], [49.82186126700003, 7.907835007000074], [49.849082947000056, 7.950171947000058], [49.892074585000046, 8.0], [49.93389892500005, 8.04501152000006], [49.984397889000036, 8.095842361000052], [50.045471192000036, 8.126914025000076], [50.11259842000004, 8.181589127000052], [50.13759231600005, 8.23612976000004], [50.15361404500004, 8.292758941000045], [50.18482589700005, 8.336502075000055], [50.20338440000006, 8.386014938000073], [50.234851837000065, 8.433885574000044], [50.27599716200007, 8.473694802000068], [50.32477188100006, 8.534183502000076], [50.32796859800004, 8.586216926000077], [50.33853912400008, 8.65021801000006], [50.37418747000004, 8.689579963000028], [50.38775634700005, 8.748296738000022], [50.40785217300004, 8.826045990000068], [50.43989181500007, 8.880339622000065], [50.471435547000056, 8.921319962000041], [50.546035766000045, 8.98531818400005], [50.58639526400003, 9.02763175900003], [50.64088821400003, 9.076997757000072], [50.65036010800003, 9.13321208900004], [50.65197753900003, 9.18969345100004], [50.68779754700006, 9.24166393300004], [50.71964263900003, 9.280560494000042], [50.763519288000055, 9.318246842000065], [50.810081482000044, 9.38462448100006], [50.84327697700007, 9.455887795000024], [50.806003571000076, 9.50154972100006], [50.79864120500008, 9.560616493000055], [50.80700683600003, 9.617081643000063], [50.82067108200005, 9.667320252000025], [50.83388900700004, 9.720089913000038], [50.84212875400004, 9.79585743000007], [50.85144805900006, 9.854622840000047], [50.879383087000065, 9.926849365000066], [50.892177581000055, 9.98215293900006], [50.887657166000054, 10.052713394000023], [50.883743286000026, 10.104660034000062], [50.90199661200006, 10.182920456000033], [50.89401245100004, 10.256491661000041], [50.89915084900008, 10.310005188000048], [50.94968414300007, 10.341219902000034], [51.015838623000036, 10.38221836100007], [51.06630325400005, 10.396866799000065], [51.16162490900007, 10.41766834200007], [51.212051391000045, 10.42355823500003], [51.26237869200003, 10.413123131000077], [51.28925704900007, 10.368365288000064], [51.340606689000026, 10.374225616000047], [51.38970184400006, 10.389743805000023], [51.413032532000045, 10.43967819200003], [51.37451934900008, 10.47970390300003], [51.318485260000045, 10.470663071000047], [51.27286529600008, 10.491649627000072], [51.21847534200003, 10.523485184000037], [51.18152237000004, 10.558878899000035], [51.200500489000035, 10.509120942000038], [51.22195434500003, 10.447854995000057], [51.13684845000006, 10.429309845000034], [51.08734130900007, 10.421332359000075], [51.03778076200007, 10.403695106000043], [51.03993225100004, 10.456768036000028], [51.092720032000045, 10.468871117000049], [51.10485076900005, 10.518438339000056], [51.146450042000026, 10.56024646800006], [51.15095138500004, 10.61422443400005], [51.14219665500008, 10.665988922000054], [51.12742233200004, 10.722845077000045], [51.12516403200004, 10.813643455000033], [51.12274551400003, 10.877093316000071], [51.11660003600008, 10.93987846400006], [51.12419509800003, 11.005338669000025], [51.15801239000007, 11.095694542000047], [51.17925643900003, 11.14406299600006], [51.11110687200005, 11.155970573000047], [51.077205657000036, 11.213633537000021], [51.08086395200007, 11.283260346000077], [51.08397674500003, 11.338868141000034], [51.10618591300005, 11.391375542000048], [51.125453949000075, 11.458151817000044], [51.149688721000075, 11.535011291000046], [51.18708038300008, 11.587420464000047], [51.22543334900007, 11.641888618000053], [51.255348206000065, 11.687440872000025], [51.25825500500008, 11.740981102000035], [51.284610748000034, 11.81160926800004], [51.232246399000076, 11.835394859000075], [51.18215179500004, 11.850651741000036], [51.11573791500007, 11.870364189000043], [51.06438446100003, 11.871584892000044], [51.01779556300005, 11.890239716000053], [50.95586013800005, 11.921843528000068], [50.90411377000004, 11.939816475000043], [50.83134460500003, 11.95742511800006], [50.798770905000026, 11.983558655000024]]]]}}]}