{"type": "FeatureCollection", "features": [{"type": "Feature", "properties": {"code": "SRB", "name": "Serbia", "tier": "country"}, "geometry": {"type": "Polygon", "coordinates": [[[19.667932800000017, 46.18487440000007], [19.631616900000097, 46.169255700000065], [19.567629399999987, 46.17871790000015], [19.52656289999993, 46.147692300000074], [19.502454, 46.142086300000074], [19.52706850000004, 46.120936700000016], [19.508968200000083, 46.11072610000002], [19.485760699999958, 46.1034939000001], [19.46442289999993, 46.09527490000005], [19.438251799999932, 46.066178299999876], [19.415439299999946, 46.045730700000036], [19.3950701, 46.041967800000066], [19.364162, 46.05216990000008], [19.28160079999992, 46.0145217000001], [19.302713200000085, 45.9915575], [19.236594200000013, 45.99507290000008], [19.199586800000077, 45.99816060000012], [19.16561859999996, 45.99427510000015], [19.145647300000064, 46.00137460000013], [19.133785900000078, 46.037071400000116], [19.11363950000009, 46.0379544], [19.06567600000011, 46.000043], [19.079550400000016, 45.963535100000115], [19.05500310000008, 45.965500000000134], [19.03268790000004, 45.96465280000001], [19.005814099999952, 45.958709400000146], [19.00885619999997, 45.92328660000004], [18.987973399999987, 45.93221360000007], [18.962018300000068, 45.92587070000002], [18.906004699999983, 45.93527379999995], [18.889905400000032, 45.92136760000011], [18.86461980000007, 45.9207411000001], [18.827550499999973, 45.904790700000035], [18.829847900000175, 45.873563], [18.852364300000147, 45.861305600000094], [18.856508700000063, 45.83276410000002], [18.847583800000052, 45.81199950000007], [18.8541209, 45.792907], [18.88076220000005, 45.78283070000015], [18.90087440000002, 45.7217419000001], [18.9247004, 45.69080630000002], [18.959137300000066, 45.67668780000014], [18.937945400000103, 45.64159980000005], [18.91437680000007, 45.623592600000165], [18.912896499999988, 45.59880270000002], [18.89340990000005, 45.58030350000007], [18.899724200000094, 45.557758], [18.92874620000009, 45.54390250000006], [18.950376, 45.53395130000001], [18.983777700000076, 45.536908500000095], [19.008880500000032, 45.55673470000005], [19.034659100000056, 45.534942300000125], [19.071114299999977, 45.530637], [19.095944600000053, 45.52030280000014], [19.095452900000055, 45.494902100000104], [19.04455, 45.484949], [19.010986300000013, 45.496153400000026], [18.991367400000115, 45.47780280000012], [18.987145700000042, 45.45516110000011], [18.999591300000077, 45.436738800000114], [19.025278600000036, 45.42490180000004], [19.023382099999935, 45.403107700000135], [18.993143199999963, 45.40004990000011], [18.9694652, 45.38681240000011], [19.005405100000075, 45.357634100000155], [19.048008800000105, 45.3484846], [19.07791430000003, 45.34123590000013], [19.099373, 45.32662009999996], [19.102533800000117, 45.30197210000006], [19.1445078000001, 45.28023760000008], [19.193894, 45.26570310000011], [19.2410339, 45.24775290000008], [19.28486449999997, 45.237317400000165], [19.335613800000033, 45.2325441000001], [19.3709192, 45.23165510000007], [19.420634, 45.2334919], [19.44708419999995, 45.196321100000034], [19.4280809, 45.187209600000074], [19.418633899999975, 45.165788900000166], [19.389978400000075, 45.17257020000011], [19.364200799999935, 45.17284470000004], [19.342025, 45.174007500000016], [19.321596700000043, 45.19733580000002], [19.287705500000015, 45.20589460000008], [19.295072599999912, 45.17296800000014], [19.27079779999997, 45.17570420000004], [19.246300400000052, 45.1794949], [19.214838100000065, 45.18782240000013], [19.189678100000037, 45.2009382], [19.166017300000078, 45.189709200000095], [19.194538600000044, 45.1789152], [19.1420508, 45.12992490000016], [19.11998370000009, 45.13373310000014], [19.08656220000006, 45.14541790000004], [19.077897000000178, 45.12727640000003], [19.083737100000064, 45.10736900000012], [19.10585759999998, 45.07916120000016], [19.095230199999946, 45.05854430000011], [19.094161199999974, 45.037445100000014], [19.102717400000017, 45.010695300000066], [19.085829099999955, 44.99348640000011], [19.0609, 44.9827272], [19.084304200000076, 44.97434280000016], [19.11108270000011, 44.96985580000012], [19.138335, 44.980711], [19.147431700000084, 44.95768570000001], [19.135859200000027, 44.939133], [19.111541500000044, 44.93267570000012], [19.086926199999937, 44.92528649999997], [19.074433099999908, 44.905396600000074], [19.044114400000126, 44.9125831], [19.01459469999992, 44.92117880000012], [18.996447100000125, 44.91186460000006], [18.99962069999998, 44.88490510000014], [19.01437720000007, 44.869102800000064], [19.04436, 44.85939819999999], [19.070487000000128, 44.86320980000011], [19.08887420000002, 44.87983340000011], [19.1179517, 44.886251500000014], [19.146549200000038, 44.90341070000011], [19.167802199999926, 44.918848], [19.196889800000065, 44.91793220000005], [19.208217200000092, 44.899330299999974], [19.232212600000025, 44.9038508000001], [19.25094969999998, 44.91332110000013], [19.270942700000035, 44.906207900000084], [19.291565400000025, 44.909270900000024], [19.312695, 44.90678560000009], [19.335543600000108, 44.895318700000075], [19.367179600000043, 44.88142710000017], [19.36747240000011, 44.85610889999998], [19.345950099999925, 44.852483600000085], [19.35553649999997, 44.83449990000014], [19.335705299999972, 44.82804520000002], [19.317510099999936, 44.818577300000015], [19.317339, 44.7955963], [19.29459730000002, 44.78585349999997], [19.314197300000103, 44.78115289999988], [19.324443, 44.7577296], [19.3120616, 44.74111330000011], [19.31404909999992, 44.720799600000134], [19.2999329000001, 44.6951876], [19.2810776, 44.67825660000011], [19.277110600000015, 44.65729340000007], [19.257290300000022, 44.63466990000012], [19.236406299999942, 44.62299039999988], [19.214902800000118, 44.61935130000006], [19.219228600000065, 44.59339090000009], [19.206292099999985, 44.57692610000004], [19.185790200000042, 44.5761323000001], [19.192037200000016, 44.55502510000002], [19.17747829999996, 44.53984040000006], [19.16310029999994, 44.5220733000001], [19.140529600000093, 44.52463890000013], [19.123042600000076, 44.5005471], [19.1342702, 44.48021290000008], [19.1362671, 44.456590400000096], [19.149226, 44.4370525], [19.1471140000001, 44.41547750000012], [19.118349600000045, 44.40292120000004], [19.1070474, 44.383154700000034], [19.1197808, 44.36731720000006], [19.11410770000009, 44.344582200000104], [19.136436600000025, 44.339011], [19.13151840000006, 44.31808790000014], [19.155196400000023, 44.3041958], [19.165736799999934, 44.284312300000124], [19.189526200000103, 44.28378340000006], [19.20964379999998, 44.29115050000013], [19.22279939999993, 44.26902130000002], [19.25260039999995, 44.26309910000015], [19.279314, 44.27670439999997], [19.29809240000003, 44.2693898], [19.3251712, 44.271251], [19.32994610000003, 44.25052470000014], [19.3487738, 44.23173700000012], [19.359803800000122, 44.20740560000007], [19.359078799999963, 44.18425330000008], [19.380430100000012, 44.17967460000011], [19.408274599999913, 44.16908], [19.41995120000007, 44.1440412], [19.44365090000008, 44.131770300000085], [19.46646320000002, 44.148774200000105], [19.47009929999996, 44.12696990000012], [19.490844599999946, 44.11649080000012], [19.5112517, 44.08128840000012], [19.5464171000001, 44.07453010000012], [19.56563490000002, 44.061500200000125], [19.58133689999994, 44.04817810000009], [19.58419620000012, 44.07011770000008], [19.604448900000023, 44.05067600000018], [19.6220363, 44.0226540000001], [19.598799500000098, 44.010162], [19.563944200000094, 43.999117800000136], [19.550924700000053, 43.98029230000003], [19.529086900000095, 43.95724919999998], [19.486580400000094, 43.955475100000115], [19.448330199999987, 43.95956260000008], [19.419858, 43.959991700000046], [19.39937569999995, 43.966832600000146], [19.378796800000032, 43.962507800000026], [19.35747210000011, 43.97567160000017], [19.334259400000064, 43.98259180000002], [19.315855199999987, 43.99328360000004], [19.28408, 43.99718960000013], [19.247578300000043, 44.01417179999993], [19.236463300000025, 43.98808850000006], [19.24964419999992, 43.97279069999996], [19.253535, 43.95099510000017], [19.271798599999954, 43.93848510000015], [19.289166799999975, 43.92474990000005], [19.310460199999966, 43.8976667], [19.32644250000004, 43.8782496], [19.353763, 43.84613480000007], [19.374696, 43.83444610000015], [19.38660130000011, 43.81346290000005], [19.405714700000033, 43.797482500000115], [19.43144390000009, 43.78399230000002], [19.45475920000007, 43.77125030000002], [19.467324400000052, 43.75382090000011], [19.481058500000074, 43.73367550000006], [19.508420800000067, 43.72062450000004], [19.514550300000053, 43.70080330000013], [19.52815090000007, 43.67066490000013], [19.526483199999916, 43.64972410000013], [19.5117927, 43.63521470000006], [19.4880842, 43.63245000000012], [19.491274900000178, 43.6002979000001], [19.51105, 43.58615310000005], [19.480763500000023, 43.571693700000026], [19.451748700000053, 43.57891820000003], [19.41813339999993, 43.57828600000016], [19.392444600000033, 43.57368940000015], [19.382577200000014, 43.59439600000013], [19.36938040000001, 43.610665199999914], [19.336809800000026, 43.588494699999956], [19.313908800000036, 43.587937400000044], [19.291145200000074, 43.60009840000015], [19.266529300000116, 43.60524010000012], [19.24589629999997, 43.592677400000014], [19.25044720000011, 43.566182], [19.248837700000024, 43.53193530000004], [19.226451399999974, 43.527798], [19.226274100000012, 43.5050973000001], [19.227154900000073, 43.485015800000156], [19.247877699999947, 43.468391], [19.267631299999948, 43.457464400000106], [19.292056499999944, 43.44387900000015], [19.32246079999993, 43.44064440000005], [19.338617700000043, 43.42836110000013], [19.3607925, 43.41063730000002], [19.383207300000095, 43.41202680000009], [19.40027910000009, 43.39941340000007], [19.419958600000143, 43.393209700000114], [19.43990630000002, 43.39116839999997], [19.450594499999966, 43.36670790000011], [19.46080020000005, 43.34458059999997], [19.481699600000013, 43.332758], [19.51757400000014, 43.319204900000045], [19.535555600000066, 43.30785040000006], [19.527315800000054, 43.283410200000105], [19.539053, 43.2622063], [19.562138700000105, 43.24083850000005], [19.59115229999992, 43.23834070000015], [19.618944, 43.22962160000009], [19.634678100000087, 43.209812900000145], [19.64188660000002, 43.18866750000012], [19.66488080000005, 43.186459], [19.68200410000003, 43.17234130000003], [19.704268899999988, 43.17064720000002], [19.734741699999972, 43.17125760000005], [19.756027300000028, 43.16025], [19.779230200000143, 43.15677420000003], [19.77940579999995, 43.13596280000007], [19.80547690000003, 43.12223110000008], [19.826222700000073, 43.118138800000054], [19.836993800000073, 43.100199100000054], [19.861235199999953, 43.105992699999945], [19.883633, 43.10499550000003], [19.90685170000006, 43.09109139999998], [19.931219300000066, 43.09590209999993], [19.95033760000007, 43.102088500000036], [19.97023960000007, 43.11126870000004], [19.969988799999953, 43.08802549999996], [19.9841105000001, 43.06571939999998], [20.011630399999945, 43.04265790000005], [20.047181299999977, 43.02680980000008], [20.059810600000105, 43.00770480000011], [20.0758929000001, 42.99148320000012], [20.09034580000008, 42.97565480000003], [20.121779199999935, 42.963496000000134], [20.13771890000004, 42.98006030000005], [20.157946, 42.976091], [20.180984499999965, 42.96528520000004], [20.202886300000046, 42.95774380000006], [20.225336500000083, 42.9483697], [20.252592300000117, 42.940461900000116], [20.276502299999947, 42.93362950000005], [20.2994124, 42.921905800000104], [20.320051200000023, 42.91498010000009], [20.34641419999997, 42.91127680000011], [20.345842800000128, 42.88808670000003], [20.349392800000032, 42.85604140000015], [20.3540448, 42.8326335000001], [20.38204730000001, 42.84223900000012], [20.408785700000124, 42.8472074], [20.432713199999966, 42.8343797], [20.463874, 42.85329540000015], [20.48688350000009, 42.86786280000001], [20.514964700000064, 42.87783340000004], [20.535928900000044, 42.8825584], [20.5203206, 42.89820250000014], [20.50075380000004, 42.9173123], [20.48579280000007, 42.933082], [20.4974666, 42.95127009999999], [20.514216699999963, 42.9648383], [20.53641410000006, 42.97470090000013], [20.556437099999926, 42.96863320000011], [20.566355899999962, 42.98600730000004], [20.58073070000006, 43.0010694], [20.60136950000009, 43.01481310000008], [20.616934899999933, 43.002159699999936], [20.640510800000015, 43.005648400000155], [20.65075020000006, 43.02720570000014], [20.670326, 43.03516780000007], [20.669487, 43.06410440000013], [20.68826540000009, 43.08182010000007], [20.69379, 43.10318719999998], [20.68548050000004, 43.12301389999999], [20.66087250000004, 43.13754370000015], [20.653371100000015, 43.15836920000004], [20.631910600000026, 43.163430700000106], [20.61146279999997, 43.174592], [20.60467770000008, 43.19671550000004], [20.63434120000005, 43.20853550000015], [20.656263899999942, 43.20991540000011], [20.676887299999976, 43.208979], [20.696830900000066, 43.22209690000011], [20.721266299999968, 43.234852100000126], [20.74019250000009, 43.25089550000013], [20.76353720000003, 43.24342160000009], [20.79503589999996, 43.245656600000075], [20.801984, 43.265703000000144], [20.82751250000001, 43.2657200000001], [20.84771430000012, 43.251612800000146], [20.873098800000093, 43.2313383], [20.881223, 43.210946399999955], [20.85130270000002, 43.2053886], [20.836720199999945, 43.184315600000104], [20.858445200000176, 43.174845], [20.884189, 43.167484000000115], [20.9028386, 43.15622060000004], [20.9250659, 43.14793750000001], [20.94647530000003, 43.13380160000014], [20.968307899999957, 43.12468810000013], [20.995923200000107, 43.13650970000003], [21.01733390000004, 43.1342376], [21.036903300000063, 43.120284], [21.0544855, 43.107480400000156], [21.07987950000006, 43.1148141000001], [21.09189580000003, 43.135580700000105], [21.1053801, 43.118238], [21.12606000000011, 43.11115160000014], [21.14972060000008, 43.09177370000015], [21.146654600000033, 43.071736099999896], [21.15219, 43.04933530000011], [21.159110100000134, 43.02887270000008], [21.169592200000068, 43.008118900000056], [21.192939200000012, 43.008179200000086], [21.206156, 43.025102100000026], [21.22571480000005, 43.017823], [21.238486, 42.98999170000002], [21.23984429999996, 42.966131], [21.244879800000035, 42.93849100000011], [21.2654, 42.91269070000004], [21.281162000000165, 42.89529139999996], [21.304431400000112, 42.90629990000008], [21.330789099999947, 42.90297460000011], [21.349398699999938, 42.889883399999974], [21.360678100000086, 42.87283869999993], [21.385450400000025, 42.86654470000002], [21.407425699999976, 42.8737992], [21.435227399999917, 42.87287040000007], [21.436941099999956, 42.851656], [21.424009799999908, 42.832615900000064], [21.42461119999996, 42.81055170000002], [21.40634, 42.7940997], [21.4072969, 42.76663270000006], [21.394929200000036, 42.74946319999998], [21.414995199999964, 42.74620250000004], [21.440964399999984, 42.74875999999989], [21.467258300000026, 42.736151300000074], [21.49783329999991, 42.7376764], [21.521076600000015, 42.728463], [21.54358480000002, 42.72946360000009], [21.567910300000108, 42.731333900000095], [21.59196659999992, 42.7259749000001], [21.592340299999933, 42.70285210000003], [21.61700359999992, 42.696089], [21.638099000000125, 42.69777770000013], [21.64870590000004, 42.67949290000013], [21.6647385, 42.666375099999925], [21.678475100000014, 42.68680410000002], [21.69933789999999, 42.690769200000034], [21.72021209999997, 42.69228050000004], [21.74590770000009, 42.699812], [21.761285, 42.68267650000013], [21.7806748000001, 42.66255580000012], [21.77043340000006, 42.634623], [21.75702339999998, 42.61905], [21.7419648, 42.604565600000115], [21.74754770000004, 42.58104320000001], [21.747816, 42.558907800000156], [21.728316299999904, 42.54703289999992], [21.706674600000042, 42.549722700000075], [21.696725800000024, 42.53133580000002], [21.7105732, 42.5165844], [21.691528600000083, 42.50785640000015], [21.66722950000002, 42.493018], [21.64211080000001, 42.46867180000004], [21.62458229999993, 42.447362900000144], [21.63772390000014, 42.42939570000016], [21.64487240000011, 42.408324000000164], [21.62816090000007, 42.39269850000011], [21.614769300000148, 42.375734000000136], [21.593048599999918, 42.380125400000054], [21.5782661, 42.36531190000005], [21.557149700000082, 42.36247730000002], [21.536952900000017, 42.36675480000008], [21.52977610000005, 42.34276090000009], [21.53558959999998, 42.3221173], [21.558264899999983, 42.3154335000001], [21.583328400000028, 42.283266100000105], [21.5922225, 42.257781600000044], [21.61996259999995, 42.252180500000065], [21.649864, 42.24885930000005], [21.671294, 42.24185850000009], [21.691388800000027, 42.238518900000145], [21.71207120000014, 42.24109370000002], [21.725270800000033, 42.25796230000009], [21.749622299999942, 42.261431], [21.77380519999997, 42.26530140000017], [21.78655750000013, 42.2846841], [21.8097618, 42.29297810000003], [21.825908699999957, 42.305324900000016], [21.837444900000037, 42.32323020000007], [21.857898900000066, 42.32261539999996], [21.87367430000006, 42.308561400000144], [21.8923706, 42.300559100000044], [21.923022900000092, 42.30620169999992], [21.934495100000163, 42.33633350000014], [21.957412100000056, 42.340061400000025], [21.976992200000097, 42.32708370000006], [22.002218899999946, 42.31640630000015], [22.01877989999997, 42.304902], [22.04503980000004, 42.30742040000007], [22.065617, 42.2985812], [22.0977974, 42.30699080000005], [22.11897149999993, 42.31509430000011], [22.139819300000056, 42.312547400000085], [22.161984, 42.31376279999989], [22.1818677, 42.32494670000017], [22.2014468000001, 42.3402802], [22.222134499999925, 42.33724210000014], [22.243970500000103, 42.34644090000012], [22.260101700000064, 42.366610500000036], [22.28157010000001, 42.369246900000064], [22.29275310000014, 42.34910680000007], [22.313248400000077, 42.33307350000001], [22.332088600000134, 42.32200060000008], [22.352920400000016, 42.31661650000012], [22.38033070000006, 42.32417250000003], [22.400394499999948, 42.32616190000016], [22.42098539999995, 42.330634000000146], [22.449173200000075, 42.33180590000012], [22.45945080000007, 42.361843799999974], [22.48060260000011, 42.380332600000145], [22.492717300000095, 42.39635839999988], [22.513727399999937, 42.394715], [22.5228654, 42.412725900000055], [22.53548740000008, 42.43136279999999], [22.5405169, 42.45399690000011], [22.55321590000017, 42.4712449000001], [22.5543550000001, 42.494174200000145], [22.529148499999962, 42.51902279999996], [22.506317200000012, 42.532889599999976], [22.4878685, 42.54983040000013], [22.470798700000046, 42.56206540000011], [22.438887100000045, 42.56551120000012], [22.44055380000009, 42.588560900000175], [22.451395200000036, 42.61212940000013], [22.45836319999995, 42.631188500000064], [22.461481700000093, 42.652531500000066], [22.4759684, 42.67578470000012], [22.458443200000033, 42.68949840000005], [22.475594099999967, 42.710093], [22.49655869999998, 42.7226323000001], [22.499434200000053, 42.743803500000126], [22.476047900000026, 42.763019900000074], [22.459809100000086, 42.7778014000001], [22.449289200000067, 42.79590230000014], [22.44015360000003, 42.824051], [22.46484730000003, 42.833387099999925], [22.499124199999983, 42.84908260000009], [22.5175804000001, 42.86179300000015], [22.53546940000001, 42.88212620000013], [22.553826100000038, 42.87231820000005], [22.57553740000003, 42.86282340000014], [22.579906600000015, 42.883298], [22.6037323, 42.891904200000056], [22.630378900000096, 42.885166399999946], [22.6528558, 42.883225], [22.673558500000013, 42.875758], [22.6955474, 42.87869710000007], [22.7208053, 42.88497510000013], [22.744646400000136, 42.88614530000012], [22.759646699999962, 42.902615300000036], [22.774433600000066, 42.91929220000003], [22.768545699999947, 42.94760690000015], [22.782748200000015, 42.964563699999985], [22.824334799999917, 42.99390190000008], [22.849444700000106, 43.004817200000105], [22.862508800000114, 43.02138860000008], [22.8983761, 43.036196], [22.909172599999977, 43.055762300000026], [22.919222, 43.077411000000154], [22.95257000000015, 43.092393], [22.983178, 43.111247], [22.992278, 43.12911900000012], [22.993772, 43.150385], [23.006264, 43.187024], [22.982936100000018, 43.2026232], [22.958919500000093, 43.2070157], [22.934946900000057, 43.2090488], [22.915156300000035, 43.22068890000014], [22.896243, 43.23078430000004], [22.87655819999992, 43.24812080000004], [22.868869500000073, 43.26754170000004], [22.84833, 43.275756500000114], [22.84502889999993, 43.29705830000012], [22.831160099999977, 43.31298640000011], [22.81749990000003, 43.335319500000026], [22.794633, 43.34300890000014], [22.769923300000073, 43.36361230000011], [22.755955800000095, 43.380472400000144], [22.73290190000006, 43.38925230000007], [22.69975029999995, 43.39338340000012], [22.676437299999975, 43.39550259999993], [22.659907, 43.422568], [22.638789, 43.4333512], [22.597685700000056, 43.43565980000005], [22.57597889999994, 43.4637105], [22.553729600000054, 43.46165080000014], [22.533554600000173, 43.47118169999999], [22.524146500000143, 43.4966655], [22.506608700000015, 43.51635180000011], [22.50336590000012, 43.540409200000056], [22.489972000000137, 43.55613650000015], [22.496627400000136, 43.58355880000016], [22.490084300000035, 43.607820500000116], [22.49149060000002, 43.633727800000145], [22.482512600000064, 43.65297020000014], [22.45977760000011, 43.65888450000011], [22.439732900000024, 43.673773], [22.42041290000003, 43.681455], [22.406014600000105, 43.70037740000009], [22.402175800000066, 43.722935300000074], [22.3982405000001, 43.750333], [22.377407199999936, 43.775190200000054], [22.367103800000052, 43.795407400000045], [22.360626300000035, 43.8232567], [22.37883670000008, 43.8459755], [22.388677, 43.87888820000006], [22.394487, 43.9096399], [22.393153700000028, 43.9313727], [22.40626880000002, 43.94788730000005], [22.4132204, 43.97210880000006], [22.417290599999944, 43.99236150000013], [22.441180300000042, 44.01019480000002], [22.467811499999982, 44.01500850000008], [22.495399200000122, 44.01822520000013], [22.527498, 44.019731], [22.54349050000002, 44.0336474], [22.5335096, 44.05181810000016], [22.554491600000063, 44.05357770000006], [22.580643, 44.05407459999998], [22.621262400000035, 44.0633924], [22.61975360000008, 44.09779610000015], [22.6193189, 44.146689899999956], [22.616755199999943, 44.171313800000064], [22.63564169999995, 44.1786512], [22.64551430000006, 44.197833900000035], [22.66619330000009, 44.21420560000013], [22.685048900000027, 44.248625600000025], [22.68355830000013, 44.26929290000015], [22.659044300000062, 44.29020560000009], [22.6282263, 44.29251620000014], [22.60563120000006, 44.295216200000084], [22.5817652, 44.30162949999993], [22.557809300000088, 44.308656500000154], [22.54337670000001, 44.324714], [22.523722400000054, 44.337937200000056], [22.51131019999997, 44.3666665], [22.49719760000005, 44.41970170000002], [22.46764980000006, 44.4489787], [22.45760759999996, 44.46809250000001], [22.473915399999953, 44.48132149999998], [22.517774900000177, 44.47452360000011], [22.5399192000001, 44.478994399999976], [22.5586303, 44.498527], [22.564552700000092, 44.53328970000001], [22.588671100000113, 44.551091500000155], [22.60958130000006, 44.55429770000006], [22.63407550000005, 44.54852250000005], [22.681797400000107, 44.52074570000002], [22.707718200000045, 44.51756339999997], [22.763851500000044, 44.53873480000004], [22.757671699999946, 44.56210020000009], [22.742565500000126, 44.57567470000009], [22.704285, 44.602814200000125], [22.682641000000103, 44.609891300000015], [22.662228, 44.6179677], [22.63750870000007, 44.612835500000074], [22.60214650000006, 44.621999800000026], [22.5709041, 44.639469], [22.49520149999995, 44.69599430000011], [22.478207, 44.71124539999988], [22.45451770000011, 44.715515], [22.429970099999935, 44.71075750000006], [22.400959399999977, 44.685621200000014], [22.33263809999994, 44.67195030000005], [22.312553799999932, 44.66425900000013], [22.298820800000044, 44.63849190000013], [22.27822150000003, 44.6261538], [22.26499979999994, 44.597917500000165], [22.241314300000056, 44.57432960000017], [22.183464399999934, 44.48254630000008], [22.139862400000084, 44.47433990000002], [22.078236, 44.50177150000002], [22.067936300000042, 44.527477], [22.033089, 44.5495012], [22.02484929999997, 44.577508800000146], [22.002876600000036, 44.61198009999998], [21.9954952, 44.63166783006932], [21.96991760000003, 44.63337803006925], [21.945198400000095, 44.63863053006918], [21.842201599999953, 44.655117730069264], [21.815422400000102, 44.6527976300693], [21.77851520000013, 44.661345030069185], [21.737144799999953, 44.654018730069254], [21.714142200000083, 44.654751430069155], [21.692169500000148, 44.6645195300693], [21.64204440000003, 44.660856630069304], [21.61166039999995, 44.683318430069164], [21.61320530000006, 44.715652930069155], [21.594494199999986, 44.75516183006931], [21.555012099999942, 44.76978793006924], [21.412704799999972, 44.77551543006922], [21.39073220000006, 44.781364330069266], [21.38077579999998, 44.81632303006933], [21.358327499999916, 44.822046830069155], [21.35710839999996, 44.84396740000011], [21.37098179999998, 44.86779510000002], [21.39625170000005, 44.86789640000006], [21.426252600000055, 44.87241320000004], [21.446498600000098, 44.874846600000126], [21.465209800000025, 44.86741840000013], [21.48662330000002, 44.872082], [21.519167, 44.885278], [21.552778, 44.890833], [21.556389, 44.91861100000011], [21.540833, 44.938611], [21.504444, 44.948333000000105], [21.470833, 44.96305600000011], [21.441111, 44.960278], [21.421389000000147, 44.965278], [21.403611, 44.976389000000154], [21.401389, 44.996667], [21.379193399999963, 45.0076851], [21.360708899999963, 45.019716], [21.38152739999998, 45.027773600000046], [21.401577600000167, 45.02948220000002], [21.421223899999973, 45.03629780000011], [21.456199600000048, 45.03984580000002], [21.450700900000015, 45.06063760000012], [21.46485650000011, 45.07489810000004], [21.48344129999998, 45.09107850000015], [21.471777900000063, 45.10965710000005], [21.48817090000017, 45.12475720000015], [21.527310899999975, 45.138179400000126], [21.52339889999996, 45.15944110000004], [21.4933618, 45.17280430000011], [21.482914300000118, 45.19195900000011], [21.444065, 45.2015887], [21.417594799999904, 45.219155], [21.395314499999927, 45.21833019999997], [21.369637599999976, 45.225793800000076], [21.34363090000005, 45.23174330000012], [21.321004800000026, 45.24006530000014], [21.292278399999987, 45.24228969999996], [21.274499799999944, 45.229744800000105], [21.251714600000128, 45.24244090000008], [21.22353940000005, 45.252769], [21.20262450000007, 45.26534870000006], [21.19131559999994, 45.28670950000003], [21.18085760000008, 45.30786059999997], [21.16154350000005, 45.32502040000014], [21.144443600000045, 45.304609], [21.10977340000005, 45.30061990000007], [21.080982, 45.3177998000001], [21.06079090000003, 45.31555160000005], [21.01712310000005, 45.32421080000012], [20.999162700000056, 45.34169120000013], [20.982276800000022, 45.356997300000046], [20.961048900000094, 45.36672510000005], [20.9489703000001, 45.38547590000002], [20.931883300000095, 45.40202270000009], [20.901044300000024, 45.41675910000009], [20.875688800000148, 45.42572730000012], [20.8737779, 45.446031], [20.866149699999937, 45.464637799999934], [20.83336980000007, 45.47970759999998], [20.771549700000037, 45.47974480000005], [20.769308600000045, 45.49991619999997], [20.806625, 45.51523630000014], [20.828464300000064, 45.5337968], [20.811503600000037, 45.565695600000026], [20.79579849999999, 45.58739430000003], [20.772172200000057, 45.5822902000001], [20.765994, 45.612442900000076], [20.78876950000017, 45.644799400000124], [20.804826800000058, 45.65718920000012], [20.802885300000014, 45.68195880000002], [20.798832400000038, 45.70212950000007], [20.80242860000004, 45.73782], [20.817470799999967, 45.75166130000008], [20.8231374, 45.774861200000146], [20.782884399999944, 45.785944], [20.774027800000113, 45.7545197], [20.73240350000009, 45.755770699999914], [20.712089200000037, 45.751013000000114], [20.692434700000092, 45.759803199999965], [20.681347600000038, 45.79745150000002], [20.656833600000027, 45.80819860000014], [20.6599721, 45.829170300000044], [20.611543700000084, 45.86406730000016], [20.580849599999965, 45.86938010000006], [20.568881500000032, 45.910436800000014], [20.54644250000007, 45.90610429999998], [20.515481299999976, 45.892145200000016], [20.5017006, 45.91060859999999], [20.48362920000011, 45.95338160000006], [20.447560600000088, 45.9703566], [20.406118100000015, 45.96524040000014], [20.34797359999999, 45.99941080000002], [20.3407618, 46.03641190000013], [20.309474100000102, 46.072482100000116], [20.27346669999997, 46.098169400000074], [20.2832419, 46.11811319999998], [20.261996900000042, 46.12052560000012], [20.233185, 46.12380990000008], [20.21032720000005, 46.1354665], [20.181824800000015, 46.1600487], [20.1466913000001, 46.144827700000064], [20.12630640000009, 46.1519517000001], [20.106858099999954, 46.16265269999997], [20.074469400000055, 46.15683230000013], [20.039020499999936, 46.14444380000009], [20.02297649999997, 46.1732993], [19.935138900000027, 46.1761932], [19.914880400000015, 46.16398490000006], [19.873372500000016, 46.15135560000016], [19.853194100000053, 46.149790500000165], [19.8178337, 46.12778660000015], [19.797306500000104, 46.13946390000018], [19.77178269999996, 46.144152], [19.748402399999918, 46.156485900000064], [19.72705980000012, 46.16810379999998], [19.703298, 46.183981300000085], [19.6765567, 46.1818411000001], [19.667932800000017, 46.18487440000007]], [[19.423295199999984, 43.5683514000001], [19.421449, 43.54195590000012], [19.395141, 43.55392520000015], [19.412241600000073, 43.56547020000005], [19.423295199999984, 43.5683514000001]]]}}]}