{"type": "FeatureCollection", "features": [{"type": "Feature", "properties": {"code": "STP", "name": "Sao Tome and Principe", "tier": "country"}, "geometry": {"type": "MultiPolygon", "coordinates": [[[[6.527428, 0.0042535], [6.514948599999959, -0.011553899999988], [6.5295578, 0.003316199999976], [6.527428, 0.0042535]]], [[[6.664152099999965, 0.4123415], [6.638817799999986, 0.4089849], [6.6160425, 0.407560800000035], [6.595575699999968, 0.38862], [6.5788141, 0.374992], [6.56078179999996, 0.358885399999971], [6.539289399999982, 0.34918950000002], [6.5225373, 0.332021800000022], [6.5044957, 0.322389600000012], [6.489530599999982, 0.303838699999965], [6.482204900000033, 0.282517799999966], [6.466766500000032, 0.263391], [6.460246, 0.2438127], [6.465623699999979, 0.220114899999974], [6.463068599999955, 0.196673500000028], [6.475353, 0.179674], [6.4798332, 0.155975700000028], [6.488151900000039, 0.136141500000026], [6.49583, 0.11604950000001], [6.51502220000001, 0.1005949], [6.5180944, 0.07741070000002], [6.5150478, 0.0553488], [6.512074700000026, 0.031895699999968], [6.533893, 0.029130499999969], [6.55274, 0.038060399999957], [6.5631674, 0.0557579], [6.5685037, 0.0794746], [6.589231200000023, 0.076255099999973], [6.609033100000017, 0.0835355], [6.624242299999972, 0.099024199999982], [6.6452169, 0.107043899999976], [6.645538300000043, 0.1278831], [6.664460900000025, 0.14298609999996], [6.674894900000028, 0.161386199999964], [6.6896341, 0.180041600000042], [6.705630299999966, 0.198488099999978], [6.7229004, 0.208745400000016], [6.735914499999963, 0.229125499999978], [6.748636600000014, 0.245020700000027], [6.7466109, 0.266508], [6.750133200000031, 0.287120400000025], [6.7488061, 0.31190540000003], [6.742274, 0.332875499999958], [6.72365349999996, 0.345071199999975], [6.712534400000026, 0.3677998], [6.698785500000016, 0.388411899999981], [6.669783399999963, 0.408478799999963], [6.664152099999965, 0.4123415]]], [[[7.404295399999972, 1.691208], [7.378692299999956, 1.67920120000002], [7.366417300000039, 1.655865700000043], [7.364514100000042, 1.6336985], [7.3635077, 1.6110164], [7.341874700000018, 1.600689299999964], [7.335487099999972, 1.581611600000028], [7.338065200000033, 1.560221499999987], [7.359196399999968, 1.5568876], [7.377771499999975, 1.548138699999986], [7.398138700000024, 1.539390899999966], [7.4123402, 1.557186200000023], [7.4260311, 1.571888100000014], [7.423582299999987, 1.593279499999984], [7.437270599999957, 1.611590199999964], [7.455704900000038, 1.6208835], [7.4491585, 1.6409829], [7.427640500000033, 1.6448323], [7.443508300000035, 1.660567699999977], [7.461558799999979, 1.669345399999984], [7.447329, 1.687892299999967], [7.425304600000027, 1.683621099999972], [7.404295399999972, 1.691208]]]]}}]}