{"type": "FeatureCollection", "features": [{"type": "Feature", "properties": {"code": "SUR", "name": "Suriname", "tier": "country"}, "geometry": {"type": "Polygon", "coordinates": [[[-56.962048, 6.009820700000017], [-56.9790092, 5.997153100000034], [-57.00124739999996, 5.9766938], [-57.01815569999999, 5.96053450000004], [-57.06129769999998, 5.9491962], [-57.071160100000036, 5.92708], [-57.11539470000002, 5.919548], [-57.12239859999998, 5.880879399999987], [-57.132294200000025, 5.84070250000001], [-57.13873790000001, 5.783465399999958], [-57.144491199999976, 5.75141], [-57.13919819999999, 5.718894900000031], [-57.13942830000002, 5.692560900000025], [-57.14564189999997, 5.657523400000024], [-57.157723799999985, 5.631644600000023], [-57.16600849999997, 5.604619500000034], [-57.189366899999975, 5.559956699999972], [-57.2228083, 5.510301500000018], [-57.25910630000001, 5.482269], [-57.2661029, 5.455997900000035], [-57.263056, 5.419167], [-57.26737320000003, 5.384018899999969], [-57.299444, 5.36], [-57.321389, 5.347603800000027], [-57.33591720000001, 5.330583], [-57.31722, 5.316435], [-57.29769180000003, 5.326991200000013], [-57.285, 5.306111], [-57.290556, 5.270556], [-57.28653760000004, 5.2397826], [-57.267468899999955, 5.222603], [-57.267778, 5.249444], [-57.2670895, 5.270100799999959], [-57.2420545, 5.276363599999982], [-57.22207059999997, 5.263251199999967], [-57.212014, 5.234496499999956], [-57.1802943, 5.1957657], [-57.176281, 5.169421400000022], [-57.2062365, 5.151759399999982], [-57.22045709999996, 5.130571299999957], [-57.23545, 5.161828399999983], [-57.25795160000004, 5.1796843], [-57.28832590000003, 5.17778810000004], [-57.296667, 5.140278], [-57.301389, 5.117778], [-57.317592699999956, 5.09955680000002], [-57.321944, 5.063889], [-57.299116400000045, 5.052655700000034], [-57.284167, 5.026111], [-57.30133849999996, 5.01281780000004], [-57.3199495, 5.032906400000041], [-57.34264990000001, 5.015184099999985], [-57.37114070000004, 5.015761200000039], [-57.390378199999965, 5.007666399999959], [-57.408889, 4.991944], [-57.441944, 4.994722], [-57.473333, 4.989444], [-57.496667, 4.993333], [-57.521111, 5.007862], [-57.54557670000004, 5.009011], [-57.574722, 5.000278], [-57.607778, 4.991944], [-57.633889, 5.000278], [-57.67, 5.011944], [-57.749444, 4.964167], [-57.753056, 4.938889], [-57.776111, 4.921111], [-57.805556, 4.924444], [-57.826111, 4.931389], [-57.87, 4.888889], [-57.904167, 4.852222], [-57.918056, 4.831667], [-57.926389, 4.805], [-57.920833, 4.783056], [-57.900278, 4.776389], [-57.878333, 4.750278], [-57.871944, 4.7225], [-57.853889, 4.693056], [-57.838611, 4.666944], [-57.844722, 4.633611], [-57.8675, 4.594722], [-57.876944, 4.574167], [-57.895556, 4.5175], [-57.910556, 4.484722], [-57.918056, 4.458611], [-57.927778, 4.440833], [-57.958611, 4.403333], [-57.959167, 4.379444], [-57.948333, 4.349444], [-57.948889, 4.317222], [-57.953611, 4.288056], [-57.976389, 4.268889], [-58.0025, 4.24], [-58.033889, 4.216944], [-58.065556, 4.174444], [-58.070833, 4.1525], [-58.064722, 4.124722], [-58.053333, 4.095278], [-58.048333, 4.065833], [-58.049444, 4.033056], [-58.046944, 4.008333], [-58.016111, 3.963889], [-57.956944, 3.920278], [-57.928889, 3.886667], [-57.911944, 3.855833], [-57.89, 3.83], [-57.876111, 3.809444], [-57.859167, 3.771944], [-57.850278, 3.746389], [-57.846944, 3.7225], [-57.845556, 3.689722], [-57.835833, 3.665], [-57.760556, 3.624167], [-57.734444, 3.610278], [-57.717222, 3.579722], [-57.709722, 3.559167], [-57.668611, 3.538611], [-57.652778, 3.513333], [-57.636389, 3.461389], [-57.646667, 3.4375], [-57.659722, 3.409444], [-57.666111, 3.389444], [-57.646667, 3.360833], [-57.603611, 3.342222], [-57.580284600000034, 3.345], [-57.5550066, 3.344444], [-57.53722859999996, 3.360833], [-57.515839600000014, 3.362778], [-57.489728599999985, 3.347778], [-57.461673599999955, 3.347222], [-57.43500660000002, 3.354722], [-57.424173600000046, 3.377778], [-57.4047286, 3.3725], [-57.37389559999998, 3.362222], [-57.34667359999996, 3.359444], [-57.3288956, 3.368889], [-57.31306260000004, 3.3875], [-57.30000659999998, 3.364722], [-57.28028460000002, 3.33], [-57.28500660000002, 3.310278], [-57.28417360000002, 3.288889], [-57.2925066, 3.266944], [-57.283062600000015, 3.2425], [-57.2905626, 3.181667], [-57.27472860000004, 3.163056], [-57.28500660000002, 3.145278], [-57.269728599999965, 3.128889], [-57.24806260000001, 3.141111], [-57.24889560000001, 3.108889], [-57.246673600000015, 3.087778], [-57.221117599999985, 3.076111], [-57.210839600000014, 3.046667], [-57.204728600000024, 3.025556], [-57.22472859999998, 3.020833], [-57.2200066, 2.994167], [-57.228062599999966, 2.960556], [-57.197228600000045, 2.958333], [-57.185562599999976, 2.94], [-57.206673600000016, 2.92], [-57.22389559999998, 2.903056], [-57.207506600000016, 2.875], [-57.208339600000016, 2.8525], [-57.19111759999997, 2.835278], [-57.182784599999984, 2.816111], [-57.149173599999976, 2.830556], [-57.127506600000025, 2.826389], [-57.1377846, 2.807778], [-57.146395599999984, 2.7825], [-57.11778459999996, 2.778333], [-57.090284600000025, 2.771667], [-57.1027846, 2.745556], [-57.09389560000002, 2.723056], [-57.07389559999997, 2.699167], [-57.0608396, 2.677778], [-57.0636176, 2.654444], [-57.056117600000015, 2.634722], [-57.036950599999976, 2.641667], [-57.01778460000001, 2.634722], [-57.0266736, 2.616111], [-57.0272286, 2.592222], [-57.01139560000003, 2.573889], [-56.99695059999998, 2.555278], [-56.99917359999997, 2.520278], [-56.9894506, 2.5025], [-56.964450599999964, 2.516944], [-56.9500066, 2.5025], [-56.95750659999998, 2.482778], [-56.9466736, 2.447222], [-56.930006599999956, 2.436111], [-56.935562600000026, 2.408889], [-56.92528459999996, 2.386111], [-56.9061176, 2.378056], [-56.887506599999966, 2.362222], [-56.88333959999998, 2.332222], [-56.886673599999966, 2.308056], [-56.87722859999999, 2.290278], [-56.84500659999998, 2.281389], [-56.82639560000002, 2.265556], [-56.821673600000025, 2.236111], [-56.81945060000004, 2.205278], [-56.771673599999964, 2.136944], [-56.73889559999996, 2.101389], [-56.7236176, 2.082222], [-56.70389560000004, 2.047222], [-56.69167359999997, 2.029444], [-56.58583959999996, 2.028056], [-56.5627846, 2.023889], [-56.537228599999985, 2.008333], [-56.51945060000003, 1.985], [-56.4891736, 1.973889], [-56.46895430000002, 1.9491824], [-56.444677, 1.948541099999971], [-56.42287740000002, 1.9457291], [-56.41181609999998, 1.928265], [-56.3899887, 1.9233732], [-56.37206790000004, 1.932864900000012], [-56.3393454, 1.935383400000027], [-56.321398, 1.9236169], [-56.30273980000002, 1.911667500000017], [-56.27228730000004, 1.896546800000013], [-56.24404230000001, 1.87808040000003], [-56.234459600000015, 1.898611200000026], [-56.2089552, 1.89434879999996], [-56.18243050000002, 1.8926167], [-56.16026470000001, 1.891429800000025], [-56.14112640000003, 1.8750475], [-56.12018120000003, 1.857124899999977], [-56.0986538, 1.846528899999981], [-56.07740510000003, 1.845071700000026], [-56.04992729999997, 1.850846199999971], [-56.0290113, 1.8416074], [-55.998962099999986, 1.831280200000044], [-55.979345699999975, 1.841941600000033], [-55.9563774, 1.845094200000023], [-55.9342963, 1.87149490000004], [-55.914877099999956, 1.884688], [-55.901934500000046, 1.907746699999972], [-55.92052440000003, 1.9189753], [-55.92954330000001, 1.939241799999972], [-55.93634949999996, 1.9864655], [-55.91373929999996, 1.990519399999961], [-55.90673670000001, 2.013402100000043], [-55.90310249999996, 2.041077600000022], [-55.9328204, 2.0577405], [-55.9290955, 2.07863350000003], [-55.94870919999996, 2.0916724], [-55.97298410000004, 2.1031765], [-55.97552, 2.125971800000041], [-55.99375960000003, 2.139554100000033], [-56.00307219999998, 2.167602100000014], [-56.03506739999997, 2.168797599999987], [-56.049706199999974, 2.184366899999982], [-56.03615250000004, 2.21348690000002], [-56.058044899999985, 2.23340170000003], [-56.08798390000002, 2.249882599999956], [-56.108933, 2.244741899999962], [-56.138873200000035, 2.265745], [-56.128070499999986, 2.286454299999977], [-56.113397800000016, 2.311050199999968], [-56.09376149999996, 2.321169599999965], [-56.08887949999996, 2.351470199999987], [-56.09012249999996, 2.372277], [-56.06118349999997, 2.354889700000033], [-56.05060129999996, 2.334980899999987], [-56.02956709999997, 2.332433], [-56.026929799999984, 2.355315900000036], [-56.0365953, 2.374229499999984], [-56.023233200000014, 2.390863399999958], [-56.001453399999974, 2.412920699999958], [-55.98537429999998, 2.4292805], [-56.0031841, 2.445846899999974], [-55.989475, 2.469451899999956], [-55.977487, 2.489609199999957], [-55.9928769, 2.504547499999969], [-55.978236, 2.527329200000043], [-55.934600699999955, 2.533447099999978], [-55.910203399999965, 2.520036900000015], [-55.886263399999976, 2.503463499999984], [-55.866153199999964, 2.481375700000036], [-55.83881879999996, 2.462175900000033], [-55.78387690000001, 2.456518099999975], [-55.76151170000003, 2.440487900000036], [-55.74696139999997, 2.410445200000037], [-55.716944, 2.399167], [-55.698343799999975, 2.421543], [-55.6739863, 2.413604100000014], [-55.64218790000003, 2.415967900000019], [-55.617071499999966, 2.41984], [-55.59348750000003, 2.433267900000039], [-55.57060179999997, 2.4235161], [-55.551429700000035, 2.42944329999996], [-55.52792689999998, 2.428620299999988], [-55.504239, 2.439342600000042], [-55.48223590000003, 2.438604900000022], [-55.42937790000001, 2.4388719], [-55.38532719999997, 2.418360199999984], [-55.345572, 2.4479877], [-55.35615470000003, 2.4755581], [-55.32018450000004, 2.515367700000041], [-55.277291200000015, 2.512352799999988], [-55.23473589999998, 2.50337959999997], [-55.20754509999996, 2.522777099999988], [-55.17279610000003, 2.5593422], [-55.123403899999985, 2.567623499999964], [-55.10301740000003, 2.525639699999963], [-55.05623840000002, 2.553129799999968], [-55.0037377, 2.590929800000012], [-54.954239, 2.583595200000036], [-54.93535439999999, 2.518489], [-54.868458599999954, 2.4398863], [-54.838611, 2.434722], [-54.818611, 2.434167], [-54.788611, 2.445], [-54.770833, 2.461389], [-54.753611, 2.471667], [-54.715278, 2.462222], [-54.689167, 2.453889], [-54.691111, 2.428611], [-54.684444, 2.409444], [-54.707778, 2.393056], [-54.707778, 2.371111], [-54.696667, 2.336944], [-54.678333, 2.321111], [-54.646667, 2.318333], [-54.608333, 2.328056], [-54.5924477, 2.341526699999978], [-54.572203199999976, 2.354269499999965], [-54.552480300000035, 2.3497915], [-54.532428, 2.341319599999984], [-54.50831239999997, 2.337173500000037], [-54.51048609999997, 2.363988300000034], [-54.50450359999996, 2.392735], [-54.48515169999998, 2.4125583], [-54.4730606, 2.430007800000037], [-54.4515174, 2.431153100000031], [-54.43071129999996, 2.437473899999968], [-54.4118522, 2.4453791], [-54.39789680000004, 2.461565299999961], [-54.38827029999997, 2.480047], [-54.374277799999966, 2.495462899999971], [-54.35972409999998, 2.51345360000003], [-54.3478122, 2.531340799999963], [-54.34348059999998, 2.553522599999961], [-54.3302086, 2.568609700000028], [-54.32108309999998, 2.5918958], [-54.315937799999965, 2.612924900000017], [-54.3095867, 2.637302200000039], [-54.2940345, 2.653293599999965], [-54.275634700000026, 2.672606299999984], [-54.262987899999985, 2.7224437], [-54.243745, 2.73131109999997], [-54.2334788, 2.7503834], [-54.216566900000025, 2.7631146], [-54.2056645, 2.791165699999968], [-54.20281810000002, 2.8151781], [-54.19015819999996, 2.8354234], [-54.179847899999984, 2.854722599999963], [-54.19303380000004, 2.874827100000036], [-54.1914908, 2.896857500000031], [-54.192087, 2.9193428], [-54.17255349999996, 2.938290400000013], [-54.1733601, 2.9621058], [-54.181711, 2.984569200000024], [-54.1754534, 3.0037364], [-54.17330240000002, 3.025741], [-54.184078199999966, 3.0505498], [-54.19082430000001, 3.06969810000001], [-54.174050099999974, 3.08146230000003], [-54.17389270000001, 3.1047688], [-54.18450569999999, 3.126725600000039], [-54.2104072, 3.126416400000035], [-54.21404469999997, 3.150779], [-54.203639799999976, 3.170066100000028], [-54.193920200000015, 3.1920587], [-54.174689899999976, 3.2058837], [-54.1657429, 3.2262159], [-54.15192150000003, 3.24590780000004], [-54.13214789999998, 3.269593799999974], [-54.12517320000003, 3.288584], [-54.10319259999998, 3.294539300000025], [-54.081113799999976, 3.292273599999966], [-54.066584, 3.3074901], [-54.06619880000002, 3.329561800000029], [-54.06214279999998, 3.352016100000014], [-54.053931, 3.371330399999987], [-54.0332157, 3.405413100000036], [-54.01187130000002, 3.42707290000001], [-54.0186262, 3.4472987], [-54.008259200000026, 3.5044514], [-53.99968589999997, 3.525878499999983], [-54.003877600000045, 3.563030100000024], [-53.988917, 3.578203899999981], [-53.980040799999976, 3.6055095], [-53.99436450000003, 3.63039790000003], [-54.00762790000002, 3.649318799999961], [-54.02783849999999, 3.632625], [-54.050978799999974, 3.6349727], [-54.05684929999996, 3.660206500000022], [-54.07933690000004, 3.6706564], [-54.08586, 3.692755], [-54.07899359999996, 3.715195699999978], [-54.096503, 3.734209899999989], [-54.1128109, 3.768126], [-54.11916229999997, 3.7876529], [-54.13770179999997, 3.801527], [-54.16036110000004, 3.804610099999987], [-54.18284870000002, 3.799642899999959], [-54.2011981, 3.822197100000039], [-54.189200200000016, 3.840921300000037], [-54.20808289999998, 3.854280699999972], [-54.23040570000001, 3.85666530000001], [-54.24317, 3.874170899999989], [-54.25290430000002, 3.8974758], [-54.27692190000003, 3.922588699999967], [-54.2929309, 3.945174], [-54.301784499999975, 3.973897499999961], [-54.31030979999997, 3.993340700000029], [-54.31886490000004, 4.015002199999966], [-54.33733279999996, 4.037578199999984], [-54.35786970000002, 4.04906], [-54.352146599999976, 4.073145400000026], [-54.34671890000004, 4.102585399999985], [-54.3352206, 4.120741799999987], [-54.32457240000003, 4.1481977], [-54.34568669999999, 4.158641600000028], [-54.36405449999999, 4.172338199999974], [-54.38499719999996, 4.178159200000035], [-54.395901299999956, 4.204173200000032], [-54.3901051, 4.232113499999983], [-54.38310890000004, 4.2615317], [-54.39237859999999, 4.2873804], [-54.39075490000002, 4.324856200000042], [-54.38572370000003, 4.350923099999974], [-54.40137690000004, 4.369287799999981], [-54.41583390000002, 4.3875894], [-54.41480819999997, 4.40937239999996], [-54.4367811, 4.416168], [-54.446667, 4.473889], [-54.452222, 4.509167], [-54.437778, 4.535833], [-54.4225, 4.561944], [-54.42, 4.593333], [-54.435833, 4.639167], [-54.439722, 4.669167], [-54.432778, 4.696389], [-54.447222, 4.723056], [-54.471944, 4.7325], [-54.478056, 4.760556], [-54.476111, 4.825556], [-54.473333, 4.856944], [-54.482778, 4.881389], [-54.485, 4.903889], [-54.467778, 4.921111], [-54.4452548, 4.936570899999985], [-54.43913359999996, 4.9677582], [-54.4366597, 4.99103090000003], [-54.437582399999954, 5.016909500000015], [-54.4257331, 5.033953800000017], [-54.414671600000034, 5.064812600000039], [-54.405556, 5.084167], [-54.3740046, 5.1088966], [-54.36607559999997, 5.134447599999962], [-54.347778, 5.148333], [-54.335, 5.176389], [-54.318333, 5.207778], [-54.296667, 5.240556], [-54.276667, 5.261667], [-54.249167, 5.282222], [-54.228705899999966, 5.296106200000043], [-54.208333, 5.3025], [-54.165, 5.350278], [-54.142222, 5.373056], [-54.131944, 5.396667], [-54.119167, 5.418056], [-54.0934298, 5.4420651], [-54.06211279999999, 5.4829358], [-54.027222, 5.521667], [-54.00777190000003, 5.551072600000044], [-54.005103, 5.578171199999986], [-54.0225, 5.611667], [-54.025278, 5.636111], [-54.020556, 5.658611], [-54.005278, 5.698333], [-53.989444, 5.723333], [-53.974722, 5.748056], [-54.01520509999999, 5.811597], [-54.02302010000001, 5.8318], [-54.07132, 5.838620100000018], [-54.0929, 5.84221], [-54.14527, 5.85992720000003], [-54.16972819999996, 5.872695900000029], [-54.18835990000003, 5.88235], [-54.21149480000002, 5.884495599999966], [-54.25488, 5.89659], [-54.27928010000002, 5.905210099999973], [-54.30421750000002, 5.9061045], [-54.325227, 5.913762800000015], [-54.356164599999985, 5.915748900000033], [-54.3833757, 5.923108500000033], [-54.437798, 5.934916], [-54.47835710000001, 5.9413042], [-54.54479989999996, 5.94868990000003], [-54.586618399999956, 5.9586951], [-54.60931290000001, 5.963906], [-54.65066389999997, 5.9723957], [-54.70351549999998, 5.979614399999981], [-54.74803550000004, 5.9829187], [-54.7864731, 5.984138699999956], [-54.851976, 5.995142300000015], [-54.89096, 5.990549599999976], [-54.92097089999996, 5.991893300000044], [-54.964117199999954, 5.991464600000011], [-54.989759700000036, 5.994555], [-55.04176090000003, 5.9932711], [-55.068175899999986, 5.991023], [-55.09326810000001, 5.986876299999981], [-55.12801629999996, 5.976882900000017], [-55.1525022, 5.9646905], [-55.16571990000003, 5.948249600000015], [-55.13077, 5.931119500000019], [-55.1074429, 5.908428900000022], [-55.07272949999999, 5.903192600000022], [-55.040179500000015, 5.8920586], [-55.064030099999975, 5.890671399999984], [-55.1164965, 5.8865432], [-55.13861019999997, 5.904339], [-55.1589344, 5.907393100000029], [-55.17961140000002, 5.899424099999965], [-55.212560199999956, 5.8982952], [-55.24120559999998, 5.910073], [-55.27066490000003, 5.923528699999984], [-55.29220189999997, 5.936109], [-55.311999200000024, 5.943788600000037], [-55.33188969999998, 5.953834099999959], [-55.35074, 5.96354], [-55.37175019999997, 5.970341600000044], [-55.3947911, 5.974062100000037], [-55.4183801, 5.974790299999981], [-55.448087699999974, 5.981676900000014], [-55.47338349999997, 5.985858100000023], [-55.50327680000004, 5.987463], [-55.53732489999998, 5.9944143], [-55.56121960000004, 5.996094099999986], [-55.604246600000025, 6.000414], [-55.64645680000002, 5.997151], [-55.667494799999965, 5.9970238], [-55.689997100000014, 5.992444299999981], [-55.724856699999954, 5.984490400000013], [-55.77063290000003, 5.979882], [-55.81736250000004, 5.9819558], [-55.84670219999996, 5.979190800000016], [-55.87296969999997, 5.9705118], [-55.893207699999984, 5.970044], [-55.902902, 5.950519599999986], [-55.919683700000014, 5.934009500000041], [-55.9356726, 5.914738199999984], [-55.95462770000001, 5.888624299999982], [-55.950365, 5.864622500000031], [-55.937692, 5.848915800000036], [-55.918925499999986, 5.83200919999997], [-55.9119042, 5.8128677], [-55.882575500000016, 5.759797700000028], [-55.87389360000003, 5.731120799999971], [-55.8854501, 5.684883700000036], [-55.9026328, 5.658632400000034], [-55.896362, 5.679966200000035], [-55.88984390000002, 5.719709700000035], [-55.88963580000003, 5.740270400000018], [-55.91094309999997, 5.77916219999998], [-55.93599749999997, 5.805006300000041], [-55.97556079999998, 5.808895499999959], [-55.99615, 5.80487], [-56.01943990000004, 5.81098], [-56.04195, 5.81489], [-56.060990099999955, 5.82136], [-56.08286, 5.82706990000003], [-56.10421, 5.83832], [-56.12531, 5.84132], [-56.14847, 5.84522], [-56.16852989999998, 5.856079900000026], [-56.189640099999956, 5.860749899999977], [-56.20972, 5.86052009999997], [-56.2303, 5.87034], [-56.2516701, 5.87037], [-56.27174, 5.87646], [-56.29336010000003, 5.882539899999976], [-56.321150099999976, 5.8916], [-56.35169670000001, 5.89736910000002], [-56.40391109999997, 5.912864899999974], [-56.42566679999998, 5.9075323], [-56.467675, 5.9197042], [-56.493191299999985, 5.929054699999973], [-56.51629030000002, 5.933382600000041], [-56.5386372, 5.936909099999969], [-56.573124499999956, 5.940168299999986], [-56.5938061, 5.953418799999969], [-56.61352079999997, 5.963463299999987], [-56.64516109999999, 5.975698199999961], [-56.6679377, 5.981361400000022], [-56.69597880000003, 5.9807203], [-56.71805709999999, 5.981521699999963], [-56.7393297, 5.983872400000038], [-56.76796169999997, 5.986436800000032], [-56.79551929999997, 5.9851546], [-56.82189509999997, 5.98451349999997], [-56.85020470000001, 5.982750400000018], [-56.87021180000002, 5.986521500000023], [-56.89280480000002, 5.990240900000014], [-56.91138430000004, 5.9989034], [-56.93118339999998, 6.003826], [-56.9517745, 6.007479700000033], [-56.962048, 6.009820700000017]]]}}]}