{"type": "FeatureCollection", "features": [{"type": "Feature", "properties": {"code": "SVK", "name": "Slovakia", "tier": "country"}, "geometry": {"type": "Polygon", "coordinates": [[[19.4521194, 49.61181889999998], [19.406836100000028, 49.58595489999996], [19.366593500000032, 49.55370319999997], [19.3187944, 49.5310826], [19.2642245, 49.532383], [19.2278291, 49.49193510000001], [19.198581, 49.448161], [19.153381, 49.403772], [19.102998, 49.409791], [19.051853, 49.4104126], [19.0017009, 49.39765659999998], [18.978937, 49.442774], [18.966231, 49.493092], [18.897157, 49.514421], [18.844831499999962, 49.516821299999954], [18.788813100000027, 49.50865770000004], [18.734908, 49.490389], [18.68339, 49.506002], [18.631542, 49.498727], [18.580865, 49.50628], [18.534368, 49.484546], [18.5053, 49.4429], [18.456349, 49.402974], [18.4036613, 49.396691], [18.388032, 49.343193], [18.326669, 49.318208], [18.248114, 49.29474], [18.19746459999996, 49.289547700000035], [18.152472, 49.252254], [18.141357, 49.196084], [18.117221, 49.150783], [18.115548, 49.090081], [18.082042, 49.046165], [18.029725, 49.026829], [17.975724700000043, 49.022640100000025], [17.9243, 49.019966], [17.899606, 48.969941], [17.875863, 48.925909], [17.81717489999997, 48.92769389999999], [17.755088, 48.902418], [17.715304, 48.868391], [17.658432, 48.855796], [17.601852, 48.840898], [17.550519, 48.82764], [17.477487, 48.841325], [17.427034, 48.826301], [17.36151540000002, 48.813434], [17.321665, 48.845298], [17.271648, 48.861766], [17.218049, 48.870667], [17.161991, 48.853382], [17.111268, 48.831481], [17.08911, 48.786001], [17.043736, 48.764703], [17.012429, 48.718231], [16.976583, 48.67509], [16.957586, 48.628291], [16.935799, 48.570849], [16.921267, 48.520117], [16.889987, 48.47636], [16.851997599999983, 48.43441630000004], [16.8504296, 48.3831875], [16.88194, 48.335826], [16.9070197, 48.28917849999997], [16.957066, 48.263818], [16.962463, 48.213566], [16.993637, 48.161732], [17.038636, 48.13982], [17.079081, 48.107894], [17.06825, 48.055395], [17.117377, 48.028258], [17.171999, 48.011821], [17.226627, 48.016229], [17.279398, 47.993973], [17.333517, 47.993589], [17.376398, 47.958646], [17.421937, 47.930004], [17.45392, 47.885258], [17.507271, 47.866502], [17.549571, 47.832155], [17.602621, 47.822545], [17.691233, 47.773261], [17.74566, 47.750277], [17.802865, 47.744266], [17.866096, 47.74575], [17.920347799999984, 47.744029], [17.970871, 47.7578392], [18.029056099999966, 47.75607810000003], [18.086878699999968, 47.7565628], [18.14491919999997, 47.7486656], [18.196988800000028, 47.73991879999998], [18.2675754, 47.73736619999998], [18.37020120000004, 47.7441087], [18.42820510000003, 47.7550913], [18.485798199999962, 47.7542442], [18.54045910000002, 47.76477], [18.610523400000027, 47.75820150000004], [18.68215910000002, 47.767589], [18.7311147, 47.795524100000016], [18.775046399999965, 47.8211462], [18.8281934, 47.818972], [18.795917, 47.858407], [18.760847, 47.895233], [18.771699, 47.949039], [18.815743, 47.993442], [18.822878, 48.043125], [18.874936499999965, 48.047070700000035], [18.928061, 48.057122], [18.98161, 48.053601], [19.030178, 48.067316], [19.084362, 48.072781], [19.135289, 48.074146], [19.190271, 48.060381], [19.241368, 48.053653], [19.283857, 48.082076], [19.338622, 48.08869], [19.389662, 48.089688], [19.439824, 48.099639], [19.49442, 48.109906], [19.50977, 48.168859], [19.541305, 48.209321], [19.592604, 48.227836], [19.644304, 48.241639], [19.691297, 48.207048], [19.74618, 48.216512], [19.798733, 48.19482], [19.838594, 48.162174], [19.889074, 48.164088], [19.929366, 48.130111], [19.974394, 48.166005], [20.029038, 48.177685], [20.078844, 48.183739], [20.120115, 48.217241], [20.168429, 48.251604], [20.220937, 48.262892], [20.280329, 48.266402], [20.3281, 48.288447], [20.374279, 48.326989], [20.409811900000022, 48.3658749], [20.41672429999997, 48.418987899999976], [20.4698187, 48.452545600000015], [20.5077598, 48.48931560000001], [20.541496, 48.538659], [20.592549, 48.539333], [20.640468, 48.555438], [20.706584, 48.569128], [20.799421, 48.574579], [20.850436, 48.581633], [20.916282, 48.560172], [20.956198, 48.521666], [21.015114, 48.532313], [21.066321, 48.525894], [21.117448, 48.491055], [21.160875, 48.521499], [21.216554, 48.531525], [21.269192, 48.52533], [21.317739, 48.53926], [21.365291, 48.560426], [21.41545, 48.558951], [21.47113, 48.566178], [21.518374, 48.546913], [21.553437, 48.508581], [21.604478, 48.5074], [21.631492, 48.459202], [21.660372, 48.416919], [21.701741, 48.380695], [21.745009, 48.348733], [21.798397, 48.342488], [21.855087, 48.366068], [21.912061, 48.36941], [21.961156, 48.379593], [22.017838, 48.386332], [22.072814, 48.382012], [22.126149, 48.380848], [22.137691100000016, 48.4326478], [22.154561, 48.509803], [22.160968100000037, 48.567261400000035], [22.189027, 48.609864], [22.240504, 48.627708], [22.282272, 48.661549], [22.339611, 48.683893], [22.361795, 48.7302], [22.373369, 48.782445], [22.375913, 48.834026], [22.421124, 48.884602], [22.466227, 48.972943], [22.513875, 48.996627], [22.551079, 49.030161], [22.562596, 49.081037], [22.51129860000001, 49.09215570000001], [22.45606789999997, 49.10376510000002], [22.3966366, 49.1171143], [22.334605, 49.146472], [22.281768, 49.14208], [22.225713, 49.152541], [22.175906499999968, 49.1831017], [22.124451599999965, 49.202158800000014], [22.067642, 49.212216], [22.041891, 49.25716409999997], [22.000727599999962, 49.29932389999997], [21.96527420000001, 49.341685799999986], [21.9078851, 49.35327510000001], [21.85899869999997, 49.3685554], [21.808517, 49.38151], [21.740501299999963, 49.39253260000004], [21.681247799999962, 49.41080280000004], [21.63094460000004, 49.44730850000002], [21.575602, 49.435406], [21.524076299999976, 49.4316735], [21.473696400000012, 49.41358539999997], [21.40653370000001, 49.42662090000002], [21.351971500000037, 49.44489479999997], [21.277524599999968, 49.46093979999998], [21.232748600000043, 49.43654520000003], [21.19212780000002, 49.400992600000045], [21.1240235, 49.43657989999998], [21.072624099999974, 49.42495820000002], [21.10410470000002, 49.376401099999974], [21.054447, 49.36183319999997], [21.006952, 49.340167], [20.963329, 49.308746], [20.91134, 49.306266], [20.865549, 49.347484], [20.811836, 49.347687], [20.763852, 49.370892], [20.740105, 49.416301], [20.665767, 49.406311], [20.614934, 49.417845], [20.575525, 49.376106], [20.5199565, 49.392505], [20.47196, 49.415436], [20.418288, 49.405858], [20.362271, 49.398262], [20.32365369999996, 49.351811599999984], [20.2730539, 49.351372100000034], [20.220823, 49.35179], [20.17058369999996, 49.32773460000003], [20.129984, 49.296], [20.102423500000025, 49.2531229], [20.08719469999996, 49.1993859], [20.032255699999983, 49.19995820000001], [19.981560899999987, 49.23180140000004], [19.9254153, 49.23515480000003], [19.883928, 49.204178], [19.833899, 49.196777], [19.778588, 49.204955], [19.790499, 49.255259], [19.804964, 49.322768], [19.792557, 49.378598], [19.746278700000012, 49.40793689999997], [19.696928, 49.399453], [19.644331, 49.40822], [19.611446, 49.446873], [19.56691279999996, 49.47114], [19.5429227, 49.51825349999997], [19.529331299999967, 49.57301889999997], [19.480407699999972, 49.587035], [19.4521194, 49.61181889999998]]]}}]}