{"type": "FeatureCollection", "features": [{"type": "Feature", "properties": {"code": "SVN", "name": "Slovenia", "tier": "country"}, "geometry": {"type": "Polygon", "coordinates": [[[16.597878433000062, 46.475810393000074], [16.573685960000034, 46.48507639200005], [16.541437373000065, 46.496257393000064], [16.523341043000073, 46.50807480800006], [16.531461191000062, 46.52946737600007], [16.528909144000067, 46.55611647300003], [16.495268531000022, 46.565209279000044], [16.484987844000045, 46.586399967000034], [16.452724756000066, 46.603836701000034], [16.427349294000066, 46.616288076000046], [16.397193276000053, 46.62823870300008], [16.385864944000048, 46.64535089200007], [16.419849939000073, 46.65934774800007], [16.434576769000046, 46.682667793000064], [16.41645143900007, 46.69315853000006], [16.384732111000062, 46.68927331000003], [16.381122452000056, 46.71191865800006], [16.361866101000032, 46.71891762000007], [16.341913737000027, 46.722416760000044], [16.328225488000044, 46.750878605000025], [16.33042488800004, 46.77213091400006], [16.31275544600004, 46.78890814700003], [16.341115643000023, 46.803749097000036], [16.347351917000026, 46.83443451000005], [16.334730887000035, 46.850887681000074], [16.30664909500007, 46.86251358100003], [16.28182464300005, 46.877740208000034], [16.249344051000037, 46.88344908000005], [16.22428759400003, 46.874726948000045], [16.19737510400006, 46.87203072900007], [16.16535852100003, 46.86013403000004], [16.140070060000028, 46.85807166700005], [16.110518522000064, 46.867193056000076], [16.06991778200006, 46.85207251800006], [16.05179245200003, 46.83843559500008], [16.023516937000068, 46.84066732900004], [15.999228994000077, 46.835707795000076], [15.997416461000057, 46.80767783200008], [15.99342888800004, 46.787080143000026], [15.988716302000057, 46.76423975600005], [15.99234136900003, 46.73493029500003], [16.012279232000026, 46.71529895200007], [16.04381730600005, 46.68372473000005], [16.044179813000028, 46.66183569900005], [16.01010419200003, 46.67128886800003], [15.928540206000037, 46.71032785800003], [15.881776854000066, 46.72325174900004], [15.855676379000045, 46.72399726400005], [15.817975692000061, 46.72449426800006], [15.782812551000063, 46.70610206900005], [15.725423224000053, 46.70287035900003], [15.693703896000045, 46.702481920000025], [15.66538306800004, 46.712968809000074], [15.654054736000035, 46.69510103600004], [15.633663740000031, 46.68344495400004], [15.598545913000066, 46.68927331000003], [15.57475641700006, 46.68655348900006], [15.552666170000066, 46.67761597000003], [15.553232587000025, 46.650794544000064], [15.533408007000048, 46.632906200000036], [15.51868117600003, 46.61929154200004], [15.473934267000061, 46.61462287100005], [15.460340270000074, 46.631739364000055], [15.416159777000075, 46.654293746000064], [15.380475533000038, 46.650794544000064], [15.351021872000047, 46.65507131500004], [15.306841379000048, 46.65468253200004], [15.275688468000055, 46.64690627700003], [15.240570641000033, 46.64418432400004], [15.18053048400003, 46.65196097000006], [15.152776072000051, 46.658570240000074], [15.124455244000046, 46.64885044600004], [15.101798581000025, 46.65312737000005], [15.081407585000022, 46.64496203900006], [15.061583005000045, 46.650405730000045], [15.037227092000023, 46.65001691300006], [15.012304763000031, 46.64223998700004], [14.980019019000054, 46.61345564000004], [14.95339744000006, 46.61734631100006], [14.933006443000068, 46.62629379400005], [14.908084114000076, 46.61695725700008], [14.868434954000065, 46.61228838400007], [14.842946209000047, 46.58660239000005], [14.822555212000054, 46.56635636400006], [14.81292613000005, 46.52701075200008], [14.789136635000034, 46.50830184900008], [14.768179221000025, 46.510250994000046], [14.742690476000064, 46.50557293000003], [14.713803231000043, 46.50128435000005], [14.680384653000033, 46.47554577000005], [14.652063825000027, 46.45837995000005], [14.631106412000065, 46.45877014200005], [14.612414665000074, 46.44901449300005], [14.592023668000024, 46.44081839800003], [14.587492336000025, 46.39630379100004], [14.576730421000036, 46.377549927000075], [14.55237450800007, 46.39317859500005], [14.526885763000053, 46.41895611500007], [14.48327168700007, 46.41544171600003], [14.461181441000065, 46.422470288000056], [14.42663003000007, 46.44628259900003], [14.390379369000073, 46.444721454000046], [14.35979287500004, 46.43847643000004], [14.322409381000057, 46.43223069000004], [14.295787802000063, 46.442379654000035], [14.271998306000057, 46.442379654000035], [14.243677478000052, 46.434572926000044], [14.218188732000044, 46.442379654000035], [14.193832820000068, 46.440428077000036], [14.167211241000075, 46.43574400700004], [14.146820245000072, 46.444721454000046], [14.124163582000051, 46.47203502000008], [14.08451442200004, 46.48334662600007], [14.05506076000006, 46.49426594500005], [14.013145934000022, 46.48607666100003], [13.946308779000049, 46.510640814000055], [13.905526786000053, 46.522723864000056], [13.844920213000023, 46.51492865600005], [13.80527105300007, 46.510250994000046], [13.780915141000037, 46.51297967900007], [13.731070482000064, 46.52311359500004], [13.714644402000033, 46.50791201200008], [13.703316070000028, 46.48880655900007], [13.69425340500004, 46.467353667000054], [13.68802282300004, 46.44589231700007], [13.648940080000045, 46.44745342700003], [13.610990170000036, 46.43964742600008], [13.589466340000058, 46.43847643000004], [13.577571592000027, 46.41973706200008], [13.539621682000075, 46.400600645000054], [13.514608726000063, 46.38847483600006], [13.488508251000042, 46.37121904300005], [13.458057696000026, 46.37046866800006], [13.440294872000038, 46.35696014400003], [13.443557432000034, 46.334939097000074], [13.417456956000024, 46.323174222000034], [13.398476110000047, 46.30747043000008], [13.377363726000056, 46.29641097500007], [13.388267924000047, 46.27428536300005], [13.391979992000074, 46.25375506700004], [13.417732461000071, 46.233056600000054], [13.401492165000036, 46.21251086600006], [13.423068558000068, 46.20384082900006], [13.440004867000027, 46.214758431000064], [13.470165416000043, 46.22085849800004], [13.497773919000053, 46.21411627900005], [13.525150418000067, 46.21684537200008], [13.559487044000036, 46.20753379000007], [13.567375187000039, 46.18729974100006], [13.611223986000027, 46.188102822000076], [13.63280037900006, 46.18729974100006], [13.663888946000043, 46.17621603400005], [13.65739282800007, 46.155970454000055], [13.643661077000047, 46.137355221000064], [13.626260760000036, 46.12730660900007], [13.610310470000059, 46.11499456000007], [13.590372606000074, 46.10066891900004], [13.571884770000054, 46.09011080100004], [13.541434215000038, 46.08181371900008], [13.522583871000052, 46.062952073000076], [13.498658435000038, 46.05842431900004], [13.509896140000023, 46.04081285600006], [13.50119598200007, 46.02118204000004], [13.474733, 46.00733560600003], [13.495395876000032, 45.98290708300004], [13.517508779000025, 45.975853545000064], [13.56354711800003, 45.96753929300007], [13.582759968000062, 45.978876600000035], [13.608860443000026, 45.98492221500004], [13.634960919000036, 45.985677870000075], [13.63704533200007, 45.94837081800006], [13.609831961000054, 45.90792360000006], [13.593272659000036, 45.89442097400007], [13.593997673000047, 45.87423343900008], [13.576234849000059, 45.847726167000076], [13.59796258800003, 45.80838377100008], [13.630248333000054, 45.79890713000003], [13.660268411000061, 45.79851223500003], [13.69425340500004, 45.785479130000056], [13.72144140100005, 45.769677340000044], [13.742965230000038, 45.760194117000026], [13.762789810000072, 45.756242298000075], [13.782047974000022, 45.74794256800004], [13.805837470000029, 45.73133940400004], [13.833025465000048, 45.70642540100005], [13.842654547000052, 45.68150029000003], [13.860213460000068, 45.66131468200007], [13.884569373000033, 45.64626969200003], [13.911190952000027, 45.63716155000003], [13.866444043000058, 45.599525276000065], [13.841521713000077, 45.582481605000055], [13.806970303000071, 45.58049944700008], [13.74862939600007, 45.59516576000004], [13.71521081800006, 45.59873266200003], [13.728238400000066, 45.57931011900007], [13.760402704000057, 45.56365747800004], [13.746946459000071, 45.544649958000036], [13.726298083000074, 45.54221263100004], [13.693585487000064, 45.54871193400004], [13.641384536000032, 45.534574991000056], [13.610527974000036, 45.539937698000074], [13.579439407000052, 45.526286165000045], [13.595215695000036, 45.50905450100004], [13.580831433000071, 45.48921529900008], [13.612152003000062, 45.461656488000074], [13.643184889000054, 45.45551167100007], [13.668297026000062, 45.44658617500005], [13.704489686000045, 45.45537496800006], [13.730010151000045, 45.45781605600007], [13.755530616000044, 45.46204702500006], [13.775946987000054, 45.467253937000066], [13.813995681000051, 45.457327847000045], [13.841521713000077, 45.43799759600006], [13.876073124000072, 45.43283059300006], [13.91855436700007, 45.449919643000044], [13.939511780000032, 45.454290429000025], [13.966699775000052, 45.455482403000076], [13.99218852100006, 45.46740075500003], [13.988790022000046, 45.49400931200006], [14.036935430000028, 45.506316482000045], [14.072619674000066, 45.49321520900003], [14.120765082000048, 45.478919434000034], [14.143421745000069, 45.47733079100004], [14.205161151000027, 45.47216739100003], [14.217055899000059, 45.497979661000045], [14.24197822800005, 45.498376680000035], [14.266334141000073, 45.48447933300008], [14.30938180000004, 45.48249371800006], [14.327507130000072, 45.472564592000026], [14.349597376000077, 45.483685096000045], [14.369421956000053, 45.48725907700003], [14.400574868000035, 45.48408221600005], [14.43965761100003, 45.49956772200005], [14.467978440000024, 45.51941470600008], [14.48553735300004, 45.54679205200006], [14.490113999000073, 45.572823871000026], [14.502801730000044, 45.604534338000065], [14.548477562000073, 45.629636316000074], [14.565877879000027, 45.65650072500006], [14.597415954000041, 45.66790153100004], [14.611191205000068, 45.63546648000005], [14.632216588000063, 45.61011352700007], [14.652516958000035, 45.59109128800003], [14.675286904000075, 45.58961679500004], [14.695677901000067, 45.57851721900005], [14.68888090200005, 45.54401524800005], [14.70360773300007, 45.53012916800003], [14.739858393000077, 45.53012916800003], [14.768179221000025, 45.51107982500008], [14.794234384000049, 45.50393465900004], [14.802730632000078, 45.483685096000045], [14.820289546000026, 45.46223644500003], [14.864470038000036, 45.46342825100004], [14.90826111900003, 45.47777760100007], [14.91445630100003, 45.49763226600004], [14.925961637000057, 45.51996039900007], [14.958707595000021, 45.52058049900006], [14.980833242000074, 45.50197454200003], [15.002958890000059, 45.50011360700006], [15.026854589000038, 45.491428435000046], [15.058715521000067, 45.491428435000046], [15.08438127100004, 45.48212140700008], [15.102966815000059, 45.46412346000005], [15.120667333000029, 45.45046601000007], [15.142792980000024, 45.434321123000075], [15.165716086000032, 45.420881662000056], [15.188510990000054, 45.42482947600007], [15.214858347000074, 45.42566055900005], [15.233804761000044, 45.44331819300004], [15.261632306000024, 45.45868622200004], [15.285907399000052, 45.463046656000074], [15.329720980000047, 45.451002731000074], [15.356364375000055, 45.470313298000065], [15.380639467000037, 45.482145538000054], [15.359916827000063, 45.49688046800003], [15.332385320000071, 45.510574269000074], [15.315326146000075, 45.52933299800003], [15.29173564100006, 45.58568820200003], [15.268607695000071, 45.603813486000035], [15.289885405000064, 45.616432994000036], [15.302837055000055, 45.632931144000054], [15.335678739000059, 45.64004649300006], [15.36574507000006, 45.64877773300003], [15.38794789800005, 45.64392721200005], [15.399974431000032, 45.66494310300004], [15.388873016000048, 45.688213036000036], [15.352330861000041, 45.715672031000054], [15.331978268000057, 45.70469005100006], [15.290347964000034, 45.70081354300004], [15.265832341000078, 45.71341121100005], [15.271383048000075, 45.74473156100004], [15.311163116000046, 45.76377349300003], [15.356956450000041, 45.778292633000035], [15.387485339000023, 45.79313051400004], [15.419401906000076, 45.796355617000074], [15.464732681000044, 45.794098064000025], [15.486935509000034, 45.82956332400005], [15.511451132000047, 45.82311677400003], [15.536429315000078, 45.82956332400005], [15.555394231000037, 45.84245418200004], [15.574821706000023, 45.847931893000066], [15.607200831000057, 45.84148747100005], [15.62709086500007, 45.83085254400004], [15.67565955200007, 45.84052074400006], [15.708092704000023, 45.846929190000026], [15.67607326500007, 45.86751371200006], [15.692663219000053, 45.885642560000065], [15.67430888000007, 45.89944751400003], [15.70420868900004, 45.919427711000026], [15.717234349000023, 45.939606585000035], [15.713018772000055, 45.96676646000003], [15.70509159200003, 45.98839131100004], [15.717096040000058, 46.00574406900006], [15.726675347000025, 46.032015553000065], [15.724041644000067, 46.05218896400004], [15.701696395000056, 46.05785383600005], [15.680430940000065, 46.06991667900007], [15.65333756900003, 46.08595081500005], [15.632875442000056, 46.09383474700007], [15.611359894000032, 46.11344507900003], [15.614497420000077, 46.13323750100005], [15.606729391000044, 46.160540207000054], [15.631003536000037, 46.17670542400003], [15.646516860000077, 46.196092168000064], [15.666789522000045, 46.21615378700005], [15.686304328000062, 46.225067710000076], [15.72249197900004, 46.22270828300003], [15.749395886000059, 46.22152853100005], [15.780882458000065, 46.21499028200003], [15.801901135000037, 46.24284207800008], [15.817295096000066, 46.262493660000075], [15.84364245300003, 46.266382201000056], [15.86673339500004, 46.268019399000025], [15.948569321000036, 46.29367097200003], [15.967534237000052, 46.301021526000056], [15.989737065000043, 46.31252476000003], [16.011014776000025, 46.31028821000007], [16.027666897000074, 46.32434501000006], [16.06883464200007, 46.337759497000036], [16.06929720100004, 46.35851352600008], [16.05542043300005, 46.377664097000036], [16.109077269000068, 46.39010836800003], [16.13821848200007, 46.40095490500005], [16.160495320000052, 46.39995966600003], [16.17934922200004, 46.389036358000055], [16.21043318200003, 46.38107219500006], [16.255726952000032, 46.380867970000054], [16.292139591000023, 46.378008746000035], [16.30782959000004, 46.40108249900004], [16.293915817000027, 46.41782017700007], [16.270528838000075, 46.44067309700006], [16.255726952000032, 46.474526765000064], [16.240683973000046, 46.48957941900005], [16.256932418000076, 46.50694128500004], [16.27512097500005, 46.51545325200004], [16.303980152000065, 46.51336710900006], [16.331384245000038, 46.52312956900005], [16.36594250400003, 46.51970873500005], [16.399636806000046, 46.52728016900005], [16.41896214800005, 46.52024064700004], [16.443781950000073, 46.51659016600007], [16.467086039000037, 46.51815468800004], [16.48782052000007, 46.50937811600005], [16.505878821000067, 46.49694832500006], [16.520680707000054, 46.48043880100005], [16.552652780000074, 46.47656547100007], [16.589065419000065, 46.47289574600006], [16.597878433000062, 46.475810393000074]]]}}]}