{"type": "FeatureCollection", "features": [{"type": "Feature", "properties": {"code": "SWE", "name": "Sweden", "tier": "country"}, "geometry": {"type": "MultiPolygon", "coordinates": [[[[16.43722, 56.21139], [16.48638, 56.23138], [16.57166, 56.355], [16.57666, 56.40695], [16.63556, 56.51888], [16.72666, 56.70222], [16.77027, 56.79583], [16.81264, 56.82499], [16.88028, 56.92972], [16.92667, 57.03806], [16.96111, 57.07527], [17.00889, 57.13194], [17.05055, 57.18666], [17.12417, 57.32083], [17.05666, 57.35916], [17.01, 57.33749], [16.95986, 57.27722], [16.96125, 57.22652], [16.9, 57.13499], [16.84805, 57.06416], [16.74944, 56.93972], [16.645, 56.88361], [16.5425, 56.77638], [16.42028, 56.58639], [16.39458, 56.53249], [16.39167, 56.465], [16.40333, 56.27416], [16.41847, 56.21319], [16.43722, 56.21139]]], [[[18.21083, 56.9125], [18.29875, 56.9361], [18.34034, 57.01346], [18.34291, 57.07548], [18.39312, 57.13083], [18.4475, 57.15486], [18.50653, 57.16736], [18.65805, 57.22083], [18.71319, 57.2443], [18.78833, 57.44833], [18.75972, 57.50805], [18.79333, 57.65917], [18.84889, 57.72111], [18.92944, 57.73972], [19.03333, 57.82694], [19.00389, 57.89889], [18.90833, 57.91791], [18.72055, 57.92194], [18.46653, 57.81027], [18.38194, 57.71861], [18.29472, 57.64583], [18.24569, 57.61916], [18.1853, 57.59224], [18.13861, 57.55111], [18.11014, 57.50458], [18.1425, 57.40944], [18.15805, 57.31583], [18.14833, 57.23527], [18.17333, 57.14194], [18.25445, 57.07916], [18.15833, 56.94166], [18.21083, 56.9125]]], [[[19.33423, 57.95936], [19.10472, 57.97527], [19.03528, 57.91556], [19.07541, 57.86041], [19.12611, 57.83972], [19.14083, 57.90472], [19.23805, 57.94694], [19.33423, 57.95936]]], [[[11.59444, 57.93249], [11.64611, 57.95083], [11.72597, 57.99208], [11.73588, 58.04171], [11.52528, 58.04847], [11.50972, 57.98972], [11.57472, 57.93166], [11.59444, 57.93249]]], [[[11.81111, 58.1336], [11.81243, 58.21771], [11.73667, 58.28166], [11.67319, 58.28555], [11.41055, 58.1475], [11.45264, 58.07472], [11.55333, 58.11527], [11.60667, 58.11861], [11.67639, 58.09888], [11.80333, 58.11875], [11.81111, 58.1336]]], [[[17.78805, 59.31458], [17.77555, 59.37041], [17.65055, 59.42416], [17.66194, 59.34305], [17.72166, 59.31611], [17.77777, 59.30861], [17.78805, 59.31458]]], [[[17.26639, 59.37444], [17.31347, 59.39611], [17.28028, 59.43694], [17.15056, 59.45667], [17.08972, 59.46], [17.15139, 59.38514], [17.23111, 59.37555], [17.26639, 59.37444]]], [[[18.57139, 60.31055], [18.50722, 60.34805], [18.45611, 60.4275], [18.4225, 60.48666], [18.37292, 60.49694], [18.38194, 60.41638], [18.40111, 60.36527], [18.51694, 60.31749], [18.57139, 60.31055]]], [[[17.50916, 62.36333], [17.51444, 62.41444], [17.46764, 62.45999], [17.37076, 62.4718], [17.41611, 62.37798], [17.48472, 62.36305], [17.50916, 62.36333]]], [[[24.16701, 65.81402], [24.03139, 66.02026], [23.96778, 66.0725], [23.93555, 66.12846], [23.88639, 66.15666], [23.8143, 66.16818], [23.75472, 66.185], [23.68472, 66.26332], [23.6625, 66.31221], [23.63972, 66.43332], [23.72528, 66.50082], [23.80722, 66.53777], [23.87416, 66.55534], [23.90277, 66.68027], [23.89208, 66.74478], [23.9425, 66.78791], [24.00076, 66.80229], [23.94069, 66.87978], [23.86694, 66.93111], [23.78778, 66.98138], [23.73111, 67.00833], [23.68111, 67.04748], [23.57333, 67.15701], [23.59056, 67.24069], [23.70805, 67.27805], [23.78035, 67.32631], [23.76514, 67.41687], [23.58194, 67.45], [23.51972, 67.44332], [23.4693, 67.44291], [23.43083, 67.47978], [23.47194, 67.55638], [23.50777, 67.66554], [23.47055, 67.81986], [23.48882, 67.87096], [23.54556, 67.89], [23.60208, 67.89638], [23.65569, 67.92117], [23.53167, 67.99249], [23.39444, 68.0425], [23.35333, 68.08361], [23.05542, 68.2911], [22.96945, 68.31777], [22.905, 68.33], [22.82666, 68.38596], [22.6668, 68.42165], [22.58167, 68.42721], [22.43055, 68.45166], [22.37194, 68.46361], [22.15917, 68.46499], [22.04861, 68.48152], [22.00083, 68.52152], [21.93389, 68.55527], [21.86472, 68.57361], [21.76542, 68.57569], [21.7066, 68.61499], [21.62305, 68.64943], [21.55055, 68.66165], [21.49417, 68.66986], [21.42056, 68.72415], [21.21222, 68.81791], [21.08139, 68.86665], [21.02472, 68.87749], [20.95208, 68.88068], [20.90083, 68.89208], [20.93097, 68.94923], [20.87555, 69.00124], [20.79166, 69.02333], [20.65006, 69.04379], [20.58093, 69.0603], [20.09694, 69.04222], [20.31472, 68.92833], [20.35028, 68.78665], [20.2025, 68.66222], [20.06305, 68.58305], [19.95639, 68.54388], [20.08806, 68.50166], [20.20423, 68.4709], [20.07583, 68.41472], [20.00667, 68.3811], [19.95236, 68.34277], [19.89833, 68.34138], [19.71722, 68.37277], [18.95222, 68.48778], [18.61194, 68.47527], [18.35805, 68.53915], [18.09954, 68.50893], [18.05805, 68.43999], [18.15528, 68.16611], [17.93972, 67.99777], [17.88416, 67.94554], [17.82555, 67.95527], [17.74333, 67.98471], [17.64889, 68.01416], [17.5925, 68.02971], [17.27361, 68.09055], [17.18833, 68.03027], [16.72694, 67.89916], [16.57361, 67.66124], [16.50833, 67.60916], [16.3825, 67.51555], [16.19916, 67.50083], [16.08805, 67.4054], [16.13861, 67.3675], [16.21264, 67.33374], [16.3375, 67.26082], [16.4025, 67.17055], [16.35389, 67.01778], [16.01, 66.89082], [15.62583, 66.60582], [15.36278, 66.47999], [15.46805, 66.28387], [15.02528, 66.14999], [14.71778, 66.14055], [14.50708, 66.1236], [14.53764, 66.01638], [14.56944, 65.94943], [14.60889, 65.87639], [14.63319, 65.8218], [14.60389, 65.77333], [14.56528, 65.73637], [14.50056, 65.58583], [14.49306, 65.3136], [14.36889, 65.24666], [14.31944, 65.12999], [14.23528, 65.04887], [14.09139, 64.94916], [13.83278, 64.73332], [13.70222, 64.63458], [13.66826, 64.5802], [13.82028, 64.52943], [13.90083, 64.50749], [14.0325, 64.48805], [14.11639, 64.47055], [14.15055, 64.33929], [14.15069, 64.17985], [13.985, 64.01555], [13.23, 64.09305], [13.13556, 64.0836], [13.03222, 64.07111], [12.93806, 64.05333], [12.84694, 64.02527], [12.68194, 63.96722], [12.63389, 63.94277], [12.47305, 63.83333], [12.34667, 63.72888], [12.14667, 63.58958], [12.17861, 63.51221], [11.93639, 63.27222], [12.03694, 63.17388], [12.16861, 63.01583], [12.02889, 62.8925], [12.08944, 62.74944], [12.04667, 62.66528], [12.0475, 62.58999], [12.08472, 62.52916], [12.17833, 62.43083], [12.24535, 62.33798], [12.29375, 62.26709], [12.25861, 62.14249], [12.215, 62.0061], [12.17, 61.87861], [12.12444, 61.72861], [12.39972, 61.57694], [12.47486, 61.56958], [12.52653, 61.56666], [12.85611, 61.36249], [12.77222, 61.20083], [12.67028, 61.08778], [12.62195, 61.05305], [12.56722, 61.04805], [12.45805, 61.05389], [12.40778, 61.05389], [12.24778, 61.01861], [12.27194, 60.9461], [12.30861, 60.88721], [12.36472, 60.77944], [12.425, 60.71027], [12.50583, 60.63], [12.59097, 60.5218], [12.60722, 60.46839], [12.58972, 60.39916], [12.53278, 60.33903], [12.50611, 60.20207], [12.49451, 60.11305], [12.31694, 59.97264], [12.16306, 59.89694], [12.10722, 59.88583], [12.03417, 59.88611], [11.96549, 59.89694], [11.87583, 59.87], [11.81596, 59.8461], [11.88208, 59.80236], [11.90319, 59.7293], [11.81805, 59.64868], [11.76465, 59.63805], [11.66701, 59.59357], [11.78305, 59.32471], [11.79792, 59.26653], [11.76955, 59.21753], [11.74187, 59.12], [11.62403, 58.90694], [11.49667, 58.88472], [11.43125, 58.89104], [11.42919, 58.98764], [11.34417, 59.08819], [11.26555, 59.09389], [11.19542, 59.07721], [11.12333, 59.02111], [11.11944, 58.94125], [11.16667, 58.92444], [11.23222, 58.83917], [11.20083, 58.77], [11.17944, 58.71152], [11.25, 58.65528], [11.26639, 58.57944], [11.23555, 58.50527], [11.20139, 58.39944], [11.23833, 58.34694], [11.38416, 58.31194], [11.40555, 58.26111], [11.49528, 58.23611], [11.60111, 58.25902], [11.72917, 58.32861], [11.79805, 58.31833], [11.88049, 58.20208], [11.83722, 58.15472], [11.79611, 58.09528], [11.79868, 58.03909], [11.7493, 57.89472], [11.69903, 57.88582], [11.66806, 57.84583], [11.72305, 57.80722], [11.70187, 57.69993], [11.88778, 57.69388], [11.83, 57.66139], [11.8625, 57.60777], [11.92222, 57.56389], [11.90667, 57.515], [11.90278, 57.4243], [11.94278, 57.37611], [11.98604, 57.34499], [12.00958, 57.42552], [12.095, 57.42694], [12.14583, 57.30917], [12.11, 57.25], [12.14805, 57.1861], [12.24569, 57.05388], [12.35, 56.96999], [12.34889, 56.9168], [12.41805, 56.89722], [12.47653, 56.88472], [12.57666, 56.83208], [12.59937, 56.78368], [12.67083, 56.67611], [12.72194, 56.64152], [12.785, 56.64361], [12.88021, 56.64298], [12.91722, 56.5786], [12.93028, 56.50111], [12.90111, 56.45722], [12.85265, 56.43992], [12.79437, 56.44791], [12.73139, 56.4668], [12.67625, 56.465], [12.62431, 56.41833], [12.73403, 56.35673], [12.83037, 56.25336], [12.71868, 56.22278], [12.63722, 56.25611], [12.46007, 56.29666], [12.58111, 56.14166], [12.62062, 56.10798], [12.66361, 56.0786], [12.92805, 55.82305], [13.06111, 55.68076], [13.03875, 55.62694], [12.98194, 55.59916], [12.92118, 55.57242], [12.98222, 55.40055], [13.29542, 55.34139], [13.37556, 55.34], [13.42403, 55.35458], [13.63694, 55.41666], [13.73055, 55.42555], [13.91194, 55.43388], [13.96944, 55.42111], [14.0375, 55.38944], [14.1225, 55.37944], [14.19355, 55.38614], [14.3125, 55.48666], [14.36594, 55.54284], [14.27694, 55.64722], [14.21056, 55.70083], [14.195, 55.77319], [14.21722, 55.83027], [14.26361, 55.88611], [14.33028, 55.93694], [14.51166, 56.0375], [14.60361, 56.05194], [14.63528, 56.0075], [14.72, 56.00028], [14.76722, 56.03333], [14.71236, 56.10097], [14.69264, 56.15819], [15.08889, 56.16], [15.22583, 56.15111], [15.37528, 56.13806], [15.59806, 56.19472], [15.77583, 56.14777], [15.86555, 56.09222], [16.00347, 56.21305], [16.04333, 56.26888], [16.10416, 56.42555], [16.21611, 56.60721], [16.25361, 56.64611], [16.3043, 56.65667], [16.37982, 56.66332], [16.375, 56.72083], [16.42667, 56.8436], [16.45444, 56.95528], [16.49722, 57.03791], [16.58444, 57.04666], [16.56333, 57.09389], [16.51388, 57.11722], [16.4609, 57.17069], [16.46597, 57.27055], [16.55236, 57.38138], [16.62993, 57.37868], [16.69125, 57.47875], [16.6325, 57.55222], [16.62555, 57.61972], [16.71139, 57.70263], [16.66055, 57.7411], [16.59961, 57.77], [16.46825, 57.84579], [16.41923, 57.88909], [16.55791, 57.82319], [16.61618, 57.77632], [16.69518, 57.7417], [16.56433, 57.85416], [16.50621, 57.99197], [16.60347, 57.92777], [16.65916, 57.88333], [16.73708, 57.87264], [16.77618, 57.92027], [16.73562, 57.96506], [16.67194, 57.98027], [16.62021, 57.98701], [16.74694, 58.01097], [16.74281, 58.08612], [16.80282, 58.13867], [16.82472, 58.19944], [16.78889, 58.32222], [16.69278, 58.40875], [16.57306, 58.43583], [16.42284, 58.47777], [16.47556, 58.47972], [16.57333, 58.45203], [16.74611, 58.42903], [16.82639, 58.4427], [16.93361, 58.48832], [16.7775, 58.58138], [16.71903, 58.60361], [16.64944, 58.62055], [16.43458, 58.63958], [16.37055, 58.60527], [16.29333, 58.61361], [16.19361, 58.6275], [16.23792, 58.66389], [16.29833, 58.66306], [16.43639, 58.65749], [16.67778, 58.63694], [16.73612, 58.62899], [16.78972, 58.6236], [16.90729, 58.61666], [17.03444, 58.63721], [17.14028, 58.69673], [17.03194, 58.7477], [17.08847, 58.76305], [17.15667, 58.73277], [17.22361, 58.73055], [17.35, 58.75222], [17.58111, 58.8475], [17.6291, 58.9102], [17.59139, 58.9436], [17.61597, 59.02909], [17.66625, 59.16735], [17.76472, 59.12076], [17.75666, 59.01833], [17.78944, 58.94306], [17.89472, 58.85889], [18.02138, 59.04194], [18.14027, 59.09083], [18.22583, 59.11777], [18.31139, 59.1325], [18.31, 59.21972], [18.26944, 59.26861], [18.3305, 59.32288], [18.38319, 59.30222], [18.52222, 59.29583], [18.59305, 59.30166], [18.64316, 59.32187], [18.61028, 59.36999], [18.52639, 59.4193], [18.47722, 59.43527], [18.46861, 59.36555], [18.39791, 59.36763], [18.27854, 59.36611], [18.20694, 59.32944], [18.13361, 59.31805], [18.0525, 59.31639], [17.99654, 59.33311], [17.94403, 59.31833], [17.84722, 59.26444], [17.74028, 59.26944], [17.58583, 59.28222], [17.47083, 59.29639], [17.41306, 59.31222], [17.35291, 59.32145], [17.3718, 59.27097], [17.29194, 59.25722], [17.30097, 59.32284], [17.17444, 59.37305], [17.11166, 59.37444], [16.95791, 59.425], [16.8975, 59.4675], [16.83674, 59.48964], [16.69542, 59.47048], [16.80056, 59.42555], [16.85437, 59.40715], [16.75, 59.42416], [16.68937, 59.46367], [16.335, 59.45333], [16.27642, 59.44398], [16.17528, 59.43972], [16.10722, 59.44542], [16.03246, 59.49016], [16.09666, 59.47222], [16.17333, 59.46513], [16.33, 59.46778], [16.48083, 59.49975], [16.54302, 59.55437], [16.49909, 59.59291], [16.55861, 59.60985], [16.61972, 59.58347], [16.65986, 59.55027], [16.78694, 59.55889], [16.86496, 59.58473], [16.94472, 59.54486], [17.02528, 59.5368], [17.11722, 59.54778], [17.18528, 59.5386], [17.25861, 59.50624], [17.32555, 59.48805], [17.40444, 59.46916], [17.40548, 59.54965], [17.34875, 59.61444], [17.38284, 59.65236], [17.44278, 59.55875], [17.49528, 59.54111], [17.54608, 59.53699], [17.73139, 59.44486], [17.78583, 59.53263], [17.76236, 59.5768], [17.69416, 59.6075], [17.58971, 59.63943], [17.61611, 59.69555], [17.5375, 59.73222], [17.51444, 59.64652], [17.54315, 59.57301], [17.44472, 59.67611], [17.44806, 59.73555], [17.53847, 59.74819], [17.58104, 59.77805], [17.65416, 59.71805], [17.64534, 59.66604], [17.71826, 59.62285], [17.7068, 59.67735], [17.75651, 59.61827], [17.81771, 59.58645], [17.84347, 59.53069], [17.78465, 59.4934], [17.75965, 59.41486], [17.80875, 59.37444], [17.89778, 59.34389], [18.00736, 59.34496], [18.09139, 59.33444], [18.05722, 59.39139], [18.08722, 59.43458], [18.19508, 59.45012], [18.32826, 59.39795], [18.25944, 59.44639], [18.31722, 59.47361], [18.37333, 59.46694], [18.64555, 59.58055], [18.73687, 59.64208], [18.84139, 59.71249], [18.95361, 59.71999], [19.03222, 59.71999], [19.07965, 59.76743], [18.96861, 59.78361], [18.86472, 59.79805], [18.93611, 59.87], [19.03319, 59.82875], [19.07055, 59.88972], [19.00722, 59.91277], [18.92972, 59.92472], [18.89, 59.95806], [18.81722, 60.07548], [18.77666, 60.11083], [18.71139, 60.12805], [18.63278, 60.145], [18.53166, 60.15305], [18.42167, 60.18722], [18.31708, 60.30819], [18.38153, 60.27055], [18.4409, 60.24298], [18.55694, 60.22444], [18.46583, 60.29944], [18.31389, 60.35388], [18.23958, 60.32902], [18.1, 60.45305], [17.96097, 60.59208], [17.88583, 60.59735], [17.77305, 60.57111], [17.7284, 60.53673], [17.68792, 60.49736], [17.63208, 60.52041], [17.6059, 60.58097], [17.60917, 60.63222], [17.55528, 60.64333], [17.4018, 60.63041], [17.27528, 60.67611], [17.28527, 60.73194], [17.27611, 60.84304], [17.24291, 60.89347], [17.1525, 60.94278], [17.18111, 61.19028], [17.20361, 61.27889], [17.145, 61.35777], [17.10528, 61.39993], [17.15396, 61.42826], [17.21965, 61.43465], [17.16542, 61.51958], [17.11777, 61.55555], [17.09861, 61.60278], [17.13708, 61.63736], [17.26454, 61.68537], [17.21402, 61.70431], [17.14878, 61.71729], [17.22736, 61.72277], [17.33319, 61.71346], [17.38805, 61.68958], [17.42222, 61.64221], [17.49517, 61.63458], [17.52361, 61.69888], [17.4768, 61.73152], [17.38566, 61.7565], [17.33639, 61.81806], [17.35083, 61.94347], [17.40507, 61.98972], [17.46361, 62.00638], [17.48325, 62.12514], [17.50904, 62.20258], [17.56243, 62.23072], [17.64889, 62.23173], [17.55216, 62.25016], [17.46527, 62.26555], [17.37389, 62.3268], [17.33083, 62.48777], [17.40528, 62.53625], [17.47472, 62.50639], [17.53361, 62.45444], [17.6125, 62.43458], [17.67389, 62.4443], [17.68945, 62.49194], [17.7818, 62.50118], [17.83944, 62.48555], [17.97805, 62.55528], [18.04639, 62.59528], [17.96639, 62.63444], [17.87923, 62.66243], [17.95167, 62.66972], [18.00458, 62.69902], [17.88194, 62.8836], [17.83472, 62.93333], [17.76208, 62.95874], [17.70055, 62.99271], [17.8243, 62.99458], [17.86736, 62.92583], [17.9275, 62.8425], [17.98076, 62.81847], [18.03722, 62.83917], [18.13538, 62.80913], [18.08278, 62.7811], [18.20403, 62.77736], [18.47042, 62.86041], [18.5752, 62.9618], [18.39625, 62.99333], [18.28917, 62.99722], [18.38222, 63.05167], [18.56694, 63.11749], [18.64722, 63.14055], [18.73736, 63.17013], [18.78516, 63.19833], [18.8975, 63.19167], [18.84722, 63.2341], [18.89666, 63.27319], [18.96607, 63.22114], [19.04194, 63.17541], [19.10944, 63.21097], [19.05472, 63.21736], [19.1493, 63.31278], [19.23055, 63.3275], [19.27666, 63.4143], [19.30919, 63.46361], [19.35875, 63.43513], [19.44722, 63.44028], [19.42583, 63.54632], [19.50166, 63.54944], [19.61639, 63.49472], [19.63847, 63.44458], [19.705, 63.43194], [19.7759, 63.46002], [19.7533, 63.50572], [19.89625, 63.60777], [20.1, 63.65583], [20.26389, 63.66583], [20.31667, 63.66], [20.38076, 63.67409], [20.44778, 63.75833], [20.5025, 63.82062], [20.63833, 63.81333], [20.77402, 63.86708], [20.89555, 64.00249], [20.96375, 64.1427], [21.24778, 64.30722], [21.31778, 64.30847], [21.45805, 64.3611], [21.585, 64.43971], [21.55416, 64.53248], [21.46527, 64.57554], [21.36465, 64.59908], [21.27138, 64.61527], [21.11917, 64.68436], [21.15283, 64.7236], [21.27347, 64.66833], [21.3034, 64.76166], [21.22222, 64.78236], [21.15944, 64.77555], [21.09423, 64.78305], [21.03937, 64.82382], [21.0959, 64.827], [21.18305, 64.82999], [21.20597, 64.88902], [21.24944, 64.9486], [21.30083, 64.95443], [21.37333, 64.97555], [21.46666, 65.00722], [21.48604, 65.05978], [21.5777, 65.05992], [21.61937, 65.15138], [21.55361, 65.21513], [21.41722, 65.30611], [21.32903, 65.32263], [21.26486, 65.33825], [21.32868, 65.37027], [21.46656, 65.31204], [21.53958, 65.2536], [21.58805, 65.23471], [21.6593, 65.24582], [21.6992, 65.28371], [21.61708, 65.32472], [21.53869, 65.32702], [21.47125, 65.38375], [21.54472, 65.40805], [21.60284, 65.41408], [21.65486, 65.39194], [21.92944, 65.39804], [22.01403, 65.42624], [21.97916, 65.48972], [21.9268, 65.50819], [21.85722, 65.53006], [21.90916, 65.52666], [21.99389, 65.51444], [22.05385, 65.51744], [22.16416, 65.53305], [22.12097, 65.58138], [22.05778, 65.58915], [21.84819, 65.6561], [21.76583, 65.71214], [21.82417, 65.6993], [22.07972, 65.60721], [22.20633, 65.57877], [22.37264, 65.54999], [22.38556, 65.62888], [22.32305, 65.65916], [22.24905, 65.63249], [22.25777, 65.6911], [22.32917, 65.82971], [22.41861, 65.85944], [22.47916, 65.8511], [22.60861, 65.79694], [22.65409, 65.75901], [22.70472, 65.8075], [22.67618, 65.87547], [22.79028, 65.85639], [22.8268, 65.82166], [23.00028, 65.75277], [23.07736, 65.70083], [23.13639, 65.71319], [23.23444, 65.76361], [23.39444, 65.76749], [23.51833, 65.80083], [23.65389, 65.80638], [23.77333, 65.79527], [23.93132, 65.76048], [23.98611, 65.7925], [24.04625, 65.80735], [24.11361, 65.79958], [24.16701, 65.81402]]]]}}]}