{"type": "FeatureCollection", "features": [{"type": "Feature", "properties": {"code": "SWZ", "name": "Eswatini", "tier": "country"}, "geometry": {"type": "Polygon", "coordinates": [[[31.792839, -25.953081], [31.4163, -25.71876], [31.31594, -25.74304], [31.26357, -25.80963], [31.12657, -25.92115], [31.11275, -25.98257], [31.08961, -26.02619], [31.07104, -26.06731], [30.961438, -26.261732], [30.89186, -26.32082], [30.857558, -26.383792], [30.83101, -26.41117], [30.80506, -26.466671], [30.79181, -26.56911], [30.7908, -26.71229], [30.80265, -26.82402], [30.81322, -26.84448], [30.8361, -26.8269], [30.86172, -26.81867], [30.887285, -26.803585], [30.90225, -26.8518], [30.92521, -26.87182], [30.94301, -26.88821], [30.96335, -26.90217], [30.97682, -26.92161], [30.97652, -26.95343], [30.958326, -26.992129], [30.98476, -27.03698], [31.02176, -27.06778], [31.06133, -27.09629], [31.15055, -27.20208], [31.493689900000035, -27.31516009999996], [31.977759900000027, -27.3175201], [31.97710989999998, -27.22283709999999], [31.974099899999977, -27.14840990000004], [31.9768117, -27.12188749999999], [31.979609899999975, -27.09101990000004], [31.984899899999977, -27.038629900000025], [31.9867099, -27.006230100000042], [32.000469900000034, -26.9380599], [32.015859900000024, -26.819880099999974], [32.035239900000015, -26.807339899999963], [32.05399990000004, -26.8183701], [32.09823990000003, -26.8045901], [32.1194199, -26.83804990000002], [32.1349923, -26.52725], [32.077418399999964, -26.405645699999983], [32.0743831, -26.305709], [32.10534950000004, -26.16168419999997], [32.08483010000001, -26.029067799999975], [32.087112699999956, -26.00893], [32.032401800000024, -26.001519], [32.006298899999955, -26.0004101], [31.975521099999973, -25.95267], [31.86786, -25.9996], [31.792839, -25.953081]]]}}]}