{"type": "FeatureCollection", "features": [{"type": "Feature", "properties": {"code": "SYC", "name": "Seychelles", "tier": "country"}, "geometry": {"type": "MultiPolygon", "coordinates": [[[[51.1641286, -10.1793647], [51.1641286, -10.1793647]]], [[[51.1736234, -10.1513373], [51.1736234, -10.1513373]]], [[[47.7320971, -10.1075031], [47.7440803, -10.0558919], [47.7320971, -10.1075031]]], [[[46.5186478, -9.6964511], [46.4916111, -9.740358], [46.5232397, -9.7015908], [46.5186478, -9.6964511]]], [[[47.5298767, -9.7036953], [47.578674, -9.6800903], [47.636282, -9.7001324], [47.5783352, -9.6571517], [47.544787, -9.6981282], [47.5298767, -9.7036953]]], [[[47.5582288, -9.7545086], [47.6122804, -9.7662495], [47.5582288, -9.7545086]]], [[[47.6485573, -9.748387], [47.6485573, -9.748387]]], [[[50.7221192, -9.329217], [50.7221192, -9.329217]]], [[[51.0339561, -9.2416622], [51.0339561, -9.2416622]]], [[[56.2585986, -7.1742026], [56.2903464, -7.1291751], [56.2585986, -7.1742026]]], [[[46.2451075, -9.4610514], [46.2124149, -9.4185174], [46.2254545, -9.4724912], [46.2821316, -9.4937684], [46.3383188, -9.4683074], [46.3992174, -9.4492887], [46.4588748, -9.4551518], [46.511624, -9.4359204], [46.4901685, -9.382983], [46.4465532, -9.4205191], [46.3983198, -9.4354669], [46.3333724, -9.4538369], [46.2785278, -9.4695912], [46.2451075, -9.4610514]]], [[[46.2415715, -9.3713199], [46.2415715, -9.3713199]]], [[[46.426659, -9.372802], [46.3696084, -9.3703027], [46.2961171, -9.3675736], [46.3449072, -9.3794781], [46.3984107, -9.3862076], [46.426659, -9.372802]]], [[[46.2529678, -9.3691544], [46.2529678, -9.3691544]]], [[[52.7241225, -7.0151684], [52.7241225, -7.0151684]]], [[[53.2995764, -5.766137], [53.2995764, -5.766137]]], [[[53.3014675, -5.7534541], [53.3014675, -5.7534541]]], [[[53.6926922, -5.6759148], [53.6489456, -5.7030728], [53.6926922, -5.6759148]]], [[[53.2911349, -5.4155233], [53.2911349, -5.4155233]]], [[[55.9488386, -4.5892296], [55.9488386, -4.5892296]]], [[[55.2490131, -4.503428], [55.2150289, -4.4659028], [55.2374388, -4.5139158], [55.2490131, -4.503428]]], [[[55.5259865, -4.7309138], [55.5345512, -4.6797815], [55.489601, -4.6548961], [55.4582337, -4.6076998], [55.4396307, -4.5606545], [55.4290725, -4.6119919], [55.3797356, -4.6278112], [55.4179734, -4.6648815], [55.4595899, -4.695646], [55.490995, -4.7373251], [55.5016543, -4.7880682], [55.5183216, -4.7397924], [55.5259865, -4.7309138]]], [[[55.4976055, -4.6385007], [55.4976055, -4.6385007]]], [[[55.4962298, -4.6140893], [55.4962298, -4.6140893]]], [[[55.2466239, -4.3871138], [55.2466239, -4.3871138]]], [[[55.8721828, -4.3330064], [55.8721828, -4.3330064]]], [[[55.8291982, -4.3746004], [55.8291982, -4.3746004]]], [[[55.6599402, -3.8020333], [55.6599402, -3.8020333]]], [[[55.7337776, -4.309715310677083], [55.6841022, -4.2921461], [55.7219449, -4.3356237], [55.768502, -4.3557786], [55.7412642, -4.3124276], [55.7337776, -4.309715310677083]]], [[[55.7336376, -4.2789213], [55.7336376, -4.2789213]]]]}}]}