{"type": "FeatureCollection", "features": [{"type": "Feature", "properties": {"code": "SYR", "name": "Syrian Arab Republic", "tier": "country"}, "geometry": {"type": "Polygon", "coordinates": [[[42.2221127, 37.31806030000003], [42.1021231, 37.22805059999997], [42.055249100000026, 37.19772889999998], [42.00266439999998, 37.181465899999964], [41.94841270000003, 37.15730809999998], [41.874227, 37.14490690000002], [41.82465809999998, 37.138342399999985], [41.69421839999996, 37.114395200000025], [41.643084, 37.11627839999996], [41.59395020000003, 37.102170099999974], [41.523542, 37.0836341], [41.387508200000035, 37.079255900000035], [41.292743700000024, 37.0808636], [41.23702029999998, 37.075738], [41.17956469999997, 37.0864112], [41.1271409, 37.0973593], [41.01270470000003, 37.11571120000002], [40.91428439999996, 37.13173490000004], [40.8485445, 37.12233870000002], [40.797575300000034, 37.1193284], [40.74196830000003, 37.111046], [40.677675299999976, 37.09210549999998], [40.630942699999984, 37.072213199999965], [40.57069470000003, 37.04913240000001], [40.413103, 37.0153916], [40.378006, 36.97924760000003], [40.30724079999997, 36.93965340000003], [40.2377877, 36.9149057], [40.19569639999998, 36.887732], [40.144628400000016, 36.86962589999997], [40.07767170000001, 36.85821319999999], [40.03116819999997, 36.8267086], [39.93058349999996, 36.79735630000001], [39.860893899999965, 36.778619699999965], [39.71172550000002, 36.75023280000001], [39.640460699999984, 36.72482010000003], [39.54543690000001, 36.71388649999999], [39.4912328, 36.70034740000002], [39.39236979999998, 36.694092500000025], [39.2640528, 36.675106], [39.21300380000002, 36.669151800000016], [39.128602899999954, 36.68678440000002], [39.06528549999997, 36.705155500000025], [38.95373029999998, 36.7046753], [38.890656800000016, 36.700728099999985], [38.747602, 36.70678209999996], [38.69121390000004, 36.73479350000002], [38.6367863, 36.778784899999955], [38.59118430000004, 36.813466099999964], [38.390712, 36.9023268], [38.3395291, 36.900064500000035], [38.265479400000025, 36.914660300000044], [38.2141992, 36.90831109999998], [38.16396510000002, 36.9078003], [38.112047099999984, 36.88094669999998], [38.0625966, 36.86358530000003], [38.018476900000024, 36.8259766], [37.9635, 36.82079620000001], [37.9035013, 36.791796399999974], [37.82592159999998, 36.7683653], [37.72787329999996, 36.751785], [37.673288499999984, 36.74400409999997], [37.622034900000024, 36.724778100000016], [37.52471489999996, 36.68761090000002], [37.48711949999997, 36.64977749999996], [37.42523580000004, 36.6440478], [37.37593679999998, 36.653392799999956], [37.31543110000002, 36.66528989999996], [37.248542, 36.67058639999997], [37.19277669999997, 36.66773920000002], [37.142075, 36.6773217], [37.09894949999997, 36.6486668], [37.03603659999997, 36.664775799999965], [37.043936299999984, 36.71422859999996], [36.99273039999998, 36.742155799999985], [36.94587079999996, 36.776907], [36.8847757, 36.77867950000003], [36.793356799999955, 36.79683470000002], [36.746743199999955, 36.82084350000002], [36.6851866, 36.8252455], [36.650969899999964, 36.78660309999998], [36.61294609999997, 36.745533600000044], [36.619394499999984, 36.694042], [36.57972880000003, 36.65913530000001], [36.577920499999976, 36.6079293], [36.572369200000026, 36.528412], [36.54253790000002, 36.48576780000004], [36.56031240000004, 36.438821], [36.58627240000001, 36.39166010000002], [36.60521289999996, 36.327319500000016], [36.65725169999996, 36.3375988], [36.683916, 36.2948742], [36.69491340000002, 36.24524550000002], [36.631450499999985, 36.2388313], [36.581266100000036, 36.227617600000045], [36.53396149999997, 36.245271799999976], [36.48341860000002, 36.23296550000004], [36.44013820000003, 36.2065183], [36.389228899999964, 36.21812030000001], [36.37291650000003, 36.16966160000002], [36.380053299999986, 36.11574020000004], [36.3811195, 36.0652124], [36.37420760000001, 36.0144283], [36.3142862, 36.005040100000016], [36.294489900000016, 35.95641879999999], [36.24202129999998, 35.96149269999996], [36.1939458, 35.9441408], [36.17299470000004, 35.89142380000002], [36.17337110000001, 35.83552869999998], [36.122987600000016, 35.85378990000004], [36.06835049999997, 35.86926890000002], [35.999521600000044, 35.88003360000003], [36.006539600000025, 35.94081], [35.955706, 35.9301934], [35.90044239999999, 35.92139470000003], [35.88063, 35.875464], [35.82950109999999, 35.849677200000016], [35.832171, 35.797413300000045], [35.84418950000001, 35.7415278], [35.811409099999985, 35.703132], [35.7682469, 35.66967], [35.77726229999996, 35.6178026], [35.72758189999996, 35.58473359999997], [35.75698450000002, 35.543921099999984], [35.7787174, 35.49624120000004], [35.84505480000002, 35.47854649999996], [35.9027086, 35.4326054], [35.92067220000004, 35.385836799999964], [35.91957109999997, 35.33382609999998], [35.9201907, 35.27884159999997], [35.948344, 35.2276575], [35.93163689999999, 35.18036079999996], [35.91101559999996, 35.13415219999999], [35.89250179999997, 35.0809982], [35.896307900000025, 35.02836270000001], [35.87631219999999, 34.96962079999997], [35.879214500000046, 34.918904], [35.882534799999966, 34.86754570000002], [35.9269515, 34.78383790000002], [35.975369700000016, 34.63408769999999], [36.028376399999985, 34.6296919], [36.07939930000004, 34.634204], [36.1354051, 34.638543100000035], [36.18936260000003, 34.63759869999997], [36.240443099999965, 34.63168419999999], [36.29153319999998, 34.63354329999998], [36.31108110000001, 34.68298639999997], [36.355432599999986, 34.65742380000002], [36.398889, 34.632222], [36.451667, 34.634167], [36.405833, 34.587222], [36.341944, 34.527778], [36.396667, 34.501667], [36.447678, 34.4842069], [36.497798, 34.44881179999997], [36.548333, 34.427778], [36.531944, 34.377778], [36.559167, 34.323611], [36.600278, 34.294444], [36.592222, 34.229444], [36.586389, 34.164722], [36.541944, 34.129444], [36.509167, 34.0725], [36.453889, 34.048611], [36.404722, 34.038889], [36.350278, 33.997222], [36.308333, 33.952222], [36.284444, 33.9075], [36.333611, 33.877778], [36.385833, 33.861111], [36.334167, 33.832778], [36.271111, 33.855556], [36.221389, 33.841667], [36.163611, 33.853333], [36.113889, 33.836667], [36.064444, 33.820278], [36.036667, 33.773056], [35.993056, 33.734167], [35.96822170000003, 33.68366459999997], [35.935, 33.646111], [35.98423120000003, 33.61953920000001], [36.0310966, 33.59386240000003], [36.0125, 33.546389], [35.951944, 33.533889], [35.948056, 33.480556], [35.906667, 33.447778], [35.854444, 33.418889], [35.816111, 33.370833], [35.77333520000001, 33.33563170000003], [35.77740639999998, 33.27673150000004], [35.81715680000002, 33.20311060000002], [35.818007, 33.1273686], [35.871323500000045, 32.98141859999998], [35.879808099999956, 32.92654789999997], [35.84437989999996, 32.870215], [35.8167069, 32.80607119999997], [35.756482699999985, 32.74509010000003], [35.8089274, 32.7415301], [35.868864, 32.73271479999998], [35.91726720000004, 32.71847290000004], [35.955284799999966, 32.675842900000035], [36.01847230000004, 32.657883199999965], [36.024732600000036, 32.607747699999976], [36.068956800000045, 32.568288300000034], [36.078734, 32.513485], [36.15622840000004, 32.5238245], [36.20667320000004, 32.51964150000003], [36.29532559999998, 32.46474320000004], [36.37294440000003, 32.398844], [36.425331200000045, 32.37544939999997], [36.48461020000003, 32.367283100000016], [36.5458976, 32.3554674], [36.66511430000001, 32.33962910000004], [36.7098234, 32.316372800000046], [36.7605665, 32.32069049999998], [36.83809380000003, 32.311354], [36.891692300000024, 32.35455019999996], [36.96226230000004, 32.43997989999997], [37.02073229999996, 32.4248103], [37.07726249999997, 32.43341870000003], [37.1210491, 32.469342900000036], [37.1617221, 32.51592540000004], [37.20674459999998, 32.55742160000002], [37.255432, 32.5719161], [37.31403719999997, 32.558067299999976], [37.36734670000004, 32.575393400000024], [37.424555, 32.606951800000026], [37.46484170000002, 32.658029900000024], [37.5078987, 32.69954519999999], [37.562289600000014, 32.724408], [37.64739070000001, 32.744216], [37.707531200000034, 32.7578294], [37.762171100000046, 32.78785779999996], [37.77652410000003, 32.851345199999976], [37.8180372, 32.90538389999998], [37.88841789999997, 32.8939411], [38.21073269999997, 33.065762600000035], [38.26375259999997, 33.09336410000002], [38.31814129999998, 33.1228302], [38.36291059999997, 33.162929100000014], [38.42210470000003, 33.1775205], [38.678096400000044, 33.3070732], [38.757864, 33.35607320000001], [38.812398, 33.3851379], [39.22996650000002, 33.6013247], [39.5378454, 33.7599272], [39.72975430000003, 33.85823330000002], [40.162752900000044, 34.075858099999984], [40.6400145, 34.315105], [40.907540199999985, 34.38075880000003], [40.97803169999999, 34.39785079999998], [41.01419389999997, 34.44594210000003], [41.122297099999976, 34.65370479999997], [41.228272300000036, 34.778334], [41.22948249999998, 34.83547420000002], [41.22322109999999, 34.8936766], [41.2211655, 34.9563435], [41.2187021, 35.01416850000002], [41.21810489999998, 35.13224850000004], [41.22525, 35.20424180000004], [41.24240049999999, 35.285483900000045], [41.27492149999996, 35.384918], [41.26217539999997, 35.45602559999997], [41.32800259999996, 35.5447971], [41.382038, 35.625277500000024], [41.36941229999998, 35.8436174], [41.25582069999998, 36.05997979999996], [41.27314990000002, 36.18537490000003], [41.28446779999997, 36.296349], [41.29351970000002, 36.34553190000003], [41.38627050000004, 36.503823399999966], [41.81719390000003, 36.58765010000003], [41.885737, 36.63662359999998], [41.9417313, 36.68663249999998], [41.99975820000004, 36.73860860000003], [42.33661470000001, 37.03845119999998], [42.37451259999998, 37.072985700000025], [42.35297520000001, 37.11953649999998], [42.328706900000036, 37.16892079999999], [42.347505599999984, 37.21671770000002], [42.3111716, 37.2564448], [42.26078459999998, 37.271314600000025], [42.20483160000004, 37.280518899999976], [42.2221127, 37.31806030000003]]]}}]}