{"type": "FeatureCollection", "features": [{"type": "Feature", "properties": {"code": "TCA", "name": "Turks and Caicos", "tier": "country"}, "geometry": {"type": "MultiPolygon", "coordinates": [[[[-71.24696072944874, 21.19764873702053], [-71.24696072944874, 21.19764873702053]]], [[[-71.71003028936417, 21.297452960449334], [-71.71003028936417, 21.297452960449334]]], [[[-71.71574239856898, 21.29778693369201], [-71.71574239856898, 21.29778693369201]]], [[[-71.64041252739861, 21.2965529784438], [-71.64041252739861, 21.2965529784438]]], [[[-71.63708709432632, 21.2976275353779], [-71.63708709432632, 21.2976275353779]]], [[[-71.67333665709958, 21.306066303195223], [-71.6941937115688, 21.3036737494142], [-71.71362433973826, 21.294160687840872], [-71.69408773844651, 21.285256883995316], [-71.66977260904974, 21.300513987071895], [-71.67333665709958, 21.306066303195223]], [[-71.68983398784019, 21.295654531644686], [-71.68983398784019, 21.295654531644686]], [[-71.69315187646811, 21.29286159596728], [-71.69315187646811, 21.29286159596728]], [[-71.69992757684514, 21.289389967358545], [-71.69992757684514, 21.289389967358545]]], [[[-71.6334881312909, 21.32791154825844], [-71.63515826068203, 21.30549033752061], [-71.63651757651962, 21.283550874631544], [-71.6274802096948, 21.30553270922411], [-71.6334881312909, 21.32791154825844]]], [[[-71.1823967800733, 21.341361625373224], [-71.2067473508123, 21.338699752481375], [-71.22009013891318, 21.302000418020725], [-71.20646794320066, 21.318056530367983], [-71.19076023503851, 21.33149989643647], [-71.1823967800733, 21.341361625373224]], [[-71.18982024993375, 21.337606816930588], [-71.18982024993375, 21.337606816930588]], [[-71.20861337257281, 21.331566699857603], [-71.20861337257281, 21.331566699857603]], [[-71.20308829540193, 21.32197911496678], [-71.20308829540193, 21.32197911496678]], [[-71.21203714659708, 21.312951880506034], [-71.21203714659708, 21.312951880506034]], [[-71.21400703605389, 21.309491919467632], [-71.21400703605389, 21.309491919467632]]], [[[-71.08773155127238, 21.359681334142408], [-71.08773155127238, 21.359681334142408]]], [[[-71.14334375449147, 21.367547996233213], [-71.16294957167207, 21.35937543324991], [-71.14334375449147, 21.367547996233213]]], [[[-71.6163344339098, 21.365387390246497], [-71.6163344339098, 21.365387390246497]]], [[[-71.0877249718153, 21.372055494568315], [-71.0877249718153, 21.372055494568315]]], [[[-71.10520518572099, 21.41906975097112], [-71.10520518572099, 21.41906975097112]]], [[[-71.11029128151398, 21.443272108473252], [-71.11029128151398, 21.443272108473252]]], [[[-71.56194557108137, 21.460449711215063], [-71.54708187567655, 21.477575774876527], [-71.56257439172822, 21.46179718402982], [-71.56194557108137, 21.460449711215063]]], [[[-71.58184825336639, 21.483047295266715], [-71.58184825336639, 21.483047295266715]]], [[[-72.19961153043016, 21.506301333684576], [-72.19961153043016, 21.506301333684576]]], [[[-71.13044319363405, 21.50909014623562], [-71.13926571925282, 21.478282978789025], [-71.14270186265651, 21.498448444590565], [-71.14930360218784, 21.476913574450464], [-71.14915473100507, 21.454361125474975], [-71.14273361950274, 21.422683802894824], [-71.1266424605808, 21.43647688903991], [-71.13115938947118, 21.47235151048426], [-71.13044319363405, 21.50909014623562]], [[-71.15105619410787, 21.449130939571205], [-71.15105619410787, 21.449130939571205]], [[-71.14578859302497, 21.479151642578984], [-71.14578859302497, 21.479151642578984]], [[-71.1416238844048, 21.473026124152625], [-71.1416238844048, 21.473026124152625]], [[-71.13738188909508, 21.45316173430814], [-71.13738188909508, 21.45316173430814]], [[-71.13091998495878, 21.45069689422479], [-71.13091998495878, 21.45069689422479]], [[-71.12725084104761, 21.437452841843594], [-71.12725084104761, 21.437452841843594]], [[-71.13425769968421, 21.43116463537484], [-71.13425769968421, 21.43116463537484]]], [[[-71.49457193034459, 21.572200123317373], [-71.50656268387388, 21.555547868293218], [-71.49935151116256, 21.536560783258892], [-71.50400424004772, 21.513090982510676], [-71.52455372682903, 21.522218268582492], [-71.54515339293641, 21.514295549517158], [-71.53465635162183, 21.491298066063052], [-71.51463102825642, 21.492267570998763], [-71.49316436515494, 21.501344721607552], [-71.49708721293212, 21.524140259591718], [-71.49690325131144, 21.547372717390317], [-71.4929488221403, 21.56717666395582], [-71.49457193034459, 21.572200123317373]], [[-71.52641904678086, 21.51160709561873], [-71.52641904678086, 21.51160709561873]], [[-71.50300460119854, 21.511066439697288], [-71.50300460119854, 21.511066439697288]], [[-71.5289774028808, 21.505994292353193], [-71.5289774028808, 21.505994292353193]], [[-71.54190436929287, 21.509260685763707], [-71.54190436929287, 21.509260685763707]], [[-71.53081561546941, 21.509725634065433], [-71.53081561546941, 21.509725634065433]], [[-71.52646212029333, 21.504467156496673], [-71.52646212029333, 21.504467156496673]], [[-71.53679274520636, 21.500514569573113], [-71.53679274520636, 21.500514569573113]], [[-71.5239811386088, 21.495441983598937], [-71.5239811386088, 21.495441983598937]]], [[[-71.52286885945398, 21.579027318911812], [-71.52286885945398, 21.579027318911812]]], [[[-71.49363062934839, 21.579003632866204], [-71.49363062934839, 21.579003632866204]]], [[[-71.53333677570521, 21.589220652486745], [-71.53333677570521, 21.589220652486745]]], [[[-71.5239041150976, 21.594934121445817], [-71.5239041150976, 21.594934121445817]], [[-71.52594830855662, 21.5907999853697], [-71.52594830855662, 21.5907999853697]], [[-71.52404824907131, 21.590561107213716], [-71.52404824907131, 21.590561107213716]]], [[[-71.52206037576525, 21.597802106797076], [-71.52206037576525, 21.597802106797076]]], [[[-71.53200254953077, 21.598427813167746], [-71.53200254953077, 21.598427813167746]]], [[[-71.53616392455945, 21.598610590485976], [-71.53616392455945, 21.598610590485976]]], [[[-71.4942002348813, 21.601982342936196], [-71.4942002348813, 21.601982342936196]]], [[[-71.52967552714256, 21.618120435318986], [-71.52967552714256, 21.618120435318986]]], [[[-71.51586200081738, 21.618463356623124], [-71.51586200081738, 21.618463356623124]]], [[[-71.54775219076612, 21.625380383738843], [-71.54775219076612, 21.625380383738843]]], [[[-71.54433859296881, 21.628614318494215], [-71.54433859296881, 21.628614318494215]]], [[[-71.49172320087109, 21.631566498964958], [-71.49172320087109, 21.631566498964958]]], [[[-71.51999425078259, 21.63059061195571], [-71.51999425078259, 21.63059061195571]]], [[[-71.53859270921754, 21.636311099002796], [-71.53859270921754, 21.636311099002796]]], [[[-71.54554631811465, 21.638545680018467], [-71.54554631811465, 21.638545680018467]]], [[[-71.53481645174469, 21.64280769880935], [-71.53481645174469, 21.64280769880935]]], [[[-71.52014821007884, 21.643310325468917], [-71.52014821007884, 21.643310325468917]]], [[[-71.50964765972037, 21.643981715203495], [-71.50964765972037, 21.643981715203495]]], [[[-71.5297858865697, 21.644963655312836], [-71.5297858865697, 21.644963655312836]]], [[[-71.52445608768556, 21.64543399876959], [-71.52445608768556, 21.64543399876959]]], [[[-71.5282587507129, 21.645861970522787], [-71.5282587507129, 21.645861970522787]]], [[[-71.50845265485827, 21.64895944733769], [-71.50845265485827, 21.64895944733769]]], [[[-71.50314312070213, 21.650306064823326], [-71.50314312070213, 21.650306064823326]]], [[[-71.51190941389422, 21.617834535976385], [-71.48832346379675, 21.604476088767342], [-71.48495995759947, 21.625649878301715], [-71.48001246903618, 21.647697485533854], [-71.50061897777903, 21.64644335328387], [-71.51063694689043, 21.62848209333805], [-71.50966362586968, 21.65053320961374], [-71.51871801155676, 21.626212180637253], [-71.51190941389422, 21.617834535976385]], [[-71.49820852787462, 21.62418340503956], [-71.49820852787462, 21.62418340503956]], [[-71.48720916694162, 21.623490500480443], [-71.49036660454249, 21.643389893036783], [-71.48720916694162, 21.623490500480443]]], [[[-71.49120816096911, 21.65666995698001], [-71.49120816096911, 21.65666995698001]]], [[[-71.52017391382458, 21.66122316061069], [-71.52017391382458, 21.66122316061069]]], [[[-71.65479320292604, 21.666689329709016], [-71.65479320292604, 21.666689329709016]]], [[[-71.5517047776894, 21.624571900049943], [-71.54528471890029, 21.643756324934543], [-71.55740030666232, 21.661416706307136], [-71.55273055891479, 21.641945680271192], [-71.57145095662145, 21.630679193380047], [-71.58345846583478, 21.611848677493015], [-71.56903690994727, 21.597431200868698], [-71.5489385107449, 21.59286137314325], [-71.5588504190078, 21.611109870254722], [-71.5517047776894, 21.624571900049943]], [[-71.54988463667638, 21.639319775078206], [-71.54988463667638, 21.639319775078206]], [[-71.55812360831322, 21.636119395554147], [-71.55812360831322, 21.636119395554147]], [[-71.55628618525952, 21.632477073896325], [-71.55628618525952, 21.632477073896325]], [[-71.5574175009769, 21.630426366775055], [-71.5574175009769, 21.630426366775055]], [[-71.54865050597601, 21.640831405347853], [-71.54865050597601, 21.640831405347853]], [[-71.55988742917344, 21.605859967911442], [-71.55988742917344, 21.605859967911442]]], [[[-71.64085273694184, 21.666956960092477], [-71.64085273694184, 21.666956960092477]]], [[[-71.6428793851818, 21.670399046938996], [-71.6428793851818, 21.670399046938996]]], [[[-71.61611397823378, 21.68754379625858], [-71.61611397823378, 21.68754379625858]]], [[[-71.61314953804134, 21.69041840493003], [-71.61314953804134, 21.69041840493003]]], [[[-71.59689003274354, 21.67460805723715], [-71.57852027623755, 21.664420250406295], [-71.59399989655333, 21.680226518836037], [-71.59689003274354, 21.67460805723715]]], [[[-71.55359343278235, 21.693824699530012], [-71.55359343278235, 21.693824699530012]]], [[[-71.56072784516073, 21.69424122302786], [-71.56072784516073, 21.69424122302786]]], [[[-71.57536871628508, 21.69711085324326], [-71.57536871628508, 21.69711085324326]]], [[[-71.57061606737813, 21.698663627051133], [-71.57061606737813, 21.698663627051133]]], [[[-71.59523148319693, 21.698371828128472], [-71.59523148319693, 21.698371828128472]]], [[[-71.56007007490257, 21.700161791365133], [-71.56007007490257, 21.700161791365133]]], [[[-71.57254569055732, 21.699401557028125], [-71.57254569055732, 21.699401557028125]]], [[[-71.74292704852354, 21.70450017572125], [-71.74292704852354, 21.70450017572125]]], [[[-71.58260682090724, 21.705510100454944], [-71.58260682090724, 21.705510100454944]]], [[[-71.68263869355206, 21.708604791966536], [-71.68263869355206, 21.708604791966536]]], [[[-71.5889848588971, 21.70919319281529], [-71.5889848588971, 21.70919319281529]]], [[[-72.43971073487023, 21.70941209135316], [-72.46029885677194, 21.699114166341985], [-72.46722817924802, 21.673349407093383], [-72.47530420651754, 21.640056476890265], [-72.4481553858189, 21.645020041260295], [-72.438478347726, 21.69046503134939], [-72.42863251366106, 21.707990840892762], [-72.43971073487023, 21.70941209135316]], [[-72.44158918632178, 21.695103000318966], [-72.44158918632178, 21.695103000318966]], [[-72.44346228648158, 21.687094638653605], [-72.44346228648158, 21.687094638653605]], [[-72.45232244111224, 21.677679808374876], [-72.46079827594616, 21.646718703563522], [-72.4620030156633, 21.669964956291096], [-72.45232244111224, 21.677679808374876]], [[-72.44827818590295, 21.66354864779254], [-72.44827818590295, 21.66354864779254]], [[-72.44962808215098, 21.659087293382754], [-72.44962808215098, 21.659087293382754]], [[-72.46489044605187, 21.641946952299577], [-72.46489044605187, 21.641946952299577]], [[-72.45426327678291, 21.68001698505867], [-72.45426327678291, 21.68001698505867]]], [[[-71.84608267194875, 21.7106304971511], [-71.84608267194875, 21.7106304971511]]], [[[-71.65919266657562, 21.713128234519502], [-71.65919266657562, 21.713128234519502]]], [[[-71.64262506723315, 21.717313865813367], [-71.64262506723315, 21.717313865813367]]], [[[-71.59608154905465, 21.71215763300762], [-71.59608154905465, 21.71215763300762]]], [[[-71.64795907696981, 21.71615006950958], [-71.64795907696981, 21.71615006950958]]], [[[-71.63932998738977, 21.71849275100584], [-71.63932998738977, 21.71849275100584]]], [[[-71.67252817341068, 21.715571230805324], [-71.67252817341068, 21.715571230805324]]], [[[-71.68399450034582, 21.719888341583328], [-71.68399450034582, 21.719888341583328]]], [[[-71.63098899030484, 21.71834065588888], [-71.63098899030484, 21.71834065588888]]], [[[-71.6717196897219, 21.71826617643444], [-71.6717196897219, 21.71826617643444]]], [[[-71.62961458557908, 21.722070440463085], [-71.62961458557908, 21.722070440463085]]], [[[-71.64378208669632, 21.723117078567782], [-71.64378208669632, 21.723117078567782]]], [[[-71.69309959171568, 21.724015393777563], [-71.69309959171568, 21.724015393777563]]], [[[-71.64243461388156, 21.727249328532764], [-71.64243461388156, 21.727249328532764]]], [[[-71.63677522805972, 21.727159497011826], [-71.63677522805972, 21.727159497011826]]], [[[-71.645399054074, 21.726440844844035], [-71.645399054074, 21.726440844844035]]], [[[-71.6517273513681, 21.72772283012887], [-71.6517273513681, 21.72772283012887]]], [[[-71.64809399970352, 21.72689000244901], [-71.64809399970352, 21.72689000244901]]], [[[-71.645399054074, 21.726440844844035], [-71.645399054074, 21.726440844844035]]], [[[-71.68222997767685, 21.727788317658792], [-71.68222997767685, 21.727788317658792]]], [[[-71.8415222309153, 21.729832182144776], [-71.8415222309153, 21.729832182144776]]], [[[-71.63911084760531, 21.7292256219946], [-71.63911084760531, 21.7292256219946]]], [[[-71.58988317410694, 21.728686632868744], [-71.58988317410694, 21.728686632868744]]], [[[-71.6477346736196, 21.73048326328808], [-71.6477346736196, 21.73048326328808]]], [[[-71.68160115702995, 21.735064670858208], [-71.68160115702995, 21.735064670858208]]], [[[-71.67223534370657, 21.736503291085455], [-71.67223534370657, 21.736503291085455]]], [[[-71.67139519089756, 21.738986751032087], [-71.67139519089756, 21.738986751032087]]], [[[-71.67657059185495, 21.734974839337326], [-71.67657059185495, 21.734974839337326]]], [[[-71.66893491257144, 21.738837594739437], [-71.66893491257144, 21.738837594739437]]], [[[-71.69408773844651, 21.741622371890003], [-71.69408773844651, 21.741622371890003]]], [[[-71.62472411897727, 21.74804118058222], [-71.62472411897727, 21.74804118058222]]], [[[-71.73717686619369, 21.748008787721915], [-71.73717686619369, 21.748008787721915]]], [[[-71.64345995647659, 21.74907316842905], [-71.64345995647659, 21.74907316842905]]], [[[-71.63354129330435, 21.744586812082332], [-71.63354129330435, 21.744586812082332]]], [[[-71.83871648722806, 21.751773333761093], [-71.83871648722806, 21.751773333761093]]], [[[-71.6443195844787, 21.753269875142394], [-71.6443195844787, 21.753269875142394]]], [[[-71.83781391730275, 21.749906237355958], [-71.83781391730275, 21.749906237355958]]], [[[-71.62797173900333, 21.68161491587375], [-71.61355553440762, 21.699278301865263], [-71.61597405511276, 21.720022014220206], [-71.59675247822696, 21.733609031768765], [-71.57887407557735, 21.72030100513291], [-71.54972848422773, 21.705779595018157], [-71.52592304344137, 21.70053157878573], [-71.51429126509163, 21.68408344045281], [-71.49538041403338, 21.67757249742965], [-71.50484851598321, 21.655077136210025], [-71.48352265326372, 21.65664175304056], [-71.46314010924073, 21.669363747432385], [-71.46564618058824, 21.69068789949307], [-71.47193438705705, 21.72392556225651], [-71.49339596204504, 21.720455863621567], [-71.51695112028318, 21.724865459635055], [-71.54227001165555, 21.729135395705953], [-71.57434197007251, 21.749872024178956], [-71.59586793601409, 21.753330186832272], [-71.5734415494365, 21.731737790305658], [-71.59268023291065, 21.746142590508953], [-71.61004342020595, 21.735201940265085], [-71.6215807175517, 21.715878908150785], [-71.6310726809993, 21.697378637147267], [-71.64981316798156, 21.687332924658392], [-71.63924059449937, 21.668743326558968], [-71.62204285861861, 21.67981828545419], [-71.62797173900333, 21.68161491587375]], [[-71.52893582071198, 21.72061572249777], [-71.52893582071198, 21.72061572249777]], [[-71.54959101743725, 21.728106873040133], [-71.54959101743725, 21.728106873040133]], [[-71.55574096758079, 21.73395596654177], [-71.55574096758079, 21.73395596654177]], [[-71.56868960233828, 21.742437544693757], [-71.56868960233828, 21.742437544693757]], [[-71.57371350033003, 21.745485127292113], [-71.57371350033003, 21.745485127292113]], [[-71.5936116208581, 21.739990644596844], [-71.5936116208581, 21.739990644596844]], [[-71.6131046222809, 21.73509508988178], [-71.6131046222809, 21.73509508988178]], [[-71.61768857390769, 21.73282805021057], [-71.61768857390769, 21.73282805021057]], [[-71.61741986887961, 21.74050281146947], [-71.61741986887961, 21.74050281146947]], [[-71.62428864664315, 21.700210040717025], [-71.62428864664315, 21.700210040717025]], [[-71.62657435004081, 21.697564989304112], [-71.62657435004081, 21.697564989304112]], [[-71.63300230417849, 21.6882624484266], [-71.63300230417849, 21.6882624484266]], [[-71.6375837117485, 21.6874539647377], [-71.6375837117485, 21.6874539647377]], [[-71.64777836121465, 21.685241885464904], [-71.64777836121465, 21.685241885464904]], [[-71.6493956794967, 21.68390651885113], [-71.6493956794967, 21.68390651885113]], [[-71.64233688701205, 21.67760918886887], [-71.64233688701205, 21.67760918886887]], [[-71.64800416818252, 21.6766741822197], [-71.64800416818252, 21.6766741822197]], [[-71.64099730954592, 21.675772357966025], [-71.64099730954592, 21.675772357966025]], [[-71.63300230417849, 21.673619910506318], [-71.63300230417849, 21.673619910506318]], [[-71.62495571586737, 21.67707842406412], [-71.62495571586737, 21.67707842406412]], [[-71.52637228877228, 21.713594937343487], [-71.52637228877228, 21.713594937343487]], [[-71.51210635897684, 21.714009596661526], [-71.51210635897684, 21.714009596661526]], [[-71.48442096847361, 21.711888138444976], [-71.48442096847361, 21.711888138444976]], [[-71.48095912132419, 21.710229588898187], [-71.48095912132419, 21.710229588898187]], [[-71.50806288781939, 21.707359849025124], [-71.50806288781939, 21.707359849025124]], [[-71.5018554770839, 21.70685595033717], [-71.5018554770839, 21.70685595033717]], [[-71.48204867942047, 21.70205981121859], [-71.48204867942047, 21.70205981121859]], [[-71.46986826207444, 21.68673531256968], [-71.46986826207444, 21.68673531256968]], [[-71.47301236530876, 21.668679176852265], [-71.47301236530876, 21.668679176852265]], [[-71.48838706521536, 21.665641375713278], [-71.48838706521536, 21.665641375713278]], [[-71.49633978660518, 21.65919488943797], [-71.49633978660518, 21.65919488943797]], [[-71.47879018135853, 21.65884725285605], [-71.47879018135853, 21.65884725285605]]], [[[-71.65456186921415, 21.75851069783465], [-71.65456186921415, 21.75851069783465]]], [[[-72.31201580897914, 21.762928759416468], [-72.31201580897914, 21.762928759416468]]], [[[-71.6002137990198, 21.760486991296318], [-71.6002137990198, 21.760486991296318]]], [[[-71.8103513949431, 21.76268435451658], [-71.8103513949431, 21.76268435451658]]], [[[-71.824163780829, 21.763541263009927], [-71.824163780829, 21.763541263009927]]], [[[-71.6441414127803, 21.764888735824343], [-71.6441414127803, 21.764888735824343]]], [[[-71.64741614016958, 21.764488639037836], [-71.64741614016958, 21.764488639037836]]], [[[-71.63467962710928, 21.767609889624737], [-71.63467962710928, 21.767609889624737]]], [[[-71.87417454131179, 21.766459186440443], [-71.87417454131179, 21.766459186440443]]], [[[-71.87935266177806, 21.769148144764017], [-71.87935266177806, 21.769148144764017]]], [[[-72.24451869376395, 21.76979038750335], [-72.24451869376395, 21.76979038750335]]], [[[-71.64768791561102, 21.770907447730224], [-71.64768791561102, 21.770907447730224]]], [[[-71.77403779212085, 21.760846317380242], [-71.79273064383369, 21.76957460324178], [-71.81190090095402, 21.75964326364874], [-71.7937609868161, 21.768867245808508], [-71.80965853424709, 21.75244959229343], [-71.79338946680497, 21.74067014899498], [-71.77040913380233, 21.745635511750265], [-71.76709681578137, 21.725159780682816], [-71.74345191374817, 21.72160244367933], [-71.72206797635403, 21.718873833161183], [-71.72523243204245, 21.738701136799193], [-71.74587561029279, 21.742113703814823], [-71.76585786014579, 21.75452052027987], [-71.77403779212085, 21.760846317380242]], [[-71.80623660247068, 21.76790388169951], [-71.80623660247068, 21.76790388169951]], [[-71.80390848350629, 21.76511502528581], [-71.80390848350629, 21.76511502528581]], [[-71.79917842406866, 21.744741122282903], [-71.79917842406866, 21.744741122282903]], [[-71.79797534840583, 21.74012295747923], [-71.79797534840583, 21.74012295747923]], [[-71.7994951591337, 21.73805996870459], [-71.7994951591337, 21.73805996870459]], [[-71.75843781160307, 21.733267492150674], [-71.75843781160307, 21.733267492150674]]], [[[-71.78257178661414, 21.77153626837736], [-71.78257178661414, 21.77153626837736]]], [[[-71.61826993473738, 21.747281757711846], [-71.6114128245444, 21.770664687694705], [-71.62640302097788, 21.756040440665345], [-71.61826993473738, 21.747281757711846]], [[-71.62379545053875, 21.750202181336192], [-71.62379545053875, 21.750202181336192]], [[-71.61548515758693, 21.75671406741509], [-71.61548515758693, 21.75671406741509]], [[-71.62517985603938, 21.75489144813986], [-71.62517985603938, 21.75489144813986]]], [[[-72.19832011458993, 21.77072017444948], [-72.19832011458993, 21.77072017444948]]], [[[-71.87669385929962, 21.769509378890348], [-71.87669385929962, 21.769509378890348]]], [[[-71.88867755087824, 21.772837114772756], [-71.88867755087824, 21.772837114772756]]], [[[-72.24387943371187, 21.774524306889077], [-72.24387943371187, 21.774524306889077]]], [[[-71.8562752159886, 21.776525251383248], [-71.8562752159886, 21.776525251383248]]], [[[-71.85210138385457, 21.738657931697674], [-71.83350625901119, 21.730123937204212], [-71.81839969391308, 21.74404986258827], [-71.83947799359322, 21.748707745381296], [-71.84228176344328, 21.770379336640076], [-71.86545004960385, 21.771038006090635], [-71.84545385130178, 21.763361599967595], [-71.8648739084768, 21.75317631526218], [-71.8523708784175, 21.735783323026226], [-71.85210138385457, 21.738657931697674]], [[-71.84859795453622, 21.768122670579658], [-71.84859795453622, 21.768122670579658]], [[-71.8620024579447, 21.76430393174553], [-71.8620024579447, 21.76430393174553]], [[-71.85109595508305, 21.761699343993655], [-71.85109595508305, 21.761699343993655]], [[-71.83292849495137, 21.745893996688096], [-71.83292849495137, 21.745893996688096]], [[-71.8387588589319, 21.741400315212786], [-71.8387588589319, 21.741400315212786]], [[-71.84037231726575, 21.74121898537487], [-71.84037231726575, 21.74121898537487]], [[-71.8366806277482, 21.73626917207008], [-71.8366806277482, 21.73626917207008]], [[-71.83503650914429, 21.73349172004879], [-71.83503650914429, 21.73349172004879]], [[-71.81981585625999, 21.74918931777819], [-71.81981585625999, 21.74918931777819]], [[-71.8216367429448, 21.750474505065995], [-71.8216367429448, 21.750474505065995]], [[-71.82375374906235, 21.752351448725335], [-71.82375374906235, 21.752351448725335]]], [[[-71.89701714434568, 21.777375317240967], [-71.89701714434568, 21.777375317240967]]], [[[-72.17347698376062, 21.77930336135057], [-72.17347698376062, 21.77930336135057]]], [[[-71.65608900507095, 21.778093969408815], [-71.65608900507095, 21.778093969408815]]], [[[-72.32224042787243, 21.78028905175063], [-72.32224042787243, 21.78028905175063]]], [[[-71.8968374813038, 21.777285485720085], [-71.8968374813038, 21.777285485720085]]], [[[-72.31662017885452, 21.7832143661048], [-72.31662017885452, 21.7832143661048]]], [[[-71.67078224867385, 21.783972144110976], [-71.67078224867385, 21.783972144110976]]], [[[-72.33479186080444, 21.784697222215186], [-72.33479186080444, 21.784697222215186]]], [[[-71.66192805393484, 21.774680371611453], [-71.66767384996001, 21.795077532995208], [-71.66632979846298, 21.774860034653614], [-71.66192805393484, 21.774680371611453]]], [[[-71.66951706293594, 21.79438376214074], [-71.66951706293594, 21.79438376214074]]], [[[-71.92648188322795, 21.798126398587897], [-71.92648188322795, 21.798126398587897]]], [[[-71.93241076361284, 21.798036567066845], [-71.93241076361284, 21.798036567066845]]], [[[-71.93672267661992, 21.799473871402654], [-71.93672267661992, 21.799473871402654]]], [[[-71.93591419293114, 21.80288746919996], [-71.91660743400752, 21.796559281563475], [-71.91049187249308, 21.817619838641008], [-71.88842090818821, 21.815230311410346], [-71.86360745071056, 21.816437466336595], [-71.86185143747275, 21.83851661109975], [-71.88215002762308, 21.83061131663021], [-71.89928438140049, 21.852748174197643], [-71.91552243766807, 21.880412071807825], [-71.9208772823522, 21.908654232419792], [-71.92071020800478, 21.928858676021832], [-71.93057141058506, 21.949779079697578], [-71.96789421440087, 21.956768864642754], [-71.99009602217603, 21.96208298385818], [-72.0196371704867, 21.959823136356135], [-72.04028868271615, 21.944451320444955], [-72.04975511787012, 21.92607993004043], [-72.0395944622656, 21.906541919648305], [-72.01424727922779, 21.90556489768278], [-72.03019290055875, 21.891825680842828], [-72.0252965563086, 21.87241706644039], [-72.04092724095949, 21.8593016643768], [-72.01984280045264, 21.851081542884685], [-72.00045985141583, 21.842343738741704], [-71.98298590992584, 21.83154372439327], [-71.96297203481578, 21.829345154939347], [-71.94932238083561, 21.80868834624681], [-71.92401976265387, 21.813537515789676], [-71.93591419293114, 21.80288746919996]], [[-71.92414626368247, 21.822560572295174], [-71.92414626368247, 21.822560572295174]], [[-71.99116057833533, 21.880681566370868], [-72.00706075754914, 21.897300397752474], [-71.98477205707718, 21.891642958353202], [-71.97824475313735, 21.87076470158337], [-72.00111314764314, 21.8782086774184], [-72.014431811068, 21.89581460830101], [-71.99385552396467, 21.882029039185454], [-71.99116057833533, 21.880681566370868]], [[-71.92531407345518, 21.809535001752693], [-71.92531407345518, 21.809535001752693]], [[-71.93905829616551, 21.814296072364755], [-71.93905829616551, 21.814296072364755]], [[-71.91489361702116, 21.824357202714737], [-71.91489361702116, 21.824357202714737]], [[-71.99933524674464, 21.885801963066683], [-71.99933524674464, 21.885801963066683]], [[-71.99394535548572, 21.86550003932473], [-71.99394535548572, 21.86550003932473]], [[-71.97445191543255, 21.902959783574317], [-71.96445802713413, 21.923531004495487], [-71.95837207317663, 21.9448212723521], [-71.95545425940355, 21.924665577044493], [-71.96847000462338, 21.904375781434794], [-71.97445191543255, 21.902959783574317]], [[-71.9948436706955, 21.950480658174115], [-71.9948436706955, 21.950480658174115]], [[-71.97202646436608, 21.954343413576225], [-71.97202646436608, 21.954343413576225]], [[-71.92955356857118, 21.94768020820851], [-71.92955356857118, 21.94768020820851]], [[-71.92918323286233, 21.946763796750133], [-71.92918323286233, 21.946763796750133]], [[-72.0330927304824, 21.93749865186186], [-72.03445937144886, 21.913649734571436], [-72.03595668043329, 21.93516267044646], [-72.0330927304824, 21.93749865186186]], [[-72.01579823271919, 21.94186203541375], [-72.01579823271919, 21.94186203541375]], [[-71.9640714620977, 21.904930681881297], [-71.9640714620977, 21.904930681881297]], [[-71.97606888281024, 21.863523745863006], [-71.95639577971514, 21.85472025680673], [-71.93870818132154, 21.84505005586624], [-71.95112743296028, 21.82772678394406], [-71.96537893181329, 21.84376081124691], [-71.97421334431795, 21.86367541331515], [-71.97606888281024, 21.863523745863006]], [[-71.97526039912145, 21.85328295247109], [-71.97526039912145, 21.85328295247109]], [[-71.95868069357789, 21.858010950345317], [-71.95868069357789, 21.858010950345317]], [[-71.93169211144493, 21.83154372439327], [-71.93169211144493, 21.83154372439327]], [[-71.87351212157068, 21.826189033229923], [-71.87351212157068, 21.826189033229923]], [[-71.87254059893473, 21.824848753955166], [-71.87254059893473, 21.824848753955166]], [[-71.88399157380331, 21.820584278833508], [-71.88399157380331, 21.820584278833508]], [[-71.88327292163541, 21.82085377339638], [-71.88327292163541, 21.82085377339638]], [[-71.90721635556883, 21.81855707133991], [-71.90721635556883, 21.81855707133991]], [[-71.91408513333238, 21.817350344078136], [-71.91408513333238, 21.817350344078136]], [[-71.90999525507095, 21.822631663329048], [-71.90999525507095, 21.822631663329048]], [[-71.92495474737126, 21.823279224463192], [-71.92495474737126, 21.823279224463192]], [[-71.93007514406725, 21.822740235336994], [-71.93007514406725, 21.822740235336994]], [[-71.92415635218333, 21.820892734748213], [-71.92415635218333, 21.820892734748213]], [[-71.9239250184715, 21.819554560899462], [-71.9239250184715, 21.819554560899462]], [[-71.94310071460967, 21.816272365826592], [-71.94310071460967, 21.816272365826592]], [[-71.95271268735479, 21.812679104987126], [-71.95271268735479, 21.812679104987126]], [[-71.92630222018602, 21.82597417009231], [-71.92630222018602, 21.82597417009231]], [[-71.92190047565776, 21.82534534944557], [-71.92190047565776, 21.82534534944557]], [[-71.92886518190602, 21.824301683062572], [-71.92886518190602, 21.824301683062572]], [[-71.8808195736708, 21.819279199654204], [-71.8808195736708, 21.819279199654204]], [[-71.88515938357602, 21.815553713658403], [-71.88515938357602, 21.815553713658403]], [[-71.89432219871628, 21.81842832232985], [-71.89432219871628, 21.81842832232985]], [[-71.95619747487802, 21.835912659362293], [-71.95619747487802, 21.835912659362293]], [[-71.97460403248078, 21.838972172709646], [-71.97460403248078, 21.838972172709646]], [[-71.98375281144575, 21.83984979552673], [-71.98375281144575, 21.83984979552673]], [[-72.00652176842328, 21.845108284061666], [-72.00652176842328, 21.845108284061666]], [[-71.9711763985083, 21.84903373072433], [-71.9711763985083, 21.84903373072433]], [[-71.97768585018792, 21.852025311177556], [-71.97768585018792, 21.852025311177556]], [[-71.98379439361474, 21.858133854604375], [-71.98379439361474, 21.858133854604375]], [[-71.98738765445404, 21.861188126317415], [-71.98738765445404, 21.861188126317415]], [[-71.986064964261, 21.85963043984856], [-71.986064964261, 21.85963043984856]], [[-71.9943945130907, 21.860469474149795], [-71.9943945130907, 21.860469474149795]], [[-71.997808110888, 21.865949196929478], [-71.997808110888, 21.865949196929478]], [[-72.02260893580808, 21.874105124852065], [-72.02260893580808, 21.874105124852065]], [[-72.01918340726183, 21.878130129666488], [-72.01918340726183, 21.878130129666488]], [[-72.00985329845895, 21.881179653205038], [-72.00985329845895, 21.881179653205038]], [[-72.01293980951209, 21.884211165479655], [-72.01293980951209, 21.884211165479655]], [[-72.01473779968626, 21.900669079789452], [-72.01473779968626, 21.900669079789452]], [[-72.0110221170819, 21.90140894522341], [-72.0110221170819, 21.90140894522341]], [[-72.02221877400183, 21.947080663404336], [-72.02221877400183, 21.947080663404336]], [[-71.99753861632507, 21.953534929887383], [-71.99753861632507, 21.953534929887383]], [[-72.01222190301621, 21.951509564641526], [-72.01222190301621, 21.951509564641526]], [[-71.92666154626983, 21.808546855021802], [-71.92666154626983, 21.808546855021802]], [[-71.92786931527883, 21.80644078176897], [-71.92786931527883, 21.80644078176897]]], [[[-71.9456159971972, 21.804414605056877], [-71.9456159971972, 21.804414605056877]]], [[[-71.95621611667309, 21.805941740913568], [-71.95621611667309, 21.805941740913568]]], [[[-71.90528164427604, 21.808726518063963], [-71.90528164427604, 21.808726518063963]], [[-71.89656798674082, 21.803606121367977], [-71.89656798674082, 21.803606121367977]]], [[[-71.8799491553591, 21.808097697416827], [-71.8799491553591, 21.808097697416827]]], [[[-71.95855173621868, 21.807289213728325], [-71.95855173621868, 21.807289213728325]]], [[[-71.90025107910105, 21.81330792563392], [-71.90025107910105, 21.81330792563392]]], [[[-71.92064283436406, 21.816631691910516], [-71.92064283436406, 21.816631691910516]]], [[[-72.13778456941503, 21.823641270055987], [-72.13778456941503, 21.823641270055987]]], [[[-72.13246312644145, 21.833765278084343], [-72.13246312644145, 21.833765278084343]]], [[[-71.84136985068875, 21.834909061872906], [-71.84136985068875, 21.834909061872906]]], [[[-72.14567079442503, 21.836843784131247], [-72.14567079442503, 21.836843784131247]]], [[[-71.94135154400726, 21.84047943860594], [-71.94135154400726, 21.84047943860594]]], [[[-71.85107165495481, 21.84102429441441], [-71.85107165495481, 21.84102429441441]]], [[[-71.95423982321148, 21.84313199060017], [-71.95423982321148, 21.84313199060017]]], [[[-71.9507840291626, 21.844634201280087], [-71.9507840291626, 21.844634201280087]]], [[[-71.95873139926061, 21.84618626231338], [-71.95873139926061, 21.84618626231338]]], [[[-71.95819241013476, 21.842593001474313], [-71.95819241013476, 21.842593001474313]]], [[[-71.96074804672583, 21.850189982584084], [-71.96074804672583, 21.850189982584084]]], [[[-71.9646602796455, 21.853372783992313], [-71.9646602796455, 21.853372783992313]]], [[[-71.72265416211894, 21.6998507146331], [-71.70229846228085, 21.702413040339025], [-71.69766512086267, 21.722081493951123], [-71.69912418126984, 21.74223518252478], [-71.70251804069585, 21.76287151813949], [-71.68222997767685, 21.755797439382945], [-71.66808326764402, 21.741396082428707], [-71.6457746094855, 21.733487640785086], [-71.65986192895224, 21.755636089163374], [-71.67612143425004, 21.781238072643077], [-71.68474526026432, 21.80549258330859], [-71.68363289338333, 21.82731707018462], [-71.67655629250152, 21.80217342265223], [-71.6573898076033, 21.78595593815362], [-71.64548660471655, 21.76694615399208], [-71.65335002094184, 21.79134321956144], [-71.66017063707949, 21.81602835569396], [-71.67316664392803, 21.832998979681292], [-71.70096107796701, 21.837162317581146], [-71.72380442667276, 21.82773166370822], [-71.75402957534385, 21.835273070337166], [-71.78243896930678, 21.832406017075698], [-71.80628730815351, 21.832801365687146], [-71.82899099691639, 21.847017445129495], [-71.8536054038853, 21.85119610219874], [-71.84015379156386, 21.83378951241798], [-71.8347218795056, 21.810236788579004], [-71.83454019876342, 21.787936661783192], [-71.84504873219635, 21.8067978708375], [-71.87336417151192, 21.80736571088289], [-71.89350152110029, 21.799722892888212], [-71.89818495411839, 21.78007026287065], [-71.88390266340633, 21.765160906033202], [-71.86885790134193, 21.778596596068553], [-71.84720139897149, 21.77646160610169], [-71.8488171820469, 21.796644803540005], [-71.84132160133657, 21.774949866174495], [-71.82238583606755, 21.76547843063321], [-71.80022394366551, 21.77495752027619], [-71.77861919969098, 21.779351610702463], [-71.74744766191003, 21.778632958534843], [-71.72521260594505, 21.775265987156672], [-71.72046311517744, 21.74938920168495], [-71.70693636545587, 21.73241652710044], [-71.72319034400982, 21.717513398816095], [-71.72265416211894, 21.6998507146331]], [[-71.64566854863693, 21.732639219791736], [-71.64566854863693, 21.732639219791736]], [[-71.6502787303661, 21.777993150194675], [-71.6502787303661, 21.777993150194675]], [[-71.66902474409238, 21.806570561560306], [-71.66902474409238, 21.806570561560306]], [[-71.69875897753752, 21.825704675529664], [-71.69875897753752, 21.825704675529664]], [[-71.69866914601664, 21.825794507050546], [-71.69866914601664, 21.825794507050546]], [[-71.77106243002964, 21.82498183444062], [-71.77106243002964, 21.82498183444062]], [[-71.83700398613337, 21.825999336515792], [-71.83211720402755, 21.8460903886579], [-71.83700398613337, 21.825999336515792]], [[-71.73122728245045, 21.82476722351572], [-71.73122728245045, 21.82476722351572]], [[-71.74556119996942, 21.82157242556434], [-71.74556119996942, 21.82157242556434]], [[-71.69534537974027, 21.83163355591438], [-71.69534537974027, 21.83163355591438]], [[-71.76482146406289, 21.83378931503421], [-71.76482146406289, 21.83378931503421]], [[-71.71957392348145, 21.797965706313846], [-71.71957392348145, 21.797965706313846]], [[-71.68285879832371, 21.785639817171273], [-71.68285879832371, 21.785639817171273]], [[-71.87878134558628, 21.800102692049393], [-71.87878134558628, 21.800102692049393]], [[-71.87878134558628, 21.800102692049393], [-71.87878134558628, 21.800102692049393]], [[-71.87303212824338, 21.795970442084467], [-71.87303212824338, 21.795970442084467]], [[-71.87608639995688, 21.793904317101692], [-71.87608639995688, 21.793904317101692]], [[-71.8887530391828, 21.79293635833841], [-71.8887530391828, 21.79293635833841]], [[-71.86746257394253, 21.79534162143733], [-71.86746257394253, 21.79534162143733]], [[-71.86312675557451, 21.797376285649193], [-71.86312675557451, 21.797376285649193]], [[-71.8679117315474, 21.798575556192873], [-71.8679117315474, 21.798575556192873]], [[-71.86337352907901, 21.796023724721067], [-71.86337352907901, 21.796023724721067]], [[-71.85242075070232, 21.787935499412356], [-71.85242075070232, 21.787935499412356]], [[-71.84965430830562, 21.78550009143396], [-71.84965430830562, 21.78550009143396]], [[-71.84834468930075, 21.80563229808007], [-71.84834468930075, 21.80563229808007]], [[-71.84539954884923, 21.80697141498422], [-71.84539954884923, 21.80697141498422]], [[-71.8450545659818, 21.812269895652435], [-71.8450545659818, 21.812269895652435]], [[-71.84370547023423, 21.8129003392321], [-71.84370547023423, 21.8129003392321]], [[-71.8837719515252, 21.803925499181446], [-71.8837719515252, 21.803925499181446]], [[-71.89540017696811, 21.797138251857064], [-71.89540017696811, 21.797138251857064]], [[-71.83812924875019, 21.779669354617567], [-71.83812924875019, 21.779669354617567]], [[-71.6830133717026, 21.78119423152748], [-71.6830133717026, 21.78119423152748]], [[-71.70629745630816, 21.723377186438483], [-71.70629745630816, 21.723377186438483]], [[-71.6989933816626, 21.72316091968338], [-71.6989933816626, 21.72316091968338]], [[-71.70269673875072, 21.721125981327475], [-71.70269673875072, 21.721125981327475]], [[-71.70503709550542, 21.72039601249344], [-71.70503709550542, 21.72039601249344]], [[-71.70198308697036, 21.718314557375834], [-71.70198308697036, 21.718314557375834]], [[-71.70460636038041, 21.713972510455108], [-71.70460636038041, 21.713972510455108]], [[-71.69368525112401, 21.71031779748637], [-71.69368525112401, 21.71031779748637]], [[-71.71447949370946, 21.717906850350573], [-71.71447949370946, 21.717906850350573]], [[-71.72760875649584, 21.704114378288125], [-71.72760875649584, 21.704114378288125]], [[-71.71929486677419, 21.700862525477987], [-71.71929486677419, 21.700862525477987]], [[-71.6987945066059, 21.70730872664342], [-71.6987945066059, 21.70730872664342]], [[-71.6774112710205, 21.760640599688145], [-71.6774112710205, 21.760640599688145]], [[-71.65779580396958, 21.74907838813158], [-71.65779580396958, 21.74907838813158]]], [[[-72.08274126992012, 21.85270156971012], [-72.08274126992012, 21.85270156971012]]], [[[-71.85575666704278, 21.858073564845768], [-71.85575666704278, 21.858073564845768]]], [[[-71.86234217724655, 21.85481008832795], [-71.86234217724655, 21.85481008832795]]], [[[-72.08580141928178, 21.86092684511027], [-72.08580141928178, 21.86092684511027]]], [[[-72.14656910963487, 21.83783193086208], [-72.12462078641039, 21.84519052727569], [-72.10637446051948, 21.856538588469164], [-72.13329812534244, 21.846975435295633], [-72.14656910963487, 21.83783193086208]]], [[[-72.3217405755505, 21.775488855300352], [-72.29820471705301, 21.752761480491927], [-72.27078647443972, 21.740590208591357], [-72.25620938018636, 21.765743034466084], [-72.23566399459992, 21.76691466032412], [-72.21493089710242, 21.763345458366302], [-72.19342613894429, 21.76356777822184], [-72.16928231667913, 21.762803969046615], [-72.14850866779432, 21.798018243278875], [-72.1297408541335, 21.81029279072453], [-72.15055119445736, 21.82249751916447], [-72.17179259887916, 21.800971860264326], [-72.19542331121647, 21.790191573321408], [-72.2153938496358, 21.78377493585009], [-72.23630739971009, 21.78589106470656], [-72.2721432462206, 21.803944952442805], [-72.29182667906326, 21.829567430931775], [-72.31653034733358, 21.846725251439295], [-72.33342342145312, 21.864641672385403], [-72.33391983052582, 21.840285827114826], [-72.34342440459938, 21.818427708247214], [-72.3535122365796, 21.799874231367426], [-72.34853374780755, 21.77616592529955], [-72.33184833231985, 21.79580166804402], [-72.3341993916581, 21.774782572511867], [-72.35001525512916, 21.756134812011624], [-72.3197251452849, 21.759338349675204], [-72.32690923256439, 21.77887907409354], [-72.30604403053394, 21.779319195910546], [-72.27823525327852, 21.766112843818462], [-72.2793994443499, 21.74337897727878], [-72.30040729997609, 21.756757272516666], [-72.31623477618894, 21.771425404524848], [-72.3217405755505, 21.775488855300352]], [[-72.31793747389264, 21.77354273961521], [-72.31793747389264, 21.77354273961521]], [[-72.26726109166634, 21.745167383377407], [-72.26726109166634, 21.745167383377407]], [[-72.27442221664046, 21.763159084278243], [-72.27442221664046, 21.763159084278243]], [[-72.26923576219514, 21.766818402866647], [-72.26923576219514, 21.766818402866647]], [[-72.19660526682208, 21.771805762940005], [-72.2195527902652, 21.764336543921445], [-72.20124637199956, 21.77490944637634], [-72.17477620722332, 21.784112681314525], [-72.19121443250754, 21.772288168734974], [-72.19660526682208, 21.771805762940005]], [[-72.23221464841907, 21.762947247691045], [-72.23221464841907, 21.762947247691045]], [[-72.17964395276658, 21.77278577307544], [-72.17964395276658, 21.77278577307544]], [[-72.1779203104577, 21.76686502928618], [-72.1779203104577, 21.76686502928618]], [[-72.18442811727306, 21.762235964515014], [-72.18442811727306, 21.762235964515014]], [[-72.18640767853174, 21.75900648185916], [-72.18640767853174, 21.75900648185916]], [[-72.15815875752753, 21.802053128244722], [-72.15815875752753, 21.802053128244722]], [[-72.15317999461149, 21.80471774257711], [-72.15317999461149, 21.80471774257711]], [[-72.32317200223792, 21.804104679729846], [-72.32317200223792, 21.804104679729846]], [[-72.3252364384931, 21.82017571647907], [-72.3252364384931, 21.82017571647907]], [[-72.33285929880105, 21.8433131449857], [-72.33285929880105, 21.8433131449857]], [[-72.32729553442243, 21.849400250348026], [-72.32729553442243, 21.849400250348026]], [[-72.33255925362567, 21.85513917084046], [-72.33255925362567, 21.85513917084046]], [[-72.33539496673978, 21.8576846969994], [-72.33539496673978, 21.8576846969994]], [[-72.32914589707502, 21.78144901003793], [-72.32914589707502, 21.78144901003793]], [[-72.32955111487229, 21.77848290304962], [-72.32955111487229, 21.77848290304962]]], [[[-71.84706774826623, 21.862797845326895], [-71.84706774826623, 21.862797845326895]]], [[[-72.0911546848962, 21.888875879942532], [-72.10933223352873, 21.86317358715604], [-72.08267815099492, 21.872950715240222], [-72.0911546848962, 21.888875879942532]], [[-72.10174318066464, 21.862805093695385], [-72.10174318066464, 21.862805093695385]]], [[[-72.08189041452749, 21.888766403259183], [-72.08189041452749, 21.888766403259183]]], [[[-71.90141888887382, 21.88786808804923], [-71.90141888887382, 21.88786808804923]]], [[[-72.08296839277932, 21.890383370636755], [-72.08296839277932, 21.890383370636755]]], [[[-71.90402400298228, 21.89559359885385], [-71.90402400298228, 21.89559359885385]]], [[[-72.06192070950607, 21.8998803783349], [-72.06192070950607, 21.8998803783349]]], [[[-72.0512645330557, 21.89995711125323], [-72.0512645330557, 21.89995711125323]]], [[[-72.02184299927512, 21.90429103802734], [-72.02184299927512, 21.90429103802734]]], [[[-72.07411503143811, 21.903818150513985], [-72.07411503143811, 21.903818150513985]]], [[[-71.90982269784263, 21.91504212314635], [-71.90982269784263, 21.91504212314635]]], [[[-71.90087989974796, 21.926585473592695], [-71.90129909889157, 21.902617947880515], [-71.9007691016904, 21.88144684495785], [-71.8826441009885, 21.86765599582833], [-71.88124210640592, 21.897392208593544], [-71.87290667992801, 21.916322452601435], [-71.8934537542417, 21.93143595354411], [-71.90087989974796, 21.926585473592695]], [[-71.8834525846774, 21.88104089245462], [-71.8834525846774, 21.88104089245462]], [[-71.8784220195023, 21.882747691353245], [-71.8784220195023, 21.882747691353245]], [[-71.88866281289432, 21.88391550112624], [-71.88821365528946, 21.90538523464079], [-71.8839692475122, 21.884957577473756], [-71.88866281289432, 21.88391550112624]], [[-71.88812382376847, 21.892000338014725], [-71.88812382376847, 21.892000338014725]], [[-71.88965095962516, 21.893527473871245], [-71.88965095962516, 21.893527473871245]], [[-71.87545757930997, 21.872776392524315], [-71.87545757930997, 21.872776392524315]], [[-71.88507990373421, 21.87487328743464], [-71.88507990373421, 21.87487328743464]], [[-71.89184257678625, 21.902676505048703], [-71.89184257678625, 21.902676505048703]], [[-71.89546382224978, 21.897440260562007], [-71.89546382224978, 21.897440260562007]], [[-71.89935276389127, 21.91149377806761], [-71.89935276389127, 21.91149377806761]], [[-71.8901424889338, 21.907858129075976], [-71.8901424889338, 21.907858129075976]], [[-71.88934233922402, 21.906424081571572], [-71.88934233922402, 21.906424081571572]], [[-71.90076932100555, 21.883448376120327], [-71.90076932100555, 21.883448376120327]]], [[[-71.91704957352471, 21.92631597902988], [-71.91704957352471, 21.92631597902988]]], [[[-72.0493164873966, 21.938312736313662], [-72.06914771677748, 21.922822934287865], [-72.05944832497892, 21.903860138415837], [-72.05350365389711, 21.9308075550789], [-72.0493164873966, 21.938312736313662]], [[-72.06626170371374, 21.915174008364318], [-72.06626170371374, 21.915174008364318]]], [[[-71.91704957352471, 21.92631597902988], [-71.91704957352471, 21.92631597902988]]]]}}]}