{"type": "FeatureCollection", "features": [{"type": "Feature", "properties": {"code": "TCD", "name": "Chad", "tier": "country"}, "geometry": {"type": "Polygon", "coordinates": [[[23.999444, 15.799722], [23.999167, 16.266111], [24.0, 16.732778], [23.999167, 17.099444], [24.0, 17.632778], [23.999444, 18.065833], [23.999167, 18.5325], [24.0, 18.999444], [23.999535, 19.5008138], [23.499444, 19.771944], [23.008611, 20.034444], [22.529167, 20.287778], [22.020278, 20.555], [21.523056, 20.812778], [21.0375, 21.061111], [20.512222, 21.328889], [20.036667, 21.568333], [19.671667, 21.750556], [19.460556, 21.854444], [19.037222, 22.062778], [18.5025, 22.323889], [18.004444, 22.562778], [17.504167, 22.799167], [17.016667, 23.028056], [16.498056, 23.267222], [15.996389, 23.4975], [15.467778, 23.236389], [14.99858309999997, 23.00123849999998], [15.098611, 22.488611], [15.194722, 21.998889], [15.2025, 21.495833], [15.284444, 21.445278], [15.463056, 21.189167], [15.627222, 20.955278], [15.568611, 20.910278], [15.554167, 20.8525], [15.563056, 20.801111], [15.608611, 20.735], [15.656667, 20.703889], [15.742222, 20.624444], [15.996667, 20.353056], [15.753889, 19.9325], [15.680556, 19.373333], [15.6025, 18.782222], [15.573056, 18.248889], [15.545833, 17.77], [15.522222, 17.332778], [15.512948800000022, 17.042995], [15.51059, 16.98696], [15.50555, 16.89787], [15.33044, 16.71496], [15.25996, 16.64275], [15.21906, 16.59806], [14.95665, 16.32533], [14.91362, 16.27664], [14.81725, 16.17584], [14.69386, 16.04423], [14.6384, 15.99137], [14.59428, 15.94228], [14.55538, 15.90373], [14.51484, 15.86219], [14.39258, 15.73776], [14.31849, 15.64405], [14.2414, 15.54113], [14.12564, 15.37705], [14.09637, 15.33636], [14.05106, 15.27221], [13.97018, 15.15653], [13.93315, 15.11626], [13.86951, 15.04284], [13.84766, 14.99592], [13.79671, 14.88437], [13.79223, 14.80233], [13.80941, 14.74585], [13.78145, 14.70235], [13.70649, 14.6633], [13.6925, 14.61293], [13.69602, 14.55112], [13.64094, 14.51372], [13.57207, 14.50568], [13.49975, 14.47785], [13.47964, 14.37963], [13.4938, 14.32152], [13.55713, 14.04841], [13.62082, 13.77132], [13.633381, 13.70816], [13.853802, 13.402577], [14.083333, 13.083333], [14.466666, 13.083333], [14.525312, 12.970402], [14.5523118, 12.926338400000018], [14.558233699999974, 12.875579200000024], [14.554701899999962, 12.81588650000001], [14.577874100000017, 12.761928799999959], [14.626637399999982, 12.7438567], [14.678819899999969, 12.7222663], [14.7036504, 12.671666599999968], [14.761544200000039, 12.6781324], [14.787050500000039, 12.63447640000002], [14.837396400000031, 12.618601100000019], [14.853125500000015, 12.564137400000023], [14.849490800000016, 12.513644300000019], [14.847411600000022, 12.457205700000044], [14.900028199999955, 12.405003600000034], [14.899884399999959, 12.350539900000038], [14.9031815, 12.28908680000003], [14.9019245, 12.234207099999987], [14.906660700000014, 12.180237600000025], [14.922834, 12.1286], [14.961676500000038, 12.096765800000012], [15.008575300000011, 12.121376499999984], [15.036907100000025, 12.078066], [15.0517569, 12.01817320000003], [15.0474888, 11.963095400000027], [15.040794100000028, 11.913046700000022], [15.05075040000003, 11.8571089], [15.098472299999983, 11.828715599999965], [15.1143424, 11.780205100000044], [15.103871, 11.729114399999977], [15.076156299999983, 11.6783], [15.0861353, 11.625075299999969], [15.128513, 11.574558100000013], [15.1302296, 11.52225220000003], [15.100532199999979, 11.477002199999967], [15.0686467, 11.424541499999966], [15.069289800000014, 11.3718396], [15.073315300000019, 11.3205566], [15.060097399999979, 11.271065799999972], [15.06808819999998, 11.201983300000022], [15.096069, 11.158198300000025], [15.09864389999997, 11.105816100000036], [15.095288, 11.052685300000013], [15.049773, 11.03096669999997], [15.058771799999988, 10.976405199999965], [15.087473300000038, 10.9230132], [15.0945114, 10.870757700000015], [15.0675647, 10.820319500000023], [15.091249799999957, 10.7680743], [15.1351952, 10.6915027], [15.160086099999965, 10.621998], [15.1451515, 10.5658091], [15.172445700000043, 10.51923039999996], [15.217077600000035, 10.494588], [15.2481483, 10.445466299999987], [15.28110729999998, 10.389245299999986], [15.291750299999958, 10.33993809999996], [15.327970899999972, 10.30362810000001], [15.37363280000001, 10.262753400000028], [15.412771599999981, 10.214777899999964], [15.4567169, 10.163753699999981], [15.483667799999985, 10.117960299999988], [15.536539499999975, 10.0943005], [15.580847800000015, 10.068571599999968], [15.643484499999989, 10.02635369999996], [15.688997799999989, 9.998714], [15.523331599999963, 9.951795], [15.41385840000002, 9.93348160000003], [15.364606899999984, 9.9589016], [15.248099499999963, 9.989541], [15.179290299999977, 9.98663550000001], [15.110210100000039, 9.983988500000022], [15.0599645, 9.945692100000029], [15.000696799999975, 9.9664479], [14.8024208, 9.9352191], [14.730032700000013, 9.94781230000004], [14.463357699999975, 10.002224300000021], [14.2924965, 10.000774], [14.2405813, 10.0015563], [14.171797299999973, 9.908186199999983], [14.129471600000016, 9.82450770000001], [14.020937599999979, 9.732403899999968], [13.97509689999998, 9.642373100000027], [14.020372600000037, 9.61679859999998], [14.063687400000031, 9.573010199999969], [14.100032, 9.537668099999989], [14.141201799999976, 9.50428220000004], [14.177161, 9.468350799999973], [14.212473400000043, 9.429806299999969], [14.253759100000014, 9.3740118], [14.304327, 9.371684], [14.333346, 9.319575], [14.3749, 9.286878], [14.361447, 9.237337], [14.36281, 9.1864], [14.407164, 9.148104], [14.464023, 9.114894], [14.48623839999998, 9.0680446], [14.56652, 9.013966], [14.8380197, 8.810639], [14.890831, 8.817937], [14.908864, 8.767593], [14.962766, 8.745861], [14.982399, 8.688869], [15.034589, 8.676795], [15.085472, 8.668179], [15.136936, 8.614483], [15.16661, 8.555777], [15.200064, 8.512252], [15.222648600000017, 8.4604621], [15.393138, 8.098412], [15.393964, 8.046506], [15.451778, 7.885289799999965], [15.506378, 7.792022099999988], [15.587413, 7.773895200000029], [15.588306499999955, 7.720322], [15.58491349999997, 7.6673075], [15.567308500000028, 7.616127], [15.539398099999975, 7.567639399999985], [15.4977485, 7.528358900000013], [15.54655, 7.5112], [15.62205, 7.51415], [15.72795, 7.51913], [15.75539, 7.47458], [15.80959, 7.44107], [15.86396, 7.45302], [15.918590699999964, 7.4707091], [15.97481069999997, 7.4833391], [16.017540699999984, 7.519899100000019], [16.0492807, 7.57072910000001], [16.104620700000023, 7.591619099999972], [16.16358, 7.59458], [16.218114600000018, 7.6063805], [16.2696529, 7.626602], [16.317543100000016, 7.658469599999988], [16.371765899999975, 7.6677659], [16.412792900000035, 7.7062127], [16.41641230000001, 7.7584736], [16.432012, 7.810241499999963], [16.477802699999984, 7.789577599999967], [16.508937700000033, 7.8332214], [16.55541720000004, 7.862899], [16.583398800000033, 7.820657], [16.6067083, 7.761405500000022], [16.65778780000002, 7.74541], [16.657084900000036, 7.6913249], [16.6845187, 7.645806700000039], [16.743443900000017, 7.632474300000029], [16.7807965, 7.597441], [16.803759599999974, 7.552523799999959], [16.85984160000002, 7.54522960000004], [16.9064281, 7.564846800000028], [16.891935600000014, 7.620522899999974], [16.94073470000001, 7.639178599999989], [16.9966045, 7.641242300000032], [17.0491189, 7.657772300000024], [17.082611900000018, 7.699363100000015], [17.121942699999977, 7.6661094], [17.162832, 7.696364900000011], [17.206701, 7.733250199999956], [17.2577668, 7.752917900000037], [17.274177499999972, 7.8031506], [17.32194289999997, 7.825494499999989], [17.36581179999998, 7.855239], [17.415147699999984, 7.863996600000037], [17.45866849999997, 7.898361299999971], [17.503884, 7.872091400000029], [17.53635830000004, 7.9143474], [17.588791399999977, 7.937490400000028], [17.644019299999965, 7.94525289999997], [17.684874700000037, 7.982654199999976], [17.77243, 7.97347], [17.84749, 7.9652], [17.92164, 7.95861], [17.99565, 7.99278], [18.04675, 8.01118], [18.16407, 8.01472], [18.25356, 8.02225], [18.40164, 8.03354], [18.45398, 8.03624], [18.6016, 8.04674], [18.63705, 8.091], [18.6281, 8.14119], [18.65779, 8.18554], [18.7111291, 8.230454800000023], [18.761823200000034, 8.2446347], [18.8084062, 8.27015640000002], [18.84459429999998, 8.306335599999985], [18.873280199999982, 8.351675799999962], [18.909334, 8.3895594], [18.928647599999966, 8.437001299999961], [18.970691499999965, 8.4751952], [19.000756500000033, 8.519741], [19.04164589999999, 8.55221160000004], [19.0569578, 8.60359689999997], [19.08525420000002, 8.64708889999997], [19.1007236, 8.7003496], [19.048553399999975, 8.723676699999986], [19.0128088, 8.7624274], [18.961665799999956, 8.78792550000003], [18.912943600000016, 8.807423099999982], [18.896233, 8.856780399999979], [18.90230050000003, 8.906715900000032], [18.94593430000004, 8.931285599999987], [18.983379200000012, 8.97020640000004], [19.027473, 8.9944723], [19.080900599999957, 9.019969799999975], [19.1316389, 9.013229699999984], [19.184833, 9.024776400000038], [19.23870960000002, 9.030363400000011], [19.287557699999986, 9.0133362], [19.33896490000004, 9.020569500000034], [19.390372200000012, 9.01469420000001], [19.443288200000026, 9.026554], [19.495052300000033, 9.0177985], [19.546662099999974, 9.0319305], [19.610833, 9.026667], [19.666944, 9.021389], [19.721944, 9.03], [19.772778, 9.041111], [19.830556, 9.053056], [19.883611, 9.043889], [19.9375, 9.057222], [19.983333, 9.078056], [20.0275, 9.106667], [20.073889, 9.134444], [20.127222, 9.118889], [20.181944, 9.123889], [20.231389, 9.135], [20.280556, 9.114167], [20.346111, 9.114722], [20.410833, 9.137778], [20.459167, 9.175556], [20.515, 9.208889], [20.5, 9.261944], [20.535, 9.306944], [20.588889, 9.311111], [20.645556, 9.301111], [20.677778, 9.359722], [20.732778, 9.370278], [20.771111, 9.4025], [20.822222, 9.415833], [20.835708400000037, 9.476477700000045], [20.882222, 9.515], [20.923889, 9.556667], [20.956389, 9.605556], [20.996944, 9.639722], [21.002222, 9.693889], [21.0425, 9.766667], [21.103056, 9.7725], [21.115278, 9.822222], [21.155, 9.866111], [21.201944, 9.909444], [21.238889, 9.949167], [21.294722, 9.970556], [21.350278, 9.961667], [21.394167, 9.993333], [21.432222, 10.037778], [21.453333, 10.086389], [21.468611, 10.138333], [21.5, 10.177778], [21.540278, 10.213889], [21.591389, 10.214167], [21.65, 10.2325], [21.684722, 10.280833], [21.713611, 10.323889], [21.731111, 10.380556], [21.738889, 10.431389], [21.706389, 10.492778], [21.702778, 10.566667], [21.716389, 10.635556], [21.765, 10.647778], [21.811111, 10.677222], [21.873056, 10.678889], [21.932778, 10.7225], [21.99, 10.727778], [22.007778, 10.781944], [22.0475, 10.830556], [22.100556, 10.834722], [22.149722, 10.823889], [22.197222, 10.841667], [22.228889, 10.884444], [22.276667, 10.904722], [22.322778, 10.941667], [22.387222, 10.958333], [22.435833, 10.990833], [22.495556, 10.987778], [22.547222, 10.9725], [22.600278, 10.985556], [22.653056, 10.966111], [22.715278, 10.96], [22.7675, 10.955], [22.825, 10.931111], [22.877778, 10.920556], [22.900556, 11.006111], [22.917778, 11.060833], [22.943611, 11.117778], [22.958333, 11.174167], [22.970833, 11.283056], [22.941667, 11.348611], [22.930833, 11.415833], [22.791111, 11.401667], [22.782222, 11.455], [22.721111, 11.480278], [22.654722, 11.5075], [22.561667, 11.621667], [22.565833, 11.740278], [22.572778, 11.799167], [22.611389, 11.992778], [22.640833, 12.071111], [22.58921239999998, 12.061830300000013], [22.537370600000024, 12.0578014], [22.493082, 12.031108100000013], [22.498889, 12.120556], [22.501389, 12.176944], [22.468333, 12.271667], [22.436389, 12.354722], [22.421944, 12.42], [22.383889, 12.465278], [22.466944, 12.621667], [22.335, 12.670278], [22.223333, 12.747222], [22.165833, 12.672222], [22.114444, 12.647222], [22.05, 12.6375], [21.977222, 12.638611], [21.928056, 12.655], [21.885556, 12.696944], [21.85638989999996, 12.740833], [21.83458890000003, 12.788882199999966], [21.847222, 12.837778], [21.895278, 12.961944], [21.9225, 13.005833], [21.943333, 13.053611], [21.993333, 13.101389], [22.029444, 13.142778], [22.103889, 13.171111], [22.159722, 13.190278], [22.186111, 13.235], [22.234444, 13.285], [22.269444, 13.320833], [22.295556, 13.371667], [22.265278, 13.417222], [22.230556, 13.478889], [22.229444, 13.536389], [22.209722, 13.591389], [22.163611, 13.623611], [22.133889, 13.669722], [22.140556, 13.723056], [22.086944, 13.775], [22.228611, 13.960833], [22.275833, 13.986111], [22.325556, 14.0125], [22.396667, 14.052222], [22.4625, 14.087222], [22.5525, 14.120833], [22.559167, 14.215833], [22.484722, 14.243333], [22.443889, 14.272222], [22.441667, 14.323611], [22.4475, 14.384167], [22.446944, 14.448333], [22.4, 14.513056], [22.388889, 14.571111], [22.444167, 14.613611], [22.7025, 14.691389], [22.682222, 14.750278], [22.670278, 14.805], [22.667248500000014, 14.8634901], [22.7094972, 14.895556], [22.760227299999976, 14.90779549999997], [22.750158900000024, 14.9570501], [22.793999099999972, 15.0044335], [22.835541200000016, 15.042731899999989], [22.882233, 15.088647699999985], [22.93159480000002, 15.097228500000043], [22.928160199999965, 15.1498186], [22.9673771, 15.1824376], [23.00170940000001, 15.225341800000042], [22.99089470000004, 15.28297520000002], [22.99140970000002, 15.3366197], [22.991986699999977, 15.389392900000015], [22.967372, 15.435932099999988], [22.92443930000003, 15.470599900000042], [22.9251484, 15.528897900000032], [22.95450250000004, 15.571730800000033], [23.003597600000013, 15.5970294], [23.045826300000023, 15.6499314], [23.09474980000001, 15.696044200000042], [23.15740620000002, 15.717526900000017], [23.2365421, 15.705629100000046], [23.28666730000004, 15.707777399999983], [23.33765070000002, 15.6938958], [23.3968739, 15.6976968], [23.468628299999956, 15.734381], [23.551884100000038, 15.768415300000044], [23.6217503, 15.7738669], [23.69230310000001, 15.77023250000003], [23.776760500000037, 15.757842199999988], [23.8929752, 15.730085], [23.9537434, 15.717692200000016], [23.99964130000003, 15.697254199999971], [23.999444, 15.799722]]]}}]}