{"type": "FeatureCollection", "features": [{"type": "Feature", "properties": {"code": "TGO", "name": "Togo", "tier": "country"}, "geometry": {"type": "Polygon", "coordinates": [[[-0.123663100000032, 11.137003200000013], [-0.103075899999989, 11.090223], [-0.046229500000023, 11.0975001], [0.003217, 11.084025], [0.028572, 11.003962], [-0.0061046, 10.9632369], [-0.011920299999974, 10.910562800000019], [-0.027808, 10.862048699999978], [-0.030527, 10.807279], [-0.067919, 10.773382], [-0.072346, 10.720047], [-0.070266, 10.669563], [-0.015695, 10.623597], [0.041287, 10.601442], [0.117222, 10.541419], [0.148641, 10.497913], [0.168366, 10.450922], [0.190356, 10.404317], [0.241724, 10.414559], [0.294374, 10.411145], [0.314475, 10.35958], [0.318671, 10.30864], [0.375844, 10.313534], [0.364457299999981, 10.26455720000003], [0.3562391, 10.214858799999966], [0.35293, 10.160761700000016], [0.35307629999996, 10.0986805], [0.402064599999979, 10.074367699999982], [0.410229099999964, 10.0209507], [0.360491899999976, 10.027508900000033], [0.369443499999983, 9.964053700000015], [0.351279399999965, 9.9041698], [0.357399, 9.846695899999975], [0.3309379, 9.79645289999997], [0.322285499999969, 9.733263], [0.3508783, 9.674805900000045], [0.294495, 9.680115499999982], [0.27575779999997, 9.631591900000043], [0.3301907, 9.609715199999975], [0.38369, 9.591456500000035], [0.334265, 9.578594200000019], [0.2741534, 9.5712848], [0.237547099999963, 9.534299500000039], [0.297086900000026, 9.5228496], [0.271503500000042, 9.479492699999987], [0.258681, 9.431017], [0.307925, 9.442532], [0.34882, 9.472318], [0.395068, 9.492186], [0.447124, 9.497412], [0.497943, 9.479042], [0.522711, 9.434096], [0.567003400000038, 9.405926300000027], [0.552505, 9.352288], [0.533634, 9.293945], [0.521236, 9.228162], [0.515046, 9.176471], [0.480923, 9.139498], [0.462477, 9.076142], [0.465408, 9.022826], [0.494202, 8.954029], [0.512422, 8.901594], [0.507559, 8.847675], [0.491319, 8.800359], [0.430336, 8.797565], [0.380067, 8.792793], [0.382668900000021, 8.739537800000024], [0.471471, 8.599504], [0.511813, 8.563565], [0.563652, 8.54564], [0.605602, 8.5152], [0.644786, 8.475757], [0.65363, 8.426535], [0.695651, 8.398432], [0.713823, 8.3497], [0.731174, 8.293663], [0.683703, 8.276893], [0.636961, 8.255597], [0.608966, 8.213998], [0.610294, 8.163705], [0.591021, 8.110783], [0.598775, 8.056697], [0.607963, 7.996732], [0.610741, 7.945358], [0.623881, 7.884681], [0.618505, 7.830114], [0.631076, 7.767771], [0.623425, 7.713352], [0.583282, 7.670633], [0.560805, 7.613606], [0.521753, 7.549032], [0.524601, 7.497763], [0.534408, 7.447196], [0.560286, 7.398305], [0.610915, 7.409863], [0.648687, 7.356957], [0.650005, 7.304957], [0.643051, 7.253583], [0.624346, 7.182934], [0.603144, 7.13578], [0.611284, 7.084533], [0.60132, 7.033929], [0.553876, 6.99138], [0.521799, 6.947821], [0.566006, 6.921055], [0.539347, 6.876518], [0.539374, 6.825133], [0.569897, 6.785053], [0.608712, 6.746976], [0.64642, 6.713135], [0.641809, 6.657171], [0.657178, 6.607584], [0.704588, 6.587705], [0.717479, 6.537701], [0.744045, 6.483204], [0.782563, 6.433095], [0.835692, 6.396935], [0.876953, 6.361033000000143], [1.003468, 6.335475], [1.016007000000124, 6.286773], [1.038090000000119, 6.23763], [1.075384, 6.200153], [1.199438100000088, 6.1691206], [1.199624200000032, 6.112430099999882], [1.25373, 6.129917199999928], [1.390315, 6.179755], [1.486298, 6.204521], [1.554551400000109, 6.218903800000158], [1.60635120000005, 6.228792000000121], [1.656667000000128, 6.25], [1.708333, 6.258889], [1.765278, 6.271111], [1.796014800000018, 6.31305879999992], [1.782491400000014, 6.372884100000158], [1.771587400000024, 6.425532700000163], [1.752609899999941, 6.475095400000102], [1.707775400000061, 6.499138], [1.6976413, 6.555234500000056], [1.652554700000047, 6.580258299999924], [1.610159500000025, 6.613415800000071], [1.607705099999984, 6.664825500000065], [1.588469700000056, 6.713611], [1.618378900000111, 6.75670649999997], [1.595414700000036, 6.809167000000132], [1.597227400000095, 6.868427300000073], [1.578044100000036, 6.919572699999959], [1.561436099999985, 6.97175239999998], [1.6425, 6.995556], [1.645556, 7.333889], [1.643889, 7.425278], [1.650833, 7.478611], [1.655833, 7.5325], [1.648056, 7.598611], [1.639167, 7.757778], [1.643611, 7.813889], [1.638056, 7.998611], [1.634722, 8.357778], [1.624167, 8.425278], [1.659167, 8.486111], [1.624722, 8.548056], [1.627778, 8.881111], [1.619167, 8.930833], [1.617778, 8.983056], [1.62, 9.033333], [1.608889, 9.088611], [1.578333, 9.140278], [1.526389, 9.198611], [1.471667, 9.259722], [1.431667, 9.301389], [1.400278, 9.378611], [1.398056, 9.430278], [1.390556, 9.4875], [1.344167, 9.53], [1.368333, 9.596667], [1.373889, 9.646667], [1.363056, 9.766667], [1.369167, 9.818056], [1.355, 9.995278], [1.152778, 10.120833], [1.098219, 10.149886], [1.049722, 10.184444], [0.776667, 10.376667], [0.785278, 10.524444], [0.806944, 10.579722], [0.800278, 10.681111], [0.879444, 10.799722], [0.888611, 10.860833], [0.890556, 10.911111], [0.911944, 10.978611], [0.85466, 10.99498], [0.75827, 10.99736], [0.65631, 10.99736], [0.6041, 10.97468], [0.55211, 10.95477], [0.49468, 10.931], [0.50584, 10.98011], [0.30411, 11.04958], [0.09789, 11.09041], [0.039560899999985, 11.100907600000038], [-0.123663100000032, 11.137003200000013]]]}}]}