{"type": "FeatureCollection", "features": [{"type": "Feature", "properties": {"code": "THA", "name": "Thailand", "tier": "country"}, "geometry": {"type": "MultiPolygon", "coordinates": [[[[99.30670929999998, 6.4958492], [99.30670929999998, 6.4958492]]], [[[99.15835640000002, 6.541367599999973], [99.15835640000002, 6.541367599999973]]], [[[99.27728709999998, 6.577320699999969], [99.28637049999998, 6.51976529999996], [99.32550419999997, 6.5522024], [99.27728709999998, 6.577320699999969]]], [[[99.24735469999996, 6.582823], [99.19607179999998, 6.575558], [99.24767760000003, 6.554861899999967], [99.24735469999996, 6.582823]]], [[[99.64684219999997, 6.7394788], [99.63928670000001, 6.676819199999986], [99.61281560000003, 6.61838730000002], [99.6145219, 6.566036599999972], [99.64414330000004, 6.518777699999958], [99.69405289999999, 6.528416100000037], [99.69558060000001, 6.580508500000029], [99.67895449999997, 6.631659700000039], [99.68367950000003, 6.68328559999998], [99.6572045, 6.727542], [99.64684219999997, 6.7394788]]], [[[99.53753430000003, 6.8324292], [99.53753430000003, 6.8324292]]], [[[99.39841920000003, 7.267765099999959], [99.36505440000005, 7.2234127], [99.41644580000003, 7.243115100000022], [99.39841920000003, 7.267765099999959]]], [[[99.24985320000002, 7.32996190000004], [99.24985320000002, 7.32996190000004]]], [[[99.29114829999996, 7.390563400000019], [99.29114829999996, 7.390563400000019]]], [[[99.20533430000005, 7.423807799999985], [99.20533430000005, 7.423807799999985]]], [[[98.33228560000002, 7.520334400000042], [98.33228560000002, 7.520334400000042]]], [[[98.376748, 7.615745900000029], [98.376748, 7.615745900000029]]], [[[99.04074329999999, 7.648970400000035], [99.03139759999996, 7.5942099], [99.0456383, 7.5456792], [99.0676163, 7.498073900000016], [99.08088049999996, 7.5485614], [99.07096570000002, 7.606782], [99.04074329999999, 7.648970400000035]]], [[[99.06959490000003, 7.687614099999988], [99.05490829999997, 7.636543900000017], [99.1013667, 7.60156], [99.129155, 7.6462961], [99.06959490000003, 7.687614099999988]]], [[[98.76873, 7.687475399999969], [98.76873, 7.687475399999969]]], [[[98.36842770000003, 7.748190899999966], [98.36842770000003, 7.748190899999966]]], [[[99.1104449, 7.726189399999964], [99.1104449, 7.726189399999964]]], [[[98.77214240000002, 7.762437500000034], [98.77214240000002, 7.762437500000034]]], [[[98.3707547, 7.7954941], [98.3707547, 7.7954941]]], [[[98.44110949999998, 7.9117456], [98.44110949999998, 7.9117456]]], [[[98.4374408, 7.9421695], [98.4374408, 7.9421695]]], [[[98.93278, 8.0561808], [98.95215239999999, 8.004825100000026], [98.93958170000003, 8.058127599999956], [98.93278, 8.0561808]]], [[[98.46896959999995, 8.058534200000025], [98.46896959999995, 8.058534200000025]]], [[[98.53789590000004, 8.104131], [98.5480148, 8.0538043], [98.583616, 8.0171844], [98.56490040000001, 7.95950539999997], [98.5791569, 7.895554300000044], [98.61020910000005, 7.938844300000029], [98.6035617, 7.9926358], [98.61065379999998, 8.0435528], [98.57288180000003, 8.077219700000018], [98.53789590000004, 8.104131]]], [[[98.63547, 8.185557199999963], [98.5980884, 8.149317100000022], [98.578553, 8.102271399999974], [98.62530480000002, 8.12185], [98.63507359999997, 8.176202700000015], [98.63547, 8.185557199999963]]], [[[98.29237379999995, 8.2003208], [98.3012959, 8.120477199999979], [98.27318849999999, 8.078696199999971], [98.28780009999997, 8.029862300000026], [98.27845550000005, 7.973526500000031], [98.26212289999995, 7.923438300000044], [98.272212, 7.8700508], [98.29097610000004, 7.822969600000044], [98.3061791, 7.774451700000044], [98.34580939999996, 7.823815599999965], [98.39496040000004, 7.81432290000004], [98.39913219999998, 7.866372], [98.41397130000004, 7.9145806], [98.39404120000002, 7.961404], [98.41164629999996, 8.008782299999975], [98.43435470000001, 8.065047399999983], [98.3860587, 8.085337799999984], [98.35418219999995, 8.124058700000017], [98.33708759999998, 8.172633700000034], [98.29237379999995, 8.2003208]]], [[[98.4913721, 8.305263399999976], [98.4913721, 8.305263399999976]]], [[[97.65085749999997, 8.667774499999961], [97.65085749999997, 8.667774499999961]]], [[[98.30504189999998, 8.9280185], [98.30504189999998, 8.9280185]]], [[[98.35487389999999, 8.9777516], [98.35487389999999, 8.9777516]]], [[[98.26914280000001, 9.013078399999966], [98.26290090000002, 8.9537608], [98.26427419999996, 8.88864030000003], [98.29620319999998, 8.92747660000002], [98.32178080000003, 8.977838900000037], [98.27903710000002, 9.007340899999974], [98.26914280000001, 9.013078399999966]]], [[[97.80906460000003, 9.081035200000034], [97.80906460000003, 9.081035200000034]]], [[[98.28999209999998, 9.1670826], [98.2564223, 9.128304099999987], [98.24732420000004, 9.03388719999996], [98.30053920000002, 9.036430199999959], [98.33401319999997, 9.075081099999974], [98.31684710000002, 9.123727899999981], [98.27925319999997, 9.0879639], [98.298136, 9.13474459999997], [98.28999209999998, 9.1670826]]], [[[98.3170649, 9.251990399999979], [98.27688810000004, 9.20899649999998], [98.3125725, 9.245712], [98.3170649, 9.251990399999979]]], [[[99.95210270000003, 9.392865799999964], [99.95210270000003, 9.392865799999964]]], [[[99.66880949999998, 9.379141400000027], [99.66880949999998, 9.379141400000027]]], [[[97.86628730000004, 9.4225183], [97.86628730000004, 9.4225183]]], [[[97.88786440000001, 9.46248630000002], [97.88786440000001, 9.46248630000002]]], [[[99.67428279999997, 9.4731314], [99.67428279999997, 9.4731314]]], [[[99.69014160000002, 9.552675], [99.69014160000002, 9.552675]]], [[[100.06965440000003, 9.589744], [100.02447150000002, 9.562927300000037], [99.97186480000002, 9.584195300000012], [99.91846820000004, 9.576857599999958], [99.9348552, 9.522773700000034], [99.93469059999997, 9.455641399999973], [99.962235, 9.413817699999985], [100.01287879999998, 9.420731200000024], [100.0490876, 9.4678491], [100.0625263, 9.528801299999959], [100.08003990000003, 9.5788687], [100.06965440000003, 9.589744]]], [[[99.66963279999999, 9.6408938], [99.66963279999999, 9.6408938]]], [[[98.507485, 9.706112800000025], [98.507485, 9.706112800000025]]], [[[98.4150292, 9.7714042], [98.37977429999995, 9.7322682], [98.4150292, 9.7714042]]], [[[100.030772, 9.802911200000011], [99.98032729999997, 9.797488899999987], [99.96583019999996, 9.749174699999966], [99.9919467, 9.7052108], [100.04862349999996, 9.68479530000004], [100.07929280000003, 9.724420700000039], [100.0657938, 9.773279900000034], [100.030772, 9.802911200000011]]], [[[98.45392260000001, 9.8658293], [98.43097440000001, 9.821214299999983], [98.47141780000001, 9.856903800000019], [98.45392260000001, 9.8658293]]], [[[98.48163119999997, 9.914008799999976], [98.48163119999997, 9.914008799999976]]], [[[98.56190580000003, 9.920848200000012], [98.56190580000003, 9.920848200000012]]], [[[98.52179329999997, 9.92117], [98.52179329999997, 9.92117]]], [[[99.82818020000003, 10.12372230000003], [99.816131, 10.070031300000018], [99.84969520000001, 10.109499], [99.82818020000003, 10.12372230000003]]], [[[99.29928140000001, 10.444824599999983], [99.29928140000001, 10.444824599999983]]], [[[99.489793, 10.85899], [99.489793, 10.85899]]], [[[99.56300420000004, 11.084785300000036], [99.56300420000004, 11.084785300000036]]], [[[102.5166893, 11.725113600000041], [102.5166893, 11.725113600000041]]], [[[102.55539830000002, 11.76073859999998], [102.539063, 11.71252639999996], [102.52999239999998, 11.661734800000037], [102.53565719999999, 11.610622300000031], [102.57153440000002, 11.573795300000025], [102.5964253, 11.6173482], [102.60329179999997, 11.669131900000032], [102.57123439999998, 11.708968], [102.55539830000002, 11.76073859999998]]], [[[102.39183889999997, 11.7858898], [102.39183889999997, 11.7858898]]], [[[102.47206679999998, 11.840398199999962], [102.48717070000002, 11.78999219999997], [102.47206679999998, 11.840398199999962]]], [[[102.5255292, 11.83333], [102.5255292, 11.83333]]], [[[102.39760430000004, 11.908819900000038], [102.39760430000004, 11.908819900000038]]], [[[102.36473009999997, 11.9238702], [102.36473009999997, 11.9238702]]], [[[102.47967060000002, 11.95194550000001], [102.47967060000002, 11.95194550000001]]], [[[102.26194670000004, 12.151374800000019], [102.27327639999999, 12.100689700000027], [102.294268, 12.040713600000013], [102.29685520000002, 11.990533100000027], [102.34830969999999, 11.967603399999964], [102.39217760000001, 11.9933055], [102.43011470000003, 11.959481300000023], [102.41911989999998, 12.0089639], [102.39155110000004, 12.051338099999969], [102.36306480000003, 12.0951182], [102.3254614, 12.134257099999983], [102.27509090000002, 12.143421500000011], [102.26194670000004, 12.151374800000019]]], [[[100.95355340000005, 12.530045900000024], [100.95355340000005, 12.530045900000024]]], [[[101.4512976, 12.582956600000044], [101.44178380000001, 12.5275348], [101.46866440000004, 12.571961399999969], [101.4512976, 12.582956600000044]]], [[[100.94899110000004, 12.586648299999963], [100.94899110000004, 12.586648299999963]]], [[[100.77780149999997, 12.720048599999982], [100.77780149999997, 12.720048599999982]]], [[[100.7894273, 12.937603799999957], [100.7894273, 12.937603799999957]]], [[[100.67784039999997, 12.951685100000025], [100.67784039999997, 12.951685100000025]]], [[[100.80832519999998, 13.1780834], [100.80736740000005, 13.127516899999963], [100.80832519999998, 13.1780834]]], [[[99.96094680000003, 20.464437700000044], [99.90757880000001, 20.449954], [99.85951769999997, 20.425489300000017], [99.8371883, 20.374311400000018], [99.79885330000002, 20.335262600000032], [99.744267, 20.346239], [99.694095, 20.323498], [99.647353, 20.341423], [99.597119, 20.338498], [99.539684, 20.355983], [99.495487, 20.385157], [99.507097, 20.32577], [99.513882, 20.27614], [99.541508, 20.225042], [99.545885, 20.172823], [99.500415, 20.13514], [99.455187, 20.097948], [99.405196, 20.088605], [99.351028, 20.096424], [99.302146, 20.113413], [99.247079, 20.112081], [99.199105, 20.130889], [99.147895, 20.127179], [99.104192, 20.097524], [99.056804, 20.062922], [99.046506, 20.012681], [99.039611, 19.956712], [99.023673, 19.909128], [99.029313, 19.858442], [99.01628039999999, 19.806044699999987], [98.98712710000004, 19.763980700000012], [98.930255, 19.773837300000025], [98.874848, 19.78284], [98.832541, 19.811224], [98.795947, 19.775957], [98.744822, 19.755734], [98.694479, 19.754245], [98.645832, 19.736275], [98.599762, 19.713218], [98.56731, 19.673642], [98.528845, 19.705694], [98.4759154, 19.6986351], [98.425251, 19.692679], [98.372321, 19.690732], [98.307957, 19.687813], [98.255351, 19.678044], [98.228817, 19.727721], [98.18322, 19.74994], [98.139542, 19.78252], [98.082898, 19.792341], [98.034416, 19.805544], [98.032778, 19.753733], [98.034566, 19.700597], [98.039881, 19.649731], [97.986812, 19.637693], [97.960732, 19.592673], [97.909842, 19.583387], [97.859173, 19.571173], [97.868945, 19.51593], [97.850108, 19.466659], [97.822248, 19.423278], [97.80013, 19.371835], [97.822295, 19.326219], [97.795811, 19.283102], [97.826532, 19.237629], [97.840349, 19.188052], [97.834395, 19.136483], [97.810873, 19.090785], [97.764367, 19.066038], [97.738957, 19.020983], [97.730151, 18.971595], [97.674417, 18.946972], [97.699693, 18.90321], [97.739161, 18.866515], [97.745061, 18.812741], [97.761693, 18.763718], [97.758071, 18.711989], [97.76816, 18.662872], [97.772853, 18.611578], [97.725482, 18.584416], [97.674964, 18.577129], [97.623774, 18.565512], [97.58178, 18.532758], [97.538744, 18.503921], [97.484485, 18.508618], [97.435848, 18.520769], [97.403248, 18.566724], [97.361891, 18.599493], [97.34621870000002, 18.546102399999967], [97.38676950000003, 18.505429299999967], [97.4037877, 18.4486591], [97.43050080000002, 18.40565939999997], [97.44410629999997, 18.34034690000002], [97.48406659999998, 18.290947800000026], [97.53658820000004, 18.2861707], [97.55121019999999, 18.33408], [97.60499620000004, 18.327105], [97.63946010000002, 18.28766889999998], [97.60903779999997, 18.24473020000002], [97.64347209999997, 18.191808], [97.67786220000005, 18.15111440000002], [97.68986960000004, 18.0923685], [97.71645910000004, 18.031745400000013], [97.73752120000003, 17.974620199999983], [97.69882709999999, 17.935493500000035], [97.67421, 17.888296700000012], [97.69320839999997, 17.837450600000018], [97.73424290000003, 17.796888200000033], [97.7665395, 17.757993600000013], [97.77405280000002, 17.708032], [97.80952410000003, 17.6686972], [97.84678150000003, 17.63071230000002], [97.88987449999998, 17.597052300000044], [97.92246669999997, 17.549510200000043], [97.9673458, 17.521596499999987], [98.02974769999999, 17.462425300000042], [98.06115930000001, 17.420572699999973], [98.11039890000004, 17.385309200000016], [98.11162059999995, 17.3208847], [98.15058480000005, 17.28771779999996], [98.1983969, 17.254374100000042], [98.2442171, 17.2269909], [98.2593055, 17.17804769999998], [98.29887340000003, 17.14288190000002], [98.31760339999997, 17.095967199999976], [98.34680720000001, 17.047835200000023], [98.4004163, 17.047627599999984], [98.44972240000003, 17.024357199999976], [98.4794202, 16.982582], [98.48914480000002, 16.9241689], [98.5357839, 16.8984824], [98.4994788, 16.863055], [98.53765430000003, 16.82895229999997], [98.50694629999997, 16.7882247], [98.47838560000001, 16.745586400000015], [98.49882220000003, 16.696193600000015], [98.512037, 16.64485749999998], [98.56067120000003, 16.631237399999968], [98.58706340000005, 16.588562], [98.59754530000002, 16.532913699999988], [98.6296563, 16.487515], [98.64234250000001, 16.43475169999998], [98.65392339999997, 16.3825468], [98.666244, 16.33288], [98.675907, 16.280533], [98.71872, 16.306415], [98.752505, 16.343659], [98.797741, 16.376207], [98.829806, 16.421918], [98.881438, 16.423026], [98.917981, 16.387257], [98.928671, 16.337234], [98.909635, 16.281532], [98.881517, 16.239462], [98.859256, 16.194597], [98.85184, 16.142493], [98.813056, 16.108985], [98.756125, 16.119778], [98.70815, 16.135364], [98.674124, 16.097146], [98.631724, 16.063147], [98.580597, 16.070551], [98.576735, 16.019892], [98.608378, 15.977538], [98.588113, 15.929003], [98.595679, 15.874911], [98.576458, 15.798899], [98.548287, 15.685239], [98.552899, 15.601741], [98.585365, 15.471216], [98.580282, 15.375598], [98.527681, 15.372089], [98.472663, 15.375481], [98.41707, 15.365362], [98.399506, 15.314362], [98.417256, 15.266429], [98.366593, 15.282598], [98.318982, 15.305079], [98.280921, 15.270978], [98.258612, 15.223653], [98.207779, 15.234493], [98.213371, 15.182008], [98.193361, 15.135879], [98.193045, 15.076838], [98.231354, 15.044423], [98.208918, 14.997479], [98.228201, 14.950343], [98.240739, 14.89981], [98.258456, 14.843356], [98.277828, 14.788761], [98.302429, 14.742063], [98.340641, 14.70615], [98.372986, 14.664151], [98.41569, 14.63108], [98.451729, 14.582492], [98.461617, 14.530862], [98.504274, 14.495903], [98.532379, 14.44802], [98.55672, 14.402969], [98.595477, 14.369271], [98.608275, 14.317295], [98.656121, 14.294074], [98.700036, 14.259938], [98.742808, 14.233345], [98.781401, 14.198144], [98.828341, 14.175655], [98.875454, 14.13134], [98.928699, 14.106206], [98.968132, 14.0716], [98.987332, 14.024771], [99.012142, 13.980385], [99.053778, 13.93052], [99.085151, 13.891312], [99.099442, 13.838055], [99.119596, 13.786281], [99.15509, 13.750264], [99.16695, 13.695668], [99.169095, 13.640459], [99.178848, 13.58575], [99.191877, 13.534226], [99.197737, 13.482515], [99.200639, 13.427449], [99.202321, 13.375859], [99.196935, 13.324768], [99.200731, 13.272567], [99.204373, 13.219125], [99.146641, 13.205448], [99.137258, 13.150197], [99.131147, 13.097311], [99.116548, 13.048841], [99.157798, 13.019763], [99.189604, 12.979865], [99.168374, 12.932941], [99.188567, 12.880037], [99.210517, 12.826097], [99.234457, 12.780365], [99.238627, 12.726562], [99.289497, 12.71505], [99.309055, 12.667631], [99.354482, 12.640572], [99.396661, 12.612218], [99.440483, 12.58146], [99.421937, 12.527802], [99.406619, 12.472831], [99.426764, 12.42427], [99.436902, 12.375072], [99.443353, 12.323685], [99.474689, 12.283026], [99.478356, 12.22937], [99.490159, 12.173088], [99.539201, 12.144199], [99.556215, 12.094602], [99.535552, 12.041637], [99.574943, 12.00761], [99.593169, 11.954994], [99.579791, 11.906382], [99.609899, 11.86484], [99.65013, 11.82955], [99.64119, 11.777858], [99.636262, 11.727168], [99.588087, 11.688511], [99.570674, 11.638608], [99.517302, 11.63647], [99.467844, 11.615105], [99.467659, 11.563029], [99.456841, 11.513798], [99.419821, 11.476063], [99.402751, 11.423784], [99.379233, 11.375679], [99.341508, 11.337406], [99.325884, 11.287016], [99.291279, 11.248211], [99.264429, 11.201875], [99.244484, 11.155354], [99.223398, 11.106937], [99.179428, 11.082965], [99.15837, 11.033836], [99.111803, 11.015528], [99.088096, 10.965504], [99.033524, 10.964175], [98.999286, 10.923554], [99.011927, 10.872152], [98.980238, 10.830434], [98.929112, 10.8238], [98.902322, 10.779174], [98.849695, 10.762497], [98.81928139999998, 10.719771], [98.78478829999999, 10.680617700000042], [98.77506269999998, 10.631464], [98.80179680000005, 10.586677], [98.81281450000003, 10.5305647], [98.8027097, 10.477594300000018], [98.770636, 10.419868], [98.74560150000005, 10.352988], [98.72102839999998, 10.270035099999955], [98.70019660000004, 10.2131705], [98.67140340000005, 10.171317399999971], [98.64096469999997, 10.130888099999982], [98.62400370000002, 10.069470599999988], [98.57947009999998, 9.9862867], [98.59061869999996, 9.9368479], [98.56660870000005, 9.891550700000032], [98.52880030000001, 9.856422800000011], [98.5396098, 9.804149200000037], [98.51265709999997, 9.759478899999976], [98.55781749999998, 9.7291519], [98.53059940000001, 9.684338399999984], [98.49971129999997, 9.634274200000029], [98.4690431, 9.5932476], [98.4491391, 9.538812399999966], [98.4335257, 9.485165499999962], [98.42589019999998, 9.428194800000014], [98.396313, 9.3847917], [98.39007390000003, 9.3329548], [98.3627274, 9.285156599999958], [98.34465139999999, 9.237251300000018], [98.379327, 9.193534199999956], [98.323537, 9.200651299999965], [98.33898659999997, 9.153031799999958], [98.35838430000001, 9.105914400000017], [98.3851635, 9.0567566], [98.330769, 9.057915499999972], [98.33569170000003, 9.008053699999977], [98.38725759999997, 9.033467499999961], [98.3846988, 8.978574100000028], [98.38471430000004, 8.919792199999968], [98.352771, 8.962618300000027], [98.30527520000001, 8.939614200000026], [98.32348039999997, 8.89207760000004], [98.275967, 8.865723200000033], [98.2601484, 8.813261], [98.26132290000002, 8.761818200000018], [98.22231260000002, 8.729014700000029], [98.24215130000005, 8.67104090000004], [98.22997649999998, 8.621220099999974], [98.20728569999997, 8.566206799999978], [98.2250991, 8.4792166], [98.2528766, 8.375934099999974], [98.26491050000003, 8.319336199999963], [98.277566, 8.269405899999985], [98.28281479999995, 8.219673899999982], [98.32539669999997, 8.1913177], [98.36802989999997, 8.1616412], [98.41813920000001, 8.160063899999972], [98.45028930000004, 8.200469599999963], [98.46160379999998, 8.251178], [98.47454280000002, 8.322138099999979], [98.52418269999995, 8.33270719999997], [98.56886449999999, 8.355491299999976], [98.60584559999997, 8.390293200000023], [98.64039, 8.348567499999973], [98.627777, 8.2965858], [98.68029279999996, 8.29753469999999], [98.71974950000003, 8.259387399999987], [98.74291320000002, 8.210681499999975], [98.7428284, 8.158865799999962], [98.74704439999996, 8.107617700000016], [98.74913710000001, 8.054773800000017], [98.80149810000003, 8.046076199999977], [98.837709, 8.010637800000023], [98.8954012, 8.030920199999983], [98.93840759999996, 8.058952099999964], [98.95775, 8.01025], [98.96047359999997, 7.957335], [99.00509560000003, 7.931303799999982], [99.0466754, 7.899184], [99.04464340000001, 7.845806299999961], [99.031618, 7.796803399999978], [99.0287475, 7.732111500000042], [99.08120090000001, 7.690866], [99.10755530000002, 7.738816699999988], [99.15768279999996, 7.7394943], [99.19364779999997, 7.6922397], [99.24339609999998, 7.676701399999988], [99.24646110000002, 7.626152399999977], [99.2831171, 7.591380500000014], [99.31457749999997, 7.538334900000024], [99.3304082, 7.486512499999989], [99.34632110000001, 7.4223802], [99.3566174, 7.361932400000029], [99.392261, 7.31536519999996], [99.44332939999995, 7.293991600000041], [99.49046530000001, 7.31234190000001], [99.53414110000003, 7.283363399999956], [99.54137749999995, 7.230448400000025], [99.57390859999997, 7.171289699999964], [99.616111, 7.140940700000023], [99.6546433, 7.179265100000023], [99.66998379999998, 7.13062610000004], [99.72089190000004, 7.128503099999975], [99.71068450000004, 7.0787306], [99.66959460000002, 7.04122719999998], [99.67696779999999, 6.9790671], [99.68345060000001, 6.917802], [99.6981824, 6.865813800000023], [99.744516, 6.844372700000026], [99.79753210000004, 6.812541600000024], [99.83427769999997, 6.774944199999958], [99.86884450000002, 6.73691729999997], [99.91470069999997, 6.7144138], [99.93495750000002, 6.657301100000026], [99.97011180000001, 6.6210751], [100.00480580000001, 6.565310500000024], [100.045482, 6.5251363], [100.0887186, 6.550613399999985], [100.08828, 6.4979564], [100.11520329999996, 6.448941], [100.157487, 6.478134], [100.156017, 6.53097], [100.18357, 6.572808], [100.168711, 6.621638], [100.179855, 6.67328], [100.195836, 6.720679], [100.24038140000002, 6.69213550000001], [100.290126, 6.709885599999968], [100.3188558, 6.6643663], [100.31610659999998, 6.613318799999959], [100.3451921, 6.5711906], [100.38422930000002, 6.538466800000034], [100.43176090000003, 6.522478], [100.482068, 6.524087199999975], [100.51882479999998, 6.488562100000042], [100.57316, 6.482603], [100.617838, 6.459833], [100.672466, 6.451892], [100.718887, 6.485544], [100.768964, 6.455309], [100.815423, 6.432957], [100.824071, 6.380378], [100.840691, 6.32723], [100.839108, 6.276653], [100.884864, 6.254544], [100.944661, 6.243286], [100.984409, 6.278736], [101.026853, 6.247263], [101.082077, 6.259548], [101.116156, 6.220505], [101.093205, 6.175884], [101.101803, 6.123453], [101.110367, 6.073551], [101.111257, 6.019822], [101.118721, 5.9701], [101.091504, 5.925755], [101.037068, 5.918044], [101.00899, 5.873733], [100.999529, 5.822912], [101.007136, 5.770078], [101.04986860000002, 5.7398768], [101.089535, 5.70364], [101.119983, 5.663019], [101.135866, 5.612851], [101.172335, 5.647579], [101.218724, 5.672195], [101.25999, 5.711545], [101.249612, 5.762401], [101.272661, 5.807573], [101.325576, 5.81368], [101.375389, 5.833494], [101.411068, 5.873451], [101.462665, 5.873831], [101.508525, 5.896559], [101.554166, 5.920706], [101.608618, 5.91498], [101.640042, 5.870309], [101.658102, 5.822523], [101.687852, 5.781855], [101.739229, 5.782464], [101.789709, 5.753447], [101.83626280000004, 5.785918], [101.88098180000004, 5.810181399999983], [101.9170641, 5.845637900000014], [101.9389478, 5.89170039999998], [101.93022530000005, 5.94278909999997], [101.94814459999996, 5.990832499999968], [101.9780363, 6.031055300000013], [102.0224526, 6.061776600000027], [102.05901470000002, 6.096850799999956], [102.08680130000005, 6.138702799999976], [102.07745460000004, 6.19179330000004], [102.090008, 6.242360799999982], [101.95252639999997, 6.3380152], [101.874066, 6.424757599999989], [101.82828130000001, 6.446478599999963], [101.75757450000005, 6.527535199999981], [101.67648370000003, 6.653116800000028], [101.64146479999998, 6.7149484], [101.58207, 6.806377], [101.54636439999997, 6.8472836], [101.43972620000004, 6.887223299999981], [101.35406719999997, 6.905628599999972], [101.29965049999996, 6.945674699999962], [101.24631069999997, 6.943844], [101.2987922, 6.933235200000023], [101.34222250000005, 6.8998344], [101.29450070000001, 6.879043], [101.24582930000001, 6.904954599999982], [101.20616210000001, 6.872552499999987], [101.15213120000004, 6.860248900000013], [101.098662, 6.858341799999959], [101.04102149999996, 6.851616200000013], [100.98166380000004, 6.865276599999984], [100.93452679999999, 6.889098], [100.8488859, 6.962167499999985], [100.78019680000001, 6.972876], [100.73310060000004, 7.021104299999983], [100.6643228, 7.114290200000031], [100.6227728, 7.182364300000035], [100.5804057, 7.230937099999959], [100.53590730000003, 7.2706039], [100.50134239999997, 7.331042700000026], [100.46678570000005, 7.412075300000012], [100.44412890000001, 7.480142900000011], [100.36614280000002, 7.7898605], [100.3330727, 7.945508400000038], [100.3016496, 8.1349926], [100.29171309999995, 8.1843007], [100.25619509999999, 8.3266244], [100.23069590000004, 8.40166469999997], [100.19222489999999, 8.4791157], [100.14475329999996, 8.517454500000035], [100.1494597, 8.43372979999997], [100.17255840000001, 8.388500600000029], [100.11117770000004, 8.41015310000002], [100.05593049999996, 8.4923364], [100.02949, 8.5417613], [100.00253910000005, 8.5853864], [99.954029, 8.6266499], [99.9474574, 8.678131199999964], [99.93738260000005, 8.751679500000023], [99.92511979999998, 8.83634480000002], [99.9167084, 8.8940125], [99.91271819999999, 8.951522299999962], [99.92139750000001, 9.0054262], [99.90966490000004, 9.07917089999997], [99.88925840000002, 9.12642319999997], [99.87433259999997, 9.181425300000015], [99.86975629999996, 9.236303899999967], [99.8457415, 9.2826056], [99.79949579999997, 9.30551489999998], [99.75025759999998, 9.318467600000016], [99.69673959999999, 9.323581199999989], [99.648482, 9.305204599999975], [99.61016950000003, 9.2677168], [99.56015950000003, 9.2770106], [99.50805129999998, 9.258933599999988], [99.48565709999998, 9.210701700000026], [99.413824, 9.2058922], [99.3616435, 9.201289199999987], [99.3153004, 9.2226876], [99.26352590000002, 9.216684], [99.22384939999998, 9.25686579999996], [99.21599409999999, 9.3276979], [99.26242719999998, 9.36083920000004], [99.2928125, 9.402684300000022], [99.2438321, 9.480990899999966], [99.21675819999997, 9.548432899999984], [99.20993390000004, 9.601839199999976], [99.17345629999998, 9.650882600000024], [99.16062109999999, 9.69947440000001], [99.1386273, 9.8070804], [99.162522, 9.857579699999988], [99.15899430000003, 9.90816640000001], [99.15334120000001, 9.965754399999962], [99.18018620000002, 10.0149994], [99.1538648, 10.065761100000017], [99.14760590000002, 10.116015099999956], [99.1737269, 10.168165899999984], [99.19598440000003, 10.216383199999981], [99.24721060000003, 10.2322082], [99.20792970000002, 10.26696079999996], [99.1593556, 10.28919759999998], [99.1463187, 10.3439268], [99.2004173, 10.373565100000029], [99.25241609999998, 10.3623085], [99.28339770000002, 10.403661600000039], [99.25022829999996, 10.445110800000037], [99.23235190000004, 10.496128099999982], [99.25194460000004, 10.5422814], [99.28364030000003, 10.583022600000039], [99.30166089999999, 10.637987500000026], [99.33142739999995, 10.67954969999996], [99.37398579999999, 10.707842500000034], [99.404839, 10.7509164], [99.42402669999997, 10.797809], [99.43514759999996, 10.851868099999987], [99.47568459999998, 10.885500199999967], [99.4919702, 10.9416002], [99.50324969999997, 10.990538799999985], [99.50204629999996, 11.046052], [99.4882109, 11.108124399999955], [99.50017070000003, 11.169567899999969], [99.541286, 11.207347800000036], [99.55278920000003, 11.258318899999978], [99.55432149999999, 11.316887], [99.581294, 11.365326], [99.59938110000002, 11.414029100000025], [99.6202123, 11.4649501], [99.63867529999996, 11.517982300000032], [99.675821, 11.590374199999978], [99.70923339999997, 11.6446975], [99.73773889999997, 11.696654299999958], [99.77732129999997, 11.734053499999968], [99.80458360000004, 11.7832954], [99.81650530000003, 11.838758199999981], [99.81867130000002, 11.9087808], [99.842421, 11.961146499999957], [99.87151159999998, 12.002577699999977], [99.90988189999996, 12.042521300000013], [99.94626779999997, 12.083693900000041], [99.96891620000004, 12.129877399999982], [100.00504979999995, 12.16952260000002], [100.00546769999998, 12.22230640000002], [99.974673, 12.2645916], [99.98742709999996, 12.317782899999967], [100.00017520000004, 12.3777506], [99.979788, 12.43138390000003], [99.97480640000005, 12.499395099999981], [99.96562839999996, 12.549083600000026], [99.95501170000003, 12.61929280000003], [99.96263029999996, 12.685485], [99.97269340000001, 12.7617729], [99.99110679999995, 12.810364499999976], [100.0161649, 12.8623982], [100.02795659999998, 12.930056599999977], [100.04996280000002, 12.981674399999958], [100.0804238, 13.022750399999987], [100.06893959999996, 13.07793150000001], [100.0628762, 13.128081699999976], [100.02431380000003, 13.1844093], [99.99346610000003, 13.225880200000022], [99.95525220000003, 13.25979], [99.96739669999998, 13.311692], [100.02210849999999, 13.36209710000003], [100.0474818, 13.406005400000014], [100.10453859999997, 13.433485099999958], [100.25111939999995, 13.475463400000036], [100.30824540000005, 13.491664299999977], [100.35821489999998, 13.487412900000022], [100.40913609999997, 13.4934303], [100.46188769999998, 13.5015361], [100.51289269999997, 13.508701199999988], [100.56522779999996, 13.516061699999975], [100.63242880000003, 13.520481900000041], [100.68181779999998, 13.50673180000002], [100.8155272, 13.488279200000024], [100.86998590000002, 13.47628379999997], [100.9350035, 13.462571100000025], [100.98162549999998, 13.400591399999966], [100.9550535, 13.348500700000026], [100.91399750000002, 13.31327840000001], [100.92742090000002, 13.259207800000032], [100.9363624, 13.203053400000035], [100.91206310000003, 13.1560025], [100.87970180000003, 13.109779], [100.8845136, 13.059994300000026], [100.9256603, 13.025869400000039], [100.90909710000003, 12.9759899], [100.876819, 12.92944989999996], [100.89822029999998, 12.8564953], [100.91322929999997, 12.806195900000032], [100.88812740000003, 12.7628612], [100.83986639999998, 12.740957900000032], [100.85536149999996, 12.69270129999998], [100.8858995, 12.652422800000034], [100.92501029999995, 12.612259], [100.97078039999998, 12.6395722], [101.0278573, 12.663019299999982], [101.09197519999996, 12.675015500000013], [101.14649819999998, 12.651360900000013], [101.22251830000002, 12.666979900000035], [101.27653350000003, 12.6550384], [101.36801860000004, 12.620103], [101.41448739999996, 12.592429099999984], [101.45115410000002, 12.631314200000014], [101.50456759999999, 12.6317251], [101.55652550000005, 12.627216399999979], [101.6140629, 12.650781699999962], [101.6693748, 12.679841900000026], [101.72366930000003, 12.705143200000029], [101.7750893, 12.69639479999996], [101.82504280000002, 12.673786099999989], [101.86577390000002, 12.6169556], [101.90915689999997, 12.576965], [101.94440589999998, 12.5320185], [101.99721920000002, 12.535746299999966], [102.04209339999998, 12.4986524], [102.09313450000003, 12.462120200000042], [102.12649579999999, 12.41701050000004], [102.175375, 12.385177200000035], [102.22502940000003, 12.327304499999974], [102.259087, 12.289093300000014], [102.2867429, 12.23862740000004], [102.29603659999997, 12.186464], [102.34448479999998, 12.199380700000022], [102.39212520000002, 12.1705013], [102.44658179999996, 12.1648615], [102.5142579, 12.124370200000039], [102.55047850000001, 12.086605299999968], [102.583956, 12.043106799999963], [102.565413, 12.0904659], [102.56129309999997, 12.141992], [102.5753985, 12.199510099999982], [102.64025739999998, 12.18058809999996], [102.648003, 12.1301792], [102.75529140000003, 12.0410473], [102.77194260000002, 11.987151], [102.7819083, 11.92924579999997], [102.80814580000002, 11.8699122], [102.86456110000002, 11.796723400000024], [102.89395409999999, 11.747339200000022], [102.90396970000002, 11.692719700000014], [102.911331, 11.745531], [102.881472, 11.790234], [102.84793589999997, 11.831911599999971], [102.8192795, 11.892706599999974], [102.808632, 11.945382], [102.779961, 11.991347], [102.774633, 12.051406], [102.746791, 12.096268], [102.717262, 12.139042], [102.712099, 12.195138], [102.718323, 12.248426], [102.726188, 12.302468], [102.725802, 12.364311], [102.771303, 12.393634], [102.769421, 12.448482], [102.734391, 12.486795], [102.695113, 12.520964], [102.667851, 12.563426], [102.645269, 12.611101], [102.598755, 12.630349], [102.552385, 12.652671], [102.505485, 12.682034], [102.500033, 12.7396], [102.53356479999998, 12.777085100000045], [102.5161344, 12.826282799999982], [102.50507739999996, 12.8825082], [102.48554179999998, 12.9479824], [102.5074716, 12.994143899999981], [102.45949879999998, 13.082173499999987], [102.42272749999997, 13.116859], [102.39841269999997, 13.170808399999983], [102.379253, 13.223065], [102.3514603, 13.272673399999961], [102.35731049999998, 13.324661899999972], [102.35676020000001, 13.381498099999982], [102.3588619, 13.431462300000012], [102.35928349999999, 13.483506899999957], [102.3414117, 13.53275919999997], [102.36477939999997, 13.577299], [102.4146244, 13.569000199999985], [102.46662810000002, 13.565323599999983], [102.51921960000001, 13.568026499999979], [102.57010209999999, 13.585849], [102.61738939999995, 13.607504699999966], [102.57393380000003, 13.633046699999989], [102.56284180000003, 13.683982400000021], [102.66422820000003, 13.7420108], [102.73202960000003, 13.770888399999963], [102.75599889999995, 13.846550500000037], [102.78291040000005, 13.93281649999996], [102.84895630000001, 13.9860366], [102.901359, 14.0155695], [102.90247980000002, 14.06732950000003], [102.923569, 14.127182], [102.92988529999995, 14.176976399999957], [102.97157690000003, 14.210482199999968], [103.01709120000002, 14.23123109999998], [103.05685559999998, 14.27431959999999], [103.11528440000004, 14.299618399999963], [103.1613223, 14.33098240000004], [103.21367939999996, 14.3283692], [103.26636610000001, 14.349704599999962], [103.32511669999997, 14.352007800000015], [103.37990850000003, 14.3523909], [103.43503980000001, 14.390766900000012], [103.49229470000003, 14.385851099999973], [103.53494060000001, 14.425213100000027], [103.59168179999998, 14.429132400000038], [103.64198210000002, 14.41461849999997], [103.68890219999997, 14.440369599999974], [103.70372349999998, 14.38376629999996], [103.75888860000002, 14.377828], [103.8083563, 14.355104800000023], [103.8622617, 14.365508199999981], [103.908154, 14.338374], [103.97138830000003, 14.349687], [104.02798109999998, 14.340415], [104.0845331, 14.347999899999957], [104.13180520000004, 14.375970500000017], [104.18210969999998, 14.381153799999984], [104.24540630000003, 14.376031], [104.29156910000003, 14.3996861], [104.33390180000004, 14.37216359999998], [104.38577009999996, 14.371837099999967], [104.43733950000002, 14.35781440000004], [104.49620149999996, 14.373345499999983], [104.54507990000003, 14.3569584], [104.5893754, 14.381442299999962], [104.64094870000002, 14.423193], [104.68505820000004, 14.3984098], [104.73888229999997, 14.414492500000025], [104.79150949999998, 14.435157400000014], [104.83562570000002, 14.407391500000015], [104.8943228, 14.406162600000032], [104.941823, 14.38521139999998], [104.99438190000004, 14.379669199999983], [104.9932061, 14.327549200000016], [105.01537980000003, 14.276661799999983], [105.03627679999995, 14.230814200000035], [105.08247050000003, 14.209568], [105.1428914, 14.23805970000001], [105.1533921, 14.2871646], [105.16837350000003, 14.334942300000035], [105.220974, 14.33676], [105.266477, 14.360702], [105.320293, 14.397454], [105.372146, 14.399309], [105.413162, 14.428728], [105.457822, 14.461899], [105.483281, 14.505898], [105.522358, 14.538538], [105.535625, 14.592159], [105.528151, 14.647161], [105.515211, 14.696253], [105.54366, 14.738701], [105.515211, 14.791288], [105.553705, 14.835114], [105.579959, 14.87894], [105.55819, 14.924061], [105.594721, 14.962107], [105.572648, 15.012753], [105.554242, 15.06374], [105.495754, 15.093847], [105.483234, 15.148458], [105.494352, 15.204707], [105.530884, 15.24172], [105.579002, 15.258454], [105.582272, 15.309011], [105.51988449999997, 15.3225202], [105.469127, 15.342057], [105.494072, 15.386402], [105.552934, 15.396321], [105.595165, 15.436438], [105.596754, 15.497693], [105.621561, 15.558452], [105.636637, 15.632506], [105.611482, 15.690212], [105.559419, 15.739257], [105.509547, 15.765722], [105.435484, 15.754309], [105.401652, 15.794614], [105.378162, 15.846816], [105.352219, 15.906302], [105.367119, 15.968944], [105.417166, 15.985778], [105.364358, 16.020692], [105.312086, 16.029603], [105.262536, 16.043898], [105.211107, 16.049639], [105.164212, 16.067343], [105.106305, 16.088396], [105.046455, 16.101853], [105.026052, 16.152752], [105.010766, 16.201975], [104.987254, 16.273208], [104.946188, 16.30712], [104.903466, 16.338277], [104.871765, 16.384574], [104.852009, 16.443607], [104.801293, 16.47704], [104.744035, 16.528537], [104.739371, 16.593491], [104.758868, 16.678121], [104.759062, 16.738948], [104.737492, 16.797621], [104.759386, 16.844452], [104.736067, 16.91742], [104.733995, 16.968677], [104.734707, 17.027172], [104.766381, 17.081], [104.78795, 17.126695], [104.806605, 17.240214], [104.80564, 17.300007], [104.803858, 17.371502], [104.776035, 17.426907], [104.730787, 17.483042], [104.697717, 17.528114], [104.61623, 17.578583], [104.51692, 17.627223], [104.471869, 17.651817], [104.438799, 17.696617], [104.402659, 17.742239], [104.355134, 17.822603], [104.302657, 17.84418], [104.245526, 17.932955], [104.213048, 17.999698], [104.169483, 18.046326], [104.105323, 18.115444], [104.086313, 18.165181], [104.06255, 18.214917], [104.021856, 18.271053], [103.989279, 18.320789], [103.92920390000005, 18.330447600000028], [103.885911, 18.293818], [103.834128, 18.327829], [103.775513, 18.342914], [103.707252, 18.341963], [103.634522, 18.390447], [103.571144, 18.404961], [103.524159, 18.425614], [103.46288, 18.424661], [103.413701, 18.44756], [103.348228, 18.433953], [103.295515, 18.424218], [103.257897, 18.378253], [103.276586, 18.331459], [103.241484, 18.283973], [103.182301, 18.265776], [103.150313, 18.220804], [103.136057, 18.160459], [103.086339, 18.131642], [103.072082, 18.074449], [103.072921, 18.02229], [103.041952, 17.9823], [102.992414, 17.991759], [102.938442, 18.001604], [102.870694, 17.976159], [102.81899259999997, 17.94136080000002], [102.771078, 17.906135], [102.70522, 17.878526], [102.69564, 17.823783], [102.64392, 17.827244], [102.593103, 17.83718], [102.607335, 17.887629], [102.61386, 17.938141], [102.554504, 17.969103], [102.490237, 17.966868], [102.43095, 17.984048], [102.38763, 18.016483], [102.334591, 18.048279], [102.248854, 18.097768], [102.198176, 18.134948], [102.163325, 18.204438], [102.112091, 18.21072], [102.04496, 18.198412], [102.026979, 18.150846], [101.982779, 18.121477], [101.937886, 18.077401], [101.910397, 18.033719], [101.856981, 18.043951], [101.800795, 18.064152], [101.756968, 18.036146], [101.74276, 17.974627], [101.732461, 17.922416], [101.669313, 17.902805], [101.61675, 17.893556], [101.593238, 17.849151], [101.551471, 17.821012], [101.5290855, 17.77422569999996], [101.4941241, 17.727566700000025], [101.44303609999999, 17.734070299999985], [101.40966620000002, 17.6891926], [101.3558569, 17.668184300000014], [101.30647659999995, 17.65069570000002], [101.27949349999999, 17.608059400000037], [101.24749640000002, 17.561829199999963], [101.18853610000002, 17.531073500000034], [101.16289990000003, 17.483021500000035], [101.10991880000005, 17.4799414], [101.06489380000004, 17.514925], [101.02422620000004, 17.5518132], [100.97751460000002, 17.572415], [100.990941, 17.622827], [100.992809, 17.673872], [101.006955, 17.731877], [101.006612, 17.78427], [101.032137, 17.833296], [101.021128, 17.883046], [101.064191, 17.916782], [101.116703, 17.951058], [101.129116, 18.005932], [101.17143, 18.045139], [101.164467, 18.105334], [101.174961, 18.162493], [101.19266, 18.213042], [101.144204, 18.258599], [101.159969, 18.30986], [101.138933, 18.357147], [101.093717, 18.38126], [101.052563, 18.425332], [101.08066, 18.471235], [101.103581, 18.521494], [101.149329, 18.546054], [101.18676, 18.579634], [101.219064, 18.624377], [101.253737, 18.665658], [101.234249, 18.711809], [101.243679, 18.770304], [101.247596, 18.825542], [101.24895, 18.876717], [101.275918, 18.92126], [101.294316, 18.971972], [101.335455, 19.00401], [101.357205, 19.049923], [101.316373, 19.079668], [101.271643, 19.113961], [101.252424, 19.167578], [101.253792, 19.220122], [101.238472, 19.281576], [101.233138, 19.334688], [101.190459, 19.37757], [101.215218, 19.43144], [101.236489, 19.477921], [101.274721, 19.512345], [101.283682, 19.561671], [101.246032, 19.60035], [101.197545, 19.576745], [101.146279, 19.577451], [101.091748, 19.58688], [101.052361, 19.619786], [101.00186, 19.621838], [100.947866, 19.624065], [100.892793, 19.63407], [100.865211, 19.589294], [100.831003, 19.5446], [100.792452, 19.510822], [100.741834, 19.515803], [100.694821, 19.53507], [100.643151, 19.554254], [100.601242, 19.514977], [100.548946, 19.519442], [100.501037, 19.538212], [100.484202, 19.587084], [100.451427, 19.62851], [100.427875, 19.672665], [100.425279, 19.728148], [100.415159, 19.781563], [100.444263, 19.822329], [100.489485, 19.865906], [100.519842, 19.914445], [100.525574, 19.965215], [100.540975, 20.018036], [100.560945, 20.077046], [100.572138, 20.126883], [100.560049, 20.175811], [100.515723, 20.144735], [100.481381, 20.182867], [100.453352, 20.230164], [100.410503, 20.260715], [100.382384, 20.313967], [100.359281, 20.368543], [100.313253, 20.402032], [100.249731, 20.386368], [100.228209, 20.336069], [100.180752, 20.306622], [100.17603, 20.251142], [100.110301, 20.250826], [100.098594, 20.308476], [100.08072610000005, 20.3570931], [100.04422340000005, 20.396825499999977], [99.9990668, 20.4193865], [99.96953220000002, 20.460372200000016], [99.96094680000003, 20.464437700000044]]]]}}]}