{"type": "FeatureCollection", "features": [{"type": "Feature", "properties": {"code": "TJK", "name": "Tajikistan", "tier": "country"}, "geometry": {"type": "MultiPolygon", "coordinates": [[[[70.607006, 39.871813], [70.537274, 39.891552], [70.595147, 39.834548], [70.621982, 39.790573], [70.662664, 39.821243], [70.711086, 39.838724], [70.660996, 39.867445], [70.607006, 39.871813]]], [[[70.58201679999996, 40.993699], [70.6305683, 40.9431116], [70.596849, 40.986441], [70.58201679999996, 40.993699]]], [[[70.451633, 41.03855260000004], [70.40075259999996, 41.026823900000025], [70.38311740000002, 40.97861190000002], [70.375475, 40.923108599999985], [70.3351018, 40.88198860000004], [70.27841930000001, 40.87106529999997], [70.23762549999998, 40.83878219999996], [70.18395829999997, 40.83095980000004], [70.12738580000003, 40.82206229999998], [70.092349, 40.774971], [70.047157, 40.753006], [69.99820550000003, 40.7355423], [69.94062350000004, 40.71932190000004], [69.88991870000001, 40.7255604], [69.84140940000002, 40.70660509999998], [69.78964369999997, 40.6895212], [69.75825140000003, 40.6452328], [69.70897179999999, 40.6286287], [69.66331110000004, 40.6513482], [69.6150052, 40.6903843], [69.57434369999999, 40.720316900000036], [69.54730730000003, 40.762965], [69.49327060000002, 40.781935699999984], [69.43476870000003, 40.79222290000001], [69.37561710000003, 40.772186499999975], [69.34916940000002, 40.72682210000004], [69.3394051, 40.66752709999998], [69.34844610000005, 40.613903300000025], [69.30604860000001, 40.5785885], [69.2504875, 40.565302800000026], [69.24796819999999, 40.51023309999999], [69.26771959999998, 40.45971810000003], [69.29486770000003, 40.4149558], [69.31618320000003, 40.35666450000003], [69.32657249999997, 40.30244530000002], [69.26534660000002, 40.29737980000002], [69.28573360000001, 40.251040199999956], [69.29881280000004, 40.19975380000004], [69.2462507, 40.20737129999998], [69.16978150000003, 40.212125399999955], [69.07820359999997, 40.2228571], [68.86276159999996, 40.2100349], [68.8106052, 40.177932], [68.71197560000003, 40.18696570000004], [68.65364530000002, 40.17295170000003], [68.59794519999996, 40.15713069999999], [68.53286060000003, 40.14382089999999], [68.63323639999999, 40.076677299999965], [68.69409539999997, 40.095042900000045], [68.7503405, 40.10133549999996], [68.81122380000002, 40.1166294], [68.88164330000002, 40.13307490000001], [68.94100210000003, 40.1453056], [68.99681229999997, 40.1497692], [69.00845340000002, 40.09913270000004], [68.957292, 40.08370370000002], [68.90483679999997, 40.06794120000003], [68.84631510000004, 40.04782380000004], [68.87490530000002, 40.002170600000014], [68.91120129999997, 39.95413710000003], [68.90953939999996, 39.88045610000001], [68.8489189, 39.8694059], [68.84479109999998, 39.941577], [68.81973459999998, 39.985843], [68.8358249, 39.93713880000002], [68.8273769, 39.87286830000004], [68.7770168, 39.8297043], [68.73421870000003, 39.85712969999999], [68.68145659999996, 39.835006], [68.6329842, 39.8523724], [68.6337968, 39.76301750000003], [68.59306659999999, 39.72974590000004], [68.62992359999998, 39.68196980000004], [68.60568210000001, 39.6303458], [68.56365690000004, 39.59871219999999], [68.54158919999998, 39.54969450000002], [68.49056479999999, 39.542567099999964], [68.42402989999997, 39.53785640000002], [68.3694592, 39.529854], [68.317106, 39.55021149999999], [68.25849670000002, 39.559176799999975], [68.194913, 39.553949800000034], [68.14432530000002, 39.56392940000001], [68.08041510000001, 39.575280599999964], [68.02088849999997, 39.5846683], [67.94907280000001, 39.60353079999998], [67.87507949999998, 39.627375], [67.8171669, 39.64371329999997], [67.76592830000004, 39.64052089999998], [67.707976, 39.65965770000001], [67.65978440000005, 39.63671989999999], [67.6185525, 39.60021010000003], [67.5655186, 39.59454340000003], [67.50899610000002, 39.57919610000002], [67.4537486, 39.578848], [67.42280609999999, 39.53628439999998], [67.4472606, 39.489307699999955], [67.46211650000004, 39.43778620000004], [67.4876085, 39.37823], [67.47467590000004, 39.32348219999999], [67.38675270000003, 39.314406800000036], [67.33692009999997, 39.30554459999997], [67.3308737, 39.23723310000004], [67.4007018, 39.226376299999956], [67.4620968, 39.20319040000001], [67.53425470000003, 39.18009720000001], [67.58418239999997, 39.188338599999966], [67.62472239999998, 39.1524578], [67.67524669999999, 39.1451432], [67.66809069999995, 39.08465560000002], [67.68590149999996, 39.02490649999996], [67.740245, 39.005704], [67.79476, 39.011557], [67.857987, 39.003629], [67.921648, 39.026491], [67.973596, 39.025772], [68.027756, 39.010077], [68.078842, 39.026366], [68.129987, 38.997395], [68.152783, 38.951297], [68.203291, 38.925322], [68.179989, 38.880084], [68.161151, 38.83008], [68.099379, 38.816202], [68.121319, 38.752141], [68.060485, 38.719411], [68.077437, 38.666825], [68.077599, 38.605002], [68.067888, 38.549683], [68.1050916, 38.5048934], [68.08160849999999, 38.4260515], [68.13113629999997, 38.40976760000002], [68.16554550000004, 38.368557800000026], [68.213858, 38.344055], [68.263588, 38.320312], [68.302392, 38.255669], [68.361686, 38.238969], [68.4039525, 38.198909500000035], [68.395139, 38.1441028], [68.374137, 38.0983116], [68.3427635, 38.056072800000045], [68.3009493, 38.01723029999999], [68.279777, 37.9648341], [68.27851279999997, 37.9118508], [68.225511, 37.932167], [68.163699, 37.934915], [68.123592, 37.888161], [68.083888, 37.829415], [68.038023, 37.744694], [67.994469, 37.687529], [67.924351, 37.623375], [67.8634692, 37.63685060000001], [67.85205709999998, 37.58419590000003], [67.83137550000004, 37.5339892], [67.81468030000005, 37.48001559999997], [67.78985120000003, 37.418626400000015], [67.821161, 37.35767380000003], [67.8406916, 37.30803869999996], [67.81319809999998, 37.26626989999998], [67.7962379, 37.20212239999997], [67.7913095, 37.1382276], [67.79054450000002, 37.08576229999997], [67.85406539999997, 37.066224900000016], [67.899722, 37.031389], [67.950833, 36.99], [67.99683779999997, 36.94910270000002], [68.043056, 36.926111], [68.090556, 36.952222], [68.174167, 37.014444], [68.240833, 37.0075], [68.281667, 37.047778], [68.286111, 37.100556], [68.350833, 37.101667], [68.413056, 37.104444], [68.4557723, 37.140872100000045], [68.518056, 37.159167], [68.56905209999995, 37.183390699999975], [68.61700420000004, 37.19844650000003], [68.64620249999999, 37.24389230000004], [68.68781279999999, 37.27773759999999], [68.745, 37.277778], [68.801111, 37.245], [68.810278, 37.300278], [68.861111, 37.319722], [68.905, 37.272222], [68.887778, 37.322222], [68.955278, 37.325556], [69.011944, 37.293611], [69.042778, 37.243889], [69.0941833, 37.212044], [69.1271941, 37.17369429999999], [69.1753191, 37.147875599999985], [69.22159109999997, 37.110979], [69.2767099, 37.105413099999986], [69.32846189999998, 37.124134099999985], [69.37011489999996, 37.1657961], [69.4240112, 37.19640179999996], [69.47042709999998, 37.25071720000003], [69.41934730000001, 37.262416700000024], [69.40600469999997, 37.31278029999997], [69.381341, 37.36082670000004], [69.37564009999997, 37.4138933], [69.410659, 37.45381469999997], [69.44861119999997, 37.49340950000001], [69.49033390000004, 37.527585], [69.51156709999998, 37.58113], [69.56263639999996, 37.573120199999956], [69.62839529999998, 37.569710500000014], [69.68319819999998, 37.583264300000046], [69.73796630000002, 37.58968320000002], [69.80222510000002, 37.569085399999985], [69.84143039999998, 37.60355460000004], [69.899167, 37.615], [69.950008, 37.59085609999998], [69.99781030000001, 37.566751300000035], [70.04712470000001, 37.543585], [70.101389, 37.530833], [70.15190140000003, 37.53494910000003], [70.19551189999999, 37.56286469999998], [70.22635360000001, 37.607404099999954], [70.26532289999999, 37.649735799999966], [70.30260350000005, 37.690848700000025], [70.28647590000004, 37.748968600000026], [70.27425359999995, 37.79937949999998], [70.22184970000004, 37.83214969999997], [70.17894289999995, 37.865965799999984], [70.17725850000004, 37.9172008], [70.23630140000002, 37.93959640000001], [70.27810739999997, 37.97291330000002], [70.32947060000002, 37.99873129999997], [70.3641612, 38.03635130000004], [70.40799710000003, 38.07542839999997], [70.4533157, 38.10232980000003], [70.50120710000003, 38.11915070000002], [70.5099382, 38.17343110000004], [70.53763790000004, 38.222411800000046], [70.56640840000001, 38.2674747], [70.60966269999999, 38.29720689999997], [70.61881020000003, 38.35054190000002], [70.67531450000003, 38.3622584], [70.69891809999999, 38.4203548], [70.75658990000002, 38.42789969999997], [70.80548230000002, 38.44428110000001], [70.85588660000005, 38.441579599999955], [70.9080267, 38.437703], [70.96298839999997, 38.45589309999996], [71.01584289999997, 38.467856], [71.045579, 38.4225747], [71.09888409999996, 38.42356309999998], [71.1446576, 38.40178320000002], [71.18418690000004, 38.34515230000003], [71.24263759999997, 38.31897170000002], [71.2984962, 38.312941100000025], [71.33243509999997, 38.2748526], [71.37320159999996, 38.2441595], [71.3667785, 38.177059599999964], [71.3386207, 38.12911010000001], [71.32053819999997, 38.076937599999965], [71.28408579999997, 38.04205240000004], [71.26704760000003, 37.983841499999976], [71.25260809999999, 37.933182600000016], [71.30674739999996, 37.923473799999975], [71.34775249999998, 37.8914617], [71.4054377, 37.908633100000046], [71.46890580000002, 37.9330494], [71.52421690000004, 37.95317680000002], [71.5711896, 37.93161110000002], [71.598313, 37.87415389999997], [71.59082039999996, 37.82182409999996], [71.54488989999999, 37.7716321], [71.547617, 37.719747], [71.5261152, 37.63135680000002], [71.50652750000005, 37.582905899999965], [71.49528190000004, 37.533435400000016], [71.52672190000001, 37.47987980000002], [71.5016374, 37.433959099999974], [71.47487, 37.387917], [71.48662789999996, 37.335765600000016], [71.4948499, 37.284235], [71.47875209999997, 37.2339451], [71.46248829999998, 37.186223300000044], [71.44589540000003, 37.1337845], [71.43230189999998, 37.07658190000004], [71.45862650000002, 37.02935259999999], [71.47053809999997, 36.97945389999996], [71.48837210000003, 36.92832659999998], [71.51911230000002, 36.8799249], [71.54290960000002, 36.824901], [71.5630946, 36.763797], [71.60119950000004, 36.72432429999996], [71.6482291, 36.6893839], [71.712792, 36.67194], [71.78034250000003, 36.6755365], [71.83795509999997, 36.68159520000002], [71.89854670000003, 36.723381], [71.94350869999998, 36.75020920000002], [71.98682679999997, 36.779268], [72.02952879999998, 36.81694609999996], [72.07501590000004, 36.83880350000003], [72.1222151, 36.867787], [72.19296389999997, 36.90616839999998], [72.24101169999997, 36.9422206], [72.2970762, 36.96283140000004], [72.34876970000002, 36.987300500000025], [72.39964930000004, 36.993671], [72.451046, 37.00253429999997], [72.50517730000004, 36.99960360000004], [72.56120639999997, 37.006755], [72.60854220000004, 37.02418010000003], [72.66251960000004, 37.01768690000004], [72.70306209999998, 37.06908729999997], [72.7318212, 37.110799299999954], [72.758619, 37.1541447], [72.78175010000004, 37.1987972], [72.82423239999999, 37.23374820000004], [72.88014309999998, 37.2378022], [72.9223386, 37.267875300000036], [72.97056930000004, 37.29117179999998], [73.02004760000001, 37.30632510000002], [73.0700198, 37.316332], [73.10689479999998, 37.36273759999997], [73.14704050000003, 37.401774], [73.20371330000002, 37.4040295], [73.24869220000004, 37.42752049999997], [73.30664719999999, 37.46361080000004], [73.35746959999996, 37.459339400000026], [73.414174, 37.46499269999998], [73.48834790000004, 37.4733786], [73.54348780000002, 37.46701809999996], [73.61469310000003, 37.44283659999998], [73.66612530000002, 37.44093019999998], [73.719561, 37.447008], [73.77589340000002, 37.440093799999964], [73.767164, 37.387863799999955], [73.75092019999998, 37.3315499], [73.70498079999999, 37.3070785], [73.65338350000002, 37.31120290000002], [73.61723679999999, 37.27051939999996], [73.65949609999996, 37.23798949999996], [73.71212969999996, 37.24575179999997], [73.75908440000003, 37.22188320000003], [73.81491189999998, 37.23221530000004], [73.8824881, 37.2653244], [73.93847090000001, 37.281826], [73.9869822, 37.297697], [74.04140640000001, 37.299957500000026], [74.09882870000003, 37.318083], [74.15180150000003, 37.33642270000003], [74.2082958, 37.3410746], [74.24857410000001, 37.3731021], [74.29584209999999, 37.401060800000046], [74.34500179999998, 37.416099], [74.396874, 37.395385799999985], [74.44701519999997, 37.410364499999964], [74.49519929999998, 37.396182900000035], [74.55500720000002, 37.39920819999997], [74.60549989999998, 37.38200250000003], [74.662639, 37.38582720000002], [74.72780229999996, 37.37686620000004], [74.7943053, 37.356251700000044], [74.83884, 37.32045449999998], [74.87212640000001, 37.27864930000001], [74.8926077, 37.23268689999998], [74.926784, 37.284078100000045], [74.97873770000004, 37.28541640000002], [75.03086960000002, 37.30180160000002], [75.08165419999997, 37.314646600000025], [75.10443059999997, 37.3618911], [75.138347, 37.4006169], [75.1264497, 37.451846700000026], [75.08219170000004, 37.4932731], [75.03128320000003, 37.5009707], [74.9881792, 37.5350089], [74.9320979, 37.56850210000004], [74.92642549999998, 37.6237929], [74.8996914, 37.67370140000003], [74.9341009, 37.717529], [74.98408360000005, 37.751938399999986], [74.98686450000001, 37.8085212], [74.928057, 37.82650459999998], [74.93202449999997, 37.879231100000034], [74.91662139999995, 37.92703449999998], [74.91753509999997, 37.980431900000035], [74.90594919999997, 38.03368309999998], [74.85606049999996, 38.043185700000016], [74.8202795, 38.08528960000001], [74.80592770000001, 38.13713880000004], [74.8024034, 38.1906134], [74.75326779999996, 38.21525610000004], [74.69793870000004, 38.22816420000003], [74.70579960000003, 38.28248659999997], [74.68771170000002, 38.33299809999998], [74.66553110000004, 38.380595799999966], [74.69541830000004, 38.425102], [74.61481250000003, 38.449024], [74.50668460000001, 38.471504299999964], [74.28444419999998, 38.59842289999997], [74.18688859999996, 38.64027970000003], [74.12131950000001, 38.64164390000001], [74.07463779999998, 38.61079310000003], [74.07736629999995, 38.55253240000002], [74.02809340000002, 38.542742], [73.97657359999997, 38.53664310000001], [73.92360939999996, 38.54258150000002], [73.89359630000001, 38.58398990000002], [73.83950850000004, 38.5929778], [73.807409, 38.6324603], [73.78000509999997, 38.68016969999998], [73.75460519999997, 38.72474650000003], [73.766179, 38.77493189999998], [73.735506, 38.827465100000026], [73.7021224, 38.8647006], [73.73397520000003, 38.91056440000004], [73.78044529999997, 38.94206050000003], [73.8241244, 38.91742279999996], [73.8489973, 38.96215909999997], [73.82815289999998, 39.01997859999999], [73.77158839999998, 39.027877799999956], [73.73337070000002, 39.060313], [73.71666470000002, 39.1085676], [73.67814219999998, 39.14660880000002], [73.65538279999997, 39.196628500000024], [73.62204960000004, 39.234224], [73.56907040000003, 39.243868], [73.5603923, 39.30080510000004], [73.55856860000002, 39.35476750000004], [73.5111056, 39.37464929999998], [73.55831640000002, 39.39370130000001], [73.59041590000002, 39.434628299999964], [73.5441036, 39.46242319999997], [73.4929558, 39.467675599999964], [73.44140719999997, 39.451558899999974], [73.3912247, 39.44653069999996], [73.35744570000003, 39.39980720000002], [73.295479, 39.386914200000035], [73.2436131, 39.361296599999974], [73.1844, 39.35355], [73.12771209999995, 39.37096990000001], [73.07612060000002, 39.3697686], [73.01678609999998, 39.35671450000002], [72.95886860000003, 39.346646], [72.90714239999997, 39.3676485], [72.85734050000003, 39.351917500000035], [72.80588249999995, 39.35391119999997], [72.75284009999997, 39.37299440000001], [72.70495870000005, 39.3874999], [72.653411, 39.39211370000001], [72.60353450000004, 39.380158199999975], [72.55402240000002, 39.363833600000014], [72.50189230000002, 39.37661220000003], [72.45494009999999, 39.34795630000002], [72.4005432, 39.3417804], [72.34786480000002, 39.3332819], [72.30826430000005, 39.296791], [72.2822734, 39.2426998], [72.2613981, 39.18356250000003], [72.2146758, 39.21661449999997], [72.18082370000002, 39.25367019999998], [72.11653360000001, 39.2694974], [72.077759, 39.304924199999974], [72.05860969999998, 39.3519451], [71.99516309999997, 39.3477628], [71.94457320000004, 39.3179745], [71.91111089999998, 39.27728279999997], [71.84603929999999, 39.2831881], [71.7906267, 39.27805320000003], [71.75266990000003, 39.32395950000004], [71.79615130000003, 39.3752743], [71.79772160000003, 39.42849440000004], [71.7490917, 39.4571112], [71.6748967, 39.45085039999997], [71.61312760000003, 39.44495890000003], [71.56243959999998, 39.454873100000015], [71.54379169999999, 39.505128], [71.56126360000002, 39.55763930000004], [71.52604639999998, 39.602371900000016], [71.46008359999996, 39.59129989999998], [71.3923181, 39.5721164], [71.33562459999999, 39.56874779999998], [71.30764819999997, 39.523368], [71.25857610000004, 39.548923900000034], [71.20551330000005, 39.5165556], [71.12762379999998, 39.51060480000003], [71.0809107, 39.480853], [71.07261, 39.419712899999986], [71.00834750000001, 39.402587400000016], [70.95940309999997, 39.430424799999976], [70.92213470000004, 39.39012060000004], [70.86788210000002, 39.393172300000025], [70.81560559999998, 39.3884477], [70.766137, 39.4186257], [70.75433330000001, 39.477602899999965], [70.70290670000004, 39.5157], [70.67303030000004, 39.560624], [70.62818409999998, 39.58579920000004], [70.57418570000003, 39.596618], [70.52490330000002, 39.6220846], [70.47110430000004, 39.59062940000001], [70.40947129999998, 39.57637569999998], [70.357545, 39.574157500000034], [70.30906890000004, 39.530032], [70.25087660000001, 39.536071799999974], [70.21259789999996, 39.57750330000002], [70.16809020000004, 39.55408380000002], [70.12301209999998, 39.588845799999966], [70.07168589999998, 39.57143620000002], [70.0143766, 39.542539], [69.95909029999997, 39.56880510000002], [69.90163819999998, 39.57618930000001], [69.87385990000001, 39.53182419999998], [69.82686440000003, 39.561236699999974], [69.775504, 39.57943179999998], [69.71635020000002, 39.59355450000001], [69.66099860000001, 39.578250500000024], [69.61120780000003, 39.59206629999998], [69.57397310000005, 39.55311790000004], [69.5198545, 39.5416949], [69.44778019999995, 39.52830610000004], [69.407302, 39.56323639999996], [69.37704570000001, 39.52310180000002], [69.35575920000002, 39.5688576], [69.3446207, 39.618907600000036], [69.32139180000004, 39.66328659999997], [69.32835359999999, 39.71721909999998], [69.28908520000005, 39.755031], [69.2649523, 39.80603820000003], [69.30365549999998, 39.84687689999996], [69.30237870000003, 39.9103474], [69.33168949999995, 39.951226], [69.3556677, 39.996164700000016], [69.4176928, 39.991151199999976], [69.42703450000003, 39.9294344], [69.4801484, 39.92988150000004], [69.53419959999997, 39.9369583], [69.53094570000003, 39.99431720000001], [69.51075029999998, 40.04593960000002], [69.53839149999997, 40.089039900000024], [69.61232569999999, 40.11365679999998], [69.662993, 40.11745970000004], [69.742525, 40.1527028], [69.810822, 40.1839252], [69.88612769999996, 40.201125500000025], [69.995469, 40.23467630000003], [70.1010495, 40.18814750000003], [70.175289, 40.142989600000035], [70.22838079999997, 40.12728710000003], [70.2822814, 40.12958720000001], [70.33191720000003, 40.11136259999996], [70.3849358, 40.0811089], [70.46545269999996, 40.05785859999997], [70.520212, 40.0522631], [70.567255, 40.0303432], [70.5467241, 39.979209099999984], [70.50329080000004, 39.9490238], [70.557523, 39.965068], [70.614788, 39.958715], [70.660241, 39.988564], [70.665004, 40.047317], [70.6699159, 40.1029762], [70.7499105, 40.115436], [70.80090649999995, 40.14222029999998], [70.83166490000002, 40.189343], [70.88297930000003, 40.1865627], [70.957067, 40.210833800000024], [70.865329, 40.221256], [70.78861, 40.20214], [70.713954, 40.189862], [70.63233, 40.177295], [70.5951, 40.213126], [70.575883, 40.283398], [70.577972, 40.338307], [70.483848, 40.350945], [70.432759, 40.36937], [70.37895260000003, 40.38652], [70.3448251, 40.4295044], [70.385464, 40.4767771], [70.46733090000002, 40.5045997], [70.50985040000002, 40.5467113], [70.56250760000003, 40.563045799999976], [70.60848260000004, 40.5834041], [70.6428638, 40.62849480000003], [70.6867466, 40.6524808], [70.73753339999998, 40.661514], [70.76928250000003, 40.70037840000002], [70.77458259999999, 40.7516001], [70.70433090000002, 40.8004088], [70.67014070000005, 40.852543899999965], [70.632762, 40.890534], [70.595965, 40.932874], [70.550198, 40.980245], [70.49705729999997, 41.018822500000034], [70.451633, 41.03855260000004]]]]}}]}