{"type": "FeatureCollection", "features": [{"type": "Feature", "properties": {"code": "TKL", "name": "Tokelau", "tier": "country"}, "geometry": {"type": "MultiPolygon", "coordinates": [[[[-171.20197957663393, -9.4397469058988], [-171.20197957663393, -9.4397469058988]], [[-171.2062914899977, -9.439924136024842], [-171.2062914899977, -9.439924136024842]]], [[[-171.1986558100826, -9.432125924276875], [-171.1986558100826, -9.432125924276875]]], [[[-171.19614052728716, -9.428847078039325], [-171.19614052728716, -9.428847078039325]]], [[[-171.2159932950662, -9.417858285124055], [-171.2159932950662, -9.417858285124055]]], [[[-171.19730833715647, -9.415111032256732], [-171.19730833715647, -9.415111032256732]]], [[[-171.19863380179683, -9.410835466191088], [-171.19863380179683, -9.410835466191088]]], [[[-171.19629939925784, -9.407380371896352], [-171.19629939925784, -9.407380371896352]]], [[[-171.22542560554945, -9.405894282465795], [-171.22542560554945, -9.405894282465795]]], [[[-171.19642877332663, -9.40640752538934], [-171.19642877332663, -9.40640752538934]]], [[[-171.19793715785536, -9.40066544020442], [-171.19793715785536, -9.40066544020442]]], [[[-171.19739816868483, -9.397652173185577], [-171.19739816868483, -9.397652173185577]]], [[[-171.23737319882824, -9.394284373126595], [-171.23737319882824, -9.394284373126595]]], [[[-171.1992846307815, -9.39171418788817], [-171.1992846307815, -9.39171418788817]]], [[[-171.24959028669218, -9.384180776485493], [-171.24959028669218, -9.384180776485493]]], [[[-171.19811682091216, -9.380724215283294], [-171.19811682091216, -9.380724215283294]]], [[[-171.1952774888618, -9.375030521061774], [-171.1952774888618, -9.375030521061774]]], [[[-171.26405316276654, -9.372924668588155], [-171.26405316276654, -9.372924668588155]]], [[[-171.19082171565654, -9.370601722287233], [-171.19082171565654, -9.370601722287233]]], [[[-171.19023324896455, -9.369489309601363], [-171.19023324896455, -9.369489309601363]]], [[[-171.18895400501424, -9.36663172475511], [-171.18895400501424, -9.36663172475511]]], [[[-171.186708216804, -9.360338666910764], [-171.19703884257126, -9.33640628032174], [-171.18428276553678, -9.355286411256031], [-171.186708216804, -9.360338666910764]]], [[[-171.21141188711718, -9.32523727051273], [-171.21141188711718, -9.32523727051273]]], [[[-171.81714580804336, -9.223370093909239], [-171.81714580804336, -9.223370093909239]]], [[[-171.83466295608372, -9.215921727430327], [-171.83466295608372, -9.215921727430327]]], [[[-171.77007408715556, -9.215123678844463], [-171.77007408715556, -9.215123678844463]]], [[[-171.8594752093797, -9.18845086031871], [-171.84542398803885, -9.205085072099564], [-171.8594752093797, -9.18845086031871]]], [[[-171.8670921378404, -9.175928409996402], [-171.8670921378404, -9.175928409996402]]], [[[-171.86572387382807, -9.174530015086646], [-171.86572387382807, -9.174530015086646]]], [[[-171.78552511004239, -9.156240463187714], [-171.76980459257024, -9.203950809357252], [-171.78175218584906, -9.170962184039468], [-171.78552511004239, -9.156240463187714]]], [[[-171.78651325685485, -9.150653144409489], [-171.78651325685485, -9.150653144409489]]], [[[-171.78680354252626, -9.143182725305564], [-171.78680354252626, -9.143182725305564]]], [[[-171.78822005589473, -9.134866277532296], [-171.78822005589473, -9.134866277532296]]], [[[-171.78866921353682, -9.133269813829656], [-171.78866921353682, -9.133269813829656]]], [[[-171.86008527862424, -9.159610549517367], [-171.86023828391188, -9.132362318315359], [-171.86008527862424, -9.159344491232218], [-171.86008527862424, -9.159610549517367]]], [[[-171.78848955047994, -9.128923848632041], [-171.78848955047994, -9.128923848632041]]], [[[-171.78822005589473, -9.124134356242848], [-171.78822005589473, -9.124134356242848]]], [[[-171.7864441396523, -9.118868455651125], [-171.7864441396523, -9.118868455651125]]], [[[-171.8615225830789, -9.11783696284607], [-171.8615225830789, -9.11783696284607]]], [[[-171.78408780558772, -9.113224716922957], [-171.78408780558772, -9.113224716922957]]], [[[-171.80915080201467, -9.1111846660732], [-171.80915080201467, -9.1111846660732]]], [[[-171.78516578392882, -9.111007269796573], [-171.78516578392882, -9.111007269796573]]], [[[-172.5001535906936, -8.582533944112072], [-172.5001535906936, -8.582533944112072]]], [[[-172.50184163827913, -8.582071274417615], [-172.50184163827913, -8.582071274417615]]], [[[-172.4997755131256, -8.580294756341914], [-172.4997755131256, -8.580294756341914]]], [[[-172.50886928309856, -8.578272303356073], [-172.50886928309856, -8.578272303356073]]], [[[-172.48874702621708, -8.575696323668183], [-172.48874702621708, -8.575696323668183]]], [[[-172.48594145775013, -8.577274656540112], [-172.48594145775013, -8.577274656540112]]], [[[-172.48003132832932, -8.575783139438556], [-172.48003132832932, -8.575783139438556]]], [[[-172.48207870202845, -8.575053979602217], [-172.48207870202845, -8.575053979602217]]], [[[-172.50723152998393, -8.575409288784499], [-172.50723152998393, -8.575409288784499]]], [[[-172.47688722483488, -8.574095419524099], [-172.47688722483488, -8.574095419524099]]], [[[-172.50938748666573, -8.571767353916869], [-172.50938748666573, -8.571767353916869]]], [[[-172.51091462264864, -8.567237093555946], [-172.51091462264864, -8.567237093555946]]], [[[-172.47192773931795, -8.556932771036543], [-172.48648044692067, -8.54298595944499], [-172.4720175708463, -8.556843939457224], [-172.47192773931795, -8.556932771036543]]], [[[-172.5022009643928, -8.533747026322146], [-172.5022009643928, -8.533747026322146]]], [[[-172.49555343129026, -8.532947492750168], [-172.49555343129026, -8.532947492750168]]], [[[-172.51396889461472, -8.532503306708975], [-172.51396889461472, -8.532503306708975]]]]}}]}