{"type": "FeatureCollection", "features": [{"type": "Feature", "properties": {"code": "TLS", "name": "Timor-Leste", "tier": "country"}, "geometry": {"type": "MultiPolygon", "coordinates": [[[[124.45497239999999, -9.168966800000035], [124.4251854, -9.1680808], [124.39805830000002, -9.1880083], [124.36883509999996, -9.19875290000003], [124.34318130000001, -9.1958144], [124.31847160000002, -9.200638800000018], [124.2997126, -9.212688300000018], [124.27472420000002, -9.223282300000026], [124.25441560000003, -9.23659659999996], [124.23314850000004, -9.237183799999961], [124.21373759999999, -9.2446898], [124.18607720000001, -9.249738700000034], [124.1718859, -9.28009729999997], [124.1563499, -9.295609400000028], [124.128426, -9.3071198], [124.096086, -9.3243722], [124.07375020000002, -9.325036299999969], [124.05344610000004, -9.332753200000045], [124.05688330000004, -9.356057500000016], [124.07378829999998, -9.374747500000026], [124.09165530000001, -9.398648499999986], [124.11050330000003, -9.4101185], [124.13446130000001, -9.426051499999978], [124.1542653, -9.42297250000004], [124.16880030000003, -9.402305499999965], [124.18538930000003, -9.387356499999957], [124.20327129999997, -9.377664499999973], [124.2299373, -9.375501499999974], [124.25330330000001, -9.393445499999988], [124.26605830000004, -9.4095035], [124.27647629999996, -9.429534500000038], [124.28678929999998, -9.451161499999962], [124.2877973, -9.4725785], [124.2776543, -9.50236549999999], [124.29874829999996, -9.4981545], [124.31884630000003, -9.494875500000035], [124.33850829999999, -9.4852075], [124.35666329999997, -9.474777499999966], [124.3615233, -9.45157250000004], [124.35065030000001, -9.428814499999973], [124.36902429999998, -9.41331550000002], [124.37896930000002, -9.39305850000003], [124.37796829999998, -9.370420500000034], [124.40051430000001, -9.35246350000001], [124.41412429999998, -9.335661499999983], [124.43370729999998, -9.3313925], [124.44373930000003, -9.312404500000017], [124.46157130000002, -9.300751499999961], [124.4557713, -9.274838499999973], [124.46356529999997, -9.250903500000042], [124.46770429999995, -9.229069500000044], [124.46838030000002, -9.20853249999998], [124.48094930000002, -9.192033499999976], [124.46989940000003, -9.17223230000004], [124.45497239999999, -9.168966800000035]]], [[[127.32400239999998, -8.411902099999981], [127.30834020000003, -8.428998400000022], [127.32852550000004, -8.4479874], [127.34193390000003, -8.4325008], [127.32400239999998, -8.411902099999981]]], [[[127.00409319999999, -8.323732500000027], [126.96149590000003, -8.326438], [126.9343855, -8.337594100000036], [126.904994, -8.360848499999964], [126.88418, -8.37113620000003], [126.85712679999999, -8.382124900000012], [126.8375762, -8.394956499999974], [126.81141640000001, -8.405959299999967], [126.7907565, -8.4141748], [126.76615919999998, -8.422327199999959], [126.7458777, -8.414221], [126.728855, -8.403066399999972], [126.704694, -8.420792499999987], [126.67617970000002, -8.430919199999966], [126.63954070000003, -8.450394700000043], [126.61214769999998, -8.4588411], [126.59392550000004, -8.469623599999967], [126.56718729999999, -8.4835863], [126.54062, -8.471129400000034], [126.5184893, -8.459432800000013], [126.48407140000002, -8.444864300000045], [126.45561379999998, -8.4372798], [126.43963639999997, -8.423577799999961], [126.41623639999999, -8.4148], [126.38468439999998, -8.424784], [126.3602582, -8.426525100000017], [126.3401523, -8.449843], [126.30856469999998, -8.455882], [126.29157279999995, -8.471369099999972], [126.26755830000002, -8.484872600000017], [126.23772969999997, -8.502135199999962], [126.20592539999997, -8.4955683], [126.1843955, -8.503721699999957], [126.16111180000004, -8.4964088], [126.13990919999998, -8.5036546], [126.11312109999997, -8.509446], [126.09273270000003, -8.519482199999963], [126.07023589999999, -8.520351799999972], [126.04085810000002, -8.511465699999967], [126.0192931, -8.511483600000027], [126.002868, -8.498595800000032], [125.98026849999997, -8.4848186], [125.958774, -8.485686799999971], [125.9405855, -8.4764446], [125.9082456, -8.478204400000024], [125.88397109999995, -8.475538], [125.8510983, -8.474415100000023], [125.829734, -8.4901956], [125.80875320000004, -8.504361599999967], [125.78778049999998, -8.5088147], [125.76091790000004, -8.514156400000019], [125.74384140000004, -8.526034300000031], [125.720394, -8.526545400000042], [125.69873409999997, -8.536482399999958], [125.66753390000002, -8.527280500000025], [125.646193, -8.523910100000045], [125.62327479999998, -8.526252], [125.60988, -8.543781600000024], [125.58894120000004, -8.547070800000036], [125.552541, -8.5459958], [125.53179570000002, -8.540342899999988], [125.50947929999998, -8.555525499999963], [125.4856833, -8.555806799999967], [125.4783934, -8.574876], [125.45510879999996, -8.5707228], [125.43501870000001, -8.56841439999996], [125.39255239999997, -8.564245900000024], [125.37181490000002, -8.57331149999996], [125.35211160000001, -8.579314900000014], [125.3318866, -8.5841431], [125.30948849999996, -8.5894181], [125.27147329999997, -8.605350500000021], [125.24827340000002, -8.604621], [125.2267375, -8.6052858], [125.20378789999997, -8.6104566], [125.17886960000004, -8.617806800000018], [125.15576560000004, -8.626850099999974], [125.1317252, -8.637492], [125.11718260000004, -8.651646699999961], [125.10678710000002, -8.678277199999986], [125.10074719999997, -8.711378899999957], [125.09096210000001, -8.734605], [125.09734610000002, -8.785153800000025], [125.07100550000001, -8.8219333], [125.05188379999998, -8.8300248], [125.033279, -8.838112800000044], [125.01601180000003, -8.854179299999966], [125.00419420000004, -8.87227740000003], [125.00094529999998, -8.8941938], [124.98763710000003, -8.924408700000043], [124.97685139999996, -8.942243299999976], [124.9566859, -8.95059479999998], [124.94806, -8.970445], [124.933881, -8.995987], [124.937797, -9.018501], [124.940045, -9.046556], [124.964665, -9.058801], [124.984404, -9.066186], [125.006842, -9.05952], [125.021431, -9.042879], [125.039958, -9.034584], [125.060687, -9.027812], [125.081717, -9.014497], [125.102029, -8.990717], [125.112829, -8.965648], [125.129992, -8.984501], [125.146842, -8.995393], [125.161515, -9.009602], [125.178233, -9.020709], [125.189594, -9.045973], [125.188104, -9.073045], [125.178524, -9.099385], [125.172586, -9.118506], [125.177554, -9.143208], [125.192625, -9.156458], [125.174863, -9.174904], [125.148392, -9.17085], [125.121472, -9.185858], [125.103735, -9.195111], [125.083771, -9.191055], [125.070802, -9.174759], [125.042, -9.174484], [125.01361, -9.16902], [124.998334, -9.187745], [124.982258, -9.23944], [124.992621, -9.259044], [124.997932, -9.280772], [125.010541, -9.300839], [125.026709, -9.315051], [125.048906, -9.325018199999981], [125.04883910000004, -9.353254900000032], [125.05907039999997, -9.371320399999973], [125.07527910000002, -9.383918599999987], [125.0769287, -9.404596399999978], [125.07822770000001, -9.42590590000001], [125.08359669999997, -9.449488], [125.11265350000002, -9.435979799999973], [125.1359525, -9.4214188], [125.15614550000002, -9.414598], [125.19242840000004, -9.4089646], [125.2361036, -9.38331810000004], [125.25489650000002, -9.361303800000044], [125.27699060000003, -9.3529884], [125.28981549999997, -9.335007699999977], [125.3097133, -9.3151438], [125.32823759999998, -9.303859099999958], [125.35245239999996, -9.28957960000001], [125.37127339999998, -9.273614], [125.39272790000003, -9.2639412], [125.4321148, -9.260842699999962], [125.4544844, -9.2528351], [125.4802998, -9.23720429999997], [125.5023861, -9.226104899999978], [125.5287803, -9.221639], [125.57527720000003, -9.197518799999973], [125.59688480000004, -9.1872795], [125.62781859999996, -9.187740500000043], [125.65641850000004, -9.20002040000001], [125.6859658, -9.200316399999988], [125.71892139999996, -9.173746800000028], [125.73844090000003, -9.163589299999988], [125.76100360000002, -9.161466700000044], [125.78213729999999, -9.152093699999988], [125.808078, -9.145984100000028], [125.82879059999998, -9.1362378], [125.85123639999998, -9.124230799999957], [125.909657, -9.13379090000004], [125.9335265, -9.13463570000004], [125.9649959, -9.118777500000032], [125.98741779999997, -9.108975800000032], [126.01878060000004, -9.080984600000043], [126.0519402, -9.062292799999973], [126.08785690000002, -9.032032900000033], [126.1062955, -9.01688980000004], [126.12352980000001, -9.0049901], [126.18393880000005, -8.9778853], [126.2274689, -8.975125], [126.2814239, -8.98106320000003], [126.30381830000002, -8.982386], [126.354677, -8.9624427], [126.38794339999998, -8.95487989999997], [126.40840869999998, -8.9473393], [126.43616750000001, -8.9468884], [126.45685410000003, -8.9517952], [126.47864410000003, -8.947050900000033], [126.49584329999996, -8.931843799999985], [126.5080801, -8.903337900000043], [126.52495439999997, -8.8782101], [126.54275060000002, -8.850253799999976], [126.5659832, -8.822073499999973], [126.58396429999998, -8.80454590000004], [126.61297409999996, -8.80318560000002], [126.638738, -8.7828713], [126.6634203, -8.7695015], [126.68392340000001, -8.761771900000028], [126.70636139999998, -8.75795020000001], [126.738481, -8.759654900000015], [126.76127880000003, -8.747469699999979], [126.78107139999996, -8.753202799999961], [126.80248750000003, -8.754616499999958], [126.82203210000004, -8.760329], [126.84111780000002, -8.753563100000019], [126.86858560000005, -8.741356299999971], [126.89150760000001, -8.718807100000038], [126.91720989999997, -8.7101225], [126.9351326, -8.693023600000018], [126.95608770000001, -8.682693], [126.97729280000003, -8.67915], [127.00255540000002, -8.682737], [127.02615640000003, -8.665971], [127.042549, -8.650868499999966], [127.06118410000002, -8.630742299999962], [127.08439020000004, -8.603449600000037], [127.10953939999997, -8.5764411], [127.12881790000002, -8.564327799999962], [127.1471223, -8.549921199999979], [127.1658733, -8.540575300000032], [127.18276790000004, -8.529064700000035], [127.206366, -8.510129499999987], [127.22545909999995, -8.487434299999965], [127.2491206, -8.472058800000017], [127.26793220000003, -8.4550454], [127.2799697, -8.438442800000036], [127.29948029999997, -8.4322883], [127.29914720000004, -8.408652699999976], [127.2819672, -8.38654990000003], [127.254855, -8.38554119999997], [127.23293430000003, -8.378681500000031], [127.212769, -8.356410400000016], [127.19575750000003, -8.335722499999989], [127.17217719999995, -8.340571800000031], [127.1526687, -8.357145], [127.12594670000003, -8.36610290000004], [127.10063169999997, -8.366115800000042], [127.07340460000005, -8.363785499999967], [127.0472751, -8.34354679999998], [127.02586350000004, -8.33941279999997], [127.00761030000002, -8.3266316], [127.00409319999999, -8.323732500000027]]], [[[125.63663949999999, -8.1310292], [125.60647150000001, -8.150867900000016], [125.5869109, -8.174113099999982], [125.56754679999999, -8.195656700000022], [125.5508826, -8.219413200000016], [125.52821219999998, -8.2240676], [125.51921209999996, -8.2467056], [125.50134569999997, -8.264843199999962], [125.527791, -8.2955196], [125.55304820000003, -8.2971845], [125.57181549999996, -8.30594779999996], [125.592707, -8.292299800000038], [125.60900659999999, -8.2569678], [125.6068749, -8.231965], [125.617069, -8.209357799999985], [125.63291119999997, -8.19419130000001], [125.64052189999997, -8.172357899999973], [125.63967179999997, -8.151565800000029], [125.63663949999999, -8.1310292]]]]}}]}