{"type": "FeatureCollection", "features": [{"type": "Feature", "properties": {"code": "TON", "name": "Tonga", "tier": "country"}, "geometry": {"type": "MultiPolygon", "coordinates": [[[[-176.20490129999996, -22.33289389999996], [-176.20490129999996, -22.33289389999996]]], [[[-174.915174, -21.283746899999976], [-174.94533390000004, -21.32822759999998], [-174.97532190000004, -21.383314400000017], [-174.9504592, -21.42693750000003], [-174.9082735, -21.457801200000013], [-174.90181969999998, -21.40284219999998], [-174.90722210000004, -21.35302160000002], [-174.9165811, -21.303398699999985], [-174.915174, -21.283746899999976]]], [[[-174.97767179999997, -21.111980699999986], [-174.97767179999997, -21.111980699999986]]], [[[-175.32486040000003, -21.062495399999968], [-175.3481622, -21.119156599999975], [-175.3116137, -21.169489599999967], [-175.25835949999998, -21.197936299999984], [-175.20394279999996, -21.217270900000038], [-175.15362220000003, -21.2661597], [-175.10376049999996, -21.256052], [-175.09620779999997, -21.202598900000034], [-175.05452439999996, -21.1667666], [-175.090064, -21.1204473], [-175.12952190000001, -21.155363800000035], [-175.159508, -21.1972118], [-175.192209, -21.158604400000023], [-175.2351675, -21.115284300000035], [-175.2883324, -21.1273817], [-175.33848269999996, -21.093763500000016], [-175.32486040000003, -21.062495399999968]]], [[[-175.38447770000002, -20.540862199999985], [-175.38447770000002, -20.540862199999985]]], [[[-174.77471390000002, -20.237932400000034], [-174.77471390000002, -20.237932400000034]]], [[[-174.76019259999998, -20.0191625], [-174.76019259999998, -20.0191625]]], [[[-174.71300980000004, -19.957250500000043], [-174.71300980000004, -19.957250500000043]]], [[[-174.39721390000003, -19.89091229999996], [-174.39721390000003, -19.89091229999996]]], [[[-174.39046180000003, -19.8395213], [-174.39046180000003, -19.8395213]]], [[[-174.55114590000002, -19.819971], [-174.55114590000002, -19.819971]]], [[[-174.7242946, -19.806372699999972], [-174.7242946, -19.806372699999972]]], [[[-174.33679719999998, -19.7676396], [-174.3675102, -19.821336499999962], [-174.33621060000002, -19.775960599999962], [-174.33679719999998, -19.7676396]]], [[[-174.2757867, -19.72664930000004], [-174.33459190000002, -19.757534500000027], [-174.28331640000002, -19.751874], [-174.2757867, -19.72664930000004]]], [[[-175.08318349999996, -19.707382199999977], [-175.10702560000001, -19.75321639999997], [-175.06336319999994, -19.788661500000035], [-175.0335177, -19.73852240000001], [-175.08318349999996, -19.707382199999977]]], [[[-175.0120722, -19.6477973], [-175.0120722, -19.6477973]]], [[[-174.2916213, -19.646189899999964], [-174.27345159999996, -19.69635369999999], [-174.2916213, -19.646189899999964]]], [[[-174.4819381, -19.630291600000014], [-174.4819381, -19.630291600000014]]], [[[-174.64689069999997, -18.781985899999984], [-174.64689069999997, -18.781985899999984]]], [[[-174.09649949999996, -18.74222770000001], [-174.09649949999996, -18.74222770000001]]], [[[-173.95063569999996, -18.692473], [-173.95063569999996, -18.692473]]], [[[-174.06842620000003, -18.694316], [-174.06842620000003, -18.694316]]], [[[-174.04190660000003, -18.682160199999984], [-174.04190660000003, -18.682160199999984]]], [[[-174.10203639999997, -18.670907900000042], [-174.10203639999997, -18.670907900000042]]], [[[-174.01441169999998, -18.6663989], [-174.01441169999998, -18.6663989]]], [[[-173.99430770000004, -18.653373800000015], [-174.00668780000004, -18.704328], [-173.99430770000004, -18.653373800000015]]], [[[-173.92052209999997, -18.640609500000025], [-173.92052209999997, -18.640609500000025]]], [[[-173.97274959999996, -18.565713], [-174.00760970000002, -18.601572], [-174.06349610000004, -18.622648400000017], [-174.05488289999997, -18.672245200000024], [-174.01159330000002, -18.633795799999984], [-173.98340020000003, -18.680465099999974], [-173.94996650000002, -18.63781740000002], [-173.92347250000003, -18.58991409999998], [-173.96971170000003, -18.56968750000002], [-173.97274959999996, -18.565713]]], [[[-174.3142313, -18.01196250000002], [-174.3142313, -18.01196250000002]]], [[[-173.75426760000002, -15.929447199999967], [-173.7988327, -15.953197], [-173.7479024, -15.9416077], [-173.75426760000002, -15.929447199999967]]], [[[-173.75160929999998, -15.838308899999962], [-173.75160929999998, -15.838308899999962]]], [[[-175.632348, -15.566539799999966], [-175.675335, -15.593413200000015], [-175.6487259, -15.639368199999968], [-175.6012458, -15.604863], [-175.632348, -15.566539799999966]]]]}}]}