{"type": "FeatureCollection", "features": [{"type": "Feature", "properties": {"code": "TTO", "name": "Trinidad and Tobago", "tier": "country"}, "geometry": {"type": "MultiPolygon", "coordinates": [[[[-61.65729489999996, 10.670637400000022], [-61.65729489999996, 10.670637400000022]]], [[[-61.75221660000001, 10.7005833], [-61.7581129, 10.677398299999957], [-61.73760549999998, 10.6843967], [-61.75221660000001, 10.7005833]]], [[[-61.67776989999996, 10.7053], [-61.696586, 10.6975272], [-61.68645309999996, 10.679770500000036], [-61.67927020000001, 10.70017709999997], [-61.67776989999996, 10.7053]]], [[[-60.9378822794691, 10.843706655939783], [-60.956421500000026, 10.8345586], [-60.98364, 10.83683], [-61.00446009999998, 10.84083], [-61.02922, 10.840990100000031], [-61.04912, 10.8287501], [-61.069419899999964, 10.8314499], [-61.09145220000003, 10.825382299999958], [-61.1130303, 10.8197643], [-61.14271, 10.821339899999977], [-61.16587, 10.811009899999963], [-61.18558010000004, 10.799180100000022], [-61.2074801, 10.79647], [-61.233030099999965, 10.795080099999982], [-61.25325910000004, 10.792668500000019], [-61.27420989999997, 10.79351010000002], [-61.29504860000004, 10.79639340000002], [-61.324058, 10.800036700000021], [-61.34502989999997, 10.805750099999972], [-61.36457449999999, 10.812769399999972], [-61.37731739999999, 10.7905547], [-61.40472139999997, 10.7786029], [-61.425125, 10.7722222], [-61.44301440000004, 10.762111800000035], [-61.46368040000003, 10.76667690000001], [-61.48351450000003, 10.753447399999988], [-61.50387340000001, 10.7560324], [-61.5234594, 10.751415700000017], [-61.54694050000003, 10.7463703], [-61.56691860000003, 10.748129499999987], [-61.5884248, 10.745338399999977], [-61.6085392, 10.748276399999973], [-61.62551950000004, 10.73765549999996], [-61.64455270000002, 10.71889059999997], [-61.66589520000003, 10.714072500000022], [-61.6683926, 10.6920633], [-61.65005650000004, 10.68103150000001], [-61.62945240000002, 10.679797699999977], [-61.61012380000002, 10.6881055], [-61.584117, 10.683146799999971], [-61.56388590000002, 10.67833750000004], [-61.542799599999974, 10.6727281], [-61.532324, 10.6545825], [-61.51294909999998, 10.646957699999987], [-61.50238680000002, 10.6246718], [-61.4882341, 10.609283499999961], [-61.4772946, 10.5895495], [-61.4703311, 10.567285799999965], [-61.46384770000002, 10.547171699999986], [-61.465462400000035, 10.526684499999956], [-61.472994, 10.5077482], [-61.47132819999999, 10.483976], [-61.480535800000034, 10.462995599999964], [-61.48868740000002, 10.435404400000031], [-61.491814699999956, 10.413486099999986], [-61.4904519, 10.385895500000014], [-61.475125600000034, 10.366248200000022], [-61.46192259999999, 10.348019299999972], [-61.46425389999997, 10.324693700000015], [-61.45615579999997, 10.3017774], [-61.4682133, 10.285351], [-61.47629980000002, 10.264335900000038], [-61.49245689999998, 10.250855599999959], [-61.52866180000003, 10.231984599999983], [-61.55866380000003, 10.229620899999986], [-61.5782388, 10.235135099999976], [-61.60632060000002, 10.24537530000002], [-61.630017599999974, 10.248533899999973], [-61.635148, 10.228908500000017], [-61.64685989999996, 10.20215], [-61.68765859999996, 10.186582300000019], [-61.69755870000002, 10.16652639999997], [-61.7242831, 10.156609], [-61.78806990000001, 10.1478101], [-61.8059706, 10.136271900000033], [-61.826222600000015, 10.13465679999998], [-61.830849400000034, 10.1144342], [-61.8520217, 10.0958076], [-61.879752899999964, 10.092723299999967], [-61.90916989999997, 10.087489], [-61.92901960000001, 10.059904599999964], [-61.90366009999999, 10.042420099999955], [-61.86587989999999, 10.06317], [-61.84374990000001, 10.07108], [-61.82184989999997, 10.08363], [-61.7963601, 10.085990100000014], [-61.762829900000014, 10.08264], [-61.73707, 10.08564], [-61.70925, 10.08488010000001], [-61.688439900000034, 10.08429], [-61.6684399, 10.079310100000022], [-61.650319899999985, 10.06004], [-61.627189899999955, 10.055559900000016], [-61.60322, 10.06706], [-61.57159589999996, 10.073959900000013], [-61.54034970000004, 10.074641199999984], [-61.520046, 10.070182899999963], [-61.49783020000004, 10.0673581], [-61.453704099999975, 10.07386470000004], [-61.43335259999998, 10.07351079999998], [-61.41112190000002, 10.076988799999981], [-61.388758700000025, 10.0726351], [-61.36438280000003, 10.071252900000033], [-61.34241289999998, 10.07423920000003], [-61.32237090000001, 10.0779305], [-61.301369200000046, 10.083434500000038], [-61.28026830000004, 10.086125799999962], [-61.25029989999997, 10.0836701], [-61.21085, 10.072129900000032], [-61.18948989999997, 10.079090100000027], [-61.16273, 10.075870099999968], [-61.125210100000025, 10.08956009999999], [-61.10645, 10.09782], [-61.08844, 10.108929900000025], [-61.062150100000025, 10.113929900000013], [-61.050515900000015, 10.132471099999968], [-61.03283989999997, 10.14557], [-61.0093799, 10.15419], [-60.995390599999986, 10.1381446], [-60.9980101, 10.165839900000012], [-61.00348480000002, 10.21279710000002], [-60.9994, 10.25395], [-60.9980841, 10.294695100000023], [-60.98518690000003, 10.3288285], [-60.967110142301586, 10.340567754994318], [-60.99235989999996, 10.33841], [-61.004858299999974, 10.356512599999984], [-61.020253, 10.392076700000036], [-61.039903, 10.464865799999984], [-61.0437851, 10.498707100000043], [-61.02809490000003, 10.515980399999986], [-61.02161030000004, 10.563677], [-61.036597, 10.6594368], [-61.03805259999997, 10.68175689999999], [-61.02585660000002, 10.703590500000043], [-60.99833, 10.704130100000015], [-60.98816709999997, 10.721679100000031], [-60.97533519999998, 10.739400500000013], [-60.96265190000003, 10.7558638], [-60.9481534, 10.772120799999957], [-60.941216200000035, 10.79357949999999], [-60.92476029999996, 10.809536099999967], [-60.91377149999997, 10.8287352], [-60.93151760000004, 10.838788500000035], [-60.9378822794691, 10.843706655939783]]], [[[-60.5284186, 11.3464806], [-60.5476, 11.338180099999956], [-60.55855859999997, 11.318117499999975], [-60.57822659999999, 11.32766889999996], [-60.60139550000003, 11.32062], [-60.6233956, 11.3152452], [-60.6458231, 11.305873499999958], [-60.667740499999965, 11.295871299999977], [-60.68855550000003, 11.287338199999958], [-60.70587990000003, 11.2721], [-60.7239092, 11.260187699999985], [-60.741829, 11.249296900000022], [-60.765497500000045, 11.229877499999969], [-60.7815032, 11.210157199999976], [-60.79843070000002, 11.197732899999963], [-60.80678030000004, 11.179087099999968], [-60.82472070000002, 11.169163600000015], [-60.84092609999998, 11.1547211], [-60.814823, 11.147903], [-60.79874010000004, 11.134440600000012], [-60.780677100000034, 11.14435879999997], [-60.76555960000003, 11.163759800000012], [-60.7445024, 11.1779572], [-60.719087899999955, 11.171423], [-60.69942989999997, 11.18073], [-60.68014739999996, 11.19075459999998], [-60.66025009999998, 11.18715], [-60.63084560000003, 11.20185350000002], [-60.61621460000004, 11.216305], [-60.59362939999997, 11.223137399999978], [-60.581553, 11.2472398], [-60.56022410000001, 11.242441299999978], [-60.55505489999997, 11.262112900000027], [-60.5354723, 11.255089500000043], [-60.5253302, 11.274394100000013], [-60.532228500000016, 11.293467799999974], [-60.52707009999998, 11.31289], [-60.51983110000001, 11.337108799999957], [-60.5284186, 11.3464806]]]]}}]}