{"type": "FeatureCollection", "features": [{"type": "Feature", "properties": {"code": "TUN", "name": "Tunisia", "tier": "country"}, "geometry": {"type": "MultiPolygon", "coordinates": [[[[10.87330480000003, 33.601535799999986], [10.87330480000003, 33.601535799999986]]], [[[10.721103400000045, 33.73901340000003], [10.721103400000045, 33.73901340000003]]], [[[10.909626699999988, 33.9073679], [10.859572699999989, 33.8848962], [10.8110292, 33.89816540000002], [10.744389400000012, 33.888379299999976], [10.747416600000017, 33.8321222], [10.741712400000027, 33.7797966], [10.736812699999989, 33.729136], [10.780397799999966, 33.703727099999966], [10.826462500000025, 33.73818389999997], [10.877339, 33.690019], [10.8736254, 33.63858359999997], [10.9151165, 33.679877], [10.950609400000024, 33.720503], [10.997400499999967, 33.7519588], [11.046622200000025, 33.779009399999964], [11.048777900000042, 33.829139499999954], [10.996450599999976, 33.8462605], [10.938458299999967, 33.89221860000003], [10.909626699999988, 33.9073679]]], [[[10.313644599999963, 34.380302], [10.313644599999963, 34.380302]]], [[[11.091673800000015, 34.6706473], [11.01602220000001, 34.67026860000003], [10.96644050000001, 34.65669529999998], [11.029301200000043, 34.62777], [11.082691300000027, 34.643138499999964], [11.091673800000015, 34.6706473]]], [[[11.334913, 34.7599306], [11.334913, 34.7599306]]], [[[11.306070799999981, 34.82946060000003], [11.306070799999981, 34.82946060000003]]], [[[11.2484439, 34.82917930000003], [11.2270017, 34.782109], [11.1980269, 34.7409507], [11.149404400000043, 34.70449589999996], [11.202959900000033, 34.70265289999997], [11.25012029999998, 34.723717299999976], [11.301333499999968, 34.726639099999964], [11.275948100000024, 34.770899699999966], [11.3179456, 34.8011469], [11.266004800000031, 34.81619639999998], [11.2484439, 34.82917930000003]]], [[[11.035322, 35.80555119999998], [11.035322, 35.80555119999998]]], [[[10.8063049, 37.14119160000003], [10.8063049, 37.14119160000003]]], [[[9.79962539999998, 37.23744829999996], [9.79962539999998, 37.23744829999996]]], [[[9.745144399999974, 37.346736100000015], [9.695933700000028, 37.337071], [9.646506600000029, 37.32811769999998], [9.594802899999957, 37.30005229999998], [9.54301280000002, 37.29773229999996], [9.4956176, 37.278672900000025], [9.445073100000014, 37.2665427], [9.387845599999958, 37.264175100000045], [9.3308094, 37.23120820000004], [9.2806694, 37.22594270000002], [9.225711599999977, 37.218610100000035], [9.175562, 37.2025101], [9.1318289, 37.170967900000015], [9.0788433, 37.156114600000016], [9.026198100000018, 37.1373837], [8.9851307, 37.10475870000003], [8.954364099999959, 37.06210429999997], [8.8727231, 36.999358700000045], [8.82575370000004, 36.973178100000034], [8.7778246, 36.952421099999974], [8.7289482, 36.966446400000024], [8.678477399999975, 36.95634420000003], [8.63619490000004, 36.908886299999985], [8.625593, 36.85843609999998], [8.6811291, 36.83895050000004], [8.62929260000004, 36.800696299999984], [8.5724828, 36.773199100000014], [8.516833400000037, 36.77835319999996], [8.458443900000026, 36.770302200000046], [8.4775758, 36.7096387], [8.451320899999972, 36.66207909999997], [8.417828900000037, 36.62239420000002], [8.37413180000003, 36.59523140000001], [8.326143200000038, 36.57382109999999], [8.285901600000036, 36.53796610000003], [8.230999299999988, 36.52057850000004], [8.177114800000043, 36.5134761], [8.169706700000026, 36.463383600000014], [8.231531599999977, 36.4483401], [8.28451819999997, 36.44609629999998], [8.34343, 36.43523360000003], [8.40703, 36.422459], [8.397136299999977, 36.3708829], [8.3763867, 36.32307839999996], [8.347669, 36.27922670000004], [8.35016590000003, 36.2269578], [8.32203439999998, 36.185377299999985], [8.338532, 36.13781689999998], [8.321029200000032, 36.08369410000004], [8.2959841, 36.03398939999998], [8.2908218, 35.95690139999997], [8.2562535, 35.91371], [8.273253299999963, 35.81981179999996], [8.258572699999958, 35.76244620000003], [8.301606100000027, 35.70129610000004], [8.351151899999989, 35.6745614], [8.356924, 35.621004199999966], [8.359674600000035, 35.55701110000003], [8.3734423, 35.495175], [8.339407900000042, 35.445491], [8.3202462, 35.3871187], [8.316848, 35.32587530000003], [8.358776299999962, 35.276237], [8.405192699999988, 35.24884069999999], [8.454687, 35.2362558], [8.432220600000031, 35.19086180000002], [8.399816599999967, 35.127922200000036], [8.357156699999981, 35.09870759999998], [8.315680599999977, 35.00920639999999], [8.311304700000024, 34.957129], [8.266365800000033, 34.933091600000026], [8.2613695, 34.87432740000001], [8.2817597, 34.827672], [8.283793799999986, 34.766891100000024], [8.324207099999983, 34.73281], [8.272129300000044, 34.702725600000036], [8.280149399999983, 34.65326730000003], [8.23756050000001, 34.613296], [8.205867599999985, 34.57454150000004], [8.158381900000036, 34.55194740000003], [8.114331899999963, 34.515169], [8.0429768, 34.49339890000001], [8.00588229999998, 34.45658779999999], [7.9533403, 34.44739860000004], [7.915007, 34.41490950000004], [7.856513, 34.405304], [7.845104500000034, 34.32903620000001], [7.818589, 34.26620740000004], [7.816042299999983, 34.213542500000024], [7.767979299999962, 34.1856915], [7.678309300000032, 34.190581500000036], [7.61934430000001, 34.13982850000002], [7.579615299999966, 34.098819500000026], [7.5320533, 34.070270499999985], [7.560387300000028, 34.0146165], [7.5414213, 33.93798039999999], [7.536765, 33.869467800000024], [7.5254139, 33.798296800000024], [7.564799699999981, 33.727213800000015], [7.596497599999975, 33.64810319999999], [7.6338507, 33.57211280000001], [7.736576300000032, 33.424659], [7.732558, 33.37470009999997], [7.7492157, 33.32735229999997], [7.789623, 33.279991], [7.8321519, 33.1881161], [7.889248, 33.186715], [7.941503, 33.170027], [8.042072, 33.13036], [8.117256, 33.099813], [8.162581, 33.008066], [8.247183, 32.924407], [8.322605, 32.823472], [8.35683, 32.502602], [8.5883259, 32.3650509], [8.800322, 32.236214], [9.065308, 32.087376], [9.092815, 32.008374], [9.1974832, 31.63626830000002], [9.22883739999997, 31.5140695], [9.359636, 31.000019], [9.473817, 30.559038], [9.558453, 30.230236], [9.607993699999975, 30.24234469999996], [9.6683112, 30.2751874], [9.729315399999985, 30.3004607], [9.83175430000002, 30.337247100000013], [9.908036299999958, 30.35624620000002], [9.954277599999974, 30.4032836], [10.00709569999997, 30.469774800000042], [10.069601899999983, 30.508364699999984], [10.13037, 30.598114400000025], [10.201899200000044, 30.693538199999963], [10.238645400000026, 30.7424688], [10.272076499999985, 30.80050769999996], [10.2921609, 30.86600820000001], [10.284715, 30.9550392], [10.275144900000024, 31.040806699999983], [10.294135, 31.09126], [10.256927400000029, 31.1691756], [10.2251056, 31.245651199999962], [10.19779, 31.3062812], [10.1662687, 31.37698509999998], [10.1504115, 31.442180600000018], [10.14936139999997, 31.498582], [10.212339699999964, 31.5660331], [10.267056699999957, 31.6471549], [10.311817400000036, 31.7030711], [10.386146799999976, 31.740469699999956], [10.437967100000014, 31.73285980000003], [10.48910069999999, 31.741528100000043], [10.546585800000043, 31.760449600000022], [10.584952099999958, 31.824119300000024], [10.634948499999988, 31.87925449999998], [10.624677699999987, 31.9284908], [10.65126379999998, 31.973607300000033], [10.7077813, 31.968086300000014], [10.759190300000023, 31.9845111], [10.860977, 32.08563939999996], [10.9879363, 32.17166250000004], [11.111389, 32.233056], [11.259167, 32.293333], [11.325833, 32.319444], [11.372778, 32.341389], [11.462091, 32.36902229999997], [11.518846600000012, 32.40017120000001], [11.572533699999967, 32.43777489999998], [11.5999351, 32.519177500000026], [11.5516768, 32.5807643], [11.5048347, 32.60658010000002], [11.480094, 32.65276980000003], [11.493912800000041, 32.72969960000001], [11.50138, 32.830294299999956], [11.500242800000029, 32.89000910000002], [11.515391899999985, 32.9556795], [11.519662, 33.0123589], [11.526993100000018, 33.07832510000004], [11.56050190000001, 33.140061699999976], [11.5024216, 33.175383], [11.433667400000038, 33.20543990000003], [11.388065, 33.234186900000026], [11.342307099999962, 33.2612699], [11.389057, 33.22568759999996], [11.4423405, 33.195613700000045], [11.391120499999987, 33.1891563], [11.2926152, 33.19743530000004], [11.238445, 33.2043929], [11.1854097, 33.202534599999986], [11.159400300000035, 33.2463809], [11.124477400000012, 33.283822], [11.169146499999973, 33.31568120000002], [11.240298, 33.29583259999998], [11.292606499999982, 33.27722930000004], [11.239816700000018, 33.30678169999997], [11.174916, 33.329452500000016], [11.135276400000018, 33.37019120000003], [11.106468200000021, 33.41256179999997], [11.100349700000036, 33.465538], [11.11698109999998, 33.51333649999997], [11.1049179, 33.562104], [11.0706886, 33.59872219999998], [11.021224699999967, 33.62915510000003], [10.964484872958549, 33.62675903249073], [10.9128376, 33.61151730000003], [10.947911900000031, 33.56942190000004], [10.9087069, 33.523070699999984], [10.85106930000003, 33.5094768], [10.799866899999957, 33.483538], [10.748523500000031, 33.47246819999999], [10.699537600000033, 33.49124809999998], [10.681622700000029, 33.54083780000002], [10.717733, 33.5763408], [10.731527799999965, 33.62700920000002], [10.74513890000003, 33.677403], [10.697582299999988, 33.705491], [10.65351579999997, 33.67957229999997], [10.600162700000029, 33.6633743], [10.5543979, 33.629316200000034], [10.494092099999976, 33.63778760000001], [10.443243100000013, 33.622217], [10.42047239999996, 33.6684882], [10.359706599999976, 33.69478390000003], [10.2929736, 33.74042070000004], [10.242262, 33.78708929999997], [10.181486400000042, 33.824504300000044], [10.1309262, 33.87330430000002], [10.103521200000012, 33.916850299999965], [10.0544053, 33.98728609999998], [10.0370969, 34.03573140000001], [10.025210900000028, 34.08697840000004], [10.026453, 34.15147970000002], [10.0430149, 34.20637559999998], [10.0809517, 34.267439], [10.116607700000015, 34.3088346], [10.166025899999989, 34.3295427], [10.21558589999997, 34.351503099999974], [10.2629973, 34.3722253], [10.286175600000016, 34.41904469999997], [10.332194500000016, 34.3968062], [10.37824160000004, 34.42559360000004], [10.426587600000028, 34.4782363], [10.4767454, 34.5143718], [10.533111, 34.523278600000026], [10.593018299999981, 34.538974], [10.6090676, 34.59161079999998], [10.650486300000042, 34.635255700000016], [10.7068828, 34.6391767], [10.749428, 34.6845966], [10.769781599999986, 34.73133349999998], [10.80504229999998, 34.766967799999975], [10.859849599999984, 34.795551300000035], [10.88698070000004, 34.8510173], [10.921999900000037, 34.89746189999997], [10.9230858, 34.95610330000004], [10.9646724, 34.997257799999986], [11.00960579999998, 35.025019900000025], [11.024765899999958, 35.0746484], [11.047883600000032, 35.14779979999999], [11.09083430000001, 35.180967], [11.1183832, 35.2230941], [11.09203489999996, 35.2765241], [11.053353099999965, 35.31093730000004], [11.031912600000018, 35.370008699999985], [11.043493699999987, 35.44463540000001], [11.059996200000013, 35.494522300000035], [11.033167099999988, 35.54096850000004], [11.044657800000026, 35.60405989999998], [11.005644100000014, 35.63600340000004], [10.9573997, 35.66108530000001], [10.900311099999973, 35.67109569999996], [10.84676130000001, 35.69070659999996], [10.822737, 35.74023059999998], [10.789330700000024, 35.7786594], [10.736378699999962, 35.7652239], [10.685476074244873, 35.78745221517455], [10.6467243, 35.82175220000002], [10.61028310000002, 35.86835669999998], [10.574680399999972, 35.92487670000003], [10.53231850000004, 35.97616940000002], [10.478859300000023, 35.98685890000002], [10.530541, 35.978374899999984], [10.517008900000038, 36.02860440000003], [10.474660399999971, 36.0838526], [10.467124899999982, 36.133939599999984], [10.472795, 36.21255990000004], [10.499487700000012, 36.29517040000002], [10.53781530000001, 36.36444939999997], [10.587000499999979, 36.40166660000002], [10.6373608, 36.39983340000004], [10.694654600000044, 36.43039130000004], [10.750585799999959, 36.44259789999998], [10.799659500000027, 36.45550240000002], [10.842271699999975, 36.52376740000001], [10.873962600000011, 36.581753200000016], [10.938127899999985, 36.67998830000004], [10.972038, 36.725864699999974], [11.023109, 36.78704140000003], [11.097526500000034, 36.835987899999964], [11.136731599999985, 36.874779299999965], [11.098737599999966, 36.956502499999985], [11.05870109999997, 37.01175140000002], [11.0598898, 37.06368779999998], [11.007823799999974, 37.064773400000014], [10.957779499999978, 37.0518467], [10.90552530000001, 37.0468068], [10.8913469, 36.995876499999966], [10.851419300000034, 36.965048299999985], [10.80290479999996, 36.9376315], [10.75867070000002, 36.905320299999985], [10.707183900000041, 36.8815607], [10.650359400000022, 36.88018969999998], [10.59986129999996, 36.86610980000003], [10.567070400000036, 36.824457], [10.550857399999982, 36.7717873], [10.499967600000017, 36.74423120000004], [10.44718859999997, 36.724576699999986], [10.390835400000045, 36.7163918], [10.3342241, 36.73549569999997], [10.291094500000044, 36.7747211], [10.311039100000032, 36.82154650000003], [10.34173359999996, 36.8636565], [10.320549, 36.9112759], [10.270004599999973, 36.93287889999997], [10.2165986, 36.9693176], [10.191877799999984, 37.01315560000003], [10.177602300000013, 37.0654313], [10.209697099999984, 37.10592330000003], [10.157884300000033, 37.12512410000002], [10.1929385, 37.167363600000044], [10.25587, 37.17235219999998], [10.208759300000017, 37.19131870000004], [10.160829199999979, 37.22058630000003], [10.0943356, 37.23874810000004], [10.04770439999997, 37.263128300000034], [9.99286719999998, 37.24805949999997], [9.934465, 37.25255920000004], [9.882942199999958, 37.26851790000001], [9.8407806, 37.239989], [9.893616799999974, 37.224702299999976], [9.9341946, 37.19381889999996], [9.897595500000014, 37.153769300000036], [9.8463744, 37.13667709999998], [9.8011382, 37.1678192], [9.773334, 37.2114196], [9.81351789999997, 37.2445465], [9.867053900000036, 37.26480129999999], [9.869563400000017, 37.31735490000004], [9.8228799, 37.336352800000036], [9.77243149999997, 37.330596], [9.745144399999974, 37.346736100000015]], [[10.22394010000002, 36.8028905], [10.26977, 36.77659], [10.215866, 36.78231], [10.22394010000002, 36.8028905]]], [[[8.94473989999999, 37.5422138], [8.898990700000011, 37.52058390000002], [8.951727799999967, 37.51668139999998], [8.94473989999999, 37.5422138]]]]}}]}