{"type": "FeatureCollection", "features": [{"type": "Feature", "properties": {"code": "TUR", "name": "Turkey", "tier": "country"}, "geometry": {"type": "MultiPolygon", "coordinates": [[[[36.180120542, 35.928847691], [36.2336882, 35.959502], [36.2944899, 35.9564188], [36.2864475, 36.0087238], [36.3392161, 35.9884675], [36.3797447, 36.0290739], [36.388865, 36.0784614], [36.3750661, 36.1285079], [36.3678161, 36.1795572], [36.3949725, 36.2253355], [36.4570158, 36.2078262], [36.5024222, 36.2422648], [36.5537624, 36.2240635], [36.6246873, 36.2143254], [36.6726869, 36.2350022], [36.69164, 36.2879348], [36.6585366, 36.3338392], [36.6054306, 36.3328641], [36.6059505, 36.392255], [36.5637151, 36.4268761], [36.5507269, 36.4798749], [36.5723692, 36.528412], [36.5873336, 36.5767548], [36.5736284, 36.6591335], [36.6131841, 36.6912343], [36.6160394, 36.7418216], [36.6459492, 36.7864365], [36.6851866, 36.8252455], [36.7382961, 36.8188448], [36.7893356, 36.7980245], [36.8757428, 36.7805815], [36.9289861, 36.7820107], [36.9814705, 36.7618046], [37.0369836, 36.7362604], [37.015798, 36.6888077], [37.0575469, 36.6548772], [37.1061921, 36.671548], [37.1581564, 36.6614575], [37.2167621, 36.6753158], [37.2698818, 36.6664584], [37.3759368, 36.6533928], [37.4252358, 36.6440478], [37.474147, 36.6330137], [37.5247149, 36.6876109], [37.6220349, 36.7247781], [37.6732885, 36.7440041], [37.7278733, 36.751785], [37.7833776, 36.749622], [37.8776629, 36.7876064], [37.9249165, 36.8109384], [37.9940077, 36.8320481], [38.0357642, 36.8604394], [38.0886986, 36.8778096], [38.1433374, 36.8937058], [38.1919892, 36.9097707], [38.2420287, 36.924099], [38.2954982, 36.9075327], [38.3499865, 36.899544], [38.55441, 36.8448105], [38.5963558, 36.8043763], [38.6912139, 36.7347935], [38.7392713, 36.7081478], [38.8906568, 36.7007281], [38.9537303, 36.7046753], [39.0205754, 36.7107218], [39.1286029, 36.6867844], [39.212182, 36.6691026], [39.2640528, 36.675106], [39.3611952, 36.692043], [39.4912328, 36.7003474], [39.5454369, 36.7138865], [39.5960718, 36.7231902], [39.6824388, 36.7382702], [39.8207742, 36.7567011], [39.9305835, 36.7973563], [39.9991406, 36.8225446], [40.0523273, 36.8426299], [40.1107449, 36.8675319], [40.1828902, 36.8776922], [40.2377877, 36.9149057], [40.3072408, 36.9396534], [40.3573529, 36.963048], [40.3983833, 37.0077839], [40.5309101, 37.0283835], [40.5883265, 37.0615532], [40.6776753, 37.0921055], [40.7419683, 37.111046], [40.798198, 37.1190191], [40.8494355, 37.1223755], [40.9035608, 37.1314869], [40.9811202, 37.1162631], [41.0875092, 37.1020906], [41.1448851, 37.0977271], [41.1981737, 37.0802425], [41.265687, 37.0796389], [41.3477474, 37.0791607], [41.4745965, 37.0798983], [41.5515482, 37.0862039], [41.6030636, 37.1072145], [41.659615, 37.1185226], [41.7942375, 37.1284094], [41.8573373, 37.1416627], [41.9299215, 37.1587179], [41.9888812, 37.1727384], [42.0442784, 37.1877398], [42.0939664, 37.2204676], [42.1837353, 37.2864236], [42.2251441, 37.3161149], [42.2559241, 37.2719201], [42.3054522, 37.2602522], [42.3398672, 37.2213783], [42.3310112, 37.1642802], [42.3515054, 37.1052646], [42.4035582, 37.1131232], [42.4480603, 37.1369078], [42.504132, 37.1387477], [42.562848, 37.1476834], [42.601132, 37.1809427], [42.6289039, 37.2239329], [42.6603474, 37.2678181], [42.695092, 37.3099664], [42.7406516, 37.3389579], [42.7796214, 37.375359], [42.827105, 37.35385], [42.881182, 37.338745], [42.949822, 37.318328], [43.010143, 37.332355], [43.060057, 37.356922], [43.1118153, 37.3723216], [43.1611755, 37.3623544], [43.219451, 37.345787], [43.269248, 37.328886], [43.317665, 37.30624], [43.371077, 37.317676], [43.412114, 37.285396], [43.469328, 37.264271], [43.513385, 37.239574], [43.56595, 37.257579], [43.618096, 37.230319], [43.677843, 37.227028], [43.734284, 37.233305], [43.789677, 37.2291], [43.830395, 37.193085], [43.873129, 37.223494], [43.926103, 37.237997], [43.957359, 37.279952], [44.004844, 37.316126], [44.055683, 37.319394], [44.108088, 37.318944], [44.163773, 37.303843], [44.2097952, 37.280609], [44.2506752, 37.2503139], [44.2657922, 37.1978428], [44.2227314, 37.1589462], [44.1876692, 37.1099286], [44.2169162, 37.0655175], [44.2333941, 37.0171404], [44.2680561, 36.9758519], [44.3209571, 36.9844846], [44.3608933, 37.0226791], [44.3995046, 37.056495], [44.4484561, 37.0712969], [44.5093713, 37.097728], [44.5525272, 37.1247631], [44.5870265, 37.1655513], [44.6347716, 37.1891925], [44.6828842, 37.1718585], [44.7341696, 37.1680206], [44.7817804, 37.1442279], [44.76805, 37.192626], [44.7683538, 37.2446406], [44.81178, 37.274859], [44.776631, 37.322793], [44.7273043, 37.3503668], [44.686629, 37.3847342], [44.636392, 37.41644], [44.5894703, 37.4388465], [44.5850189, 37.5073768], [44.612873, 37.548935], [44.614409, 37.602176], [44.5715627, 37.6383411], [44.6110747, 37.6877401], [44.6074088, 37.7387596], [44.5639154, 37.7716207], [44.4979236, 37.773743], [44.4449506, 37.7709171], [44.4148019, 37.8156397], [44.388189, 37.862511], [44.3375565, 37.8700026], [44.2844905, 37.8731084], [44.2323603, 37.8844803], [44.2460126, 37.9370968], [44.26158, 37.9885896], [44.3013231, 38.0325345], [44.3215799, 38.078638], [44.3587591, 38.1143004], [44.3916636, 38.1520277], [44.3997955, 38.2017482], [44.4022685, 38.2520003], [44.4491621, 38.283338], [44.4983339, 38.308938], [44.4770569, 38.3576627], [44.428678, 38.3753964], [44.3796451, 38.3585915], [44.3300158, 38.369103], [44.3160531, 38.4189069], [44.3116946, 38.4763474], [44.3093356, 38.5302464], [44.3245993, 38.5820946], [44.3068138, 38.6357953], [44.2718366, 38.684796], [44.2810098, 38.7360556], [44.2888377, 38.7859756], [44.3004488, 38.835752], [44.245308, 38.8506821], [44.2113518, 38.8905571], [44.1966548, 38.9410995], [44.1730001, 38.9882801], [44.211677, 39.0209503], [44.1908665, 39.0745913], [44.2135655, 39.1303045], [44.1779327, 39.1697597], [44.1295851, 39.1851757], [44.0987108, 39.2278631], [44.1080596, 39.2842966], [44.0774721, 39.3261855], [44.0377009, 39.3612643], [44.0668433, 39.4111494], [44.1174275, 39.4019447], [44.1778777, 39.4010144], [44.2331536, 39.4163292], [44.2769566, 39.3834319], [44.3336473, 39.3878721], [44.3855811, 39.4129925], [44.43272, 39.4376181], [44.4329948, 39.4925182], [44.426242, 39.544404], [44.465403, 39.600059], [44.4840141, 39.6498267], [44.4933296, 39.7018495], [44.5768476, 39.7575], [44.6266701, 39.7619865], [44.6613297, 39.7207583], [44.7150829, 39.7142776], [44.7541529, 39.6784015], [44.79853, 39.648869], [44.7802859, 39.7009164], [44.7443519, 39.7436689], [44.6992139, 39.7721039], [44.6520895, 39.7952884], [44.6124411, 39.8290919], [44.5749482, 39.8658092], [44.5421047, 39.9098934], [44.5005822, 39.9453265], [44.4562735, 39.9701664], [44.4090251, 40.002987], [44.3599119, 40.017309], [44.314038, 40.0393001], [44.2639631, 40.0466216], [44.213662, 40.0335806], [44.1565436, 40.0304296], [44.0858298, 40.034378], [44.0262197, 40.0270508], [43.9667071, 40.0173362], [43.915552, 40.0225947], [43.8639486, 40.0360008], [43.8084593, 40.0618027], [43.7608058, 40.0837717], [43.7051917, 40.0865051], [43.6564983, 40.1125141], [43.6985946, 40.1613354], [43.6728907, 40.2059064], [43.6819683, 40.2550958], [43.6316264, 40.2829425], [43.6018904, 40.3293289], [43.6050863, 40.3812278], [43.6117119, 40.4313285], [43.5680568, 40.460408], [43.584597, 40.5076557], [43.6343707, 40.519285], [43.6567662, 40.566489], [43.7048335, 40.6203114], [43.7393345, 40.6651113], [43.737837, 40.7171623], [43.7297192, 40.772381], [43.7066042, 40.8209072], [43.680594, 40.865701], [43.673626, 40.920405], [43.636492, 40.959778], [43.592067, 40.986089], [43.539386, 41.004127], [43.4840989, 41.0161629], [43.471514, 41.0675026], [43.4586328, 41.1197223], [43.44848, 41.176399], [43.382807, 41.200669], [43.330236, 41.200884], [43.281736, 41.186729], [43.229621, 41.1723443], [43.2014832, 41.2335088], [43.1471093, 41.246284], [43.186427, 41.281345], [43.1354266, 41.3187299], [43.096154, 41.357131], [43.042722, 41.376845], [42.9902526, 41.4114247], [42.95899, 41.452448], [42.89941, 41.478982], [42.849119, 41.473393], [42.80239, 41.495777], [42.818973, 41.552649], [42.7746387, 41.578535], [42.713653, 41.595541], [42.6603274, 41.5927009], [42.600945, 41.584851], [42.573938, 41.535018], [42.544911, 41.493013], [42.520686, 41.447188], [42.46131, 41.436814], [42.416098, 41.458937], [42.358841, 41.466891], [42.304111, 41.482518], [42.253872, 41.494883], [42.201994, 41.493312], [42.148939, 41.505464], [42.09833, 41.509411], [42.048665, 41.495799], [41.99448, 41.504775], [41.941879, 41.515329], [41.897349, 41.483335], [41.856632, 41.45195], [41.805968, 41.445791], [41.752828, 41.470545], [41.709758, 41.496232], [41.655724, 41.485451], [41.602207, 41.504065], [41.5470851, 41.5206665], [41.5100306, 41.4780708], [41.4633348, 41.4508363], [41.4323539, 41.4106464], [41.3798818, 41.3770743], [41.3309136, 41.3652456], [41.2694139, 41.3438299], [41.2198526, 41.3058323], [41.1732706, 41.2867392], [41.1256672, 41.2572712], [41.081223, 41.2309074], [41.0339405, 41.2103807], [40.9861512, 41.1949948], [40.9306767, 41.1765806], [40.8776467, 41.1824766], [40.8215922, 41.16687], [40.7732216, 41.1397439], [40.7207607, 41.0880048], [40.6683283, 41.073228], [40.6119409, 41.0525519], [40.5524382, 41.0312586], [40.493799, 41.0398048], [40.4409237, 41.030411], [40.3829766, 41.0246774], [40.3299741, 40.9906571], [40.289734, 40.9602352], [40.2429668, 40.9353914], [40.1839852, 40.9169236], [40.1333567, 40.9132911], [40.0748811, 40.9265806], [40.036416, 40.9589043], [39.9799987, 40.9618502], [39.9085254, 40.9549437], [39.8560349, 40.9587111], [39.8116767, 40.9876856], [39.760692, 41.0031162], [39.7040489, 41.0086122], [39.6467964, 41.0014396], [39.5955603, 41.0192583], [39.5458954, 41.0466849], [39.5042415, 41.0783949], [39.4577503, 41.0989591], [39.4020318, 41.1009244], [39.3541361, 41.0731967], [39.290344, 41.0517008], [39.2380566, 41.0517023], [39.1883124, 41.0744249], [39.1305296, 41.0577222], [39.0798129, 41.0442116], [39.0220979, 41.0325177], [38.9655364, 41.0362074], [38.9018895, 41.0281534], [38.8475803, 41.0109989], [38.7964319, 40.9996534], [38.7245796, 40.9550031], [38.6749212, 40.9491378], [38.6250664, 40.9734835], [38.5790903, 40.9429621], [38.5353585, 40.9184647], [38.4807045, 40.9138688], [38.4297038, 40.9123033], [38.3759406, 40.9205462], [38.3244414, 40.9199685], [38.2513564, 40.9435323], [38.1899147, 40.9389983], [38.1406861, 40.9528918], [38.073712, 40.9717954], [38.0204587, 40.9772236], [37.961178, 40.981806], [37.9040311, 40.9841774], [37.857942, 41.015874], [37.8024691, 41.0298816], [37.7724477, 41.0723341], [37.751503, 41.1198256], [37.695666, 41.1193253], [37.648068, 41.101915], [37.6138926, 41.0639847], [37.5761688, 41.0302471], [37.522509, 41.025539], [37.4784857, 41.0552064], [37.4220014, 41.0792732], [37.3677, 41.1071192], [37.3173842, 41.1160405], [37.2659728, 41.1444614], [37.207422, 41.144034], [37.148208, 41.148488], [37.086681, 41.162114], [37.0336759, 41.1870689], [37.0247206, 41.2599434], [36.9416857, 41.3054493], [36.8800553, 41.3359643], [36.7969534, 41.3556828], [36.7420693, 41.3634663], [36.6839348, 41.3685103], [36.6217918, 41.3661961], [36.5766502, 41.3094274], [36.5384835, 41.2717779], [36.4901596, 41.2521668], [36.4405087, 41.245015], [36.3853059, 41.2561742], [36.3509853, 41.3079823], [36.2893677, 41.3324142], [36.2416904, 41.3538206], [36.1605195, 41.436551], [36.1242978, 41.4757186], [36.131586, 41.536922], [36.1168, 41.6207536], [36.0670609, 41.6800106], [36.002416, 41.711237], [35.9572918, 41.7368197], [35.851093, 41.696103], [35.752227, 41.666431], [35.674392, 41.646709], [35.5962225, 41.6336955], [35.5120961, 41.6358559], [35.459364, 41.6515436], [35.41871, 41.681768], [35.3389974, 41.7007903], [35.2803188, 41.7145675], [35.2390207, 41.7510464], [35.1975358, 41.7854502], [35.159573, 41.831699], [35.125114, 41.879314], [35.0892643, 41.9232349], [35.1053644, 41.9753762], [35.1410629, 42.0236769], [35.1947518, 42.0164675], [35.1443209, 42.0265988], [35.0717011, 42.028819], [35.0396044, 42.0718657], [34.989099, 42.094534], [34.9447704, 42.0708], [34.9099334, 42.0270636], [34.827607, 41.967087], [34.7779758, 41.9512759], [34.717939, 41.943241], [34.6590833, 41.9410785], [34.6044019, 41.9458724], [34.54514, 41.948906], [34.4998738, 41.9728004], [34.44992, 41.965163], [34.394959, 41.952497], [34.3449, 41.9473107], [34.2804599, 41.9441257], [34.2290225, 41.9546546], [34.1744344, 41.9593179], [34.0954792, 41.9792889], [34.0391485, 41.9796645], [33.984448, 41.979083], [33.9300731, 41.9746446], [33.8548474, 41.9747539], [33.8039276, 41.9764577], [33.7398425, 41.977542], [33.6799724, 41.9804836], [33.6244769, 41.9852209], [33.574139, 41.990083], [33.520888, 41.999963], [33.4650431, 42.0058689], [33.412622, 42.0086325], [33.3612364, 42.0161761], [33.297582, 42.007176], [33.2440487, 41.9847197], [33.1932592, 41.9712571], [33.141353, 41.9484155], [33.0676893, 41.934945], [33.0206677, 41.9170129], [32.9565325, 41.8860258], [32.8958718, 41.8689017], [32.842775, 41.8610516], [32.788704, 41.858613], [32.7348459, 41.8487767], [32.6846778, 41.8368813], [32.625763, 41.831245], [32.5767846, 41.8209333], [32.5274486, 41.8064558], [32.4810818, 41.7801885], [32.430396, 41.762033], [32.3782073, 41.7476063], [32.3354775, 41.7214687], [32.284172, 41.7200663], [32.2351794, 41.689288], [32.1945676, 41.6537837], [32.1604209, 41.6172045], [32.115203, 41.595236], [32.0590218, 41.5836904], [32.0022431, 41.5492375], [31.9211594, 41.5283524], [31.8678375, 41.5099365], [31.8140647, 41.4761379], [31.7656353, 41.4561397], [31.7220638, 41.4306112], [31.6739619, 41.4099228], [31.618792, 41.3815224], [31.565805, 41.3725319], [31.5117886, 41.3563377], [31.4682378, 41.3288575], [31.4118057, 41.314684], [31.4177026, 41.2623591], [31.4076555, 41.2103705], [31.3458564, 41.1545664], [31.2974158, 41.1170741], [31.2349718, 41.1012125], [31.1424748, 41.0907503], [31.0918499, 41.0864797], [31.0208912, 41.0768422], [30.9703876, 41.0731022], [30.8880725, 41.0747682], [30.7671284, 41.0860162], [30.6816656, 41.1153366], [30.6281809, 41.1289132], [30.5527781, 41.1375463], [30.4761366, 41.1496269], [30.4193735, 41.1628716], [30.3523045, 41.1853448], [30.2946282, 41.2005414], [30.243582, 41.1868008], [30.197407, 41.162511], [30.1452237, 41.1397467], [30.093894, 41.137612], [30.0432452, 41.1373215], [29.9904277, 41.1343972], [29.938949, 41.141013], [29.884338, 41.142267], [29.8195434, 41.1434023], [29.7671387, 41.1605486], [29.7061267, 41.1596767], [29.6486, 41.1680229], [29.5970588, 41.1712486], [29.51853, 41.183836], [29.4589715, 41.1971103], [29.408695, 41.20929], [29.357277, 41.2107767], [29.2899337, 41.2225992], [29.2378392, 41.2293418], [29.1823201, 41.221049], [29.1300433, 41.2084203], [29.0871223, 41.1786616], [29.0976119, 41.1253604], [29.0662404, 41.0811042], [29.0314279, 41.0382731], [29.020198, 40.9852743], [29.0688242, 40.9624402], [29.1132407, 40.9315643], [29.1567365, 40.8997791], [29.2056813, 40.881135], [29.2574097, 40.8670417], [29.2748325, 40.8201636], [29.3249289, 40.8171101], [29.353251, 40.7743743], [29.4081135, 40.7622835], [29.4596783, 40.770283], [29.5158875, 40.7668824], [29.5716552, 40.7665535], [29.6192327, 40.7832425], [29.680048, 40.777176], [29.7328906, 40.7719431], [29.7831788, 40.7406974], [29.8371317, 40.7520691], [29.8998684, 40.7581786], [29.9411275, 40.7298329], [29.8876488, 40.7143731], [29.838481, 40.7259386], [29.7812723, 40.7222294], [29.7265896, 40.7116983], [29.672345, 40.70291], [29.618613, 40.6964563], [29.5644313, 40.6864606], [29.520365, 40.721693], [29.4706779, 40.7138582], [29.426948, 40.6882947], [29.3694154, 40.696335], [29.3121416, 40.6692139], [29.2590149, 40.6575244], [29.201848, 40.6558252], [29.1509508, 40.6599865], [29.0789452, 40.646333], [29.0243076, 40.6464812], [28.965952, 40.6335801], [28.9213058, 40.5956912], [28.8507722, 40.5726501], [28.803138, 40.555717], [28.8245795, 40.5091176], [28.873543, 40.491312], [28.921764, 40.466514], [28.9751546, 40.4562294], [29.0260174, 40.4792351], [29.082121, 40.477856], [29.1382565, 40.4414626], [29.0903236, 40.4167926], [29.0600178, 40.3653486], [28.9931538, 40.3586847], [28.9398812, 40.3568647], [28.8796685, 40.3816439], [28.8293717, 40.3837295], [28.777691, 40.394381], [28.727341, 40.382806], [28.6756414, 40.374605], [28.6147169, 40.366766], [28.5159194, 40.3939127], [28.4088846, 40.3939697], [28.3404283, 40.4016344], [28.2860665, 40.4016104], [28.224357, 40.39924], [28.170553, 40.395175], [28.1174942, 40.3875784], [28.067247, 40.381797], [28.0154645, 40.3701637], [27.9583384, 40.35863], [27.910137, 40.3806569], [27.9519103, 40.4226824], [27.998953, 40.44069], [28.034633, 40.477478], [27.985226, 40.490234], [27.935303, 40.503486], [27.878262, 40.514204], [27.8280315, 40.514922], [27.7775751, 40.5091947], [27.7250344, 40.5196328], [27.684204, 40.4849398], [27.7317311, 40.4538502], [27.7688458, 40.4155543], [27.8159911, 40.398578], [27.8644458, 40.3831248], [27.8244868, 40.3464037], [27.782743, 40.313207], [27.732706, 40.307629], [27.676365, 40.307972], [27.616161, 40.326282], [27.5606616, 40.3057794], [27.4919459, 40.3078523], [27.4317351, 40.3251006], [27.342591, 40.362464], [27.3046238, 40.4013858], [27.30507, 40.453077], [27.255011, 40.458719], [27.2079485, 40.4408144], [27.1552359, 40.4519008], [27.102713, 40.441752], [27.0553276, 40.4104204], [27.009618, 40.389418], [26.9516911, 40.3837841], [26.9050616, 40.4051528], [26.8446359, 40.3991455], [26.7803227, 40.405984], [26.7297277, 40.3915508], [26.6890105, 40.3623879], [26.6516632, 40.3279567], [26.607107, 40.2813991], [26.5565441, 40.2630293], [26.524594, 40.217179], [26.4730944, 40.2022014], [26.4147967, 40.200197], [26.4030607, 40.1514961], [26.3869648, 40.1019452], [26.3561113, 40.0567656], [26.3211055, 40.017296], [26.2728051, 40.0011315], [26.198135, 40.008678], [26.166488, 39.961208], [26.150799, 39.907684], [26.147095, 39.856815], [26.1563889, 39.8048711], [26.1433196, 39.7511907], [26.1614758, 39.6892984], [26.1502527, 39.6305676], [26.1148705, 39.591273], [26.0925062, 39.5418216], [26.0693347, 39.494678], [26.116406, 39.455352], [26.1780479, 39.4590936], [26.2299376, 39.4746126], [26.2886949, 39.4859831], [26.3491236, 39.4879364], [26.407515, 39.502396], [26.461067, 39.52166], [26.5209692, 39.5321314], [26.5794477, 39.5402747], [26.6326938, 39.555076], [26.6903973, 39.5552633], [26.7406371, 39.5670344], [26.7991113, 39.5690121], [26.851901, 39.566728], [26.9072899, 39.5825989], [26.9524968, 39.5548723], [26.9318144, 39.5039714], [26.8834206, 39.4742073], [26.8490698, 39.4358236], [26.7972793, 39.4318078], [26.7878304, 39.3779851], [26.738486, 39.357896], [26.6958903, 39.3284149], [26.6608598, 39.2925471], [26.611445, 39.2825244], [26.6758204, 39.2670841], [26.7345142, 39.2400093], [26.7616642, 39.1798062], [26.8167173, 39.1548484], [26.8531862, 39.1204162], [26.8876599, 39.0753829], [26.843166, 39.0489125], [26.7954204, 39.0235166], [26.8005446, 38.9684382], [26.8448209, 38.9351388], [26.910143, 38.9345742], [26.966677, 38.9335246], [27.0190592, 38.9133433], [27.06259, 38.8823243], [27.012037, 38.865976], [26.962396, 38.830386], [26.9140323, 38.817447], [26.9380164, 38.7673701], [26.8977042, 38.7359611], [26.8464688, 38.7473042], [26.7940234, 38.7463558], [26.7399129, 38.7414595], [26.7316657, 38.6908778], [26.7439107, 38.6372635], [26.7882997, 38.6139857], [26.8304616, 38.5780503], [26.8297247, 38.5253261], [26.8830362, 38.5084722], [26.9226657, 38.4676502], [26.9716664, 38.437146], [27.015237, 38.465436], [27.0652925, 38.4725738], [27.1120793, 38.4486887], [27.1588968, 38.4670338], [27.1303651, 38.4226583], [27.0859204, 38.3985597], [27.0354995, 38.4108067], [26.9804453, 38.396534], [26.9230392, 38.3848599], [26.8671537, 38.3743243], [26.815574, 38.362616], [26.7647745, 38.367992], [26.7379383, 38.411481], [26.6878881, 38.4153059], [26.6887179, 38.3514135], [26.6397883, 38.3788399], [26.6110015, 38.4226508], [26.5863161, 38.4693197], [26.6401413, 38.4657986], [26.6297951, 38.5152278], [26.5852315, 38.5484624], [26.5616978, 38.5932511], [26.5236142, 38.6296025], [26.4754315, 38.6745427], [26.4171028, 38.6805814], [26.3697381, 38.6638568], [26.3549257, 38.6139581], [26.3634476, 38.562738], [26.3917255, 38.5183424], [26.3967348, 38.4678177], [26.4602484, 38.4636596], [26.5057762, 38.4363848], [26.451026, 38.4279485], [26.4756872, 38.3810058], [26.4393317, 38.3439576], [26.3885019, 38.3368904], [26.3382146, 38.3246237], [26.3170482, 38.3744547], [26.2955953, 38.3282709], [26.2614975, 38.2871645], [26.3025087, 38.2557481], [26.3513707, 38.2290064], [26.3916574, 38.2608344], [26.4097896, 38.2136874], [26.4620007, 38.2038695], [26.5069737, 38.1760596], [26.5313162, 38.128117], [26.5856252, 38.1218139], [26.6284309, 38.1611937], [26.6515567, 38.2063337], [26.7030114, 38.2072384], [26.7511023, 38.2225924], [26.770064, 38.1739138], [26.8242955, 38.1583985], [26.8511729, 38.1017439], [26.8580525, 38.0506807], [26.9398807, 38.0740538], [26.9910155, 38.0708857], [27.0464191, 38.0500532], [27.084877, 38.013871], [27.131495, 37.98992], [27.1815137, 37.9858328], [27.2337841, 37.9852582], [27.2719252, 37.948284], [27.2726998, 37.8979415], [27.2438367, 37.8532277], [27.2696689, 37.8101662], [27.2539848, 37.7506295], [27.212898, 37.7116871], [27.1634685, 37.6994718], [27.1136482, 37.6839096], [27.060851, 37.6831572], [27.0106854, 37.670088], [27.05771, 37.642684], [27.1115531, 37.6327571], [27.1636161, 37.617742], [27.2142113, 37.5932746], [27.183479, 37.552902], [27.207551, 37.506879], [27.223683, 37.455986], [27.2301973, 37.4056413], [27.202165, 37.363029], [27.2499354, 37.3363525], [27.3001215, 37.3522866], [27.3477092, 37.369289], [27.3897881, 37.4106396], [27.4324963, 37.3825259], [27.387044, 37.358715], [27.405017, 37.311438], [27.455939, 37.309403], [27.454337, 37.257002], [27.505253, 37.277348], [27.5165778, 37.2278447], [27.5517975, 37.2679318], [27.6021595, 37.2855722], [27.5910224, 37.2356788], [27.614173, 37.190515], [27.5679236, 37.2106914], [27.5404608, 37.1676388], [27.5812253, 37.1358532], [27.5314246, 37.1183295], [27.4811765, 37.0917178], [27.4298314, 37.1178349], [27.3773753, 37.1286457], [27.333, 37.1570994], [27.303187, 37.1156684], [27.2531267, 37.1287973], [27.2352309, 37.0772772], [27.2482135, 37.0249078], [27.2609801, 36.9725212], [27.312744, 36.979233], [27.3426196, 37.0198963], [27.3936253, 37.0248161], [27.4505461, 37.0162658], [27.4996856, 36.9868881], [27.5519519, 36.9821324], [27.605206, 36.9914905], [27.6574191, 36.994361], [27.7098473, 36.9989033], [27.7632649, 36.994287], [27.8139826, 37.005197], [27.8930454, 37.0286963], [27.9454321, 37.0162409], [27.9964685, 37.0276789], [28.058186, 37.023867], [28.1084616, 37.0145297], [28.1596446, 37.0289159], [28.2128906, 37.0401275], [28.2668411, 37.0447513], [28.3226092, 37.0519851], [28.281723, 37.018067], [28.2327902, 36.9916354], [28.2023064, 36.9487983], [28.1644436, 36.913341], [28.1173306, 36.9322532], [28.065651, 36.938896], [28.026186, 36.907516], [28.059241, 36.868819], [28.001475, 36.852621], [28.046867, 36.828979], [28.011832, 36.789462], [27.9594254, 36.7985488], [27.9038491, 36.810076], [27.8469324, 36.8066834], [27.7920682, 36.8015165], [27.74234, 36.7850377], [27.6908951, 36.7868381], [27.644036, 36.810777], [27.6163681, 36.7687075], [27.566368, 36.763899], [27.5136554, 36.7518132], [27.4644021, 36.7626271], [27.418833, 36.733295], [27.3768159, 36.7040315], [27.4050977, 36.6627864], [27.4587434, 36.6618569], [27.5111664, 36.6756943], [27.5615971, 36.6791587], [27.612334, 36.681458], [27.66002, 36.662576], [27.6908872, 36.7026268], [27.7127695, 36.7532152], [27.771337, 36.760435], [27.833874, 36.756159], [27.8888158, 36.755456], [27.939635, 36.749591], [27.99323, 36.758789], [28.0413153, 36.7830015], [28.090479, 36.794418], [28.129972, 36.7595424], [28.1046882, 36.711799], [28.0493678, 36.7192712], [28.0013487, 36.7044286], [28.0522381, 36.6838934], [28.0912684, 36.6508409], [28.0627834, 36.6093623], [28.004642, 36.605316], [27.9787373, 36.5536008], [28.0276862, 36.5680822], [28.0735594, 36.5940922], [28.120574, 36.612375], [28.150376, 36.65551], [28.191676, 36.687088], [28.2384539, 36.7107644], [28.2900733, 36.7201607], [28.2678156, 36.7659157], [28.2329153, 36.8051919], [28.2622531, 36.8486883], [28.3080187, 36.8279391], [28.3535498, 36.8068486], [28.40676, 36.788144], [28.4267163, 36.8353534], [28.4548635, 36.8798111], [28.455447, 36.829175], [28.5025096, 36.8113869], [28.5500101, 36.8272792], [28.5962479, 36.8067702], [28.615055, 36.760065], [28.618843, 36.704782], [28.6722622, 36.7080315], [28.723505, 36.705495], [28.7872786, 36.6861375], [28.8259525, 36.6518877], [28.8375433, 36.601966], [28.8819107, 36.6288481], [28.8572523, 36.6758204], [28.9019089, 36.704281], [28.9307298, 36.7464068], [28.9774289, 36.7269079], [29.0221232, 36.7041768], [29.0726008, 36.6819473], [29.1163588, 36.6542851], [29.0774901, 36.6202615], [29.0292853, 36.6033819], [29.0367496, 36.5533093], [29.0856892, 36.5659491], [29.1274236, 36.5282195], [29.1009902, 36.474872], [29.134276, 36.428474], [29.0996004, 36.3913502], [29.147572, 36.3760979], [29.1826057, 36.3376399], [29.2369135, 36.320401], [29.3140686, 36.250706], [29.362871, 36.2330818], [29.4065534, 36.2600695], [29.4512156, 36.2279305], [29.500418, 36.2093749], [29.5504545, 36.2102109], [29.601896, 36.2056198], [29.6515888, 36.1917436], [29.6796158, 36.1469155], [29.7292802, 36.1633891], [29.7807878, 36.1583943], [29.8311691, 36.1776244], [29.8804818, 36.1916364], [29.9208152, 36.2291908], [29.9765894, 36.2207259], [30.0509582, 36.2544954], [30.1012432, 36.248863], [30.143735, 36.2763156], [30.1911589, 36.3146873], [30.255188, 36.315949], [30.3208369, 36.3003538], [30.3693733, 36.2693019], [30.4040703, 36.2320977], [30.4521799, 36.2511656], [30.4881951, 36.2992189], [30.5249434, 36.3337901], [30.4935822, 36.3746626], [30.4883601, 36.4262211], [30.5171321, 36.4700663], [30.5411951, 36.5217523], [30.5885183, 36.5793099], [30.556994, 36.6193279], [30.5700999, 36.6756714], [30.5643612, 36.7268213], [30.575477, 36.7833428], [30.6042306, 36.8294604], [30.668049, 36.87904], [30.7182087, 36.8682136], [30.7761762, 36.8484936], [30.8778252, 36.8527489], [30.944147, 36.8551958], [31.008039, 36.8573404], [31.0604189, 36.8493689], [31.1215033, 36.8365604], [31.2011493, 36.8273757], [31.2599537, 36.8203401], [31.326965, 36.809742], [31.388477, 36.77861], [31.4386608, 36.7535553], [31.4936061, 36.7369135], [31.559793, 36.711316], [31.635837, 36.6720396], [31.680572, 36.645536], [31.7355131, 36.6416774], [31.7753794, 36.608288], [31.830173, 36.595029], [31.895861, 36.572321], [31.9453808, 36.5592234], [31.9884547, 36.5299769], [32.0482083, 36.526144], [32.1000045, 36.4809839], [32.1345223, 36.4374756], [32.193643, 36.376232], [32.220596, 36.333889], [32.2750915, 36.2888119], [32.2970886, 36.2368275], [32.351514, 36.208386], [32.388905, 36.170299], [32.4365748, 36.1420687], [32.482424, 36.116781], [32.534498, 36.093483], [32.5926642, 36.0791839], [32.642281, 36.061864], [32.702188, 36.03659], [32.7534323, 36.0311954], [32.8029936, 36.0167224], [32.8436863, 36.0472301], [32.8881565, 36.0790929], [32.9356526, 36.0964531], [32.9906121, 36.0960353], [33.0419783, 36.0943702], [33.092007, 36.086259], [33.1242227, 36.1295313], [33.1956001, 36.1278327], [33.245708, 36.1312238], [33.2982327, 36.1332136], [33.3482603, 36.1515566], [33.393884, 36.12496], [33.437725, 36.149218], [33.4930592, 36.1529532], [33.5421984, 36.1404572], [33.586124, 36.166826], [33.638593, 36.189426], [33.6834272, 36.1578316], [33.723244, 36.191514], [33.765977, 36.217969], [33.8086875, 36.2460378], [33.8415646, 36.2837713], [33.8825247, 36.3144775], [33.9349866, 36.2891077], [33.9511178, 36.2407162], [34.0011464, 36.2883528], [34.0635399, 36.3091111], [34.0797598, 36.3588363], [34.0827495, 36.4151156], [34.1215995, 36.4510262], [34.1701551, 36.4756687], [34.206409, 36.5168403], [34.2426066, 36.5518154], [34.2995668, 36.5972924], [34.350825, 36.630925], [34.4032554, 36.6557524], [34.4737874, 36.7091229], [34.529879, 36.7363326], [34.5707373, 36.7673869], [34.6245391, 36.7870536], [34.6724363, 36.8063717], [34.723958, 36.811327], [34.781031, 36.806375], [34.833975, 36.789387], [34.885678, 36.755312], [34.957789, 36.722422], [35.0190427, 36.7034771], [35.0862324, 36.6716092], [35.2152233, 36.6106187], [35.3252397, 36.5573357], [35.3803722, 36.5564598], [35.4217098, 36.5906596], [35.4988939, 36.5856446], [35.5580141, 36.5651334], [35.605051, 36.594942], [35.6362008, 36.6484139], [35.685125, 36.690251], [35.633872, 36.69769], [35.637434, 36.750521], [35.6884475, 36.7680008], [35.7402875, 36.7677765], [35.7956713, 36.7663186], [35.8456211, 36.7979481], [35.8848426, 36.8329938], [35.9326744, 36.8552098], [35.961681, 36.899035], [36.0070408, 36.9306382], [36.0641777, 36.9102942], [36.1233063, 36.8771286], [36.1628627, 36.8379677], [36.2034798, 36.787477], [36.1954368, 36.7330668], [36.2032759, 36.6819647], [36.197872, 36.630151], [36.1540118, 36.5915284], [36.104119, 36.563827], [36.0496646, 36.5376147], [36.0103566, 36.5009109], [35.95909, 36.465705], [35.913095, 36.443208], [35.86942, 36.40099], [35.831111, 36.365304], [35.787744, 36.32921], [35.798065, 36.276058], [35.839439, 36.231675], [35.8741658, 36.1810978], [35.909875, 36.139058], [35.943888, 36.083261], [35.979641, 36.016111], [35.941719, 35.9699883], [35.9228491, 35.9219057], [35.9735247, 35.9341408], [35.9983442, 35.8839003], [36.0587874, 35.8760215], [36.1128557, 35.8620061], [36.1395037, 35.8155798], [36.1737929, 35.8589989], [36.173046, 35.9094989], [36.180120542, 35.928847691]]], [[[33.5331656, 36.1229315], [33.5331656, 36.1229315]]], [[[33.5322423, 36.1251945], [33.5322423, 36.1251945]]], [[[29.6518594, 36.1310654], [29.6518594, 36.1310654]]], [[[29.7415073, 36.1229317], [29.7415073, 36.1229317]]], [[[29.659904, 36.130619], [29.659904, 36.130619]]], [[[29.6233192, 36.1508051], [29.6233192, 36.1508051]]], [[[33.6976578, 36.1595746], [33.6976578, 36.1595746]]], [[[29.6251697, 36.1604327], [29.6251697, 36.1604327]]], [[[29.8371639, 36.1676356], [29.8371639, 36.1676356]]], [[[29.8325441, 36.1689814], [29.8325441, 36.1689814]]], [[[29.8752532, 36.1656633], [29.8752532, 36.1656633]]], [[[29.5482256, 36.1863022], [29.5482256, 36.1863022]]], [[[33.7700242, 36.1817271], [33.7700242, 36.1817271]]], [[[30.4070039, 36.1898126], [30.4070039, 36.1898126]]], [[[29.9100764, 36.1929564], [29.8581161, 36.1774479], [29.9100764, 36.1929564]]], [[[29.9120795, 36.1884949], [29.9120795, 36.1884949]]], [[[30.4010358, 36.1972094], [30.4010358, 36.1972094]]], [[[29.4362448, 36.1994018], [29.4362448, 36.1994018]]], [[[29.899444, 36.2050551], [29.899444, 36.2050551]]], [[[29.347183, 36.209215], [29.347183, 36.209215]]], [[[29.8968239, 36.2108513], [29.8968239, 36.2108513]]], [[[29.4429233, 36.2125757], [29.4429233, 36.2125757]]], [[[29.3714381, 36.2198811], [29.3714381, 36.2198811]]], [[[30.478855, 36.230077], [30.478855, 36.230077]]], [[[33.8264021, 36.2649278], [33.8264021, 36.2649278]]], [[[29.0602536, 36.5396713], [29.0602536, 36.5396713]]], [[[29.0700959, 36.5515296], [29.0700959, 36.5515296]]], [[[30.5501693, 36.4572831], [30.5501693, 36.4572831]]], [[[30.5529533, 36.4578488], [30.5529533, 36.4578488]]], [[[28.1238299, 36.599495], [28.1238299, 36.599495]]], [[[28.0558491, 36.6191334], [28.0558491, 36.6191334]]], [[[28.0526046, 36.6268971], [28.0526046, 36.6268971]]], [[[28.0591588, 36.6412972], [28.0591588, 36.6412972]]], [[[27.5093557, 36.6613173], [27.5093557, 36.6613173]]], [[[28.0358272, 36.6705194], [28.0358272, 36.6705194]]], [[[28.0504433, 36.649709], [28.0504433, 36.649709]]], [[[29.0988725, 36.6462748], [29.0988725, 36.6462748]]], [[[28.1462761, 36.6522902], [28.1462761, 36.6522902]]], [[[29.0527314, 36.6567116], [29.0527314, 36.6567116]]], [[[28.907442769, 36.660718278], [28.907442769, 36.660718278]]], [[[29.034331, 36.6669647], [29.034331, 36.6669647]]], [[[28.9064531, 36.6678367], [28.9064531, 36.6678367]]], [[[28.0122069, 36.6703628], [28.0122069, 36.6703628]]], [[[28.9161578, 36.6547341], [28.9161578, 36.6547341]]], [[[29.0303678, 36.6684059], [29.0303678, 36.6684059]]], [[[28.0406611, 36.6727752], [28.0406611, 36.6727752]]], [[[28.0432872, 36.6834195], [28.0432872, 36.6834195]]], [[[29.0099275, 36.6922808], [29.0099275, 36.6922808]]], [[[28.930778, 36.6967352], [28.930778, 36.6967352]]], [[[28.9257896, 36.6935948], [28.9257896, 36.6935948]]], [[[28.6918771, 36.691402], [28.6918771, 36.691402]]], [[[28.6689799, 36.6985098], [28.6689799, 36.6985098]]], [[[27.9895135, 36.7019068], [27.9895135, 36.7019068]]], [[[28.9324294, 36.6985486], [28.9324294, 36.6985486]]], [[[27.9958451, 36.7077283], [27.9958451, 36.7077283]]], [[[28.9328921, 36.707912], [28.9328921, 36.707912]]], [[[27.412094, 36.7385313], [27.412094, 36.7385313]]], [[[28.003806, 36.712842], [28.003806, 36.712842]]], [[[28.2429136, 36.7142152], [28.2429136, 36.7142152]]], [[[28.014957, 36.711463], [28.014957, 36.711463]]], [[[28.9394275, 36.7176336], [28.9394275, 36.7176336]]], [[[28.0447493, 36.7252946], [28.0447493, 36.7252946]]], [[[27.7734057, 36.7522927], [27.7734057, 36.7522927]]], [[[28.0570648, 36.7615692], [28.0570648, 36.7615692]]], [[[27.4630342, 36.7709543], [27.4630342, 36.7709543]]], [[[28.431653, 36.7702833], [28.431653, 36.7702833]]], [[[30.589305, 36.800541], [30.589305, 36.800541]]], [[[28.2588041, 36.8030421], [28.2588041, 36.8030421]]], [[[28.1208078, 36.8022493], [28.1208078, 36.8022493]]], [[[28.2865479, 36.820978], [28.2865479, 36.820978]]], [[[28.4450612, 36.8623576], [28.4450612, 36.8623576]]], [[[28.022434, 36.866058], [28.022434, 36.866058]]], [[[28.0423075, 36.8732096], [28.0423075, 36.8732096]]], [[[28.032893, 36.8683181], [28.032893, 36.8683181]]], [[[28.034494, 36.883166], [28.034494, 36.883166]]], [[[28.155499, 36.933431], [28.155499, 36.933431]]], [[[27.3053032, 36.9505809], [27.3053032, 36.9505809]]], [[[28.154058, 36.943978], [28.154058, 36.943978]]], [[[27.2323198, 36.9828389], [27.2323198, 36.9828389]]], [[[27.1967178, 36.9921018], [27.1967178, 36.9921018]]], [[[28.200063, 36.959064], [28.200063, 36.959064]]], [[[27.5939298, 36.9691825], [27.5939298, 36.9691825]]], [[[27.425369, 36.9898163], [27.469869, 36.962401], [27.4321364, 36.9957775], [27.425369, 36.9898163]]], [[[27.5817374, 36.9783913], [27.5817374, 36.9783913]]], [[[28.2092604, 36.9907137], [28.2092604, 36.9907137]]], [[[27.3863568, 36.9978564], [27.3863568, 36.9978564]]], [[[28.2386164, 37.0016758], [28.2386164, 37.0016758]]], [[[28.2085679, 36.9971445], [28.2085679, 36.9971445]]], [[[27.1828842, 37.005456], [27.1828842, 37.005456]]], [[[27.211265, 37.0050931], [27.211265, 37.0050931]]], [[[27.362038, 37.008894], [27.362038, 37.008894]]], [[[27.2160146, 37.0097691], [27.2160146, 37.0097691]]], [[[27.1503469, 37.0493975], [27.1503469, 37.0493975]]], [[[27.2033899, 37.046502], [27.2033899, 37.046502]]], [[[27.2076333, 37.0805863], [27.2076333, 37.0805863]]], [[[27.2365827, 37.0864507], [27.2365827, 37.0864507]]], [[[27.4804117, 37.1251923], [27.4804117, 37.1251923]]], [[[27.475224, 37.1221623], [27.475224, 37.1221623]]], [[[27.3853853, 37.1375255], [27.3853853, 37.1375255]]], [[[27.2798901, 37.1424944], [27.2798901, 37.1424944]]], [[[27.5178818, 37.1598609], [27.5178818, 37.1598609]]], [[[27.3542408, 37.1729046], [27.3542408, 37.1729046]]], [[[27.3622325, 37.1745103], [27.3622325, 37.1745103]]], [[[27.3319674, 37.3231367], [27.3319674, 37.3231367]]], [[[27.3639702, 37.2811284], [27.3639702, 37.2811284]]], [[[27.5628466, 37.2444612], [27.5628466, 37.2444612]]], [[[27.4103271, 37.4090035], [27.4103271, 37.4090035]]], [[[27.18719, 37.488417], [27.18719, 37.488417]]], [[[27.187888, 37.509481], [27.187888, 37.509481]]], [[[27.192724, 37.509217], [27.192724, 37.509217]]], [[[27.189212, 37.523351], [27.189212, 37.523351]]], [[[27.186653, 37.531833], [27.186653, 37.531833]]], [[[27.184138, 37.558553], [27.184138, 37.558553]]], [[[27.0024046, 37.6489443], [27.0024046, 37.6489443]]], [[[27.0114907, 37.6524473], [27.0114907, 37.6524473]]], [[[27.171076, 37.561398], [27.171076, 37.561398]]], [[[27.137931, 37.611791], [27.137931, 37.611791]]], [[[27.200385, 37.600399], [27.200385, 37.600399]]], [[[27.199425, 37.60374], [27.199425, 37.60374]]], [[[27.159028, 37.586333], [27.159028, 37.586333]]], [[[27.01734, 37.690862], [27.01734, 37.690862]]], [[[26.8643079, 38.029047], [26.8643079, 38.029047]]], [[[27.0825764, 38.0132816], [27.0825764, 38.0132816]]], [[[26.8846817, 38.0223624], [26.8846817, 38.0223624]]], [[[26.8327901, 38.1255855], [26.8327901, 38.1255855]]], [[[26.4334475, 38.1949107], [26.4334475, 38.1949107]]], [[[26.4370336, 38.1870996], [26.4370336, 38.1870996]]], [[[26.802802, 38.1584046], [26.802802, 38.1584046]]], [[[26.4478984, 38.1965386], [26.4478984, 38.1965386]]], [[[26.7716121, 38.1992344], [26.7716121, 38.1992344]]], [[[26.2080749, 38.2948636], [26.2080749, 38.2948636]]], [[[26.675196, 38.3297809], [26.675196, 38.3297809]]], [[[26.4564613, 38.3601796], [26.4564613, 38.3601796]]], [[[26.7830935, 38.3671692], [26.7830935, 38.3671692]]], [[[26.4643395, 38.3751859], [26.4643395, 38.3751859]]], [[[26.44995, 38.3861871], [26.44995, 38.3861871]]], [[[26.4482125, 38.39167], [26.4482125, 38.39167]]], [[[26.4651843, 38.3871317], [26.4651843, 38.3871317]]], [[[26.7882652, 38.3949582], [26.7882652, 38.3949582]]], [[[26.7508741, 38.4001179], [26.7508741, 38.4001179]]], [[[26.7683281, 38.4104333], [26.7683281, 38.4104333]]], [[[26.3155107, 38.4167893], [26.3155107, 38.4167893]]], [[[26.793507, 38.4067805], [26.793507, 38.4067805]]], [[[26.7854676, 38.4155249], [26.7854676, 38.4155249]]], [[[26.491473, 38.4041468], [26.491473, 38.4041468]]], [[[26.308794, 38.4200786], [26.308794, 38.4200786]]], [[[26.3436003, 38.4234428], [26.3436003, 38.4234428]]], [[[26.5156048, 38.6577039], [26.5156048, 38.6577039]]], [[[26.7100575, 38.6930847], [26.7100575, 38.6930847]]], [[[26.7252377, 38.6767263], [26.7252377, 38.6767263]]], [[[26.7140025, 38.6769803], [26.7140025, 38.6769803]]], [[[26.3283832, 38.4368672], [26.3283832, 38.4368672]]], [[[26.3733853, 38.4308547], [26.3733853, 38.4308547]]], [[[26.3674603, 38.4284878], [26.3674603, 38.4284878]]], [[[27.031571, 38.464663], [27.031571, 38.464663]]], [[[26.9754914, 38.4430527], [26.9754914, 38.4430527]]], [[[26.7607934, 38.4381626], [26.7607934, 38.4381626]]], [[[26.6977257, 38.5471606], [26.6929201, 38.4959664], [26.7327435, 38.4589184], [26.7307936, 38.5110781], [26.6977257, 38.5471606]]], [[[26.7325136, 38.7325409], [26.7325136, 38.7325409]]], [[[26.8789194, 38.8534298], [26.8789194, 38.8534298]]], [[[26.892492, 38.8623734], [26.892492, 38.8623734]]], [[[27.032083, 38.879199], [27.032083, 38.879199]]], [[[26.9100657, 38.889496], [26.9100657, 38.889496]]], [[[26.8337126, 38.9077448], [26.8337126, 38.9077448]]], [[[26.8162805, 38.922471214], [26.8162805, 38.922471214]]], [[[26.8060917, 38.9216023], [26.8060917, 38.9216023]]], [[[27.0268957, 38.9203821], [27.0268957, 38.9203821]]], [[[26.795655, 39.000247], [26.795655, 39.000247]]], [[[26.7224041, 39.2231569], [26.7224041, 39.2231569]]], [[[26.590781, 39.28349], [26.590781, 39.28349]]], [[[26.529397, 39.32088], [26.529397, 39.32088]]], [[[26.6585044, 39.3232501], [26.6585044, 39.3232501]]], [[[26.5371912, 39.322183], [26.5371912, 39.322183]]], [[[26.573302, 39.3352289], [26.573302, 39.3352289]]], [[[26.64467925, 39.363153612], [26.5987166, 39.3864288], [26.6158814, 39.3356541], [26.6691691, 39.329379], [26.64467925, 39.363153612]]], [[[26.6970051, 39.3482727], [26.6970051, 39.3482727]]], [[[26.608378, 39.3330392], [26.608378, 39.3330392]]], [[[26.5860102, 39.3436812], [26.5860102, 39.3436812]]], [[[26.6676455, 39.3537075], [26.6676455, 39.3537075]]], [[[26.5706685, 39.3786077], [26.5706685, 39.3786077]]], [[[26.7615229, 39.3738494], [26.7615229, 39.3738494]]], [[[26.706027, 39.382066], [26.706027, 39.382066]]], [[[26.724249, 39.377122], [26.724249, 39.377122]]], [[[26.695794, 39.3724002], [26.695794, 39.3724002]]], [[[26.6025724, 39.3950797], [26.6025724, 39.3950797]]], [[[26.7083702, 39.4057189], [26.7083702, 39.4057189]]], [[[26.070587, 39.8397494], [25.9984597, 39.8447428], [26.0456509, 39.7966111], [26.070587, 39.8397494]]], [[[26.095494, 39.841017], [26.095494, 39.841017]]], [[[26.073083, 39.9181315], [26.073083, 39.9181315]]], [[[26.0838968, 39.9175445], [26.0838968, 39.9175445]]], [[[26.0583468, 39.9358192], [26.0583468, 39.9358192]]], [[[25.737051, 40.186744], [25.6904683, 40.1602217], [25.708153, 40.1127534], [25.7578136, 40.095549], [25.8173609, 40.103221], [25.8687657, 40.1109409], [25.9188095, 40.1239784], [25.968965, 40.126391], [26.0142657, 40.147967], [25.9650921, 40.158325], [25.972984, 40.2104105], [25.9311242, 40.2402199], [25.8815386, 40.2306341], [25.8242767, 40.2141016], [25.77024, 40.202764], [25.737051, 40.186744]]], [[[26.312399644, 40.100247616], [26.355253, 40.131754], [26.3604365, 40.1826625], [26.3989899, 40.2167364], [26.4508742, 40.2364314], [26.4938612, 40.2700674], [26.5444697, 40.2997306], [26.5914355, 40.322153], [26.6306078, 40.3634181], [26.6579032, 40.4070901], [26.6926987, 40.4476908], [26.740307, 40.477323], [26.792375, 40.493091], [26.8539139, 40.5109932], [26.9000446, 40.5364663], [26.9629657, 40.5507381], [27.013414, 40.5789829], [27.0600007, 40.6021003], [27.1098543, 40.6101319], [27.1690064, 40.6264746], [27.2156904, 40.6526875], [27.2638149, 40.6773908], [27.3090668, 40.7027257], [27.3361243, 40.7563354], [27.375859, 40.790368], [27.4201536, 40.8204724], [27.4612029, 40.8656631], [27.4811316, 40.9253436], [27.5053872, 40.9691844], [27.5600492, 40.9812509], [27.6149708, 40.9903992], [27.6687626, 40.9995824], [27.7284133, 41.011367], [27.7904766, 41.0070135], [27.8421417, 40.9915742], [27.8903375, 40.9651012], [27.9552915, 40.9640733], [27.9832445, 41.0055364], [28.0245237, 41.0392336], [28.073668, 41.056452], [28.1255259, 41.0635366], [28.184875, 41.073332], [28.236213, 41.0774505], [28.306398, 41.059953], [28.359861, 41.053815], [28.413225, 41.043545], [28.4693899, 41.0230056], [28.5181171, 40.9964806], [28.5653656, 41.0139892], [28.5948521, 40.9735744], [28.6521354, 40.9628109], [28.7121725, 40.9726918], [28.7628687, 40.9802298], [28.8107024, 40.9560035], [28.8657074, 40.9736455], [28.9173507, 40.9877947], [28.9783348, 41.0010699], [28.9448171, 41.04086], [28.9943929, 41.0326079], [29.0407865, 41.0628895], [29.0593579, 41.1093226], [29.0368106, 41.1546466], [29.0771461, 41.1856358], [29.1139531, 41.2296367], [29.0674511, 41.2522522], [29.0098367, 41.2459802], [28.9546304, 41.2622894], [28.9021654, 41.2752905], [28.8454995, 41.2872734], [28.7977055, 41.3019957], [28.7519045, 41.3288534], [28.6862673, 41.3414002], [28.6307621, 41.3527927], [28.5776236, 41.3742546], [28.514653, 41.39896], [28.466024, 41.419613], [28.4018683, 41.4432057], [28.3150462, 41.4787436], [28.2684892, 41.499989], [28.2204801, 41.5246505], [28.183146, 41.560978], [28.142916, 41.595783], [28.1008707, 41.628819], [28.099381, 41.680149], [28.061247, 41.714135], [28.033581, 41.762133], [27.99561, 41.800972], [27.979761, 41.863998], [28.0227576, 41.8916687], [28.044338, 41.938896], [28.0160637, 41.980782], [27.9618161, 41.9798481], [27.9118216, 41.9727468], [27.8682718, 41.9997142], [27.8186094, 41.9866092], [27.7784866, 41.9537295], [27.7338086, 41.9779741], [27.6841538, 41.9715765], [27.6334148, 41.954607], [27.5887617, 41.9313915], [27.5405164, 41.916179], [27.5107947, 41.9581813], [27.4556083, 41.9671667], [27.4132037, 41.999822], [27.3755614, 42.0380926], [27.3263852, 42.072312], [27.2720924, 42.0978394], [27.2213113, 42.098155], [27.1848758, 42.0638865], [27.128889, 42.069444], [27.075833, 42.089444], [27.0242978, 42.0816641], [26.9973569, 42.0361811], [26.9655868, 41.9964779], [26.9133308, 41.995456], [26.8584823, 41.9846392], [26.8038488, 41.980265], [26.7550708, 41.9600923], [26.7037364, 41.965203], [26.6463152, 41.9728633], [26.5866084, 41.9477863], [26.5776504, 41.8981604], [26.5524843, 41.8482266], [26.387391, 41.8227818], [26.3420741, 41.7797444], [26.3574429, 41.714517], [26.4003483, 41.686757], [26.4505456, 41.6820438], [26.5294976, 41.6216127], [26.5951733, 41.6101905], [26.5906227, 41.5556915], [26.6035433, 41.5012375], [26.6139185, 41.4458307], [26.6355754, 41.3850899], [26.6159636, 41.335564], [26.5601944, 41.3352916], [26.4979464, 41.3282615], [26.4649578, 41.2897577], [26.4117336, 41.2621222], [26.3572025, 41.2494523], [26.3192099, 41.2007882], [26.331756, 41.1523429], [26.3067435, 41.1085916], [26.3249494, 41.0578417], [26.3665656, 41.0204045], [26.3254612, 40.9845786], [26.3590086, 40.9452656], [26.303879, 40.9274223], [26.2564066, 40.9107256], [26.222981, 40.866562], [26.2030083, 40.8202283], [26.153285, 40.8034759], [26.1284691, 40.754886], [26.0736331, 40.7274653], [26.0640657, 40.6772065], [26.0686684, 40.6250157], [26.121774, 40.5948765], [26.1760621, 40.5939601], [26.2317997, 40.5984664], [26.304386, 40.590804], [26.358463, 40.606265], [26.4144718, 40.5990443], [26.47886, 40.6123398], [26.5331009, 40.5918759], [26.589618, 40.6308324], [26.6427447, 40.6366919], [26.6939603, 40.6375086], [26.752782, 40.650916], [26.8074269, 40.653973], [26.8390973, 40.5886106], [26.7981728, 40.5562319], [26.7444426, 40.5506675], [26.7081164, 40.5124145], [26.6520705, 40.5074504], [26.5892597, 40.4965944], [26.5318383, 40.4689472], [26.4560441, 40.4409948], [26.4126603, 40.4108035], [26.3636102, 40.3898437], [26.311732, 40.366573], [26.2634408, 40.3461711], [26.2203704, 40.3201241], [26.2608107, 40.2714281], [26.2787831, 40.2229558], [26.252436, 40.173118], [26.221995, 40.127469], [26.1868629, 40.0807692], [26.240625, 40.061474], [26.2973084, 40.0857442], [26.312399644, 40.100247616]]], [[[27.7833162, 40.3757895], [27.7833162, 40.3757895]]], [[[28.0931177, 40.4502226], [28.0931177, 40.4502226]]], [[[28.0773071, 40.4541838], [28.0773071, 40.4541838]]], [[[28.104733, 40.467072], [28.104733, 40.467072]]], [[[27.4971411, 40.4707246], [27.5318187, 40.5096361], [27.481703, 40.4987394], [27.4971411, 40.4707246]]], [[[27.5664234, 40.4667613], [27.5664234, 40.4667613]]], [[[27.62298735, 40.498442558], [27.581251, 40.4702393], [27.6339297, 40.4574035], [27.62298735, 40.498442558]]], [[[28.5264305, 40.511474], [28.550032, 40.556567], [28.5243112, 40.5114582], [28.5264305, 40.511474]]], [[[27.5891174, 40.4930699], [27.5891174, 40.4930699]]], [[[27.583188, 40.5218104], [27.583188, 40.5218104]]], [[[27.5049124, 40.552487], [27.5049124, 40.552487]]], [[[27.5843569, 40.5223844], [27.5843569, 40.5223844]]], [[[26.7321791, 40.6162738], [26.7321791, 40.6162738]]], [[[27.5641195, 40.6439166], [27.5291348, 40.6074176], [27.5751875, 40.57527], [27.6323411, 40.579771], [27.6787642, 40.6059834], [27.7272897, 40.6228235], [27.6835941, 40.6488497], [27.6367486, 40.6663813], [27.572211, 40.6531097], [27.5641195, 40.6439166]]], [[[26.7558072, 40.6191279], [26.7558072, 40.6191279]]], [[[27.758496, 40.633157], [27.758496, 40.633157]]], [[[27.4856989, 40.6405892], [27.4856989, 40.6405892]]], [[[27.6166623, 40.6602637], [27.6166623, 40.6602637]]], [[[27.680273, 40.662785], [27.680273, 40.662785]]], [[[29.2728698, 40.7907129], [29.2728698, 40.7907129]]], [[[38.4372233, 40.9283856], [38.4372233, 40.9283856]]], [[[29.1122384, 40.8194836], [29.1122384, 40.8194836]]], [[[29.126470881, 40.847135475], [29.126470881, 40.847135475]]], [[[29.1482073, 40.8479863], [29.1482073, 40.8479863]]], [[[28.9955846, 40.8656127], [28.9955846, 40.8656127]]], [[[28.9712129, 40.8742614], [28.9712129, 40.8742614]]], [[[29.055564, 40.9087843], [29.055564, 40.9087843]]], [[[29.0832149, 40.8768968], [29.0832149, 40.8768968]]], [[[29.0574181, 40.8840861], [29.0574181, 40.8840861]]], [[[29.0772139, 40.8823338], [29.0772139, 40.8823338]]], [[[28.9362904, 41.052422], [28.9362904, 41.052422]]], [[[28.940157, 41.053642], [28.940157, 41.053642]]], [[[30.2638351, 41.2169981], [30.2638351, 41.2169981]]], [[[29.226905, 41.2337091], [29.226905, 41.2337091]]], [[[32.3849452, 41.7509699], [32.3849452, 41.7509699]]], [[[32.3884316, 41.7520249], [32.3884316, 41.7520249]]]]}}]}