{"type": "FeatureCollection", "features": [{"type": "Feature", "properties": {"code": "TUV", "name": "Tuvalu", "tier": "country"}, "geometry": {"type": "MultiPolygon", "coordinates": [[[[179.867869, -9.4289835], [179.87028419999996, -9.4046161], [179.8573302, -9.38389340000003], [179.86947910000004, -9.406457200000016], [179.866698, -9.426528800000032], [179.867869, -9.4289835]]], [[[179.807238, -9.375653600000032], [179.8255711, -9.392441599999966], [179.8383054, -9.4116837], [179.82783979999996, -9.393524699999965], [179.810385, -9.381177500000025], [179.807238, -9.375653600000032]]], [[[179.1881497, -8.46909210000004], [179.17773579999997, -8.447575800000038], [179.19067810000004, -8.4747444], [179.19910820000004, -8.513736099999967], [179.18139309999998, -8.537414499999983], [179.20164460000004, -8.522675], [179.19339109999999, -8.4916513], [179.1881497, -8.46909210000004]]], [[[178.38317369999996, -8.05103060000003], [178.39519749999997, -8.02548150000004], [178.38505449999997, -8.045287], [178.37150940000004, -8.0639868], [178.38317369999996, -8.05103060000003]]], [[[178.6685933, -7.45856459999996], [178.67786420000004, -7.488234], [178.6710734, -7.462260599999968], [178.6685933, -7.45856459999996]]], [[[177.14982510000002, -7.242431599999975], [177.14982510000002, -7.242431599999975]]], [[[176.3213397, -6.3012933], [176.32417419999996, -6.276179599999974], [176.31721, -6.298476900000026], [176.3213397, -6.3012933]]], [[[177.34418860000002, -6.104082300000034], [177.34418860000002, -6.104082300000034]]], [[[176.129248, -5.679169599999986], [176.10995250000002, -5.668939599999987], [176.136266, -5.701371400000041], [176.129248, -5.679169599999986]]], [[[176.07824729999996, -5.653104700000042], [176.05914859999996, -5.6428302], [176.07824729999996, -5.653104700000042]]]]}}]}