{"type": "FeatureCollection", "features": [{"type": "Feature", "properties": {"code": "TWN", "name": "Republic Of China", "tier": "country"}, "geometry": {"type": "MultiPolygon", "coordinates": [[[[121.6083882133886, 22.001333594940036], [121.57703419235236, 22.043458736765672], [121.57249013133253, 22.08451867957268], [121.49933074891476, 22.085781873246106], [121.50228438857755, 22.053988064084137], [121.53704645537869, 22.023872104086706], [121.55658591776364, 22.00449341502491], [121.58203265947407, 21.997963042572678], [121.6083882133886, 22.001333594940036]]], [[[120.36905009898601, 22.325583041412017], [120.3872263430651, 22.342799265424674], [120.35727189282295, 22.33688142814242], [120.36905009898601, 22.325583041412017]]], [[[121.52909434859407, 22.63859622618429], [121.53363840961379, 22.667531406696355], [121.5059196373935, 22.680948550183587], [121.49274186043624, 22.651806521657818], [121.51409894722894, 22.635870134061577], [121.52909434859407, 22.63859622618429]]], [[[119.44249788081709, 23.222255656383936], [119.43362787370643, 23.25125003586811], [119.41239802062216, 23.230406786659955], [119.43333705380121, 23.215574030978473], [119.44249788081709, 23.222255656383936]]], [[[119.50436690746278, 23.386534208909325], [119.50269178480846, 23.408228376519787], [119.49189654992506, 23.385680035113808], [119.50436690746278, 23.386534208909325]]], [[[119.52372388035724, 23.543096404640153], [119.52372388035724, 23.543096404640153]]], [[[120.04900279324374, 23.513248469185896], [120.07357707523852, 23.545778494240892], [120.05118394253327, 23.534447226209977], [120.03577048755437, 23.51751516010006], [120.03853327665433, 23.474175154997113], [120.04711246385955, 23.455634618917884], [120.04900279324374, 23.513248469185896]]], [[[119.6209158926963, 23.640656147226366], [119.57918323629099, 23.608682583707946], [119.56129781211746, 23.59882249456615], [119.56013453249625, 23.57017073320202], [119.55926207278037, 23.547644727092347], [119.58369094482259, 23.55910814766196], [119.61379080501729, 23.542179256081795], [119.63196704909637, 23.57510194699222], [119.6630847789595, 23.58696275674697], [119.68635037138063, 23.578833553247136], [119.66919199697008, 23.618142242417093], [119.6337119685279, 23.628000878243938], [119.6209158926963, 23.640656147226366]]], [[[119.52698106329638, 23.658371468281075], [119.52660881381735, 23.678848987359913], [119.51404539391024, 23.654130665453238], [119.50808940225022, 23.625144614690782], [119.49115205096768, 23.60502111282858], [119.46576347323821, 23.599621988874105], [119.48888365570667, 23.587895583959437], [119.51912892585426, 23.610681160038325], [119.52698106329638, 23.658371468281075]]], [[[119.61218220741625, 23.660768846223846], [119.61786228369101, 23.687611482201987], [119.59786841520406, 23.706543667415303], [119.57014964298367, 23.695725612067918], [119.58446343519597, 23.670965535615892], [119.60173086707084, 23.658479684204792], [119.61218220741625, 23.660768846223846]]], [[[118.26986658218448, 24.433225252456907], [118.24941830759587, 24.456597773479473], [118.22987884521092, 24.447911147851812], [118.22374436283428, 24.42826061929526], [118.20920336757126, 24.41212421217398], [118.22851562690505, 24.401572368995232], [118.2510087289528, 24.41295177042315], [118.26986658218448, 24.433225252456907]]], [[[118.46679709865816, 24.47449860588199], [118.45685469314719, 24.49443965007157], [118.43390718499734, 24.513459682249277], [118.41095967684782, 24.53247683564689], [118.39005699615677, 24.515733623885694], [118.38187768632133, 24.497334188434024], [118.38051446801524, 24.473142070000165], [118.3475700256223, 24.468799402565764], [118.31485278628008, 24.494026139152197], [118.28622520185559, 24.476657452961433], [118.30008458796601, 24.452461359772997], [118.28986045067154, 24.4249507552953], [118.28758842016168, 24.403434523040232], [118.31417117712715, 24.384604812103078], [118.34916044697923, 24.41336554751325], [118.38119607716817, 24.429915518728592], [118.42868151482469, 24.416468832453745], [118.45549147484098, 24.419158284349578], [118.46781496832659, 24.436642461392296], [118.47319513657396, 24.45636613790157], [118.46679709865816, 24.47449860588199]]], [[[121.68850000916518, 25.2077712662811], [121.6704691750391, 25.230134829213796], [121.65796391911249, 25.246181439951613], [121.64814874731007, 25.26674628185316], [121.63088131543498, 25.289345507009614], [121.59521043642985, 25.29468652689326], [121.56681005505652, 25.299000255808494], [121.53432001876547, 25.289345507009614], [121.43798592514679, 25.20694077541799], [121.45031850675434, 25.183956132144033], [121.46718606125967, 25.16658525319491], [121.4772193479912, 25.145921212870178], [121.45671654467014, 25.145789583562532], [121.44450210864909, 25.163031813944997], [121.41208477733437, 25.15265879843821], [121.39027328443944, 25.14402080097335], [121.36732577628982, 25.138056112619267], [121.28235183522065, 25.12139457760378], [121.25599628130612, 25.12098315292917], [121.2360024128194, 25.11049135573512], [121.20510279788505, 25.102879096098945], [121.16307023345234, 25.08621276560956], [121.10104380053303, 25.06586442039844], [121.08432165598026, 25.051901788023372], [121.04628786524506, 25.00202344053679], [121.00948097098512, 24.960834040507052], [120.99812081843584, 24.943736390309198], [120.99721200623185, 24.922721569779583], [120.95926909671698, 24.89593278315448], [120.95949629976815, 24.864603136561755], [120.94109285263801, 24.814706658039086], [120.91950856279425, 24.785419199948194], [120.90996603465283, 24.76561531051749], [120.89133538447186, 24.744776559124546], [120.86588864276132, 24.71196392148306], [120.86543423665933, 24.68079422579916], [120.82953615460349, 24.681826459739625], [120.80244219077326, 24.670174623004016], [120.79346685232815, 24.650345593398526], [120.75758549241698, 24.62779198983833], [120.73970006824311, 24.6123256686613], [120.7385367886219, 24.5897176049358], [120.72675858245896, 24.569485876318083], [120.70887315828509, 24.542637429527815], [120.6896790445378, 24.51565093581968], [120.66728591183266, 24.481909665732758], [120.63456867249045, 24.438495824114568], [120.60461422224807, 24.3932130281691], [120.59152732651137, 24.375466218143288], [120.55401155873244, 24.32207834340909], [120.53583531465335, 24.283911438360178], [120.53553540662608, 24.26141840335407], [120.52803770594369, 24.235109344590853], [120.50486299474278, 24.213353652865067], [120.46214882115714, 24.17086754860918], [120.45555993267874, 24.148478935605283], [120.4489710442, 24.1225612914497], [120.44079173436455, 24.099749420896444], [120.41443618044991, 24.08108214066499], [120.38308215941379, 24.059092746497242], [120.37004638436326, 24.029149477507758], [120.34626106496307, 23.972395047654743], [120.29585038802531, 23.901011145522148], [120.27739014013264, 23.87406969599533], [120.25857488747272, 23.84712263832921], [120.221767993213, 23.788897877009845], [120.20404615523603, 23.776423315103898], [120.19659389516369, 23.733867744542238], [120.17769060132161, 23.707642065962546], [120.15887455345091, 23.6867749075476], [120.14686369136359, 23.648648318351434], [120.14046565344779, 23.625336455238482], [120.14532836674664, 23.547081839895213], [120.15597850976155, 23.521369229810716], [120.16634862501644, 23.501381008205385], [120.15457041885315, 23.47924333738092], [120.15355254918484, 23.4469636905593], [120.1636040121607, 23.342609529171455], [120.14588217418373, 23.320286711951667], [120.12838753925757, 23.299003525885894], [120.11929941721826, 23.27082936761991], [120.10193201600066, 23.242966570324597], [120.09495233827454, 23.217979454631063], [120.11336705467556, 23.20669497001728], [120.08488996955225, 23.172306431721438], [120.09306200889012, 23.14539679943306], [120.11167448282697, 23.134432462631594], [120.1169092411219, 23.11316979190366], [120.09862393957826, 23.090373872598718], [120.07681244668345, 23.09079187439653], [120.0740860100716, 23.058601933116563], [120.11134731043364, 23.069472125425136], [120.12030053066178, 23.043947178254996], [120.16837527623147, 22.97474656089014], [120.18995956607523, 22.95905710401206], [120.1897323630244, 22.899839168792255], [120.21668432494766, 22.857633224307335], [120.2159743154134, 22.835713930645397], [120.22555944412693, 22.788264564642873], [120.24403389221027, 22.750947948689486], [120.25607565391272, 22.73125113989107], [120.27380658001186, 22.699285984233427], [120.25198599899488, 22.668998970694872], [120.27925036511328, 22.638805923337827], [120.32070072172792, 22.595024705519222], [120.33135086474306, 22.569457374545777], [120.34164600299073, 22.53503232473804], [120.32354075986518, 22.552409852047617], [120.29301034988885, 22.587158339860252], [120.27206506862592, 22.62058728942219], [120.2862652593127, 22.567818281269012], [120.31324562161751, 22.54421317780799], [120.33348089334595, 22.520604036638815], [120.36081626041789, 22.497646837070477], [120.37944691059874, 22.48543205395606], [120.43056759707088, 22.486271772803946], [120.45056146555783, 22.468636607455096], [120.50690782220249, 22.424328851892426], [120.54575954392146, 22.39030097543457], [120.56971583361758, 22.37386378859111], [120.60301471277012, 22.342395784498308], [120.62028214464522, 22.323481306035035], [120.64368405889684, 22.29174125513333], [120.66647536494906, 22.24552399972049], [120.7013936338476, 22.16470903285108], [120.70707371012236, 22.12725045260879], [120.70616489791837, 22.105570431812794], [120.70305676018097, 22.06722021098693], [120.69665872226517, 22.02597832363392], [120.69840364169681, 21.995780567188433], [120.71483496634426, 21.982297349364615], [120.72792186208108, 21.965711234761784], [120.71919726492331, 21.94494214955438], [120.73766432890739, 21.910545111545048], [120.75787631232345, 21.909735669396696], [120.76122074123384, 21.94494214955438], [120.78432274745808, 21.93896541798358], [120.80340780374115, 21.931167471047786], [120.8358978400322, 21.91030059304751], [120.8577093329269, 21.89259296576887], [120.86385801549159, 21.929402335905195], [120.85746792968246, 21.953440540777706], [120.8741531537396, 21.9850462390325], [120.8982934779068, 22.012695452648188], [120.8940334207008, 22.060739582763176], [120.89651845407093, 22.095610712906478], [120.89793847313956, 22.21759176407818], [120.90630327296606, 22.34028773527956], [120.92294412142701, 22.365425458462255], [120.93245913669921, 22.391771487990184], [120.93791200992257, 22.42579900438784], [120.9449553045032, 22.4581384192025], [120.96881162485704, 22.481023446434165], [120.96994764011174, 22.511880749852025], [120.9810805896102, 22.5348576203001], [120.99445830525224, 22.55379366491104], [121.03182866307861, 22.58521370500216], [121.03810855540803, 22.607138029601515], [121.04969591100837, 22.637338036540598], [121.07468824661692, 22.666692791647847], [121.10604226765304, 22.68828549522533], [121.13966831919913, 22.709246030794247], [121.17670241651012, 22.74256667483337], [121.19601467584403, 22.76351889547965], [121.2216886206055, 22.797664123886193], [121.22100701145257, 22.845411200192757], [121.24781697146898, 22.867394351412486], [121.27599014979137, 22.888536693314393], [121.28803191149382, 22.905490053404947], [121.29416639387046, 22.924533892945135], [121.32506600880458, 22.948178011988546], [121.33665336440492, 22.974537380108814], [121.34475088114209, 22.99730271572099], [121.35696531716326, 23.02366922824342], [121.36801647356322, 23.055248719682538], [121.3884556600301, 23.078669294477095], [121.41776485360731, 23.100405556861574], [121.43048822446269, 23.133212290444476], [121.43577751149007, 23.154221102036047], [121.44464751860073, 23.18202722270263], [121.43199685272145, 23.200472326449756], [121.43912194040058, 23.232210658068823], [121.46297826075408, 23.274794979996727], [121.47532901860575, 23.295731455647285], [121.48797968448469, 23.312424849394063], [121.49433228179032, 23.369099965071428], [121.51341733807317, 23.383281645814918], [121.51909741434793, 23.40434281151795], [121.52665873188482, 23.427218530579353], [121.53203890013208, 23.44976512965866], [121.5391639878111, 23.486045065572057], [121.54468956601124, 23.507381543453846], [121.54704338961938, 23.55688385571807], [121.55326875321646, 23.59016099386656], [121.5599576110377, 23.623604551220808], [121.56650105890606, 23.66250025851525], [121.57348073663252, 23.699786648733266], [121.58540435274813, 23.721754000305737], [121.59816407609162, 23.75438199816307], [121.59975449744854, 23.79180843588199], [121.60520737067225, 23.814051268197545], [121.61841241199579, 23.841377709999506], [121.61913946175878, 23.869039138427866], [121.62656445746507, 23.92084685122444], [121.62565564526142, 23.94244457425043], [121.64474070154415, 23.976287579135203], [121.66276244754863, 23.999250248772967], [121.67003294518031, 24.037672283774555], [121.6522929309591, 24.04749908459968], [121.64720358261707, 24.085736770341498], [121.6591271987329, 24.107373185480867], [121.67134163475384, 24.123830341590917], [121.68413771058556, 24.1438680525564], [121.68442853049078, 24.16589264043506], [121.69693378641716, 24.19786133571114], [121.72325298784358, 24.214174220675716], [121.75135782348832, 24.241405452569495], [121.76454941439113, 24.26283520923505], [121.80133813240695, 24.30114097677665], [121.81491578673399, 24.342382960706118], [121.80832689825525, 24.38791573382815], [121.8224134874165, 24.4288812091267], [121.83445524911883, 24.45287500725442], [121.86467325490014, 24.484308241167412], [121.86376444269615, 24.50622413962219], [121.8896655905088, 24.531856756502407], [121.89534566678344, 24.56595655958762], [121.88398551423427, 24.587238402132243], [121.90261616441512, 24.60851662828003], [121.88489432643826, 24.619257659231323], [121.86126520913547, 24.630617361031113], [121.86285563049239, 24.666342053424444], [121.85717555421775, 24.716710938994595], [121.83990812234265, 24.73982426279241], [121.83990812234265, 24.76561531051749], [121.8464970108214, 24.787275652586573], [121.85354030540202, 24.81548206290705], [121.86012919388077, 24.8417192324452], [121.86103800608453, 24.86934431685296], [121.90875064679187, 24.911594626202373], [121.93987746477728, 24.948268528811354], [121.9705197040953, 24.970750083981045], [122.01232797367595, 25.000911507987894], [122.03602979595507, 25.01211273885025], [122.01303684719517, 25.033935731628446], [121.95464566309147, 25.028995016474823], [121.9478295715619, 25.05678395062324], [121.9369238251146, 25.08806469221878], [121.93078934273797, 25.11172573155943], [121.88375831118344, 25.12694867512448], [121.85217708709638, 25.133325290520588], [121.82536712707986, 25.140112934624938], [121.80310122808316, 25.14566618095779], [121.7819713443414, 25.151630497466726], [121.75811502398756, 25.157183219762032], [121.7231257541356, 25.178774736994967], [121.71335602294323, 25.20632407061595], [121.69427096666027, 25.195839610980897], [121.68850000916518, 25.2077712662811]]], [[[119.94368565899754, 25.968824622838667], [119.91741530622721, 25.98063297968372], [119.94368565899754, 25.968824622838667]]], [[[119.9947921452789, 25.984960285984528], [119.96979980967035, 25.968824622838667], [119.95866686017189, 25.946353557076577], [119.98661283544322, 25.96024526770725], [119.9947921452789, 25.984960285984528]]], [[[119.93208410320665, 26.172705958214465], [119.90731897064893, 26.16067478904887], [119.91413506217862, 26.136608727844873], [119.93503774286944, 26.14170788393477], [119.95821245407012, 26.150885803623737], [119.97684310425097, 26.16862773485832], [119.95548601745838, 26.170462953021683], [119.92776724523776, 26.163121907061793], [119.93208410320665, 26.172705958214465]]], [[[120.00741554679189, 26.234286084954363], [120.01614014394988, 26.253588396879707], [119.99461947096029, 26.24328553469479], [119.97571617711822, 26.228025187286846], [119.96437420081304, 26.199325094231483], [119.98778520318672, 26.218241859890668], [120.0100329259393, 26.20780540384709], [120.01614014394988, 26.229720880357604], [120.00741554679189, 26.234286084954363]]]]}}]}