{"type": "FeatureCollection", "features": [{"type": "Feature", "properties": {"code": "UGA", "name": "Uganda", "tier": "country"}, "geometry": {"type": "MultiPolygon", "coordinates": [[[[31.831806399999966, -0.998941900000023], [31.831806399999966, -0.998941900000023]]], [[[32.333693500000045, -0.674569400000031], [32.333693500000045, -0.674569400000031]]], [[[32.310004200000016, -0.63062689999997], [32.310004200000016, -0.63062689999997]]], [[[32.36167429999997, -0.614491699999959], [32.36167429999997, -0.614491699999959]]], [[[32.23893650000003, -0.565383200000031], [32.23893650000003, -0.565383200000031]]], [[[32.32013230000002, -0.482131], [32.298159700000014, -0.53002260000003], [32.32013230000002, -0.482131]]], [[[32.24082480000004, -0.48590739999998], [32.24082480000004, -0.48590739999998]]], [[[32.35137469999999, -0.436127199999987], [32.35137469999999, -0.436127199999987]]], [[[32.39600659999998, -0.3951012], [32.34742649999998, -0.4203348], [32.404418, -0.414155100000019], [32.39600659999998, -0.3951012]]], [[[32.42312910000003, -0.384115099999977], [32.42312910000003, -0.384115099999977]]], [[[32.5230361, -0.379652], [32.48801710000003, -0.416043400000027], [32.47874739999999, -0.465652], [32.5211478, -0.437157100000025], [32.52801419999996, -0.386518300000044], [32.5230361, -0.379652]]], [[[32.5573683, -0.368151], [32.5573683, -0.368151]]], [[[32.308631, -0.3720991], [32.31326589999997, -0.422909599999971], [32.321848900000035, -0.370554199999979], [32.308631, -0.3720991]]], [[[32.570929600000035, -0.363172899999959], [32.570929600000035, -0.363172899999959]]], [[[32.46793280000003, -0.3389691], [32.4301673, -0.372270699999983], [32.4826956, -0.3757039], [32.46793280000003, -0.3389691]]], [[[32.38811019999997, -0.33261770000001], [32.428279, -0.362829599999976], [32.38811019999997, -0.33261770000001]]], [[[32.52028950000004, -0.327811299999964], [32.52028950000004, -0.327811299999964]]], [[[32.6143599, -0.321803199999965], [32.6143599, -0.321803199999965]]], [[[32.4471698, -0.255682600000035], [32.4471698, -0.255682600000035]]], [[[32.327521900000015, -0.22564210000004], [32.3601375, -0.265810500000025], [32.327521900000015, -0.22564210000004]]], [[[32.5839758, -0.221725800000011], [32.5839758, -0.221725800000011]]], [[[32.069982899999964, -0.218494900000027], [32.07671650000004, -0.2696189], [32.11877349999997, -0.29897260000002], [32.162203800000015, -0.331587799999972], [32.212329, -0.3248931], [32.23687650000003, -0.3702109], [32.2071791, -0.413983500000032], [32.17662340000001, -0.462218900000017], [32.158942299999985, -0.511655600000011], [32.208209099999955, -0.492773600000013], [32.23395829999998, -0.448486400000031], [32.28442669999998, -0.4740632], [32.28356840000002, -0.421193099999967], [32.2739554, -0.3700392], [32.305884400000025, -0.33072950000001], [32.25764760000001, -0.298457600000041], [32.2052908, -0.306525600000035], [32.16426380000002, -0.27682860000004], [32.19344619999998, -0.232197], [32.14314939999996, -0.22687559999996], [32.0918227, -0.22962210000001], [32.069982899999964, -0.218494900000027]]], [[[32.3220287, -0.185988600000026], [32.3220287, -0.185988600000026]]], [[[32.276195100000045, -0.1684792], [32.276195100000045, -0.1684792]]], [[[33.70965310000003, -0.088699799999964], [33.66502110000003, -0.11582220000001], [33.7021, -0.149811100000025], [33.71686289999998, -0.092133], [33.70965310000003, -0.088699799999964]]], [[[32.6023136, -0.084706799999984], [32.6023136, -0.084706799999984]]], [[[33.16849089999999, -0.042823300000022], [33.16849089999999, -0.042823300000022]]], [[[32.7683402, -0.062081200000036], [32.71495350000003, -0.0548715], [32.681651199999976, -0.09607019999997], [32.72748480000001, -0.127312500000015], [32.78275969999998, -0.120446], [32.81520369999998, -0.07873240000002], [32.7683402, -0.062081200000036]]], [[[32.67002510000002, -0.023270500000034], [32.67002510000002, -0.023270500000034]]], [[[33.67909749999996, 0.002280500000023], [33.67909749999996, 0.002280500000023]]], [[[32.9424833, 0.0239145], [32.89917190000003, -0.00123389999997], [32.951637, 0.010473100000024], [32.9424833, 0.0239145]]], [[[33.649653, 0.016837500000016], [33.649653, 0.016837500000016]]], [[[32.806763099999976, 0.045898300000041], [32.767947, 0.014298199999968], [32.76304469999998, -0.038512599999957], [32.804676399999984, -0.005645500000035], [32.806763099999976, 0.045898300000041]]], [[[33.2853063, 0.0656235], [33.25319, 0.019946200000015], [33.3016141, 0.039531], [33.2853063, 0.0656235]]], [[[33.27363329999998, 0.075923199999989], [33.27363329999998, 0.075923199999989]]], [[[33.04755540000004, 0.094462699999981], [33.04755540000004, 0.094462699999981]]], [[[33.1090101, 0.109912200000012], [33.1090101, 0.109912200000012]]], [[[33.127034500000015, 0.134288], [33.127034500000015, 0.134288]]], [[[33.81059, 0.122958399999967], [33.7609799, 0.103904], [33.8089169, 0.08701020000002], [33.861000599999976, 0.084452599999968], [33.81917310000003, 0.114890299999964], [33.81059, 0.122958399999967]]], [[[33.5687192, 0.1564322], [33.5791906, 0.107165500000034], [33.5687192, 0.1564322]]], [[[33.180421199999984, 0.17171], [33.16583, 0.122443399999988], [33.191750900000024, 0.1703367], [33.180421199999984, 0.17171]]], [[[33.17492809999996, 0.200205700000017], [33.17492809999996, 0.200205700000017]]], [[[33.413537399999974, 0.244494], [33.413537399999974, 0.244494]]], [[[33.48323190000003, 0.29049869999998], [33.48323190000003, 0.29049869999998]]], [[[33.624165799999965, 0.287752200000019], [33.624165799999965, 0.287752200000019]]], [[[33.3055623, 0.3119561], [33.2466825, 0.302171499999987], [33.2061704, 0.272817799999975], [33.24839910000002, 0.231104499999973], [33.2265981, 0.183554600000041], [33.271401699999984, 0.149050799999967], [33.3115705, 0.1142036], [33.340237899999984, 0.155230599999961], [33.3256467, 0.203638900000041], [33.37336859999996, 0.219088299999975], [33.38778810000003, 0.267496400000039], [33.34899269999996, 0.306291299999978], [33.352425899999986, 0.25187530000002], [33.29921090000001, 0.263719800000023], [33.32084020000004, 0.310239499999981], [33.3055623, 0.3119561]]], [[[33.3481344, 0.326547099999957], [33.3481344, 0.326547099999957]]], [[[34.08843470000003, 3.861268700000037], [34.119928, 3.900836499999977], [34.13415080000002, 3.955386600000016], [34.08211679999998, 4.002265600000039], [34.09162019999999, 4.061282099999969], [34.04953160000002, 4.121118699999988], [34.047375100000025, 4.179156400000023], [33.9877616, 4.234076600000042], [33.5110748, 3.751821700000041], [33.17882140000004, 3.778745199999972], [33.08166469999998, 3.852863], [33.0277605, 3.893613700000015], [32.90116520000002, 3.81560610000003], [32.72023439999999, 3.767808], [32.4152796, 3.745619], [32.19716559999997, 3.600491700000036], [32.20756040000002, 3.548795200000027], [32.102486, 3.532043499999987], [32.06934949999996, 3.571497700000032], [32.0199218, 3.584343099999982], [31.969080799999986, 3.575910899999962], [31.951668199999975, 3.62925920000004], [31.931882299999973, 3.6992833], [31.8970308, 3.750038700000041], [31.841792600000044, 3.803722], [31.7820694, 3.788543499999958], [31.74260459999996, 3.7556545], [31.692431599999974, 3.718859599999985], [31.608872, 3.692539200000039], [31.545677899999983, 3.656361], [31.49137670000002, 3.6818526], [31.41511460000004, 3.7223431], [31.35242089999997, 3.752820900000026], [31.28906420000002, 3.796602], [31.18197670000003, 3.794710799999984], [31.1358243, 3.769149300000036], [31.093627499999958, 3.742015600000032], [31.050283300000018, 3.7163952], [30.998859, 3.704547], [30.955965, 3.668181], [30.939588, 3.61974], [30.903544, 3.574058], [30.87868289999998, 3.525557499999971], [30.931598, 3.504816900000024], [30.936712599999975, 3.4534444], [30.9368053, 3.399166899999956], [30.903612799999983, 3.360605200000039], [30.882147700000043, 3.309667800000044], [30.845899699999983, 3.269675], [30.826646, 3.217722699999987], [30.8096549, 3.161445699999971], [30.79942979999997, 3.104135199999975], [30.774914100000043, 3.059696100000037], [30.8021814, 3.0068121], [30.85800320000001, 2.961665699999988], [30.866454900000043, 2.91177689999998], [30.890147099999957, 2.858263199999983], [30.867514799999988, 2.794085599999968], [30.831610899999976, 2.7521977], [30.8093166, 2.7072436], [30.792886199999984, 2.653143100000027], [30.777962799999962, 2.603701900000016], [30.755807600000033, 2.556924799999988], [30.7585413, 2.497770500000024], [30.74180579999997, 2.44796689999996], [30.796030700000014, 2.4278252], [30.841006799999974, 2.404139199999983], [30.873623100000017, 2.365730700000041], [30.911101700000025, 2.3318747], [30.9488987, 2.36538360000001], [30.98242410000003, 2.404787299999961], [31.0283256, 2.382985799999987], [31.0743005, 2.343626299999963], [31.0820593, 2.293997200000037], [31.124828, 2.266367500000027], [31.172138899999972, 2.282840600000019], [31.20307520000001, 2.2208559], [31.27742307258457, 2.177941605351902], [31.30358910000002, 2.220703], [31.334206300000037, 2.264815899999989], [31.36643789999996, 2.318873200000021], [31.414644799999984, 2.3339602], [31.462816700000044, 2.361057600000011], [31.47014390000003, 2.420760200000044], [31.50723849999997, 2.460251], [31.47198070000004, 2.5119225], [31.530721, 2.488027900000028], [31.49470870000002, 2.453333800000018], [31.47901849999997, 2.3770325], [31.4561994, 2.330160500000017], [31.40906030000004, 2.30713820000002], [31.3730261, 2.268747799999976], [31.364098800000043, 2.219113200000039], [31.387096599999968, 2.1594009], [31.387546, 2.1067019], [31.4103876, 2.045092799999965], [31.4048391, 1.994846599999961], [31.417147899999968, 1.945352600000022], [31.39319369999996, 1.873171799999957], [31.370142200000032, 1.824433], [31.319828300000022, 1.80987369999997], [31.316751900000032, 1.749839300000017], [31.2894965, 1.70609640000004], [31.24915249999996, 1.671491699999966], [31.1867231, 1.6172667], [31.144328799999958, 1.5869192], [31.091218899999976, 1.587911500000044], [31.042333600000042, 1.5675056], [30.9721025, 1.531287700000022], [30.930625800000037, 1.493790199999961], [30.90804220000001, 1.44243790000001], [30.868682200000034, 1.406725300000017], [30.839392, 1.358167800000026], [30.79995459999996, 1.318691099999985], [30.7590587, 1.277878099999957], [30.7299702, 1.229794], [30.717804, 1.180157799999987], [30.67858330000002, 1.129328599999973], [30.63956709999998, 1.094663300000037], [30.6189346, 1.042858200000013], [30.56623539999999, 1.038503300000021], [30.535672400000017, 0.9982658], [30.54503520000003, 1.04766520000002], [30.49126309999997, 1.052165599999971], [30.50780929999997, 1.104672], [30.48401109999999, 1.151542100000019], [30.450760599999963, 1.192424899999961], [30.400165799999982, 1.188971699999969], [30.347293799999967, 1.1877655], [30.312734800000033, 1.15123940000002], [30.260976200000037, 1.144655299999969], [30.238285500000032, 1.0952907], [30.221338800000023, 1.0472162], [30.2228939, 0.995741200000016], [30.184192100000033, 0.96359], [30.175309499999962, 0.912704699999961], [30.135098600000013, 0.8826797], [30.084678700000026, 0.881642100000041], [30.0351889, 0.864285799999981], [29.988773499999958, 0.842882], [29.97248580000003, 0.794090200000036], [29.976635800000032, 0.743485400000027], [29.97203959999997, 0.6926614], [29.955799900000017, 0.641755799999971], [29.97187319999997, 0.5927713], [29.978493, 0.543018699999981], [29.8724054, 0.388035], [29.823737, 0.171768900000019], [29.77336, 0.162515700000015], [29.735758500000035, 0.124145699999972], [29.722984, 0.0754887], [29.72054130000004, 0.025394200000034], [29.73561340000002, -0.023006400000031], [29.731938399999972, -0.078334699999977], [29.773615700000015, -0.109956599999989], [29.8193296, -0.1390644], [29.8675458, -0.15722], [29.886492899999965, -0.2096922], [29.873637199999962, -0.297131099999976], [29.8389545, -0.350980899999981], [29.793807600000036, -0.39458190000003], [29.751452400000037, -0.427604899999973], [29.698535500000038, -0.450027], [29.682300600000037, -0.497914700000041], [29.65622720000001, -0.541641], [29.65216, -0.592255399999981], [29.652077500000033, -0.645400600000041], [29.6346035, -0.692954300000021], [29.6296323, -0.742863699999958], [29.6272578, -0.795257], [29.6332091, -0.846363099999986], [29.638262, -0.90053], [29.587835, -0.900162], [29.592496, -0.955814], [29.583539, -1.019658], [29.583267, -1.10576], [29.586759, -1.156361], [29.591837, -1.20799], [29.593404, -1.273693], [29.591164, -1.387698], [29.6452069, -1.384824500000032], [29.6909983, -1.362316400000036], [29.746598100000025, -1.341948600000026], [29.796857599999974, -1.3732393], [29.8195206, -1.327602199999962], [29.861491399999988, -1.360951900000024], [29.883649900000012, -1.406170100000032], [29.897830500000037, -1.458058099999988], [29.961673299999973, -1.461429], [30.011218499999973, -1.425715899999975], [30.06445619999996, -1.393156799999957], [30.11218429999998, -1.376255399999966], [30.1699299, -1.345172499999964], [30.16966920000002, -1.274416], [30.219282200000034, -1.26615110000003], [30.253042599999972, -1.225184900000026], [30.292355799999985, -1.1893013], [30.323261900000013, -1.137198200000017], [30.343713799999964, -1.091053], [30.38915309999997, -1.0676373], [30.438208600000042, -1.052506100000023], [30.49018070000003, -1.05864860000004], [30.5385094, -1.075498600000041], [30.59053609999998, -1.06163280000004], [30.64900550000003, -1.065838699999961], [30.68214129999998, -1.0279173], [30.728428399999967, -1.00885339999996], [30.77503559999997, -0.986635099999961], [31.26986110000001, -1.0], [31.787894479844162, -0.999408298709631], [31.78186179999996, -0.945695899999971], [31.773131499999966, -0.876478699999978], [31.712622800000027, -0.867654799999968], [31.69751649999997, -0.808609599999971], [31.725669, -0.7457873], [31.758628, -0.700129], [31.8084098, -0.646917699999978], [31.788497099999983, -0.594392399999961], [31.819052799999973, -0.544269699999961], [31.841368799999973, -0.4965498], [31.918692500000038, -0.43042460000004], [31.96389259999997, -0.3825214], [31.983847700000027, -0.3365657], [32.021269899999986, -0.302234], [31.996207300000016, -0.2538262], [31.990714099999987, -0.202843199999964], [31.940245699999984, -0.196663399999969], [31.94453719999997, -0.2478181], [31.92445289999997, -0.1992379], [31.942219100000017, -0.150774499999978], [31.965719699999976, -0.104750800000025], [32.01474680000001, -0.088361200000015], [32.065458399999976, -0.098349199999975], [32.02311030000003, -0.054037099999976], [32.070783200000015, -0.035906399999969], [32.12383389999998, -0.057045600000033], [32.173190199999986, -0.071538400000043], [32.21850880000004, -0.045961], [32.2111274, 0.006395599999981], [32.25953590000002, -0.011972], [32.30674269999999, 0.00776890000001], [32.2578192, 0.0242484], [32.3144674, 0.027681600000023], [32.36966480000004, 0.019618399999982], [32.352841899999966, 0.067168600000028], [32.39963030000004, 0.08735370000002], [32.44455679999999, 0.114387600000026], [32.440487, 0.0637665], [32.48526409999997, 0.086367400000037], [32.52193280000002, 0.049966400000018], [32.57264480000002, 0.0413474], [32.55763390000004, 0.091372800000028], [32.583873, 0.135374899999957], [32.567075299999985, 0.1864729], [32.617200600000025, 0.196978499999983], [32.6351313, 0.247429100000024], [32.66310490000004, 0.289446799999987], [32.64786969999998, 0.2409559], [32.6802001, 0.2027806], [32.7310119, 0.198145800000021], [32.73393010000004, 0.148020900000017], [32.684835, 0.135146399999969], [32.65891410000004, 0.08948450000002], [32.7104125, 0.095321], [32.75178289999997, 0.1245034], [32.8037963, 0.14149780000004], [32.85477969999997, 0.133086399999965], [32.85289139999997, 0.183898], [32.9028449, 0.174113300000017], [32.89409010000002, 0.124846699999975], [32.89615010000003, 0.07455], [32.954514900000035, 0.082274699999979], [33.0077299, 0.108710599999978], [33.052018600000025, 0.135318], [33.0930456, 0.186301200000011], [33.04618210000002, 0.220118300000022], [33.08343259999998, 0.259256799999968], [33.105920199999964, 0.2127369], [33.1519255, 0.247412299999966], [33.14317070000002, 0.3019999], [33.18951930000003, 0.323285600000017], [33.23415120000002, 0.3509226], [33.21784340000003, 0.399158400000027], [33.251929, 0.43865170000002], [33.28663819999998, 0.4753678], [33.31215580000003, 0.427684699999969], [33.3584341, 0.448595499999965], [33.394997899999986, 0.485501500000024], [33.36547220000004, 0.4381245], [33.3622106, 0.387485700000028], [33.31328710000002, 0.376156300000013], [33.37285359999998, 0.35555729999997], [33.41405230000004, 0.318650799999959], [33.4411748, 0.36843170000001], [33.46812569999998, 0.321569], [33.50451789999998, 0.286378899999989], [33.45439279999996, 0.276422599999987], [33.40186440000004, 0.2841473], [33.439629899999986, 0.249643800000038], [33.4717305, 0.2046688], [33.52477389999998, 0.2026089], [33.56562929999996, 0.169993400000018], [33.60253650000003, 0.205527100000041], [33.62210589999997, 0.2565102], [33.61060460000003, 0.307493], [33.661588, 0.308694599999964], [33.711369799999964, 0.322770600000038], [33.76630140000004, 0.313157700000027], [33.71600460000002, 0.293588600000022], [33.74317470000002, 0.2511923], [33.70930979999996, 0.209990300000023], [33.75205350000004, 0.178919799999982], [33.786385799999955, 0.2185733], [33.80887340000003, 0.169135099999967], [33.83925750000004, 0.208960399999985], [33.87358980000004, 0.165701900000031], [33.913758499999965, 0.1967725], [33.952897300000025, 0.231104499999973], [34.003246785875525, 0.236944385593302], [34.03810719999996, 0.275617], [34.056262799999985, 0.3237932], [34.09741769999997, 0.354598200000017], [34.10037079999997, 0.413873899999989], [34.11179349999998, 0.4784035], [34.126134, 0.539250599999957], [34.14813519999998, 0.584776], [34.18943519999998, 0.613580500000027], [34.24044530000004, 0.62867039999997], [34.280229799999965, 0.661257299999979], [34.31421910000002, 0.698017499999964], [34.3123533, 0.753669], [34.358091699999974, 0.774342800000022], [34.4143656, 0.808072], [34.4332669, 0.8552711], [34.456302600000036, 0.903513899999969], [34.482543599999985, 0.954892599999973], [34.48867450000002, 1.017693], [34.502514700000035, 1.070549599999976], [34.57498379999998, 1.098617800000029], [34.5793723, 1.150042099999987], [34.63605970000004, 1.171696400000038], [34.695534200000026, 1.213314200000043], [34.74958279999996, 1.2196911], [34.805184, 1.230623], [34.82899660000003, 1.274888400000035], [34.80872, 1.335444], [34.802877699999975, 1.397255500000033], [34.82690210000002, 1.4479027], [34.86407739999998, 1.5283409], [34.94367010000002, 1.5766085], [34.991239399999955, 1.664358699999974], [35.000308, 1.7585458], [35.0002053, 1.962408700000024], [34.980020400000015, 2.052009700000018], [34.94551709999998, 2.211344400000021], [34.920208199999976, 2.373031699999989], [34.916643900000025, 2.424685], [34.95255110000004, 2.461189699999961], [34.93306010000002, 2.51594029999998], [34.89730680000003, 2.588013899999969], [34.8385359, 2.604214599999982], [34.799189800000015, 2.6558329], [34.784133800000035, 2.748524600000019], [34.76722949999998, 2.8024449], [34.736348, 2.854985500000035], [34.6849733, 2.864042200000033], [34.6392915, 2.906730300000044], [34.5887802, 2.982108800000011], [34.57573380000004, 3.0352048], [34.57230070000002, 3.091398], [34.545815799999964, 3.13652920000001], [34.4948402, 3.141351699999967], [34.455822099999985, 3.181988], [34.447432600000035, 3.282950500000032], [34.42995819999997, 3.342712600000014], [34.40169370000002, 3.415044599999978], [34.40380080000001, 3.4700216], [34.45149689999996, 3.5171323], [34.456675900000015, 3.575467300000029], [34.463224, 3.669496400000033], [34.404907099999974, 3.692743499999979], [34.36507239999998, 3.735160600000037], [34.315866, 3.71623340000003], [34.266446799999976, 3.74824280000004], [34.226018900000014, 3.782553400000027], [34.1708766, 3.767705600000043], [34.168596199999975, 3.818315600000039], [34.22601089999998, 3.831006700000012], [34.215571599999976, 3.880858900000012], [34.15259270000002, 3.868799800000017], [34.0926638, 3.859888399999961], [34.08843470000003, 3.861268700000037]]]]}}]}