{"type": "FeatureCollection", "features": [{"type": "Feature", "properties": {"code": "UKR", "name": "Ukraine", "tier": "country"}, "geometry": {"type": "Polygon", "coordinates": [[[33.196183800000036, 52.3736133], [33.156199, 52.33841229999998], [33.10752789999999, 52.3267118], [33.0616497, 52.3061155], [33.0063928, 52.28876130000002], [32.944963500000014, 52.2642434], [32.88755860000002, 52.2450985], [32.833022399999976, 52.278294599999974], [32.77880459999999, 52.2614815], [32.72598080000005, 52.25633609999998], [32.66210290000006, 52.278668900000035], [32.6117937, 52.30078009999996], [32.550034200000034, 52.32686590000004], [32.499542, 52.32124549999997], [32.4338058, 52.322026500000014], [32.3768323, 52.337308300000025], [32.37030109999998, 52.2749543], [32.324542, 52.223413299999976], [32.336913399999965, 52.17409689999999], [32.31799440000002, 52.121929700000024], [32.27025910000002, 52.0973709], [32.22229950000003, 52.08059330000003], [32.1709538, 52.07223909999998], [32.12571470000004, 52.0457551], [32.065939, 52.03469919999996], [32.0162252, 52.048284], [31.960546600000015, 52.05211130000002], [31.917235100000028, 52.09679370000002], [31.867791700000012, 52.110178199999986], [31.811181400000045, 52.0983693], [31.75581, 52.10412], [31.69787, 52.10773], [31.62586, 52.11562], [31.563227199999986, 52.12048160000002], [31.488731, 52.11622569999996], [31.43755, 52.14231], [31.37986820000004, 52.1342741], [31.327768200000037, 52.1052641], [31.29752079999998, 52.051623], [31.232896899999986, 52.049101799999974], [31.1724178, 52.075844899999986], [31.128545900000013, 52.10052979999997], [31.066248200000025, 52.09119409999998], [31.009598199999964, 52.08114410000004], [30.958601400000028, 52.090853400000036], [30.935144499999957, 52.04263], [30.89478, 52.00226760000002], [30.8487462, 51.96156260000004], [30.805677500000037, 51.907223200000026], [30.749828, 51.9034423], [30.70865049999997, 51.86816919999997], [30.66725829999998, 51.82155039999998], [30.628485600000012, 51.77303630000003], [30.62672449999996, 51.71362510000004], [30.576433, 51.71126709999998], [30.573535700000022, 51.6602289], [30.536448, 51.62240119999996], [30.555318499999963, 51.574721899999986], [30.57000310000003, 51.521563100000044], [30.5931572, 51.4767695], [30.591348099999983, 51.424931], [30.6556975, 51.376181], [30.628538500000033, 51.333699100000025], [30.607086500000023, 51.280212400000046], [30.50424169999998, 51.27945980000003], [30.443581700000045, 51.30848380000003], [30.3915306, 51.321464299999974], [30.350158199999967, 51.35047409999995], [30.3488682, 51.42349], [30.2986994, 51.4562032], [30.2466296, 51.48553360000003], [30.180170799999985, 51.51252240000004], [30.12797629999998, 51.5060565], [30.0706982, 51.499214099999975], [30.01811880000004, 51.506039600000015], [29.973449299999956, 51.4832779], [29.9229782, 51.48814410000002], [29.878778200000035, 51.45784409999996], [29.81714820000004, 51.44977409999998], [29.7492582, 51.45707410000002], [29.739478200000015, 51.509344099999964], [29.6767282, 51.5121741], [29.624548200000035, 51.4944041], [29.579318200000024, 51.46239410000002], [29.521718199999967, 51.45243409999998], [29.502358, 51.40214020000002], [29.45159819999997, 51.4089241], [29.39580820000002, 51.408234100000016], [29.3443982, 51.38411409999996], [29.31572819999998, 51.4337241], [29.2717782, 51.46582410000004], [29.255128200000037, 51.523844100000034], [29.2191682, 51.568484099999985], [29.180458199999983, 51.611314100000016], [29.14989819999999, 51.652594100000044], [29.09917820000004, 51.6409241], [29.043048200000023, 51.602644100000035], [29.001668199999976, 51.57328410000004], [28.931718200000013, 51.58633410000004], [28.8740382, 51.5743141], [28.82374820000001, 51.55878409999996], [28.78580820000002, 51.50942410000001], [28.785118200000035, 51.453294], [28.73799819999997, 51.4357841], [28.68778820000003, 51.4447141], [28.6612682, 51.510204099999974], [28.658178200000037, 51.56075409999998], [28.55895819999997, 51.5731141], [28.4715441, 51.593459400000015], [28.39733819999998, 51.5509741], [28.34557820000004, 51.57809410000002], [28.286788200000025, 51.62341410000002], [28.2744282, 51.6719941], [28.173748200000013, 51.64392409999998], [28.135468200000048, 51.60882409999996], [28.0843982, 51.57492410000002], [28.01616819999998, 51.5636741], [27.945788199999967, 51.55818409999997], [27.9802882, 51.59560410000001], [27.930418200000027, 51.57766409999997], [27.898318199999984, 51.61869410000001], [27.843868800000017, 51.6305524], [27.8296582, 51.57869410000002], [27.805329099999966, 51.53106739999995], [27.76974820000003, 51.49269409999999], [27.710178200000044, 51.497754099999966], [27.683658200000014, 51.5410941], [27.73463819999998, 51.59371410000004], [27.688378200000017, 51.612944099999964], [27.635848199999966, 51.60865410000002], [27.5880382, 51.62487410000003], [27.524098200000022, 51.63628409999996], [27.510618199999968, 51.5878741], [27.462818200000036, 51.611484099999956], [27.392755, 51.604933500000016], [27.267370899999985, 51.60622170000002], [27.25026170000003, 51.66729209999998], [27.20617820000003, 51.763064], [27.1290182, 51.77224410000003], [26.99374820000001, 51.76855409999998], [26.95048820000002, 51.7361941], [26.888268199999974, 51.75130410000001], [26.832558199999976, 51.7661541], [26.782258199999962, 51.767604099999986], [26.72866509999997, 51.815561], [26.661728600000032, 51.824834500000016], [26.6090582, 51.82846410000003], [26.559958199999976, 51.813354100000026], [26.506488200000042, 51.799794100000014], [26.45567820000002, 51.81498409999998], [26.40142820000003, 51.83524410000004], [26.34623819999998, 51.86511410000005], [26.295178199999967, 51.8694041], [26.23105820000001, 51.871804099999984], [26.17663819999999, 51.86682409999996], [26.129948199999973, 51.8936941], [26.048651499999984, 51.9136818], [25.997768200000024, 51.93197409999996], [25.947751900000036, 51.9193508], [25.894880200000046, 51.918689], [25.82947719999998, 51.92498829999998], [25.78379820000004, 51.95205409999996], [25.71135820000002, 51.917724], [25.59588189999996, 51.92357170000001], [25.5272964, 51.94043729999997], [25.465904800000025, 51.920386900000025], [25.409967, 51.92172709999998], [25.359389200000013, 51.93457839999997], [25.309279500000024, 51.94908909999995], [25.24512150000003, 51.9669005], [25.191414899999973, 51.96923609999999], [25.1421405, 51.95314289999999], [25.08011350000002, 51.94708169999995], [25.020320100000024, 51.91885610000002], [24.962577100000036, 51.89756239999996], [24.9145333, 51.916872799999965], [24.843099600000027, 51.89601220000004], [24.792828700000022, 51.89657230000002], [24.735110300000027, 51.88492750000002], [24.671844300000032, 51.892654300000025], [24.60476950000002, 51.90118439999998], [24.553894200000013, 51.888743800000036], [24.477845600000023, 51.882295899999974], [24.387475, 51.88182349999997], [24.3397511, 51.86408440000003], [24.2997531, 51.81426489999998], [24.319693299999976, 51.75112319999997], [24.26844539999996, 51.71622380000002], [24.120639599999958, 51.66684080000003], [24.076128500000014, 51.61954049999997], [24.0156, 51.59626], [23.95690069999997, 51.58833180000004], [23.903696199999978, 51.5978206], [23.8670532, 51.642794400000035], [23.803634, 51.640336699999985], [23.755001699999987, 51.6591352], [23.70307659999998, 51.6485027], [23.644765200000037, 51.63929529999997], [23.6576042, 51.58726629999999], [23.65451369999999, 51.5359823], [23.6164718, 51.50308870000002], [23.663914500000036, 51.48520530000005], [23.681255499999985, 51.43738639999997], [23.684823300000044, 51.387018], [23.6535896, 51.3468389], [23.6502114, 51.294289], [23.70061670000002, 51.28149370000001], [23.73128630000002, 51.2386629], [23.766665699999976, 51.20235309999998], [23.8141995, 51.179009], [23.860511099999968, 51.15784649999997], [23.85762889999997, 51.10725970000003], [23.8982004, 51.074095699999965], [23.921209399999963, 51.02700779999998], [23.956754899999986, 50.99076220000003], [23.9820026, 50.94626970000002], [24.02415129999996, 50.91623279999997], [24.0727126, 50.89108059999996], [24.122397, 50.871854], [24.085396, 50.835405099999974], [24.034489400000023, 50.839552], [23.9809743, 50.82984669999997], [23.9633526, 50.781344500000024], [24.0237094, 50.7664726], [24.042431900000025, 50.71763229999997], [24.07308640000002, 50.67371859999998], [24.091227199999974, 50.619123500000036], [24.09131580000002, 50.56202010000003], [24.0701051, 50.50338830000005], [24.038007100000023, 50.45511859999998], [23.997543, 50.41214069999997], [23.940769899999967, 50.41390979999998], [23.8839921, 50.408268300000024], [23.80336350000004, 50.40476440000001], [23.727028599999986, 50.388000799999965], [23.6912281, 50.3468922], [23.63884869999998, 50.320506399999964], [23.581018399999962, 50.26598960000001], [23.506317500000016, 50.23032], [23.4294452, 50.18420479999996], [23.38031619999997, 50.159364299999986], [23.313951600000014, 50.111962799999986], [23.264605499999966, 50.07886489999997], [23.215984799999987, 50.047463199999974], [23.142635400000042, 49.97122139999998], [23.08850440000004, 49.924850299999974], [23.0332984, 49.8813662], [22.995464900000027, 49.84215169999999], [22.961899200000033, 49.80469549999997], [22.901585599999983, 49.76825], [22.8520942, 49.720355599999984], [22.8055558, 49.693400600000025], [22.749442699999953, 49.631257400000024], [22.69484, 49.58198], [22.663162199999984, 49.5388264], [22.696685500000022, 49.495128], [22.712855900000015, 49.43755129999998], [22.7468112, 49.359890700000015], [22.74409760000001, 49.2988594], [22.739630399999964, 49.2473455], [22.7227904, 49.196041499999964], [22.751177100000017, 49.152822299999976], [22.799959499999964, 49.13603120000005], [22.8511517, 49.11467370000004], [22.868684, 49.06242059999999], [22.893792, 49.01823270000005], [22.843976200000036, 49.00492759999999], [22.80013860000004, 49.036640299999966], [22.748702399999985, 49.04525460000004], [22.686491, 49.03972820000002], [22.63971950000002, 49.059719], [22.599812800000016, 49.09349789999997], [22.551079, 49.030161], [22.513875, 48.996627], [22.466227, 48.972943], [22.424921, 48.929329], [22.394549400000017, 48.877203400000035], [22.383698, 48.824503], [22.357935, 48.773012], [22.350692, 48.72032], [22.302546, 48.676376], [22.255422, 48.648337], [22.208484, 48.617421], [22.1609681, 48.56726139999996], [22.155583, 48.514988], [22.137691099999977, 48.4326478], [22.2015242, 48.4242962], [22.259057599999963, 48.41113549999998], [22.26757229999997, 48.3611613], [22.31781060000003, 48.35454370000003], [22.3372945, 48.30791139999999], [22.370883699999986, 48.2464843], [22.432946299999976, 48.24661550000002], [22.48987259999998, 48.253442], [22.53110890000004, 48.20942820000005], [22.575242199999987, 48.15924769999997], [22.59027640000003, 48.10734150000002], [22.657465399999985, 48.09573149999997], [22.706654900000043, 48.11048990000002], [22.75762430000002, 48.12005990000003], [22.8099978, 48.1075247], [22.856651600000042, 48.07812], [22.872833, 48.0248003], [22.836251600000033, 47.990430299999986], [22.87956379999999, 47.9634944], [22.9293871, 47.95916750000002], [22.921699699999962, 48.0145531], [22.9776604, 48.0099609], [23.03010009999996, 48.0002783], [23.083511700000034, 48.004842], [23.11163, 48.05385], [23.13892, 48.09626], [23.18716, 48.10947], [23.23568459999997, 48.09174149999997], [23.29102, 48.07188], [23.33428, 48.03858], [23.37547, 48.00871], [23.43384, 47.98983], [23.48225, 47.97352], [23.52972679999997, 48.02178840000002], [23.5853427, 48.0036115], [23.638933599999987, 48.00208650000004], [23.70658510000002, 47.99386690000002], [23.75764229999998, 47.99174260000003], [23.819166800000033, 47.983255], [23.8520462, 47.9394972], [23.902738, 47.94585289999997], [23.949832199999985, 47.962741], [24.007238, 47.96777169999997], [24.063341199999986, 47.953297], [24.11253839999997, 47.91466850000001], [24.1652967, 47.920113200000024], [24.21713, 47.90279], [24.27876, 47.90623], [24.324935800000045, 47.926013900000015], [24.374969, 47.92412], [24.411204600000023, 47.96022290000003], [24.464318, 47.96194990000002], [24.5272455, 47.961583199999964], [24.581487300000013, 47.96615], [24.626989900000016, 47.9398], [24.672799899999962, 47.89678989999999], [24.70448, 47.85061], [24.75323, 47.82966], [24.80473, 47.82228], [24.85485, 47.77113], [24.88592, 47.72461], [24.9470986, 47.729216], [25.001392499999984, 47.72702380000002], [25.054516499999977, 47.7459892], [25.1133034, 47.754354399999976], [25.14874, 47.7921348], [25.1959496, 47.83382189999996], [25.222648199999984, 47.87946680000001], [25.3111278, 47.91429229999997], [25.4951946, 47.932223100000044], [25.592331199999983, 47.938374], [25.643466800000034, 47.95000030000003], [25.69848819999999, 47.945702400000044], [25.774986300000045, 47.93944920000001], [25.826363, 47.96378069999998], [25.880029700000016, 47.9632089], [25.940621800000017, 47.9758261], [26.061046699999988, 47.98811760000003], [26.117813899999973, 47.98223239999999], [26.184373100000045, 47.99466440000002], [26.212258, 48.0508927], [26.2683499, 48.07730420000002], [26.298152599999955, 48.1337288], [26.32837880000004, 48.17622180000003], [26.37503139999998, 48.1984032], [26.430676700000042, 48.196426400000036], [26.48101119999998, 48.2143644], [26.538144699999986, 48.214099700000034], [26.5824569, 48.24307190000001], [26.630199399999963, 48.2596394], [26.675834900000037, 48.31705660000003], [26.7296542, 48.3257169], [26.7834427, 48.29724080000004], [26.83128619999998, 48.31336910000001], [26.775001699999965, 48.3519574], [26.7092435, 48.405308200000015], [26.764641799999964, 48.40831090000004], [26.851319, 48.413153], [26.902017799999953, 48.39676450000001], [26.99519020000004, 48.35948089999997], [27.045880600000025, 48.37426080000002], [27.013556, 48.42041339999998], [27.06418720000002, 48.421985600000035], [27.12364250000002, 48.379199099999965], [27.19225960000001, 48.39490650000002], [27.2410029, 48.374823300000024], [27.29711809999996, 48.40934030000003], [27.337315600000043, 48.44104719999997], [27.38079, 48.4101524], [27.44712330000004, 48.40968719999996], [27.473523600000025, 48.452405200000044], [27.5266312, 48.4616503], [27.5811669, 48.49090679999996], [27.6436076, 48.44181669999996], [27.71012779999996, 48.450648800000025], [27.786333900000017, 48.44659059999998], [27.845547, 48.4147974], [27.88813720000004, 48.3670769], [27.93947529999997, 48.33730449999997], [28.0147815, 48.32639159999996], [28.0705484, 48.31926389999996], [28.08853919999997, 48.2721129], [28.128792300000036, 48.241119], [28.17771189999997, 48.25702260000002], [28.20304290000003, 48.2054795], [28.27523790000003, 48.22891020000004], [28.329379899999964, 48.236732899999986], [28.361590900000046, 48.19194030000002], [28.31465710000002, 48.165210899999984], [28.36409439999997, 48.1494452], [28.410355300000013, 48.177172], [28.421710400000023, 48.122174], [28.453834700000037, 48.0789646], [28.496078300000036, 48.11154439999996], [28.529853500000044, 48.153113099999985], [28.57734629999996, 48.18244910000004], [28.630410100000034, 48.154145399999955], [28.682087, 48.1467916], [28.735669700000045, 48.13333889999998], [28.794663200000024, 48.12625739999998], [28.847327, 48.1153695], [28.8520313, 48.060855], [28.883074900000025, 48.0103474], [28.925847199999986, 47.9601399], [28.9783402, 47.97135079999999], [29.025129, 47.946179900000025], [29.0867675, 47.9466787], [29.130998, 47.98235909999999], [29.180474, 47.9642178], [29.200637600000036, 47.8843692], [29.271612599999983, 47.89025310000003], [29.227336400000027, 47.85643649999997], [29.219307499999978, 47.79843459999997], [29.276134700000043, 47.80370759999999], [29.248606399999986, 47.751339099999974], [29.204363799999967, 47.71906850000003], [29.219606600000034, 47.6580692], [29.200709300000014, 47.6024291], [29.116881799999973, 47.55449909999998], [29.151540399999973, 47.5065536], [29.162212300000036, 47.452674], [29.24234569999996, 47.461968699999986], [29.289191100000046, 47.43687439999997], [29.337622399999987, 47.37055329999997], [29.390721799999987, 47.3797607], [29.398361599999987, 47.300472], [29.485716200000013, 47.30587759999995], [29.487653399999978, 47.35586079999996], [29.57419360000003, 47.3704013], [29.598693199999957, 47.25739160000002], [29.579924800000036, 47.13576349999997], [29.5054805, 47.128402], [29.52995360000005, 47.08189439999997], [29.611875399999974, 47.1002241], [29.62867579999996, 47.044726], [29.5957857, 46.96356989999997], [29.647922700000038, 46.91942830000004], [29.700530300000025, 46.924892599999986], [29.74935669999997, 46.8609589], [29.849133899999956, 46.8754367], [29.90595509999997, 46.82043689999997], [29.9520601, 46.84254430000003], [29.9637534, 46.77497179999996], [29.966181099999964, 46.7092556], [29.955408800000036, 46.65927949999997], [29.9598632, 46.60639369999997], [29.940033700000036, 46.559495499999954], [29.875923800000024, 46.54669389999999], [29.927920600000014, 46.51290760000004], [29.982816, 46.499182], [30.02329680000001, 46.46877709999997], [30.0569858, 46.42726950000002], [30.112379899999965, 46.4314814], [30.161297099999963, 46.41541809999998], [30.10702620000002, 46.39141220000005], [30.021854, 46.38298249999997], [29.938624200000028, 46.40046489999998], [29.886593800000014, 46.37149210000004], [29.805106299999963, 46.385473700000034], [29.776267800000035, 46.454712], [29.72667589999999, 46.46680460000001], [29.685784499999954, 46.426113600000036], [29.676610500000024, 46.3724481], [29.6030959, 46.3537624], [29.566172800000032, 46.4164552], [29.506878500000035, 46.42306040000001], [29.448502900000015, 46.4985722], [29.38678629999997, 46.44663660000001], [29.351412, 46.5042766], [29.30775960000004, 46.4648863], [29.324259799999965, 46.4148795], [29.26396590000003, 46.40621610000004], [29.207826300000015, 46.38469469999997], [29.24392670000003, 46.420229099999965], [29.255138, 46.48553289999999], [29.235722100000018, 46.55837350000002], [29.1617878, 46.54450049999996], [29.0630076, 46.51246789999998], [28.9812825, 46.48900910000002], [29.025533199999977, 46.462342600000035], [28.9306628, 46.4575418], [28.966807200000012, 46.37580390000002], [28.996928700000048, 46.327679900000014], [28.95340870000004, 46.26523249999998], [29.06753070000004, 46.19561310000002], [28.95071979999996, 46.09365919999997], [29.0055006, 46.04944479999997], [28.979101199999988, 46.0034521], [28.776499699999967, 45.97069409999996], [28.78606, 45.832501700000016], [28.696930199999983, 45.81787309999996], [28.624451, 45.766243], [28.588758399999982, 45.72933860000001], [28.534326899999982, 45.73303680000002], [28.4843407, 45.6850413], [28.544247499999962, 45.57981579999996], [28.49115879999996, 45.57106489999995], [28.516231599999976, 45.499915200000025], [28.433260299999986, 45.48617620000004], [28.304956300000015, 45.54704920000001], [28.257764, 45.5173821], [28.214752399999966, 45.47067970000003], [28.267754, 45.453376], [28.285348, 45.399623], [28.33147859999997, 45.3362251], [28.385618, 45.308237], [28.495737, 45.275056], [28.56122830000004, 45.25008889999997], [28.642478, 45.24298], [28.696516200000012, 45.22610560000004], [28.749835, 45.234478], [28.754646, 45.287927], [28.803259, 45.303102], [28.8538832, 45.3158209], [28.914686, 45.287404], [28.957182, 45.323093], [29.008525, 45.344525], [29.058036, 45.359921], [29.120828, 45.382044], [29.17895329999999, 45.40002129999998], [29.224373199999988, 45.422737], [29.290735500000018, 45.4274557], [29.347871, 45.43898080000004], [29.414758200000044, 45.441541900000026], [29.473990200000046, 45.423179], [29.544970299999974, 45.409872100000044], [29.591865, 45.38850089999997], [29.631329, 45.353443], [29.669551, 45.307508], [29.659721199999964, 45.25011870000004], [29.68914960000003, 45.20361279999998], [29.952073400000025, 45.16967349999998], [29.995615299999976, 45.114399700000014], [30.05980410000003, 45.08035330000004], [30.1290166, 45.06010629999999], [30.203290799999984, 45.0531988], [30.277565, 45.06010629999999], [30.346777500000023, 45.08035330000004], [30.40621160000004, 45.11254690000001], [30.451817, 45.154475100000035], [30.480485700000024, 45.20326269999997], [30.490264099999962, 45.255571700000026], [30.480485700000024, 45.30783260000002], [30.451817, 45.3564887], [30.40621160000004, 45.398237299999984], [30.346777500000023, 45.430251200000015], [30.277565, 45.45036670000002], [30.203290799999984, 45.457226], [30.1290166, 45.45036670000002], [30.073015599999984, 45.434823200000025], [30.066336599999985, 45.50587229999998], [30.125109500000015, 45.54123509999999], [30.176367499999976, 45.559457], [30.236797900000013, 45.5955347], [30.30244779999999, 45.638067400000025], [30.344549399999963, 45.66911229999999], [30.4207983, 45.7065382], [30.484649, 45.771685], [30.542137499999953, 45.81559979999998], [30.572258, 45.85627079999998], [30.628056899999976, 45.899183500000014], [30.667587300000022, 45.95986030000001], [30.71916010000001, 45.978038200000015], [30.765839799999974, 46.00384090000002], [30.82767409999999, 46.065513], [30.880399100000012, 46.09376210000004], [30.929078699999977, 46.13726809999996], [30.9632846, 46.20168670000002], [30.999996299999978, 46.26375549999999], [31.029938099999974, 46.314591500000034], [31.047436, 46.376862], [31.11384930000002, 46.39157229999997], [31.1998745, 46.404396], [31.231777700000016, 46.35971649999997], [31.239739, 46.2838237], [31.26543629999997, 46.217633], [31.321704599999975, 46.1611517], [31.36555089999998, 46.12692710000001], [31.4086996, 46.09837389999998], [31.477504, 46.070851799999986], [31.536752200000038, 46.05904660000004], [31.5971162, 46.039582], [31.680213500000022, 46.02958369999996], [31.74478949999996, 46.01570179999996], [31.80362510000002, 46.012429099999984], [31.892488700000023, 45.9971252], [31.947613, 45.9799079], [31.99853959999995, 45.9717896], [32.06080849999996, 45.951469], [32.14297980000001, 45.94146169999995], [32.202667, 45.925773599999985], [32.27487849999996, 45.90973509999998], [32.350317, 45.89244079999999], [32.4089799, 45.87939619999999], [32.485938500000046, 45.865717800000034], [32.579075899999985, 45.85172989999997], [32.66263950000005, 45.84565839999996], [32.714092200000046, 45.83272840000003], [32.77270179999997, 45.82664190000003], [32.72592380000005, 45.79727789999996], [32.6659033, 45.76253679999997], [32.60547290000005, 45.726566599999984], [32.53361460000003, 45.693038900000026], [32.47793289999997, 45.660501], [32.39936, 45.640096599999964], [32.3502547, 45.616413600000016], [32.30906680000004, 45.5862247], [32.26430490000004, 45.5283722], [32.2230173, 45.47879539999997], [32.20337169999997, 45.424808199999966], [32.20905669999997, 45.35532059999998], [32.229222, 45.28905680000001], [32.27385669999997, 45.2267674], [32.329404, 45.18676870000002], [32.398208500000045, 45.158795199999986], [32.45546869999997, 45.14700470000001], [32.53458859999997, 45.12705109999999], [32.611547200000025, 45.1131887], [32.67119470000003, 45.11272970000004], [32.7485634, 45.125405], [32.83145580000003, 45.1507864], [32.87678110000002, 45.099425300000036], [32.919929700000026, 45.07034420000002], [32.97962870000003, 45.03213050000003], [33.04556489999998, 45.00082660000004], [33.1166309, 44.975612300000044], [33.174211100000015, 44.95552020000002], [33.231471300000024, 44.943687700000034], [33.29518710000002, 44.940520199999966], [33.2468782, 44.835438899999964], [33.2462933, 44.763327], [33.19350680000005, 44.737957300000026], [33.1523189, 44.70729930000001], [33.1057654, 44.645082], [33.091417499999984, 44.589475200000024], [33.10384149999997, 44.5194085], [33.13716989999996, 44.46798060000001], [33.2086709, 44.4133451], [33.2656829, 44.35377549999997], [33.31154169999998, 44.326492400000035], [33.38289370000004, 44.30152610000004], [33.44647180000001, 44.27562939999998], [33.494827, 44.25061540000004], [33.56519429999999, 44.22983369999997], [33.617869599999985, 44.20974580000003], [33.677474600000025, 44.19504170000003], [33.75559449999997, 44.18475370000003], [33.83468849999996, 44.18996], [33.891974100000034, 44.187982099999985], [33.95143819999996, 44.184598], [34.02985240000002, 44.193662300000035], [34.09273350000005, 44.21363529999997], [34.16155269999997, 44.215560600000025], [34.23751520000003, 44.23218679999998], [34.28881709999999, 44.2539909], [34.332853600000014, 44.282804], [34.38349319999997, 44.312824100000036], [34.45791659999996, 44.35461179999997], [34.51111660000002, 44.37694230000002], [34.56788869999997, 44.416631499999966], [34.607569, 44.465755800000046], [34.64501219999999, 44.52061130000004], [34.70068490000001, 44.5628297], [34.77644940000003, 44.59344920000003], [34.832488099999956, 44.60233510000002], [34.892041, 44.604771199999966], [34.963432, 44.598995], [35.02069210000004, 44.58708919999996], [35.08015629999998, 44.58372810000004], [35.139336799999974, 44.58905359999996], [35.19575810000003, 44.60284080000003], [35.25867850000003, 44.63108569999996], [35.3171962, 44.65855850000004], [35.35838419999996, 44.68924239999998], [35.39755420000002, 44.7373268], [35.46269790000004, 44.75178650000002], [35.51766639999997, 44.76823659999997], [35.5667717, 44.792275399999966], [35.61962079999997, 44.83433759999997], [35.670408, 44.82727730000004], [35.72306890000002, 44.8074017], [35.78032910000003, 44.79553870000006], [35.8596751, 44.7930003], [35.92412909999997, 44.80260189999996], [35.974234300000035, 44.80267780000002], [36.051603, 44.81542180000002], [36.10281990000003, 44.833616299999974], [36.176436499999966, 44.82055449999997], [36.23608409999998, 44.8200932], [36.29461629999999, 44.82824909999998], [36.36302250000002, 44.85032960000004], [36.415406299999965, 44.852810799999986], [36.47301739999996, 44.8637742], [36.52627679999997, 44.882812100000024], [36.5867072, 44.91932179999998], [36.5679872, 45.050656200000034], [36.54286479999996, 45.13404019999998], [36.530486, 45.19920240000001], [36.58593910000005, 45.24417209999998], [36.60302449999998, 45.30938759999998], [36.6635019, 45.359939699999984], [36.6815681, 45.45661149999997], [36.668449900000034, 45.626620599999974], [36.583205, 45.635158], [36.338700500000044, 45.67150020000003], [36.13535420000004, 45.64765469999996], [36.07237949999998, 45.62564310000001], [35.981773399999966, 45.61673290000005], [35.88819490000003, 45.64345669999998], [35.836695399999975, 45.64693420000003], [35.785215, 45.643321], [35.7357321, 45.6327546], [35.6761286, 45.6085816], [35.6174678, 45.56458420000002], [35.587111, 45.52126520000004], [35.524278700000046, 45.5313252], [35.459695, 45.560338099999974], [35.4198817, 45.62780349999997], [35.36098429999998, 45.6715964], [35.32372970000003, 45.71275610000003], [35.26635570000002, 45.77243680000002], [35.22632360000003, 45.81739249999998], [35.199837, 45.86170410000003], [35.1661348, 45.906898600000034], [35.24185650000003, 45.9453848], [35.32737329999996, 45.98526509999996], [35.36921339999998, 46.02328809999998], [35.411294, 46.071802], [35.4565625, 46.122495599999986], [35.50291230000001, 46.175615], [35.554915900000026, 46.232674100000025], [35.61892629999998, 46.27499080000003], [35.685291200000044, 46.3127683], [35.76712609999998, 46.363062], [35.82170840000002, 46.39206990000002], [35.8918154, 46.362049099999965], [35.9355103, 46.335802], [35.98602759999997, 46.31623219999998], [36.04125410000002, 46.3041657], [36.1182054, 46.300581700000016], [36.17527690000003, 46.3074194], [36.22914090000006, 46.322132800000055], [36.2921069, 46.35288279999996], [36.340721500000015, 46.3941939], [36.40856390000003, 46.43930930000002], [36.457191200000025, 46.47293569999997], [36.49878340000005, 46.52815470000002], [36.57406579999997, 46.512447], [36.65979819999997, 46.47317050000004], [36.726383399999975, 46.460974399999984], [36.795282700000044, 46.46106390000002], [36.86180049999997, 46.47343269999997], [36.9214041, 46.497230099999975], [36.980064799999965, 46.540491], [37.01929409999997, 46.60594460000002], [37.064498499999985, 46.66167959999996], [37.1333852, 46.69798279999997], [37.19593680000003, 46.701326200000025], [37.279713, 46.68804230000003], [37.3314211, 46.689270400000034], [37.39793910000003, 46.701587399999966], [37.620074, 46.82989089999998], [38.14086360000003, 46.860999599999985], [38.33812149999997, 46.98075149999996], [38.228514, 47.12260680000002], [38.23589039999999, 47.1986006], [38.2881957, 47.23853530000002], [38.3315717, 47.26364829999998], [38.220892, 47.30539660000004], [38.2462386, 47.35072740000003], [38.2864717, 47.391357899999974], [38.3020282, 47.47496230000003], [38.28472689999997, 47.54430960000004], [38.35071610000004, 47.576196500000044], [38.4567501, 47.6171106], [38.61643720000002, 47.6445813], [38.66602650000003, 47.66931430000005], [38.7348912, 47.69963690000003], [38.77752109999998, 47.73570429999998], [38.793097300000014, 47.78442159999996], [38.828798699999965, 47.8232682], [38.877566799999975, 47.867103200000045], [38.92744489999998, 47.87310050000004], [39.08311029999997, 47.86953230000004], [39.1496272, 47.842376], [39.23648749999998, 47.85364639999996], [39.35144119999997, 47.866948699999966], [39.41322469999996, 47.82972740000002], [39.46475460000004, 47.85954519999997], [39.52093709999997, 47.8256835], [39.62166310000003, 47.83635749999997], [39.7384963, 47.8280085], [39.79095730000003, 47.8688696], [39.79364840000002, 47.91935139999996], [39.81703, 47.96648], [39.791095, 48.01216739999996], [39.88338810000004, 48.041606799999954], [39.83396720000002, 48.06701420000003], [39.87419, 48.10896], [39.90671640000004, 48.14883080000005], [39.942, 48.22861], [40.0037205, 48.223565], [39.99303390000006, 48.30070030000002], [39.937334599999964, 48.29192820000003], [39.8880904, 48.302235300000014], [39.84075629999998, 48.32896220000002], [39.91863370000003, 48.34163589999998], [39.94151450000004, 48.3863196], [39.896225799999975, 48.42880490000001], [39.858778200000046, 48.46313559999997], [39.86187549999999, 48.524297899999986], [39.841405300000034, 48.5730198], [39.791632, 48.59300849999999], [39.7361573, 48.58600529999999], [39.68299959999998, 48.59255070000003], [39.693933300000026, 48.6428909], [39.723289, 48.68386290000004], [39.7251961, 48.74045789999999], [39.768328200000056, 48.769813200000044], [39.787238800000026, 48.817834099999956], [39.88672, 48.82084], [39.94818, 48.79578], [40.08010680000004, 48.8701366], [40.0482173, 48.910317], [39.99323210000002, 48.8682063], [39.942, 48.88504], [39.87617809999998, 48.89202560000003], [39.82492, 48.89208], [39.77650410000001, 48.920686099999976], [39.75702240000004, 48.96768739999999], [39.7112991, 48.991880599999966], [39.68075809999997, 49.033349800000025], [39.7415695, 49.042012800000045], [39.802362, 49.05886580000003], [39.880220499999965, 49.064336], [39.93805, 49.0563998], [39.95879380000004, 49.10569449999997], [40.031113, 49.179759200000035], [40.0935212, 49.202979], [40.1372536, 49.239838499999976], [40.20807220000006, 49.24201960000005], [40.183549700000015, 49.2990257], [40.18238139999998, 49.3514715], [40.11439380000003, 49.38571250000001], [40.05862570000002, 49.43663009999997], [40.0419, 49.49856], [40.16962, 49.56877], [40.135391700000035, 49.61710209999996], [40.06496020000002, 49.59896790000002], [39.95212, 49.59709], [39.89118, 49.5583], [39.83969, 49.56379], [39.77669, 49.57735], [39.71433750000003, 49.60632689999997], [39.6603, 49.61494], [39.61378, 49.69065], [39.54494, 49.73905], [39.47868, 49.75656], [39.41431, 49.75382], [39.35783, 49.74111], [39.30857, 49.75279], [39.25089, 49.77648], [39.22668, 49.83982], [39.188823799999966, 49.88502170000004], [39.130675, 49.8616349], [39.07070879999998, 49.819329300000014], [38.98538119999998, 49.8082931], [38.93365689999998, 49.799528900000055], [38.90649739999998, 49.8451124], [38.85662459999996, 49.868894900000015], [38.79562479999997, 49.88336349999997], [38.74475020000003, 49.89737580000002], [38.693973099999965, 49.934926200000014], [38.71805, 49.9835], [38.66741, 49.97234], [38.61150280000004, 49.9756], [38.52733, 49.95861], [38.47858, 49.98316], [38.41629540000004, 49.98177380000001], [38.35053460000003, 50.00691090000002], [38.333022, 50.0594948], [38.2757897, 50.0734765], [38.1782301, 50.07999580000002], [38.1889001, 50.023676100000024], [38.221847900000014, 49.97913760000003], [38.16219980000005, 49.95125150000003], [38.05592330000002, 49.923187], [38.00470920000004, 49.9674248], [37.92652, 50.0338], [37.86386, 50.05422], [37.79692, 50.08409], [37.74336, 50.09439], [37.71006, 50.1337], [37.66456, 50.15877], [37.6268, 50.20443], [37.62749, 50.26262], [37.63006, 50.31378], [37.57702, 50.30657], [37.52142590000004, 50.33651069999998], [37.47196, 50.36922], [37.46292670000001, 50.4227424], [37.41269509999997, 50.43327980000003], [37.3521098, 50.43749239999997], [37.29934609999998, 50.4059408], [37.22178039999996, 50.37928830000002], [37.15297859999997, 50.35646409999998], [37.102585200000036, 50.3573197], [37.0445293, 50.344956100000026], [36.937610500000034, 50.35045640000002], [36.886643399999976, 50.337944699999966], [36.83287, 50.31309], [36.76781, 50.30159], [36.71957, 50.27738], [36.67992, 50.23807], [36.61846, 50.22743], [36.56044, 50.25061], [36.5237, 50.28648], [36.47341, 50.31309], [36.42414, 50.32802], [36.37384, 50.2997], [36.29574, 50.29163], [36.255416, 50.35539], [36.21076, 50.38673], [36.16064, 50.43154], [36.09283, 50.44493], [36.03927, 50.44956], [35.9749, 50.44063], [35.92124030000005, 50.4369583], [35.87242, 50.42244], [35.79431, 50.41386], [35.756623900000015, 50.368397399999964], [35.67280330000001, 50.355041100000015], [35.6014411, 50.367315], [35.58358150000004, 50.43010289999998], [35.5372765, 50.45963019999997], [35.47641880000004, 50.48853250000003], [35.444602899999964, 50.529271100000024], [35.39034610000004, 50.57998579999998], [35.402303300000035, 50.6319024], [35.46271060000002, 50.6662971], [35.46742659999996, 50.71660949999998], [35.488713199999964, 50.776803800000025], [35.433162299999985, 50.79418789999998], [35.41911770000002, 50.843828], [35.38775240000002, 50.88610219999998], [35.35492220000004, 50.93106129999995], [35.34264119999998, 50.9879011], [35.38393740000002, 51.02006310000002], [35.361283799999974, 51.066800499999964], [35.31450220000002, 51.08697270000004], [35.27359420000003, 51.05812460000003], [35.22259320000002, 51.0523984], [35.16563040000001, 51.07742430000004], [35.14135670000004, 51.13384759999999], [35.13027550000004, 51.19446290000005], [35.084728, 51.2299066], [35.03977480000003, 51.2044273], [34.9946852, 51.22854], [34.94484, 51.218876], [34.89695640000004, 51.1931301], [34.83464770000003, 51.18314559999997], [34.78462969999999, 51.184671600000016], [34.722723399999964, 51.18778050000003], [34.667824, 51.19815890000005], [34.65523920000001, 51.2473599], [34.60383610000003, 51.2546241], [34.54082479999997, 51.25244720000001], [34.4883043, 51.244062800000044], [34.4327339, 51.2653241], [34.3309169, 51.2398576], [34.2729967, 51.25194490000002], [34.23765810000005, 51.292331], [34.28087420000004, 51.3179984], [34.3336586, 51.35144679999996], [34.28541189999997, 51.3746756], [34.23706520000002, 51.399271900000016], [34.246261899999965, 51.45080149999998], [34.29598840000004, 51.481828599999986], [34.29516940000005, 51.53280009999996], [34.244068500000026, 51.5702758], [34.18233420000002, 51.596764900000046], [34.16725970000002, 51.64565820000002], [34.112084899999985, 51.64901930000003], [34.142312299999986, 51.6906132], [34.19288960000003, 51.696409], [34.250964, 51.702365800000045], [34.303211799999964, 51.7160754], [34.3552521, 51.7130011], [34.40815279999999, 51.71800150000003], [34.438199699999984, 51.75797020000001], [34.41663570000003, 51.80794270000002], [34.36838620000003, 51.84562049999999], [34.317062399999955, 51.8813987], [34.26293010000002, 51.878404300000035], [34.219117300000036, 51.920386299999976], [34.1895904, 51.968942400000024], [34.13712060000004, 51.97259139999996], [34.09691740000002, 52.00426159999998], [34.08753919999997, 52.053688], [34.087167699999966, 52.10884929999999], [34.05930570000001, 52.16659710000002], [34.01634359999998, 52.20189829999999], [33.97429209999997, 52.23051830000005], [33.94544270000003, 52.2750531], [33.8965348, 52.307319], [33.83932970000002, 52.32004739999996], [33.80242020000003, 52.36603659999999], [33.7510917, 52.36094780000002], [33.699727400000036, 52.35871280000001], [33.63887990000004, 52.33967659999996], [33.58673030000002, 52.32213129999998], [33.531004, 52.30475529999998], [33.480767600000014, 52.316058799999986], [33.519383499999975, 52.35187610000003], [33.46400629999998, 52.36267559999998], [33.4127995, 52.34980269999998], [33.36383169999998, 52.3605374], [33.31363709999998, 52.35491879999998], [33.20792390000001, 52.37561389999998], [33.196183800000036, 52.3736133]]]}}]}