{"type": "FeatureCollection", "features": [{"type": "Feature", "properties": {"code": "URY", "name": "Uruguay", "tier": "country"}, "geometry": {"type": "Polygon", "coordinates": [[[-57.06180710000003, -30.089638500000024], [-57.1057538, -30.114959200000033], [-57.1351182, -30.157942500000043], [-57.16797529999999, -30.198088200000015], [-57.168319, -30.249411499999965], [-57.20967830000002, -30.285029], [-57.25795810000004, -30.267282100000035], [-57.31017380000002, -30.259033700000035], [-57.353, -30.285], [-57.4031044, -30.301128499999983], [-57.45158669999998, -30.276145], [-57.50073640000003, -30.28919359999996], [-57.54974829999996, -30.273720700000037], [-57.555908799999955, -30.223604500000043], [-57.607222700000015, -30.190102800000016], [-57.6200192, -30.241661399999984], [-57.636868200000016, -30.3319668], [-57.706712400000015, -30.3928617], [-57.77263440000004, -30.4236354], [-57.85923810000001, -30.4770096], [-57.89274090000004, -30.520486], [-57.88847649999999, -30.57420839999999], [-57.84710410000004, -30.612596099999987], [-57.83357909999999, -30.66665890000003], [-57.80375810000004, -30.709198700000027], [-57.801335200000025, -30.77840420000003], [-57.805761399999966, -30.8835195], [-57.87420689999997, -30.920821699999976], [-57.903127400000024, -30.9623475], [-57.86629090000003, -31.01934680000001], [-57.87920589999997, -31.08816959999997], [-57.9121303, -31.13614410000004], [-57.907147400000014, -31.2045108], [-57.92907649999998, -31.251597100000037], [-57.957434500000026, -31.297377899999965], [-57.99681459999998, -31.36101219999997], [-58.0178201, -31.414723], [-58.07900459999998, -31.451554500000043], [-58.0278076, -31.51267470000004], [-57.988129099999966, -31.561221], [-57.994655500000036, -31.62083790000004], [-58.01286210000002, -31.684176800000028], [-58.0393729, -31.736221199999957], [-58.06756809999999, -31.799498], [-58.14448560000002, -31.8337652], [-58.196913, -31.85498369999996], [-58.19409669999997, -31.91053], [-58.156821099999966, -31.953869], [-58.1385169, -32.0010414], [-58.14275010000004, -32.05652039999998], [-58.18195220000001, -32.14257630000002], [-58.14821749999998, -32.1949917], [-58.10644719999997, -32.24001709999996], [-58.10027609999998, -32.29836459999996], [-58.14319889999996, -32.349475199999986], [-58.185159, -32.393312699999974], [-58.20396189999998, -32.4532964], [-58.187476599999954, -32.51341110000002], [-58.1605367, -32.56853859999996], [-58.15061280000001, -32.6245614], [-58.1447945, -32.6773453], [-58.14938070000003, -32.733795100000016], [-58.133706200000034, -32.783740199999976], [-58.122277, -32.86056939999998], [-58.11634090000003, -32.914387799999965], [-58.087088399999956, -32.95724840000003], [-58.097357, -33.01647439999998], [-58.14221540000003, -33.040086500000015], [-58.1780608, -33.0751109], [-58.256907499999954, -33.099855200000015], [-58.31342709999997, -33.10299630000003], [-58.3638969, -33.1194725], [-58.40382249999997, -33.17554259999996], [-58.41003830000001, -33.23220660000002], [-58.395204400000026, -33.289084500000016], [-58.43195659999997, -33.36122529999997], [-58.44329170000001, -33.446360699999964], [-58.445333700000035, -33.53877429999997], [-58.4937523, -33.57856939999998], [-58.47601710000002, -33.646230800000026], [-58.434164500000044, -33.72070050000003], [-58.43401459999998, -33.82556219999998], [-58.42284833194499, -33.916276000747786], [-58.36895970000003, -33.946856], [-58.323652, -33.977439200000035], [-58.290281499999985, -34.02265940000003], [-58.233749800000034, -34.073239799999975], [-58.21407980000003, -34.123299900000035], [-58.1799705, -34.1639307], [-58.10580729999996, -34.1741597], [-58.06744639999996, -34.208429099999954], [-58.03308519999996, -34.24620490000004], [-57.98710670000001, -34.2694747], [-57.943782499999955, -34.32071119999996], [-57.90420530000004, -34.3658599], [-57.8928047, -34.41594540000002], [-57.851773700000045, -34.44924410000004], [-57.806616, -34.47284539999998], [-57.757032099999975, -34.464135299999974], [-57.70505989999998, -34.45496990000004], [-57.653212, -34.4396975], [-57.591289899999964, -34.4251198], [-57.5427798, -34.45323], [-57.48051179999997, -34.42972689999998], [-57.43080964035069, -34.43982148675607], [-57.35526989999996, -34.430024399999986], [-57.29576329999998, -34.43709470000003], [-57.2163902, -34.4375988], [-57.15252680000004, -34.44663039999996], [-57.0896499, -34.47958979999997], [-57.05956680000003, -34.526846499999984], [-57.01378, -34.55005], [-56.95635589999998, -34.594431800000045], [-56.91050309999996, -34.6276116], [-56.84028329999996, -34.673754], [-56.78880079999998, -34.6939564], [-56.7318598, -34.700879899999975], [-56.67581, -34.7115299], [-56.623912700000034, -34.72757889999998], [-56.55933849999998, -34.759431800000016], [-56.5032134, -34.75025229999998], [-56.4389866, -34.75677410000003], [-56.38796179999998, -34.776608400000036], [-56.41855939999997, -34.82245139999996], [-56.38132669999997, -34.8560285], [-56.33176989999998, -34.88104], [-56.28451330031111, -34.900081700098404], [-56.240087, -34.876300700000016], [-56.202811799999985, -34.91041190000002], [-56.16047479999998, -34.93805589999997], [-56.12300059999998, -34.90400450000003], [-56.071706399999954, -34.89994990000001], [-56.02441659999996, -34.8789477], [-55.970701099999964, -34.84662339999996], [-55.919722700000044, -34.81867719999997], [-55.867685, -34.79614759999997], [-55.79109009999998, -34.77207969999996], [-55.71689810000004, -34.768343600000016], [-55.66320380000002, -34.767254200000025], [-55.60125180000003, -34.77201629999996], [-55.545864299999984, -34.78978050000002], [-55.49304369999996, -34.79888169999997], [-55.410309, -34.7901194], [-55.348057099999984, -34.807651500000034], [-55.30230629999996, -34.8436525], [-55.279064199999986, -34.8905453], [-55.22911109999998, -34.8988527], [-55.163378700000024, -34.88211890000002], [-55.09222480000001, -34.87778489999998], [-55.04070729999998, -34.8929573], [-54.980923100000034, -34.91635709999997], [-54.94158119999996, -34.95002389999998], [-54.88398189999996, -34.926539], [-54.83418659999996, -34.90875350000003], [-54.78378189999999, -34.890607299999985], [-54.70526570000002, -34.85315559999998], [-54.64940030000004, -34.83909009999998], [-54.46927949999997, -34.756762599999966], [-54.37622580000002, -34.721644499999954], [-54.28987889999998, -34.6879634], [-54.22275850000001, -34.666102800000026], [-54.172248, -34.66494479999996], [-54.1468084, -34.619338], [-54.11326379999998, -34.57884720000003], [-53.99713180000002, -34.5015487], [-53.93691, -34.4682201], [-53.86240749999997, -34.430027199999955], [-53.80421, -34.40531009999997], [-53.764971299999964, -34.359458699999976], [-53.78948640000002, -34.3038499], [-53.7614498, -34.253428599999985], [-53.699799600000034, -34.184969899999956], [-53.648974900000034, -34.13888249999997], [-53.576823900000036, -34.08197319999996], [-53.53386889999997, -34.044454099999975], [-53.5331222, -33.990191199999984], [-53.5060668, -33.945898800000016], [-53.5032759, -33.8876639], [-53.45114319999996, -33.81980050000003], [-53.38686709999997, -33.75761239999996], [-53.4316756, -33.728102499999984], [-53.53228239999998, -33.68880109999997], [-53.52971459999997, -33.633329199999956], [-53.538109800000036, -33.58132990000003], [-53.54455990000001, -33.5291598], [-53.587456400000036, -33.472431699999966], [-53.5951001, -33.40296989999999], [-53.565439917203875, -33.35270979747783], [-53.598859899999965, -33.31321], [-53.56981, -33.26191], [-53.63670989999997, -33.24869], [-53.66407989999998, -33.19826], [-53.61339320000004, -33.18000389999996], [-53.64364, -33.133550100000036], [-53.607429972487274, -33.09666983662659], [-53.60411, -33.04611989999998], [-53.570459892835764, -33.085359973273896], [-53.56765210000002, -33.0347599], [-53.525189889458346, -33.00713999851906], [-53.50465990000003, -32.96078], [-53.43701, -32.93950989999997], [-53.37576979999997, -32.94003990000004], [-53.34301, -32.89966989999998], [-53.30279, -32.86983], [-53.30925, -32.80778], [-53.294559899999975, -32.757289900000025], [-53.22708039999996, -32.7218656], [-53.1896035, -32.663809699999966], [-53.2355052, -32.63098909999998], [-53.290780199999965, -32.621013399999974], [-53.33449390000001, -32.5843457], [-53.38634779999999, -32.58653], [-53.43260430000002, -32.56505769999998], [-53.4583958, -32.521015500000026], [-53.499553899999974, -32.481038499999975], [-53.5522413, -32.47423389999998], [-53.58883560000002, -32.435173], [-53.62786970000003, -32.38910669999996], [-53.64445650000002, -32.334179200000044], [-53.6557126, -32.2803429], [-53.67804009999998, -32.232512699999965], [-53.70537859999997, -32.186815699999954], [-53.725742199999985, -32.140551199999976], [-53.744980200000036, -32.0916461], [-53.7913411, -32.070686200000026], [-53.8345218, -32.0425088], [-53.8572436, -31.99668040000004], [-53.9067275, -31.97610980000004], [-53.9540517, -31.956985], [-53.9878623, -31.9165478], [-54.0343181, -31.897293899999966], [-54.080736500000015, -31.924324699999982], [-54.12459069999996, -31.899917200000036], [-54.456406400000034, -31.651707299999963], [-54.457377600000015, -31.601268099999977], [-54.4936965, -31.558693400000024], [-54.5157036, -31.51019439999999], [-54.560602199999956, -31.48721860000002], [-54.670594500000036, -31.453765600000025], [-54.71932590000003, -31.438502400000043], [-54.76883509999998, -31.425973399999982], [-54.829688700000034, -31.43740960000004], [-54.86883620000002, -31.4017253], [-54.91455409999998, -31.381147600000023], [-54.9564618, -31.353516499999987], [-54.98005519999999, -31.303064199999984], [-55.02028379999998, -31.2671252], [-55.04837829999999, -31.309357300000027], [-55.09848679999997, -31.316283799999987], [-55.15230280000002, -31.29327070000004], [-55.19532030000002, -31.2634208], [-55.24668239999998, -31.25229], [-55.256971499999985, -31.198253800000018], [-55.29036160000002, -31.1592646], [-55.33460229999997, -31.132861799999976], [-55.34967249999997, -31.0724139], [-55.37374740000002, -31.02801679999999], [-55.42305650000002, -31.0182293], [-55.43780030000002, -30.969291900000027], [-55.48682510000004, -30.9475982], [-55.5100563, -30.901766599999956], [-55.554644799999956, -30.8726261], [-55.6048196, -30.849601199999963], [-55.658342, -30.86399690000002], [-55.64226569999998, -30.91159720000004], [-55.67172119999998, -30.9553098], [-55.7231936, -30.9427022], [-55.74996670000002, -30.9913779], [-55.79429720000003, -31.01558540000001], [-55.847467500000036, -31.042855800000044], [-55.888828400000016, -31.076560199999967], [-55.938282600000036, -31.08617040000002], [-55.99289489999998, -31.085062899999958], [-56.0173999, -31.030917], [-56.0109387, -30.978848199999973], [-56.010315799999965, -30.9273389], [-55.9982185, -30.87431], [-56.008812099999986, -30.820052900000015], [-56.03844029999997, -30.7784499], [-56.085052, -30.75557630000004], [-56.13218509999999, -30.73197239999997], [-56.143624, -30.679310099999988], [-56.17353070000003, -30.6344646], [-56.219200500000014, -30.60750869999996], [-56.26169809999998, -30.57233990000002], [-56.289389500000034, -30.5294337], [-56.348988899999966, -30.503669200000036], [-56.396925, -30.47893250000003], [-56.4160542, -30.430933499999977], [-56.4561176, -30.390729], [-56.50697, -30.38157370000004], [-56.54954849999997, -30.346947200000027], [-56.575869, -30.303006600000035], [-56.61056549999996, -30.2656564], [-56.64485040000004, -30.2247462], [-56.697355, -30.2049464], [-56.7368383, -30.17055669999996], [-56.78473329999997, -30.151028799999988], [-56.8070476, -30.103859099999983], [-56.864589, -30.090205400000034], [-56.912861100000015, -30.111015599999966], [-56.968021899999954, -30.09768359999999], [-57.022278100000015, -30.08731179999998], [-57.06180710000003, -30.089638500000024]]]}}]}