{"type": "FeatureCollection", "features": [{"type": "Feature", "properties": {"code": "UZB", "name": "Uzbekistan", "tier": "country"}, "geometry": {"type": "MultiPolygon", "coordinates": [[[[71.800885, 40.003191], [71.738723, 39.977004], [71.788715, 39.966673], [71.844674, 39.945723], [71.819931, 39.989259], [71.800885, 40.003191]]], [[[71.007037, 40.182499], [71.01933, 40.120244], [71.010205, 40.050986], [71.072428, 40.024761], [71.11457, 39.993937], [71.082668, 39.942525], [71.050893, 39.900454], [71.099699, 39.88927], [71.15521, 39.886473], [71.209705, 39.9138], [71.164611, 39.949862], [71.142317, 40.000224], [71.195815, 40.015408], [71.142159, 40.026326], [71.101782, 40.074921], [71.082442, 40.124267], [71.045099, 40.183602], [71.007037, 40.182499]]], [[[71.671634, 40.197529], [71.671634, 40.197529]]], [[[71.038759, 40.227538], [71.038759, 40.227538]]], [[[58.2859259, 44.67626910000004], [58.25367989999996, 44.7267606], [58.22948429999996, 44.77861019999998], [58.21827480000001, 44.8395675], [58.23127809999997, 44.904199200000015], [58.276807, 44.965215], [58.29432079999996, 45.016377], [58.31923310000002, 45.0740429], [58.367152, 45.13143869999996], [58.38185879999997, 45.199737], [58.40431639999996, 45.254218], [58.4295892, 45.306117599999986], [58.46751780000003, 45.34929020000003], [58.5242226, 45.3933593], [58.550215700000045, 45.448216500000036], [58.565308200000025, 45.4993038], [58.5939851, 45.55704869999997], [57.998912, 45.459793], [57.432773, 45.334335], [57.00101, 45.237915], [56.652713, 45.15662], [55.998742600000014, 45.0003137], [55.9987253, 44.43675189999996], [55.99866479999997, 44.1565941], [55.99857809999999, 43.75327009999999], [56.0017921, 41.32427980000002], [56.13461710000002, 41.312911100000036], [56.20447259999998, 41.31163020000002], [56.316460200000044, 41.3039473], [56.43251830000002, 41.29990410000004], [56.5597351, 41.2888685], [56.641373799999954, 41.28755119999998], [56.78748230000003, 41.2807457], [56.8772461, 41.271168700000025], [56.96291650000002, 41.2655552], [57.0304268, 41.25844659999998], [57.06084870000003, 41.3074457], [57.1316865, 41.34585139999998], [57.086548200000024, 41.374896699999965], [57.0464286, 41.417961], [57.02253410000004, 41.496974099999974], [57.02692369999997, 41.554713700000036], [57.00843540000004, 41.603156699999964], [56.97641349999997, 41.65412050000001], [56.975134899999965, 41.7165802], [56.9675751, 41.80456620000004], [56.98403269999996, 41.86732450000004], [57.022536399999964, 41.910988200000034], [57.060984299999966, 41.95746459999996], [57.0989215, 42.07747420000003], [57.13188049999997, 42.14853130000002], [57.1553981, 42.20921050000004], [57.197626800000016, 42.2798658], [57.246207, 42.32277940000002], [57.29667540000003, 42.34612839999996], [57.3601901, 42.3605903], [57.41546509999997, 42.34562089999998], [57.4532306, 42.31211719999997], [57.52292509999996, 42.300945400000025], [57.569617, 42.28138979999998], [57.6173388, 42.2298053], [57.63294643914509, 42.155631717759825], [57.71316469999998, 42.16699209999999], [57.76919950000003, 42.181270899999966], [57.835479, 42.17294749999998], [57.8411837, 42.237994], [57.89262380000002, 42.236836199999985], [57.93662250000002, 42.280682199999966], [57.938733, 42.34615270000002], [57.9308289, 42.40056930000002], [57.91029850000004, 42.450988400000035], [57.95996150000002, 42.428085200000034], [57.98480980000002, 42.47570550000002], [58.04018920000002, 42.50415249999997], [58.09125929999998, 42.5011461], [58.137721599999985, 42.48040510000002], [58.198874, 42.470498200000016], [58.3033275, 42.45519110000004], [58.36274470000004, 42.420913400000025], [58.40059990000003, 42.3392598], [58.39537760000004, 42.28707860000003], [58.45035540000003, 42.29518330000004], [58.5202217, 42.273307799999984], [58.51468359999998, 42.326681899999976], [58.448350799999986, 42.36412169999997], [58.39226049999996, 42.41609939999997], [58.34664590000002, 42.48114360000002], [58.30648519999996, 42.5482642], [58.2462659, 42.5669713], [58.194958, 42.5882106], [58.155526600000044, 42.61953230000004], [58.206682199999975, 42.6545091], [58.2540561, 42.677041699999975], [58.32958230000002, 42.68029820000003], [58.41783840000003, 42.659257], [58.472668400000046, 42.65029420000004], [58.53431670000004, 42.65756690000004], [58.588569299999975, 42.65814579999998], [58.598912, 42.70737749999998], [58.640704499999956, 42.73583249999997], [58.6263851, 42.79755709999997], [58.67154089999999, 42.76400619999996], [58.745829, 42.711715800000015], [58.870665500000015, 42.611385900000045], [58.9391183, 42.57457390000003], [58.98787, 42.5416036], [59.05816550000002, 42.527373100000034], [59.1608238, 42.52898039999997], [59.222458400000015, 42.49008919999997], [59.265167199999965, 42.45170169999999], [59.27241869999999, 42.397004600000045], [59.335902399999966, 42.353683], [59.38337059999998, 42.33457150000004], [59.431428, 42.300644099999964], [59.4866016, 42.28940749999999], [59.54123119999996, 42.29518760000004], [59.59942940000004, 42.290669400000034], [59.65903140000001, 42.28255569999999], [59.7176257, 42.285983500000015], [59.78266239999996, 42.27216459999998], [59.83163950000003, 42.30122220000001], [59.89354540000002, 42.28239229999997], [59.94100759999998, 42.2623986], [59.98629920000002, 42.225741], [60.01960589999999, 42.1851058], [59.967424, 42.17872130000004], [59.97650740000004, 42.124779399999966], [60.04194229999999, 42.09994409999997], [60.040867, 42.03723309999998], [59.96139070000001, 41.99924540000004], [59.96834819999996, 41.9438741], [60.028227699999974, 41.949902399999985], [60.0626481, 41.90820309999999], [60.11505230000002, 41.894779], [60.15565089999998, 41.858445], [60.202170400000014, 41.830635], [60.26483750000002, 41.81541489999998], [60.3144565, 41.779739599999964], [60.26342209999997, 41.766917199999966], [60.21000150000004, 41.78339310000001], [60.15804630000003, 41.79822569999998], [60.1021717, 41.801872299999985], [60.061876, 41.7698009], [60.09142260000004, 41.70839359999996], [60.14555809999997, 41.65866550000001], [60.17250619999998, 41.61613880000004], [60.142786, 41.567748], [60.0908082, 41.500398100000034], [60.07748560000001, 41.448678200000046], [60.13040150000001, 41.3952776], [60.230022200000015, 41.33720149999998], [60.342788500000026, 41.29538450000001], [60.40572229999998, 41.253079199999966], [60.4758148, 41.221381], [60.568263399999985, 41.223373], [60.68436840000002, 41.2571039], [60.766867, 41.25858829999998], [60.966698599999965, 41.24631080000003], [61.02499120000004, 41.2223145], [61.06502469999997, 41.25426510000003], [61.10139, 41.21173050000002], [61.2403842, 41.145332599999975], [61.33045480000003, 41.14781190000003], [61.388126599999985, 41.19210560000002], [61.4023199, 41.251311100000045], [61.45906429999996, 41.2860625], [61.54541, 41.261549700000046], [61.59892740000003, 41.25646870000001], [61.64993389999997, 41.23143429999998], [61.70244980000001, 41.2199862], [61.75674789999998, 41.175739], [61.81323169999997, 41.1535995], [61.85405790000002, 41.12133830000002], [61.8985329, 41.077975499999965], [61.9547227, 41.034485], [61.98057270000001, 40.98360790000002], [61.99272960000001, 40.93130170000001], [61.9868555, 40.87150579999999], [61.99604020000002, 40.8168179], [62.03216549999996, 40.76993889999998], [62.0454597, 40.7121059], [62.0910105, 40.65696449999998], [62.1103626, 40.601684], [62.144303500000035, 40.556479599999975], [62.188537, 40.5310832], [62.236309900000016, 40.4941134], [62.292269599999976, 40.460781], [62.34945989999998, 40.438297300000016], [62.333248400000045, 40.3834545], [62.37507970000004, 40.33997770000002], [62.38431469999996, 40.286137700000026], [62.40246120000003, 40.210721100000015], [62.414356, 40.15198549999997], [62.3964967, 40.0992805], [62.4298177, 40.035717699999964], [62.462284, 39.96973440000002], [62.7979733, 39.775757200000015], [62.94858090000001, 39.6961219], [63.1704182, 39.57410840000004], [63.262142099999956, 39.527541099999965], [63.358472, 39.47477449999997], [63.420414399999984, 39.445389600000034], [63.565058599999965, 39.33759890000004], [63.694214, 39.27243849999997], [63.76255110000004, 39.19280190000003], [63.99557449999999, 39.06315389999997], [64.09497010000003, 39.00740810000003], [64.17150410000002, 38.97070829999998], [64.2343437, 38.96651219999998], [64.31368329999998, 38.96580029999996], [64.52480860000004, 38.8467872], [64.66407570000001, 38.770769800000025], [64.71681920000005, 38.75214760000003], [64.7840531, 38.709291599999986], [64.86298040000004, 38.68141719999998], [64.91218950000004, 38.659095699999966], [64.96339879999996, 38.626736100000024], [65.03104789999998, 38.607699400000016], [65.15573980000003, 38.52033279999998], [65.3196146, 38.42030309999998], [65.54171430000001, 38.30023380000003], [65.63936779999996, 38.275474], [65.78511789999996, 38.259173599999976], [65.83788989999996, 38.24996], [65.89553060000001, 38.27870240000002], [65.95624449999997, 38.241206], [66.0233924, 38.227588199999964], [66.08401510000003, 38.2036892], [66.14386750000003, 38.1717949], [66.1943367, 38.1609349], [66.24552149999995, 38.15404050000004], [66.31305, 38.078797099999974], [66.3734517, 38.0507706], [66.42734639999998, 38.02671429999997], [66.49654319999998, 38.0418546], [66.5512379, 38.03823530000003], [66.62018630000003, 38.01403320000003], [66.6766291, 37.96196860000003], [66.66976209999999, 37.911911899999986], [66.6160885, 37.88471960000002], [66.58014650000003, 37.8417351], [66.5482249, 37.79177409999996], [66.53849760000003, 37.72805409999997], [66.538803, 37.6620093], [66.53038689999997, 37.5775907], [66.57273840000002, 37.506115200000025], [66.58441870000001, 37.44369630000004], [66.53076220000003, 37.402976399999986], [66.55413790000004, 37.35538469999997], [66.608666, 37.358921], [66.648692, 37.327398], [66.69131, 37.356363], [66.742762, 37.355354], [66.799484, 37.363281], [66.851211, 37.35349], [66.8996, 37.372844], [66.946443, 37.398389], [66.998942, 37.37754], [67.059192, 37.372518], [67.096486, 37.33488], [67.122155, 37.281934], [67.19391550000005, 37.26071210000001], [67.24618649999998, 37.18902150000001], [67.30481739999998, 37.19403890000002], [67.36126210000002, 37.209602], [67.45309549999998, 37.2364808], [67.49373189999996, 37.2687961], [67.55824620000003, 37.222444099999976], [67.6094355, 37.2374995], [67.6892263, 37.218906600000025], [67.75553940000005, 37.2070973], [67.8149221, 37.24606859999997], [67.83742530000002, 37.301487400000035], [67.821161, 37.357673800000015], [67.79148609999996, 37.41161190000004], [67.80875289999999, 37.46678449999998], [67.83538770000001, 37.52325639999996], [67.85223690000004, 37.580388600000035], [67.86746619999997, 37.63126849999998], [67.924351, 37.623375], [67.962808, 37.672873], [68.012386, 37.709969], [68.062469, 37.79011], [68.104595, 37.852313], [68.125292, 37.923914], [68.175925, 37.93262], [68.255749, 37.91816], [68.279777, 37.964834099999976], [68.30094930000001, 38.01723029999997], [68.3427635, 38.05607280000003], [68.374137, 38.09831159999999], [68.395139, 38.14410279999998], [68.4046532, 38.19657829999996], [68.373794, 38.241953], [68.319096, 38.240784], [68.290725, 38.294652], [68.232778, 38.321862], [68.19177390000002, 38.36322219999997], [68.1459008, 38.39715849999998], [68.09268490000004, 38.3893075], [68.11642410000002, 38.46811210000003], [68.10123419999998, 38.515802], [68.061271, 38.559367], [68.081491, 38.631692], [68.073543, 38.682841], [68.103355, 38.72897], [68.099973, 38.782218], [68.133727, 38.819899], [68.187474, 38.852593], [68.196908, 38.915366], [68.158612, 38.949133], [68.129987, 38.997395], [68.086626, 39.022693], [68.027756, 39.010077], [67.981475, 39.032207], [67.924669, 39.024075], [67.869066, 39.001359], [67.820101, 39.016335], [67.767871, 39.01612], [67.714956, 39.004599], [67.678636, 39.03926620000004], [67.67443020000003, 39.09897919999996], [67.64255889999998, 39.144001], [67.58418239999999, 39.18833860000004], [67.53425470000005, 39.1800972], [67.46209680000001, 39.2031904], [67.40230839999998, 39.22129489999997], [67.33087370000001, 39.237233100000026], [67.358028, 39.285171599999956], [67.4491765, 39.3125527], [67.4876085, 39.37823], [67.46018449999997, 39.42301240000003], [67.45815039999998, 39.473826400000036], [67.40909889999998, 39.506507700000036], [67.46630109999998, 39.5313438], [67.49858260000003, 39.58374690000004], [67.54861019999997, 39.588545499999974], [67.61400360000005, 39.59811810000002], [67.651498, 39.6353773], [67.707976, 39.6596577], [67.76078889999998, 39.639917500000045], [67.8171669, 39.64371329999996], [67.8750795, 39.627375], [67.93892040000004, 39.5988392], [67.99911109999996, 39.590555899999956], [68.06471839999996, 39.57104560000002], [68.11481950000004, 39.56025620000001], [68.17410449999998, 39.566393], [68.23563889999997, 39.55677679999998], [68.29899140000002, 39.549433], [68.3487887, 39.538716], [68.40841190000003, 39.5407644], [68.4604, 39.5343375], [68.5120318, 39.53064129999997], [68.53812890000003, 39.58465309999997], [68.5798278, 39.625943699999986], [68.62111239999997, 39.66737029999998], [68.6052889, 39.71664149999996], [68.63379680000001, 39.76301750000002], [68.635227, 39.8293062], [68.70480739999998, 39.85068], [68.7619015, 39.82428], [68.80934860000005, 39.86350619999999], [68.84183430000003, 39.91289410000003], [68.81657749999998, 39.96805], [68.84867960000003, 39.917271], [68.87114839999997, 39.86399549999997], [68.92351630000002, 39.911469899999965], [68.889442, 39.988935], [68.85620079999998, 40.03414959999998], [68.90124650000001, 40.066495], [68.96807780000005, 40.06579379999997], [69.00845340000004, 40.09913270000003], [69.0252224, 40.14665320000002], [68.94100210000005, 40.14530559999998], [68.88164330000004, 40.1330749], [68.8306196, 40.11799689999997], [68.77313550000004, 40.0993793], [68.72282519999996, 40.09930030000004], [68.6544039, 40.081939400000046], [68.531026, 40.117770200000045], [68.58149330000005, 40.15378730000001], [68.65364530000004, 40.17295170000001], [68.71197560000003, 40.18696570000002], [68.77956530000002, 40.203925799999986], [68.823662, 40.17902970000002], [69.03574959999997, 40.22873390000004], [69.1246318, 40.21929019999999], [69.19773659999997, 40.2150728], [69.26179939999999, 40.19998880000002], [69.30145489999998, 40.24481339999997], [69.25489990000004, 40.26957780000004], [69.30743, 40.28188810000004], [69.3405083, 40.339021600000045], [69.30334919999996, 40.3757943], [69.2859791, 40.42361109999999], [69.26861449999997, 40.470548200000025], [69.240464, 40.51992040000001], [69.2629332, 40.57613190000002], [69.31787739999997, 40.57665450000001], [69.33958789999996, 40.639590400000046], [69.3378139, 40.68979340000003], [69.3629231, 40.734391], [69.38537980000001, 40.7860034], [69.46254639999995, 40.791756599999964], [69.51419780000005, 40.772333699999976], [69.5755127, 40.73155749999997], [69.61500520000001, 40.690384299999984], [69.66228479999995, 40.657646], [69.70897179999999, 40.6286287], [69.75825140000005, 40.64523279999999], [69.78964369999997, 40.68952119999998], [69.84140940000003, 40.70660509999997], [69.88991870000002, 40.7255604], [69.94062349999996, 40.719321900000025], [69.99820550000004, 40.735542299999985], [70.047157, 40.753006], [70.092349, 40.774971], [70.12738580000004, 40.82206229999996], [70.1811771, 40.833773], [70.23762549999998, 40.83878220000003], [70.27841930000002, 40.87106530000004], [70.32636610000003, 40.8864945], [70.3792527, 40.918141200000015], [70.38795350000004, 40.974068300000035], [70.3957205, 41.02685850000003], [70.44494510000003, 41.045093499999965], [70.49434330000004, 41.02268959999997], [70.532385, 40.979964], [70.57977, 40.952176], [70.607757, 40.90793], [70.645457, 40.864868], [70.6986465, 40.835504], [70.74368560000002, 40.773925], [70.786659, 40.74203190000003], [70.76863, 40.69277850000002], [70.72741320000002, 40.65508430000002], [70.67524680000002, 40.645616799999964], [70.62761650000002, 40.614526300000044], [70.587357, 40.56603610000003], [70.53554540000002, 40.5582437], [70.49732210000003, 40.52470849999996], [70.43095079999996, 40.490647400000014], [70.3517992, 40.46618719999997], [70.3504713, 40.40869759999999], [70.403696, 40.380107], [70.452462, 40.367315], [70.559969, 40.354172], [70.566131, 40.30452849999997], [70.57282, 40.242026], [70.611733, 40.20109], [70.691624, 40.184815], [70.744251, 40.187728], [70.835953, 40.210648], [70.920296, 40.220248], [70.971944, 40.221274], [70.95915479999996, 40.28521120000001], [71.01881460000001, 40.29613170000004], [71.075961, 40.292286], [71.125062, 40.334655], [71.20351630000003, 40.345055699999975], [71.25247039999998, 40.33262050000004], [71.309629, 40.307405], [71.36897470000001, 40.318918], [71.41407969999997, 40.291173], [71.4719304, 40.277107800000024], [71.51148809999998, 40.24415820000002], [71.554124, 40.217756], [71.616273, 40.206682], [71.62024179999999, 40.25733959999997], [71.67363609999997, 40.268762], [71.6976829, 40.220858900000025], [71.723937, 40.16521], [71.78509550000003, 40.203031], [71.82857550000001, 40.2411028], [71.88463179999997, 40.26258170000001], [71.9314851, 40.242188799999965], [71.98498339999996, 40.26126289999996], [72.03578720000002, 40.2742479], [71.9915781, 40.300959199999966], [72.02645539999999, 40.36028469999997], [72.06644650000004, 40.39540430000002], [72.08677669999996, 40.451096100000015], [72.1481334, 40.47326940000002], [72.19867950000003, 40.481253299999985], [72.25394989999998, 40.480236699999985], [72.29067130000004, 40.44617179999999], [72.36219740000003, 40.418758300000015], [72.41050830000003, 40.40123860000002], [72.4262457, 40.4503927], [72.41957130000003, 40.5037884], [72.41561470000003, 40.55634309999996], [72.36515649999998, 40.5884741], [72.40941569999997, 40.618963099999974], [72.45097039999999, 40.57312679999998], [72.50553909999996, 40.56065270000002], [72.55116969999999, 40.5370569], [72.61582239999997, 40.51522940000001], [72.6693504, 40.5233831], [72.6679272, 40.57860439999996], [72.717964, 40.5896936], [72.75981649999999, 40.62578120000002], [72.79811289999998, 40.671697399999964], [72.8657706, 40.700721], [72.91687769999999, 40.72336609999998], [72.96729480000002, 40.75044120000002], [73.02020450000003, 40.767724299999976], [73.1397362, 40.78525230000003], [73.125683, 40.84029990000002], [73.07472050000001, 40.85154389999999], [73.02171309999999, 40.84645989999998], [72.97594480000002, 40.822559], [72.91608529999998, 40.806604300000025], [72.8675225, 40.84371890000003], [72.77221359999996, 40.85311720000004], [72.712603, 40.84869269999998], [72.6597032, 40.8548234], [72.60846230000001, 40.87079580000004], [72.57704490000005, 40.922586400000014], [72.54482720000004, 40.96580189999997], [72.49059569999997, 40.97045559999999], [72.46832019999995, 41.01543160000003], [72.41627570000001, 41.0266337], [72.36602650000003, 41.04185440000001], [72.31397959999998, 41.03047830000004], [72.26646810000003, 41.011812], [72.2082931, 40.9978062], [72.21011490000002, 41.0508166], [72.19030250000004, 41.10227510000004], [72.1509889, 41.138142499999965], [72.09544120000001, 41.1410841], [72.03089980000001, 41.13660180000003], [71.96017470000004, 41.15697040000001], [71.90457129999999, 41.159334300000026], [71.86360230000001, 41.19745920000004], [71.88659959999998, 41.256044299999985], [71.92519019999999, 41.2945633], [71.8804145, 41.33784730000003], [71.83389, 41.36203840000001], [71.79971329999998, 41.40805909999998], [71.75292980000005, 41.43415879999996], [71.69872279999998, 41.4356813], [71.726608, 41.48163549999997], [71.73690129999999, 41.53224830000002], [71.677794, 41.5149945], [71.6767816, 41.45834049999997], [71.66172859999999, 41.401218], [71.64187660000003, 41.34874820000003], [71.60010459999997, 41.3194887], [71.55498759999998, 41.290629899999985], [71.50547720000002, 41.307701], [71.4496543, 41.28684230000004], [71.459458, 41.231292399999965], [71.43986079999998, 41.17789450000004], [71.43964089999999, 41.12699149999997], [71.3874293, 41.14099589999998], [71.334191, 41.160735499999966], [71.29572380000005, 41.10622769999996], [71.2725153, 41.173389200000045], [71.21776589999999, 41.167319900000045], [71.16735830000005, 41.16939619999997], [71.11635070000001, 41.1451054], [71.0760037, 41.176990300000014], [71.01928739999997, 41.19266620000004], [70.96674439999998, 41.166734], [70.9136581, 41.198968], [70.876472, 41.23350980000002], [70.82443710000001, 41.24135189999998], [70.78767070000005, 41.20046409999998], [70.774002, 41.2577588], [70.77744480000003, 41.316803300000025], [70.7750711, 41.37082460000001], [70.74991170000001, 41.41610410000003], [70.7153088, 41.45359489999998], [70.66599619999998, 41.470175299999966], [70.60813580000004, 41.45248489999997], [70.56020150000002, 41.4254685], [70.51373520000004, 41.398875400000044], [70.46387589999998, 41.42690679999998], [70.4187675, 41.454377], [70.37196340000004, 41.47759189999998], [70.32503830000003, 41.50048180000003], [70.27321010000004, 41.50286529999998], [70.21926440000001, 41.495852399999976], [70.16927060000002, 41.515337], [70.1879518, 41.5622489], [70.20924610000003, 41.611957], [70.264249, 41.60745450000003], [70.32202840000004, 41.63684], [70.37581509999997, 41.657224200000044], [70.41972909999998, 41.69041129999997], [70.46487609999996, 41.71691469999996], [70.50888970000004, 41.7467959], [70.52750220000003, 41.79857549999997], [70.57852990000004, 41.819752499999964], [70.61914549999999, 41.851287], [70.6619818, 41.89389650000002], [70.707664, 41.9198041], [70.75723250000001, 41.9364243], [70.8068604, 41.92062120000002], [70.8539149, 41.94151690000001], [70.84532389999998, 41.9920861], [70.8613337, 42.042792], [70.91445190000005, 42.041913900000026], [70.97923719999999, 42.03292529999998], [71.02466649999997, 42.06118120000002], [71.07588040000002, 42.09069719999996], [71.1298427, 42.11650250000001], [71.17554909999998, 42.144058], [71.22659430000002, 42.14367940000003], [71.2585389, 42.18958350000004], [71.21508060000004, 42.222529600000016], [71.17133549999997, 42.252172399999964], [71.12453519999997, 42.283465200000016], [71.06778829999998, 42.2892467], [71.0177423, 42.28090740000003], [70.9628576, 42.25634460000003], [70.916168, 42.237091], [70.86610850000001, 42.21183859999997], [70.79384339999999, 42.209452900000024], [70.73968840000003, 42.1843885], [70.7146765, 42.13862560000003], [70.67869819999996, 42.09819669999999], [70.651062, 42.041591], [70.6065563, 42.0068513], [70.5487015, 42.03501319999998], [70.5298086, 42.08489409999996], [70.47810940000002, 42.10918520000004], [70.42292670000005, 42.083438100000016], [70.37351459999996, 42.06932489999997], [70.32947519999996, 42.04106319999998], [70.334297, 41.986904], [70.28807, 41.95787], [70.2397982, 41.93945019999998], [70.19799769999997, 41.905290100000016], [70.175865, 41.855308], [70.12020310000003, 41.840566], [70.078416, 41.81201209999998], [70.03833740000002, 41.78080449999997], [69.97365550000004, 41.77665970000004], [69.943214, 41.72841220000003], [69.895683, 41.708911], [69.84678569999997, 41.72109430000002], [69.79747420000004, 41.7073453], [69.74561680000004, 41.70082770000003], [69.696197, 41.673229], [69.638603, 41.668033], [69.576469, 41.629512], [69.538887, 41.588661], [69.500984, 41.54713], [69.455795, 41.56916], [69.406997, 41.52436], [69.444969, 41.489482], [69.37976060000004, 41.46538129999997], [69.32716189999998, 41.449695099999985], [69.27672129999998, 41.450499], [69.22675590000001, 41.46284579999997], [69.17745240000004, 41.43830149999999], [69.15510229999997, 41.38660790000004], [69.101061, 41.372007700000026], [69.049392, 41.364425], [69.044288, 41.310615], [69.039489, 41.25521], [68.992996, 41.230415], [68.95105280000004, 41.1953611], [68.8976372, 41.16479219999998], [68.85231640000002, 41.140962100000024], [68.8041997, 41.119152700000015], [68.749031, 41.070453700000044], [68.71376109999997, 41.03218080000004], [68.76114969999998, 41.00612670000001], [68.71984720000003, 40.96895870000004], [68.66570660000004, 40.957205799999976], [68.63075629999997, 40.99688330000002], [68.5895394, 41.028847], [68.53628460000003, 41.01278489999998], [68.497337, 40.979221], [68.54875639999997, 40.94666359999999], [68.57673020000003, 40.896908300000014], [68.5624314, 40.84144730000001], [68.57336470000001, 40.79090319999996], [68.583854, 40.708324], [68.6341478, 40.6976271], [68.6478268, 40.64947159999996], [68.66312109999998, 40.59955270000004], [68.61041989999998, 40.57707489999998], [68.53531, 40.57946280000002], [68.47896430000002, 40.5866707], [68.41018009999996, 40.61515640000004], [68.2982344, 40.65639390000002], [68.2178103, 40.687503900000046], [68.16807479999997, 40.71933380000004], [68.07721779999997, 40.78885490000004], [68.02348890000002, 40.80069649999998], [67.97655220000003, 40.832093], [68.00769740000003, 40.88320619999997], [68.0540917, 40.913284399999974], [68.07648669999996, 40.9603642], [68.0489272, 41.0189575], [68.10874020000001, 41.03408549999998], [68.08540929999997, 41.0805769], [68.0512684, 41.04204880000002], [67.98357079999997, 41.02605250000004], [67.98849350000005, 41.0855814], [67.9655608, 41.15007719999997], [67.892028, 41.152431], [67.810386, 41.157264], [67.733055, 41.183135], [67.574096, 41.168582], [67.364295, 41.127079], [67.313812, 41.134357], [67.017013, 41.137321], [66.706581, 41.141586], [66.645637, 41.344802], [66.606628, 41.493591], [66.571479, 41.688659], [66.53239280000003, 41.87743679999998], [65.99871, 41.937179], [66.001937, 42.360736], [66.07067559999997, 42.337941100000045], [66.095024, 42.566158], [66.09669309999998, 42.938137499999975], [65.84415579999998, 42.85825459999999], [65.7418195, 42.999845], [65.55925819999996, 43.289475], [65.49546949999997, 43.3329139], [65.184862, 43.49516169999998], [65.00215630000001, 43.7153968], [64.93226339999997, 43.73537439999997], [64.53486069999998, 43.57068720000004], [63.85762829999999, 43.59925790000001], [63.34907640000002, 43.65048459999996], [62.242499400000014, 43.51855380000003], [62.004055, 43.505401], [61.42544809999996, 43.999477099999986], [61.13776079999997, 44.225787100000026], [61.1065656, 44.36043340000002], [60.99041769999997, 44.4125943], [60.570201, 44.667148], [59.991375, 45.002986], [59.86585331913012, 45.04071728768078], [59.85870460000004, 44.985306399999956], [59.797533099999974, 44.9335729], [59.7440348, 44.91720129999997], [59.700587300000045, 44.89098129999998], [59.64160449999997, 44.90280089999996], [59.5802784, 44.8842253], [59.550572399999965, 44.933433099999974], [59.56217669999999, 44.98337590000001], [59.56149010000002, 45.046126900000026], [59.56666569999997, 45.1057075], [59.497905, 45.151321], [59.09659669999998, 45.32289730000003], [58.74735914728734, 45.506368852486425], [58.6933847, 45.4499272], [58.6689496, 45.40625820000002], [58.65088529999997, 45.35541259999998], [58.648818, 45.30368480000004], [58.65713049999996, 45.2538826], [58.6851029, 45.20957009999997], [58.691587399999975, 45.14251880000004], [58.64441669999997, 45.06890360000004], [58.61704340000004, 45.018362499999974], [58.595183300000016, 44.96551150000001], [58.60645939999997, 44.914857700000034], [58.65835879999998, 44.8805368], [58.656324599999984, 44.81046850000001], [58.61983220000004, 44.76844139999998], [58.570396899999984, 44.68665220000001], [58.586906, 44.569853599999966], [58.53529780000004, 44.49733420000004], [58.48465310000001, 44.47397849999999], [58.4303265, 44.43048060000003], [58.37761019999998, 44.411762], [58.31134890000004, 44.40661159999997], [58.260583100000034, 44.42020220000003], [58.2313698, 44.47824390000004], [58.243971899999984, 44.538855400000045], [58.29765890000002, 44.56497709999998], [58.3106623, 44.628293], [58.2859259, 44.67626910000004]], [[70.54568, 40.988499], [70.596849, 40.986441], [70.642394, 40.943607], [70.593342, 40.976267], [70.54568, 40.988499]], [[72.7663454, 40.66122169999997], [72.7663454, 40.66122169999997]]]]}}]}