{"type": "FeatureCollection", "features": [{"type": "Feature", "properties": {"code": "VCT", "name": "Saint Vincent and the Grenadines", "tier": "country"}, "geometry": {"type": "MultiPolygon", "coordinates": [[[[-61.43842, 12.615454500000041], [-61.450779599999954, 12.597027], [-61.4316308, 12.5887174], [-61.4131171, 12.597462599999972], [-61.43321010000002, 12.605001299999959], [-61.43842, 12.615454500000041]]], [[[-61.38884579999996, 12.648978], [-61.39937720000003, 12.62844229999996], [-61.3819021, 12.6402765], [-61.38884579999996, 12.648978]]], [[[-61.33067669999998, 12.738976899999972], [-61.32849659999999, 12.7136007], [-61.351913, 12.705416299999957], [-61.33354350000003, 12.697374], [-61.3203256, 12.7152669], [-61.31118460000004, 12.734054199999985], [-61.33067669999998, 12.738976899999972]]], [[[-61.170681500000036, 12.895539799999963], [-61.190721600000025, 12.8835799], [-61.190379399999955, 12.8602484], [-61.176895400000014, 12.8752263], [-61.170681500000036, 12.895539799999963]]], [[[-61.1477123, 12.9592174], [-61.14432009999999, 12.93894], [-61.1477123, 12.9592174]]], [[[-61.2481542, 12.965890400000031], [-61.26766, 12.9521499], [-61.247636, 12.960043200000023], [-61.2481542, 12.965890400000031]]], [[[-61.2056594, 13.047888], [-61.224939599999985, 13.032718300000042], [-61.24863049999997, 13.017842200000025], [-61.24649659999998, 12.9963212], [-61.27084669999997, 12.993695100000043], [-61.25106279999996, 12.9851811], [-61.23022309999998, 12.9875062], [-61.220395399999965, 13.006892], [-61.212953900000024, 13.027012199999984], [-61.2056594, 13.047888]]], [[[-61.16490239999998, 13.382699599999988], [-61.186197, 13.379835499999977], [-61.2049338, 13.36764409999996], [-61.21131959999998, 13.348228300000027], [-61.225782099999975, 13.3189389], [-61.2332751, 13.298374900000017], [-61.2554538, 13.286421599999983], [-61.258592, 13.265510799999987], [-61.27315210000003, 13.251569], [-61.275644700000036, 13.23152819999996], [-61.278053, 13.211330199999967], [-61.26712519999999, 13.1917111], [-61.2535483, 13.172798100000012], [-61.2414634, 13.15426109999996], [-61.22472640000002, 13.1370349], [-61.20222160000003, 13.134702899999969], [-61.1848323, 13.1228503], [-61.16629039999998, 13.132162600000015], [-61.14795940000001, 13.1500236], [-61.14345330000003, 13.173358], [-61.137119, 13.195754299999958], [-61.12627, 13.2147227], [-61.114828799999955, 13.240123], [-61.117881799999964, 13.260885900000037], [-61.115146400000036, 13.294465700000043], [-61.11847659999997, 13.3299385], [-61.1320207, 13.3553267], [-61.1428883, 13.373801], [-61.16490239999998, 13.382699599999988]]]]}}]}