{"type": "FeatureCollection", "features": [{"type": "Feature", "properties": {"code": "VEN", "name": "Bolivarian Republic of Venezuela", "tier": "country"}, "geometry": {"type": "MultiPolygon", "coordinates": [[[[-60.02098548099991, 8.558010158000059], [-60.08360755099994, 8.573716539000088], [-60.157460089999915, 8.613348700000074], [-60.37189693899995, 8.63540273600006], [-60.42686926999994, 8.582831122000073], [-60.46157792899993, 8.534369208000044], [-60.544178839999915, 8.548041083000044], [-60.606312628999945, 8.55109284100007], [-60.653960740999935, 8.571193752000056], [-60.69245357999995, 8.604681708000044], [-60.91710364499994, 8.579046942000048], [-60.97557532499991, 8.575995184000078], [-60.99242102799991, 8.512193101000037], [-61.020375128999945, 8.468817450000074], [-61.071156378999945, 8.438177802000041], [-61.02391516799992, 8.48655833500004], [-61.09508216099994, 8.493394273000092], [-61.159047003999945, 8.49827708500004], [-61.212880011999914, 8.474188544000071], [-61.24014238199993, 8.432114976000037], [-61.284047003999945, 8.39720286700009], [-61.33177649599992, 8.438177802000041], [-61.35912024599992, 8.48655833500004], [-61.41466223899994, 8.47679271000004], [-61.4641820949999, 8.501288153000075], [-61.50918535099993, 8.532863674000055], [-61.56114661399994, 8.548041083000044], [-61.65196692599994, 8.58584219000005], [-61.62535559799994, 8.630194403000075], [-61.56688391799992, 8.606594143000052], [-61.348540818999936, 8.61009349200009], [-61.27721106699994, 8.589016018000052], [-61.20946204299992, 8.609035549000055], [-61.19399980399993, 8.692694403000075], [-61.12682044199994, 8.814520575000074], [-61.11266028599994, 8.867254950000074], [-61.10586503799993, 8.94529857000009], [-61.07852128799993, 8.997463283000059], [-61.03697669199994, 9.035305080000057], [-61.00182044199994, 9.077378648000092], [-60.98232988199993, 9.13084544500009], [-60.95913652299993, 9.182521877000056], [-61.06627356699994, 9.095119533000059], [-61.097645636999914, 9.04718659100007], [-61.08543860599991, 9.102443752000056], [-61.04723059799994, 9.14516836100006], [-60.96865800699993, 9.206000067000048], [-60.91836503799993, 9.238470770000049], [-60.85065670499995, 9.264227606000077], [-60.8157445949999, 9.301581122000073], [-60.789051886999914, 9.36424388200004], [-60.82013912699995, 9.406195380000042], [-60.853586391999954, 9.446437893000052], [-60.89976966099994, 9.481146552000041], [-60.95425370999993, 9.48818594000005], [-60.960601365999935, 9.538723049000055], [-61.016468878999945, 9.562892971000053], [-61.068023240999935, 9.583319403000075], [-61.130116339999915, 9.57249583500004], [-61.18419348899994, 9.604071356000077], [-61.236507977999906, 9.632169292000071], [-61.33782151299994, 9.712114966000058], [-61.402141394999944, 9.777575385000091], [-61.439167779999934, 9.818411300000037], [-61.499440911999955, 9.841957867000076], [-61.45804239699993, 9.812458040000081], [-61.42708333899992, 9.763835590000042], [-61.47570063899991, 9.80170127100007], [-61.58293137399994, 9.87216310000008], [-61.63673469899993, 9.898770728000045], [-61.60924231699994, 9.839544989000046], [-61.57380123599995, 9.794582424000055], [-61.66270911399994, 9.797430731000077], [-61.75217154199993, 9.823155497000073], [-61.819095475999916, 9.829639643000064], [-61.79857337099992, 9.780951239000046], [-61.757923956999946, 9.75031159100007], [-61.73473059799994, 9.70302969000005], [-61.73033606699994, 9.638861395000049], [-61.74331620999993, 9.699408270000049], [-61.78010006399995, 9.75922272300005], [-61.81163489499994, 9.706244208000044], [-61.83893795499995, 9.65102773600006], [-61.822336391999954, 9.708482164000088], [-61.828195766999954, 9.771063544000071], [-61.87676478299994, 9.82368213500007], [-61.90697213899995, 9.864044232000083], [-62.0253828459999, 9.957357139000067], [-62.11085605199992, 9.99769470700005], [-62.19647551199995, 10.019677793000085], [-62.23680579299992, 9.966945705000057], [-62.14867102799991, 9.944647528000075], [-62.09032141799992, 9.903265692000048], [-62.03750566299993, 9.883734442000048], [-62.088449673999946, 9.879299221000053], [-62.11945553299995, 9.921454169000071], [-62.19517981699994, 9.932806708000044], [-62.16641191299993, 9.873439846000053], [-62.154286261999914, 9.726141669000071], [-62.18187415299991, 9.648871161000045], [-62.175892706999946, 9.70498281500005], [-62.17870032499991, 9.846136786000045], [-62.2219945949999, 9.938381252000056], [-62.25723222599993, 9.974351304000038], [-62.24095618399991, 9.874945380000042], [-62.27049719999991, 9.76666901200008], [-62.31871497299994, 9.706244208000044], [-62.31871497299994, 9.76829661700009], [-62.37759355399993, 9.88467031500005], [-62.40892493399991, 9.924017645000049], [-62.42943274599992, 9.980861721000053], [-62.45002193899995, 10.036851304000038], [-62.49494381399995, 10.15180084800005], [-62.558257615999935, 10.213324286000045], [-62.61953691299993, 10.224432684000078], [-62.60594641799992, 10.133246161000045], [-62.63939368399991, 10.074042059000078], [-62.71670488199993, 10.048407294000071], [-62.76431230399993, 10.07615794500009], [-62.777414516999954, 10.018459377000056], [-62.830922003999945, 10.038804429000038], [-62.881703253999945, 10.047430731000077], [-62.92218990799995, 10.08266836100006], [-62.932484503999945, 10.022650458000044], [-62.94871985599991, 10.079901434000078], [-63.00999915299991, 10.09320709800005], [-62.963002081999946, 10.110296942000048], [-62.91120357999995, 10.10350169500009], [-62.85138912699995, 10.08038971600007], [-62.81387285099993, 10.044094143000052], [-62.777455206999946, 10.086493231000077], [-62.725493943999936, 10.071234442000048], [-62.671538865999935, 10.07615794500009], [-62.63072669199994, 10.114488023000092], [-62.64354407499991, 10.171210028000075], [-62.67495683499993, 10.213324286000045], [-62.66930091099994, 10.276922919000071], [-62.698882615999935, 10.320135809000078], [-62.73314368399991, 10.370672919000071], [-62.78425045499995, 10.402289130000042], [-62.83885657499991, 10.38467031500005], [-62.90782630099994, 10.39712148600006], [-62.957102016999954, 10.38377513200004], [-62.92715410099993, 10.30337148600006], [-63.003977016999954, 10.27537669500009], [-62.98375403599994, 10.330511786000045], [-62.97598222599993, 10.39834219000005], [-62.89781653599994, 10.41201406500005], [-62.83576412699995, 10.39834219000005], [-62.83885657499991, 10.456976630000042], [-62.84117591099994, 10.511786200000074], [-62.89411373599995, 10.52928294500009], [-62.98029537699995, 10.46580638200004], [-62.945383266999954, 10.502427476000037], [-62.89586341099994, 10.537543036000045], [-62.66234290299991, 10.56704336100006], [-62.6067602199999, 10.56281159100007], [-62.541859503999945, 10.545314846000053], [-62.48322506399995, 10.54913971600007], [-62.41783606699994, 10.538275458000044], [-62.35594641799992, 10.532375393000052], [-62.26480058499993, 10.619289455000057], [-62.17446855399993, 10.642279364000046], [-62.08893795499995, 10.631293036000045], [-62.004017706999946, 10.644720770000049], [-61.95457923099991, 10.65525950700004], [-61.90684973899994, 10.684068101000037], [-61.86196855399993, 10.73346588700008], [-61.91869055899991, 10.73118724200009], [-61.971262173999946, 10.723089911000045], [-62.03624426999994, 10.714016018000052], [-62.102406378999945, 10.71360911700009], [-62.15420488199993, 10.686346747000073], [-62.27391516799992, 10.698879299000055], [-62.397043423999946, 10.71548086100006], [-62.541574673999946, 10.74095286700009], [-62.63805091099994, 10.742621161000045], [-62.70567786399994, 10.76203034100007], [-62.82770748599995, 10.72329336100006], [-62.904286261999914, 10.70221588700008], [-62.99176998599995, 10.71784088700008], [-63.08250891799992, 10.715521552000041], [-63.13744055899991, 10.706773179000038], [-63.24087480399993, 10.685126044000071], [-63.301340298999946, 10.677313544000071], [-63.360218878999945, 10.680121161000045], [-63.42992102799991, 10.67259349200009], [-63.490223761999914, 10.657619533000059], [-63.55333411399994, 10.62913646000004], [-63.653187628999945, 10.64126211100006], [-63.75694739499994, 10.665594794000071], [-63.81212317599994, 10.71360911700009], [-63.836822068999936, 10.66233958500004], [-63.900380011999914, 10.638251044000071], [-64.03184973899994, 10.637884833000044], [-64.13121497299994, 10.619696356000077], [-64.18390865799995, 10.633490302000041], [-64.24079342399995, 10.646063544000071], [-64.29255123599995, 10.637884833000044], [-64.26671301999994, 10.57908763200004], [-64.24913489499994, 10.520453192000048], [-64.16905676999994, 10.570257880000042], [-64.08617102799991, 10.56712474200009], [-64.03184973899994, 10.59007396000004], [-63.96666419199994, 10.581366278000075], [-63.8997289699999, 10.557114976000037], [-63.84683183499993, 10.555975653000075], [-63.77183997299994, 10.525051174000055], [-63.729725714999915, 10.49750397300005], [-63.67808997299994, 10.496975002000056], [-63.820383266999954, 10.44757721600007], [-63.884022589999915, 10.448716539000088], [-63.943023240999935, 10.46039459800005], [-64.00487219999991, 10.44790273600006], [-64.07038326699995, 10.452622789000088], [-64.12767493399991, 10.47760651200008], [-64.18854732999995, 10.47760651200008], [-64.24718176999994, 10.419867255000042], [-64.29918372299994, 10.40648021000004], [-64.33971106699994, 10.364203192000048], [-64.40241451699995, 10.378485419000071], [-64.41665605399993, 10.326727606000077], [-64.4700414699999, 10.323187567000048], [-64.40957597599993, 10.30467357000009], [-64.46837317599994, 10.248602606000077], [-64.52098548099991, 10.251776434000078], [-64.57990475199995, 10.248114325000074], [-64.63141842399995, 10.248114325000074], [-64.66860917899993, 10.207098700000074], [-64.71703040299991, 10.22760651200008], [-64.71703040299991, 10.172349351000037], [-64.73704993399991, 10.121039130000042], [-64.77660071499992, 10.090399481000077], [-64.88833574099993, 10.08982982000009], [-64.94359290299991, 10.099798895000049], [-65.01683508999992, 10.067084052000041], [-65.07335364499994, 10.048895575000074], [-65.12800045499995, 10.051336981000077], [-65.17568925699993, 10.083644924000055], [-65.08018958199995, 10.05565013200004], [-65.12857011599993, 10.07615794500009], [-65.45909583199995, 10.149359442000048], [-65.58043372299994, 10.18545156500005], [-65.8684789699999, 10.30955638200004], [-65.74730383999992, 10.23924388200004], [-65.80211341099994, 10.22565338700008], [-65.87132727799991, 10.272935289000088], [-65.92300370999993, 10.28221263200004], [-65.95287024599992, 10.351629950000074], [-66.00426184799994, 10.398993231000077], [-66.08751380099994, 10.466620184000078], [-66.12222245999993, 10.507025458000044], [-66.07616126199991, 10.548895575000074], [-66.12458248599995, 10.601955471000053], [-66.19058183499993, 10.61741771000004], [-66.25177975199995, 10.648586330000057], [-66.30947831899994, 10.634182033000059], [-66.40485592399995, 10.620835679000038], [-66.54157467399995, 10.63271719000005], [-66.77660071499992, 10.61904531500005], [-66.88585364499994, 10.609523830000057], [-67.01235917899993, 10.61123281500005], [-67.07408606699994, 10.593410549000055], [-67.17003333199995, 10.555975653000075], [-67.24339758999992, 10.546616929000038], [-67.32607988199993, 10.549953518000052], [-67.47817949099993, 10.534084377000056], [-67.56017005099994, 10.528265692000048], [-67.64500891799992, 10.506008205000057], [-67.77757727799991, 10.49599844000005], [-67.84837805899991, 10.47406647300005], [-67.90998287699995, 10.47687409100007], [-67.96515865799995, 10.47406647300005], [-68.12954667899993, 10.48773834800005], [-68.20958411399994, 10.537258205000057], [-68.24233964799993, 10.57843659100007], [-68.28709876199991, 10.657904364000046], [-68.31834876199991, 10.74518463700008], [-68.33145097599993, 10.806830145000049], [-68.31143144399994, 10.857611395000049], [-68.24982662699995, 10.865912177000041], [-68.34341386599993, 10.91038646000004], [-68.28726152299993, 10.91282786700009], [-68.34968014199995, 11.071844794000071], [-68.38866126199991, 11.128241278000075], [-68.39028886599993, 11.17914459800005], [-68.48350989499994, 11.20693594000005], [-68.51797441299993, 11.249335028000075], [-68.61522376199991, 11.303412177000041], [-68.65566972599993, 11.34788646000004], [-68.72028561099995, 11.361761786000045], [-68.77623450399994, 11.386216539000088], [-68.82892818899995, 11.435695705000057], [-69.01992753799993, 11.446234442000048], [-69.07445227799991, 11.459377346000053], [-69.12100175699993, 11.489894924000055], [-69.18541419199994, 11.515570380000042], [-69.23985755099994, 11.518744208000044], [-69.29092363199993, 11.533351955000057], [-69.33560136599993, 11.508734442000048], [-69.41551673099991, 11.495591539000088], [-69.5000707669999, 11.508734442000048], [-69.56338456899994, 11.47842031500005], [-69.62360592399995, 11.46775950700004], [-69.66584225199995, 11.497748114000046], [-69.70030676999994, 11.540187893000052], [-69.74714107999995, 11.63226959800005], [-69.80858313699991, 11.803615627000056], [-69.81676184799994, 11.932440497000073], [-69.83531653599994, 12.015204169000071], [-69.92536373599995, 12.15961334800005], [-69.9903051419999, 12.184800523000092], [-70.04133053299995, 12.19399648600006], [-70.1270238919999, 12.12881094000005], [-70.20579993399991, 12.112005927000041], [-70.21324622299994, 12.056789455000057], [-70.25462805899991, 12.00682200700004], [-70.28355872299994, 11.939642645000049], [-70.29678300699993, 11.871893622000073], [-70.26724199099993, 11.816595770000049], [-70.24058997299994, 11.76194896000004], [-70.21947180899991, 11.701117255000042], [-70.23314368399991, 11.652736721000053], [-70.18651282499991, 11.602687893000052], [-70.13833574099993, 11.62596263200004], [-70.07380123599995, 11.63190338700008], [-70.02676347599993, 11.65180084800005], [-69.94513912699995, 11.673244533000059], [-69.88023841099994, 11.673244533000059], [-69.82502193899995, 11.67523834800005], [-69.78514563699991, 11.615668036000045], [-69.76081295499995, 11.557114976000037], [-69.74364173099991, 11.50336334800005], [-69.78921464799993, 11.450995184000078], [-69.84460451299992, 11.436231517000067], [-69.8926173939999, 11.478645437000068], [-69.94597799799993, 11.519773538000038], [-70.00780188699991, 11.515570380000042], [-70.12276539399994, 11.559097438000038], [-70.05390927299993, 11.506482221000056], [-70.0344945949999, 11.450384833000044], [-70.08812415299991, 11.434027411000045], [-70.14129050999992, 11.46859478500005], [-70.15900631399995, 11.40143463700008], [-70.2310674979999, 11.351587093000091], [-70.28795325399994, 11.357082424000055], [-70.40098671999993, 11.296984251000083], [-70.48643958199995, 11.295111395000049], [-70.51390540299991, 11.253159898000092], [-70.62975012899994, 11.239203192000048], [-70.6856176419999, 11.24803294500009], [-70.86969967399995, 11.19627513200004], [-71.06236731699994, 11.090399481000077], [-71.12222245999993, 11.06834544500009], [-71.17593339799993, 11.034125067000048], [-71.29393469999991, 10.98663971600007], [-71.41844641799992, 10.980047919000071], [-71.50112870999993, 10.96002838700008], [-71.45958411399994, 10.925930080000057], [-71.45335852799991, 10.871893622000073], [-71.43529212099992, 10.818915106000077], [-71.50999915299991, 10.812648830000057], [-71.58311926999994, 10.80923086100006], [-71.53795325399994, 10.76048411700009], [-71.53384355399993, 10.699774481000077], [-71.50475012899994, 10.630601304000038], [-71.54214433499993, 10.59007396000004], [-71.48131262899994, 10.515041408000059], [-71.46886145699995, 10.43748607000009], [-71.43219967399995, 10.359523830000057], [-71.39317786399994, 10.288641669000071], [-71.37319902299993, 10.23623281500005], [-71.32843990799995, 10.206732489000046], [-71.26781165299991, 10.151922919000071], [-71.22850501199991, 10.070054429000038], [-71.20693925699993, 9.980617580000057], [-71.10846920499995, 9.90534088700008], [-71.07241777299993, 9.857855536000045], [-71.07184811099995, 9.792792059000078], [-71.03563391799992, 9.744086005000042], [-71.04869544199994, 9.672756252000056], [-71.06627356699994, 9.601996161000045], [-71.09024003799993, 9.55540599200009], [-71.07925370999993, 9.502508856000077], [-71.07335364499994, 9.41901276200008], [-71.05614173099991, 9.36359284100007], [-71.07282467399995, 9.31354401200008], [-71.14305579299992, 9.29124583500004], [-71.18748938699991, 9.246486721000053], [-71.22061113199993, 9.179266669000071], [-71.27354895699995, 9.13507721600007], [-71.37140865799995, 9.093329169000071], [-71.51480058499993, 9.048976955000057], [-71.60220292899993, 9.042303778000075], [-71.68614661399994, 9.06195709800005], [-71.72252356699994, 9.10024648600006], [-71.75816809799994, 9.13898346600007], [-71.75182044199994, 9.190741278000075], [-71.75446529899995, 9.246975002000056], [-71.80703691299993, 9.225490627000056], [-71.77806555899991, 9.268866278000075], [-71.73448645699995, 9.30760325700004], [-71.74079342399995, 9.36359284100007], [-71.80825761599993, 9.41046784100007], [-71.89159094999991, 9.425726630000042], [-71.90855872299994, 9.493353583000044], [-71.97984778599994, 9.470119533000059], [-72.01927649599992, 9.502875067000048], [-71.96751868399991, 9.498236395000049], [-71.97789466099994, 9.555894273000092], [-71.99522864499994, 9.60382721600007], [-71.96483313699991, 9.55109284100007], [-71.99893144399994, 9.654730536000045], [-72.09024003799993, 9.75462474200009], [-72.12132727799991, 9.812201239000046], [-72.04369055899991, 9.92959219000005], [-72.02354895699995, 9.98541901200008], [-71.99181067599994, 10.06745026200008], [-71.95303300699993, 10.117743231000077], [-71.89769446499992, 10.139227606000077], [-71.83698482999995, 10.234442450000074], [-71.77904212099992, 10.341742255000042], [-71.72972571499992, 10.391506252000056], [-71.67186438699991, 10.43305084800005], [-71.62800045499995, 10.457709052000041], [-71.6309301419999, 10.518459377000056], [-71.60558020699995, 10.581854559000078], [-71.61042232999995, 10.637884833000044], [-71.58649654899995, 10.698879299000055], [-71.61831620999993, 10.743475653000075], [-71.67406165299991, 10.802394924000055], [-71.71043860599991, 10.878607489000046], [-71.71947180899991, 10.933172919000071], [-71.75987708199995, 11.00381094000005], [-71.69713294199994, 11.025580145000049], [-71.62466386599993, 11.00096263200004], [-71.76976477799991, 11.106350002000056], [-71.85692298099991, 11.216986395000049], [-71.93932044199994, 11.38076406500005], [-71.97012285099993, 11.511379299000055], [-71.96051998599995, 11.59125397300005], [-71.90070553299995, 11.62132396000004], [-71.67442786399994, 11.684719143000052], [-71.50706946499992, 11.709784247000073], [-71.40998287699995, 11.751166083000044], [-71.37144934799994, 11.78310781500005], [-71.34064693899995, 11.825506903000075], [-71.40966752199992, 11.812303365000062], [-71.97108028199995, 11.661924948000106], [-72.00792557899987, 11.624614563000065], [-72.25659256999992, 11.16779490200014], [-72.32185990499997, 11.160095113000054], [-72.41699621599992, 11.137615865000043], [-72.48148840299984, 11.132525737000066], [-72.50748164899991, 11.082993876000103], [-72.5420531829999, 11.041084290000114], [-72.57646968599994, 10.957368469000073], [-72.6131082769999, 10.915252177000127], [-72.65672318499995, 10.885202332000063], [-72.70612585499987, 10.81125335700007], [-72.75439164199989, 10.674853414000012], [-72.78141841699994, 10.631316020000085], [-72.84301672399997, 10.560596822000065], [-72.86141353399995, 10.508093567000103], [-72.90756058799991, 10.452463888000082], [-72.91551875899995, 10.39427622500007], [-72.93562089099993, 10.175193991000057], [-72.98771073399988, 9.999416606000082], [-72.99618566899989, 9.921281840000063], [-72.98161291499991, 9.856557108000075], [-73.01690791899992, 9.748605041000047], [-73.07189164299987, 9.664088237000072], [-73.09716141799993, 9.596366272000083], [-73.1637206629999, 9.536344096000064], [-73.19741369699994, 9.478673197000091], [-73.27740881299991, 9.361806946000044], [-73.31177364099995, 9.276230774000098], [-73.37910803299994, 9.213883159000147], [-73.25384436099989, 9.1677102660001], [-73.17617468299989, 9.19093882300011], [-73.12434322199991, 9.23447621700005], [-73.07602575699988, 9.254268290000127], [-73.03266923099991, 9.294601746000083], [-72.9911213789999, 9.251684468000121], [-72.97603186099991, 9.192127380000045], [-72.97318965699995, 9.128436178000044], [-72.91619055199996, 9.106964621000103], [-72.86172359299985, 9.137040304000081], [-72.80767004399988, 9.12373362200006], [-72.78307206299988, 9.059939067000116], [-72.67543005399995, 8.651514384000052], [-72.45627030499989, 8.403932597000079], [-72.40325028599997, 8.3704979460001], [-72.38397497599993, 8.321792908000063], [-72.39477535099988, 8.272803650000057], [-72.3572582599999, 8.172137960000015], [-72.33576086499994, 8.10389923100007], [-72.35007523599992, 8.042585144000014], [-72.40707434199993, 8.043773702000124], [-72.43012202999998, 7.990521139000066], [-72.47880122899991, 7.955536194000061], [-72.46567541499985, 7.904583232000107], [-72.45177445499988, 7.832804667000104], [-72.47415034999995, 7.754153137000046], [-72.48334875499995, 7.649353333000064], [-72.46681229699996, 7.589873759000099], [-72.47590734899993, 7.528637187000058], [-72.45130936699994, 7.440218811000136], [-72.37079748599987, 7.399084371000058], [-72.23969437699995, 7.391281230000047], [-72.17168819199986, 7.337331034000087], [-72.17422033799994, 7.279608460000091], [-72.16414343299991, 7.22080068000011], [-72.09825598199993, 7.086752014000098], [-72.04208369999995, 7.046909485000072], [-71.99381791199994, 7.012854716000021], [-71.8810082599999, 6.986603089000084], [-71.79961787899987, 7.009185689000034], [-71.74535762499994, 7.029339498000098], [-71.66959997599994, 7.027737529000063], [-71.62040401299987, 7.052128805000095], [-71.56707393499988, 7.039313050000104], [-71.50991979999986, 7.034610494000034], [-71.45576289899995, 7.015696920000096], [-71.39819535399991, 7.02949452700004], [-71.30776159799993, 7.027375793000061], [-71.27551550399997, 6.984381002000077], [-71.21324540299995, 6.977508036000117], [-71.15361079899995, 6.977094625000106], [-71.06547664399992, 6.984536031000033], [-71.01126806599987, 6.99089223200005], [-70.96132279499992, 7.009444072000093], [-70.91881892899994, 7.039468079000059], [-70.87481644699989, 7.069182027000124], [-70.79306433199989, 7.085098369000136], [-70.73296463999995, 7.099309388000108], [-70.68260595799995, 7.084633281000023], [-70.62289383999985, 7.074091288000062], [-70.57147578999988, 7.079362284000084], [-70.52091040099992, 7.015593567000067], [-70.46130163699985, 7.008307190000082], [-70.31906225599991, 6.938285624000059], [-70.23126399799995, 6.968516337000068], [-70.15778011099988, 6.97952341800007], [-70.09662105399985, 6.944435120000037], [-69.77596879099994, 6.540816345000067], [-69.44363765499995, 6.122237244000132], [-69.3581648359999, 6.151615295000113], [-69.26858374099987, 6.097458395000103], [-69.18915706399989, 6.112625427000111], [-69.12996171099991, 6.169934591000086], [-69.08019730699988, 6.209389547000114], [-69.0161702069999, 6.21398875000007], [-68.96090226299987, 6.202361553000102], [-68.89292191599989, 6.184326477000099], [-68.82912735999989, 6.187788798000042], [-68.74409379099987, 6.164921977000034], [-68.65934444199993, 6.138670349000094], [-68.59567907699994, 6.164921977000034], [-68.52250524999997, 6.173293559000101], [-68.4490213629999, 6.194997661000102], [-68.34112097199997, 6.17683339400007], [-68.1902774669999, 6.217838644000011], [-68.01902176999997, 6.211611634000107], [-67.9433157959999, 6.229698385000034], [-67.90430008999988, 6.275147807000081], [-67.8391361089999, 6.307523092000082], [-67.73097733599991, 6.302691345000071], [-67.57398433499995, 6.266233622000058], [-67.5182771399999, 6.222541199000091], [-67.44996089699993, 6.197943218000106], [-67.49140539599989, 6.152958883000082], [-67.45430171699991, 6.056789042000048], [-67.42097041899987, 6.018341776000099], [-67.43476802599992, 5.968163961000073], [-67.48520422399992, 5.944082743000124], [-67.53238480699994, 5.892561340000029], [-67.60121781499993, 5.820576070000072], [-67.6411636959999, 5.744844259000089], [-67.64907019099994, 5.656089986000083], [-67.63775305199997, 5.597308045000105], [-67.61703080299992, 5.541600851000069], [-67.64700313399987, 5.483361511000055], [-67.69371862799997, 5.447213847000029], [-67.75211299699993, 5.409670919000121], [-67.80978389599991, 5.378820089000044], [-67.8436836349999, 5.29724884000008], [-67.82497676599993, 5.242781881000084], [-67.81350459899991, 5.186557923000095], [-67.82663041299989, 5.120386251000113], [-67.79676143399988, 5.070156759000071], [-67.80497798699992, 4.991246846000124], [-67.81960241799987, 4.933317566000099], [-67.82719885299994, 4.871538391000101], [-67.81862056499992, 4.815676168000039], [-67.82285803299996, 4.743587545000139], [-67.84564733899995, 4.689740703000027], [-67.84879960099991, 4.634188538000032], [-67.85370886299995, 4.575820007000061], [-67.87179561399995, 4.521559753000119], [-67.82905920399995, 4.491432394000128], [-67.81350459899991, 4.443269959000048], [-67.79665808199994, 4.385805766000132], [-67.79986201999992, 4.306069031000064], [-67.79944860899991, 4.235323995000044], [-67.78621944199992, 4.172976380000108], [-67.74017574099989, 4.118716126000066], [-67.71407914199992, 4.056497701000055], [-67.69857621299988, 3.949966736000107], [-67.65387609899994, 3.859248759000067], [-67.63878658099995, 3.785170594000135], [-67.61413692199994, 3.740573832000024], [-67.55791296499987, 3.73416595500008], [-67.4998286549999, 3.717913717000059], [-67.40391719599992, 3.504464213000063], [-67.33782303899997, 3.46009999600011], [-67.30945267799987, 3.383928935000114], [-67.39580399599993, 3.266571757000037], [-67.45218298399993, 3.243679098000101], [-67.83861934499993, 2.886129863000065], [-67.85593094899994, 2.789753316000073], [-67.80332434099995, 2.832593078000116], [-67.75102779099984, 2.842101542000094], [-67.69041133699997, 2.80634145100008], [-67.62659094299994, 2.813421122000108], [-67.58705847199988, 2.758127340000087], [-67.57558630399987, 2.691103007000066], [-67.51879390499994, 2.681026103000121], [-67.47502396699986, 2.634672343000133], [-67.43264929299994, 2.595398255000063], [-67.39322017499993, 2.559328105000063], [-67.34986364799994, 2.518452047000068], [-67.3254206949999, 2.474630432000055], [-67.2757079669999, 2.439387106000083], [-67.19762487799997, 2.402025045000116], [-67.1737503659999, 2.336447652000103], [-67.20630651899992, 2.297793681000101], [-67.20134558099988, 2.22792714400012], [-67.1778328049999, 2.15449493400007], [-67.12098872899986, 2.119096578000054], [-67.1111702069999, 2.048842469000064], [-67.13514807199991, 2.003341370000101], [-67.11034338399986, 1.959519755000088], [-67.06683182799995, 1.894123230000034], [-66.9808939209999, 1.66594594300004], [-66.97805171699991, 1.599722596000035], [-66.94317012599993, 1.523189799000136], [-66.93650386599992, 1.438517965000131], [-66.90172562699988, 1.394463806000061], [-66.88250199499996, 1.326018372000064], [-66.89588618999989, 1.265298564000076], [-66.4070788169999, 0.802071025000103], [-66.34620397999993, 0.759386292000016], [-66.28507076099993, 0.745847066000039], [-66.2282783609999, 0.762796936000129], [-66.1730620939999, 0.743056539000079], [-66.11112788899987, 0.741816305000043], [-66.0574619139999, 0.786981506000103], [-65.99418412299991, 0.794732971000116], [-65.95266210999992, 0.827960917000041], [-65.91424068199987, 0.87462473600003], [-65.87196936099988, 0.908989563000063], [-65.78541133699989, 0.949142151000075], [-65.72097082599996, 0.981905009000073], [-65.62872839399989, 0.982008362000101], [-65.57085078999998, 0.968572490000057], [-65.53581416899996, 0.928471578000057], [-65.51700394699995, 0.862790833000105], [-65.56328019299991, 0.777938130000052], [-65.58521683799998, 0.691483459000068], [-65.54266129599992, 0.64931549100001], [-65.47287227499996, 0.672518209000103], [-65.43274552499994, 0.720939026000067], [-65.41083471699989, 0.783880921000062], [-65.38902726199987, 0.835660706000041], [-65.32719641099987, 0.910281474000016], [-65.2433772389999, 0.913123678000076], [-65.17898840299989, 0.955395], [-65.16017818299989, 1.080193584000071], [-65.13676875899992, 1.126909078000068], [-65.05961584499997, 1.132386780000061], [-65.01744787599992, 1.162979228000069], [-64.96646907599995, 1.200599670000088], [-64.91466345299997, 1.214759013000048], [-64.85531306999985, 1.258683981000075], [-64.77131302999993, 1.246746724000033], [-64.60421728599994, 1.3312893680001], [-64.57026586899991, 1.395497335000044], [-64.52791703299991, 1.435727437000082], [-64.47505204299995, 1.463012594000091], [-64.43309077999993, 1.494044292000112], [-64.36459366899993, 1.497093201000055], [-64.38503169799989, 1.436399232000056], [-64.3895792239999, 1.369297384000035], [-64.34074499599984, 1.384206034000073], [-64.30152258399988, 1.446657003000055], [-64.23214697299994, 1.497144877000068], [-64.17708573399997, 1.55114674900004], [-64.1297242839999, 1.578070170000061], [-64.09295650299993, 1.622615255000056], [-64.07254431199988, 1.684575297000094], [-64.07595495599989, 1.745372620000111], [-64.06029699799984, 1.807461853000078], [-64.05360489999993, 1.893709819000108], [-63.99502966299991, 1.958021139000081], [-63.920822305999934, 1.974325053000115], [-63.802276570999936, 1.972309672000065], [-63.617533324999954, 2.101164856000082], [-63.56198116099995, 2.126357117000026], [-63.51066646399991, 2.124600119000135], [-63.44343542599995, 2.137183329000067], [-63.40219763199994, 2.17051462800012], [-63.3726387129999, 2.266839498000095], [-63.37279374199994, 2.349108378000054], [-63.36111486899998, 2.400009664000081], [-63.51066646399991, 2.424659322000082], [-63.57381506399986, 2.434374491000113], [-63.70409134999997, 2.437578431000091], [-63.76703324399995, 2.429310201000135], [-63.83131872599992, 2.428638408000054], [-63.95182816599987, 2.461504618000092], [-64.0107909759999, 2.468170878000095], [-64.05662797099987, 2.48853139300013], [-64.01218623899987, 2.603769837000044], [-64.00443477399998, 2.679527486000026], [-64.01223791599989, 2.744019674000057], [-64.02908443299987, 2.797969869000013], [-64.10595312599995, 2.947211405000061], [-64.13750158799994, 2.987260640000045], [-64.1734683839999, 3.051907857000103], [-64.22292272999994, 3.123996481000091], [-64.21630814699992, 3.251430562000024], [-64.24560868299989, 3.418939717000029], [-64.20506852299988, 3.497074483000063], [-64.19574092599996, 3.570067444000088], [-64.2220959069999, 3.616214498000119], [-64.26555578699993, 3.652207133000019], [-64.32415685999985, 3.724114889000049], [-64.39448848499995, 3.75607676200012], [-64.53143103099995, 3.853512675000104], [-64.57496842499998, 3.914206645000093], [-64.64289709499994, 3.972962748000057], [-64.70744095899988, 4.082956034000048], [-64.72710384199993, 4.140781962000062], [-64.78366369699998, 4.177084656000119], [-64.81554805499985, 4.231034851000075], [-64.79162186699995, 4.284416606000079], [-64.69987036199993, 4.264159444000086], [-64.66098384699995, 4.227469177000017], [-64.62106380299991, 4.146879781000024], [-64.36498124199994, 4.151866557000076], [-64.24059606999992, 4.142022197000088], [-64.17269323699989, 4.123392843000133], [-64.12509924299985, 4.088485412000054], [-64.0957728679999, 4.024380799000127], [-64.07902970399994, 3.953093160000066], [-64.0376627199999, 3.882503154000077], [-63.956944132999865, 3.901881816000056], [-63.875140340999934, 3.949811707000066], [-63.79059769699995, 3.93304270500002], [-63.690758829999936, 3.943998108000088], [-63.622804321999894, 3.935213114000106], [-63.554229695999936, 3.875371806000132], [-63.46886022999985, 3.867232768000036], [-63.44824133299994, 3.939373068000037], [-63.391448933999925, 3.97156748500008], [-63.28597733599986, 3.920821229000097], [-63.19321813999994, 3.806745504000091], [-63.130844685999904, 3.762122905000069], [-63.02495967699994, 3.637763571000079], [-62.975143595999896, 3.583064067000123], [-62.90770585199988, 3.560972392000025], [-62.85127518799993, 3.577224630000046], [-62.79644649299985, 3.597300924000095], [-62.74957596899992, 3.660372010000032], [-62.74042924099993, 3.741943258000092], [-62.76683589699991, 3.822041727000055], [-62.78512935399988, 3.8722970580001], [-62.77319209899994, 3.939941508000089], [-62.77065995299995, 4.005389710000074], [-62.72745845599991, 4.038514302000067], [-62.67066605699998, 4.043656108000064], [-62.5886555589999, 4.03071116200006], [-62.54881302999988, 4.077452494000056], [-62.51491328999995, 4.133108012000079], [-62.4665441489999, 4.168738912000052], [-62.38417191599993, 4.173467306000134], [-62.19265905799989, 4.094738261000145], [-62.111113647999844, 4.104841004000093], [-62.03504593999989, 4.159876404000045], [-61.96859004699991, 4.160083110000102], [-61.908231973999904, 4.146156311000112], [-61.84704707899991, 4.166051737000117], [-61.77919592299986, 4.232688497000126], [-61.71888952599997, 4.254650980000093], [-61.64052221799997, 4.241912740000132], [-61.5854093019999, 4.253410746000057], [-61.53350032599991, 4.273590393000049], [-61.51642126499988, 4.374772848000134], [-61.458181925999924, 4.419137064000083], [-61.3810806889999, 4.417741801000105], [-61.3082427569999, 4.433322246000046], [-61.322944702999905, 4.508847351000071], [-61.23806616299993, 4.515875346000072], [-61.18592464199986, 4.494119568000059], [-61.095465046999976, 4.507684631000046], [-61.01195593299988, 4.518304138000133], [-60.94779964299997, 4.573597921000058], [-60.9310564779999, 4.637392477000091], [-60.90343542499991, 4.699585062000082], [-60.76367651399994, 4.755085552000068], [-60.71814957699988, 4.784282735000104], [-60.68006404699992, 4.817949931000058], [-60.6126263029999, 4.9005805460001], [-60.59192989199997, 4.949724834000051], [-60.66430273499992, 5.170254008000072], [-60.71101822899993, 5.198159282000063], [-60.8169032399999, 5.285079041000074], [-61.04425370299987, 5.535606385000051], [-61.37960791099988, 5.905299581000094], [-61.38627417099991, 5.956588440000118], [-61.3380858969999, 5.986793314000039], [-61.291189534999944, 6.061155701000132], [-61.26938208099995, 6.107225240000062], [-61.20651770099994, 6.125777079000088], [-61.173987386999926, 6.171639913000149], [-61.12156164499987, 6.18665191600013], [-61.11285416699991, 6.254141337000078], [-61.1467022299999, 6.294216411000065], [-61.16091324899986, 6.342353007000042], [-61.14993200799998, 6.404442241000112], [-61.15347184299995, 6.464361064000087], [-61.18613134799992, 6.523323873000024], [-61.2047865399999, 6.595825908000108], [-61.17065425599992, 6.668508810000063], [-61.12982987499993, 6.715844421000028], [-61.07040197799998, 6.711865336000045], [-61.01867386999993, 6.720443624000069], [-60.9545950939999, 6.728737691000035], [-60.90123917699992, 6.764420268000023], [-60.90756953999994, 6.815244039000035], [-60.8496144209999, 6.789948426000052], [-60.79351965299995, 6.793824158000106], [-60.73646887199993, 6.764782003000022], [-60.68414648499993, 6.784031474000045], [-60.63954972399992, 6.837723287000131], [-60.54872839399994, 6.863096415000129], [-60.420958414999916, 6.942213034000119], [-60.368093424999955, 6.988101705000091], [-60.32755326399993, 7.028564352000089], [-60.29579809599991, 7.070732321000051], [-60.29993221099994, 7.121013489000106], [-60.34757788099998, 7.151915995000095], [-60.40147640099991, 7.170881246000064], [-60.449509643999875, 7.18834788], [-60.51286494999988, 7.165196839000103], [-60.54800492399994, 7.125509338000128], [-60.61763891599995, 7.180389710000043], [-60.64355464699989, 7.250669658000035], [-60.60676102799991, 7.299452209000094], [-60.622005574999946, 7.371540833000083], [-60.657274739999934, 7.408127747000023], [-60.6881255699999, 7.448642070000034], [-60.723833984999914, 7.495822652000044], [-60.7164959319999, 7.551581523000095], [-60.65562109399988, 7.585222880000046], [-60.625157836999904, 7.629457906000056], [-60.58451432299995, 7.688524068000106], [-60.55958044499988, 7.763041483000052], [-60.52575821999989, 7.813374329000027], [-60.418503784999956, 7.819368795000059], [-60.35042008499994, 7.841796367000143], [-60.32034440099997, 7.884739482000029], [-60.271871907999895, 7.917760722000082], [-60.23112504099993, 7.964114482000085], [-60.18309179699989, 7.982666321000124], [-60.129219116999934, 8.02881337500007], [-60.06800838299992, 8.03175893200006], [-60.019458373999925, 8.060310161000118], [-59.99933040399995, 8.115397237000082], [-59.99331009899993, 8.168520609000026], [-59.939721638999856, 8.208440654000071], [-59.88975052899988, 8.21988698300008], [-59.82928910299995, 8.245105083000041], [-59.8556182449999, 8.352126974000015], [-59.95969458099998, 8.46816640300004], [-60.02098548099991, 8.558010158000059]]], [[[-61.016468878999945, 8.61009349200009], [-61.08674068899995, 8.606838283000059], [-61.13784745999993, 8.559759833000044], [-61.20148678299995, 8.575995184000078], [-61.259429490999935, 8.536851304000038], [-61.12637285099993, 8.507066148000092], [-61.041574673999946, 8.51854075700004], [-61.00568600199995, 8.553534247000073], [-60.99600175699993, 8.602687893000052], [-61.016468878999945, 8.61009349200009]]], [[[-60.92027747299994, 9.028469143000052], [-60.94884192599994, 8.981146552000041], [-60.98281816299993, 8.930161851000037], [-61.01671301999994, 8.88031647300005], [-61.09162350199995, 8.822414455000057], [-60.933583136999914, 8.883937893000052], [-60.89167232999995, 8.91437409100007], [-60.850819464999915, 8.970648505000042], [-60.87547766799992, 9.02798086100006], [-60.92027747299994, 9.028469143000052]]], [[[-61.08543860599991, 8.890692450000074], [-61.03844153599994, 8.919867255000042], [-60.94298255099994, 9.025824286000045], [-60.88927161399994, 9.041408596000053], [-60.85309811099995, 9.077948309000078], [-60.906361456999946, 9.077704169000071], [-60.98412024599992, 9.018947658000059], [-61.04751542899993, 8.98729075700004], [-61.08372962099992, 8.942938544000071], [-61.08543860599991, 8.890692450000074]]], [[[-60.873158331999946, 9.116603908000059], [-60.84748287699995, 9.163031317000048], [-60.90729732999995, 9.185492255000042], [-60.942290818999936, 9.13662344000005], [-60.96129309799994, 9.06940338700008], [-60.88971920499995, 9.098578192000048], [-60.873158331999946, 9.116603908000059]]], [[[-60.81786048099991, 9.206000067000048], [-60.83690344999991, 9.14203522300005], [-60.769520636999914, 9.189195054000038], [-60.81786048099991, 9.206000067000048]]], [[[-63.976551886999914, 10.80923086100006], [-63.95612545499995, 10.76203034100007], [-63.90916907499991, 10.735541083000044], [-63.92833411399994, 10.790838934000078], [-63.976551886999914, 10.80923086100006]]], [[[-65.22760982999995, 10.953802802000041], [-65.30626380099994, 10.97646719000005], [-65.37669837099992, 10.966050523000092], [-65.41177324099993, 10.924750067000048], [-65.35505123599995, 10.905178127000056], [-65.27696692599994, 10.889553127000056], [-65.22081458199995, 10.89451732000009], [-65.20824133999992, 10.949896552000041], [-65.22760982999995, 10.953802802000041]]], [[[-63.84683183499993, 11.13540273600006], [-63.880970831999946, 11.17914459800005], [-63.92096920499995, 11.137640692000048], [-63.976551886999914, 11.118312893000052], [-64.01134192599994, 11.065252997000073], [-64.01756751199991, 11.015285549000055], [-64.08983313699991, 10.994818427000041], [-64.14753170499995, 11.023586330000057], [-64.18883216099994, 11.073635158000059], [-64.24445553299995, 11.08812083500004], [-64.30211341099994, 11.080471096000053], [-64.35606848899994, 11.064195054000038], [-64.38394120999993, 11.01984284100007], [-64.40855872299994, 10.967474677000041], [-64.34715735599991, 10.953802802000041], [-64.29751542899993, 10.947414455000057], [-64.22435462099992, 10.93935781500005], [-64.17585201699995, 10.967474677000041], [-64.11636308499993, 10.928615627000056], [-64.07420813699991, 10.89093659100007], [-63.976551886999914, 10.891099351000037], [-63.89806067599994, 10.884955145000049], [-63.87169348899994, 10.93740469000005], [-63.819569464999915, 10.953802802000041], [-63.79344641799992, 11.001125393000052], [-63.82575436099995, 11.06000397300005], [-63.84357662699995, 11.114894924000055], [-63.84683183499993, 11.13540273600006]]], [[[-66.60826575399994, 11.78310781500005], [-66.67414303299995, 11.77602773600006], [-66.60651607999995, 11.767238674000055], [-66.60826575399994, 11.78310781500005]]], [[[-66.13219153599994, 11.824042059000078], [-66.19432532499991, 11.817694403000075], [-66.14313717399995, 11.781805731000077], [-66.10293535099993, 11.819281317000048], [-66.13219153599994, 11.824042059000078]]], [[[-64.60716712099992, 11.899115302000041], [-64.64879309799994, 11.851304429000038], [-64.60558020699995, 11.818019924000055], [-64.55284583199995, 11.823716539000088], [-64.59463456899994, 11.89248281500005], [-64.60716712099992, 11.899115302000041]]], [[[-66.74998938699991, 11.77757396000004], [-66.80955969999991, 11.752956447000088], [-66.72801673099991, 11.782049872000073], [-66.74998938699991, 11.77757396000004]]], [[[-66.73338782499991, 11.869940497000073], [-66.81480872299994, 11.873236395000049], [-66.75381425699993, 11.86237213700008], [-66.73338782499991, 11.869940497000073]]], [[[-67.65802975199995, 11.984930731000077], [-67.65802975199995, 11.984930731000077]]], [[[-67.68040930899991, 12.025051174000055], [-67.68040930899991, 12.025051174000055]]], [[[-67.67760169199994, 12.027818101000037], [-67.67760169199994, 12.027818101000037]]], [[[-67.67723548099991, 12.05023834800005], [-67.67723548099991, 12.05023834800005]]], [[[-67.68138587099992, 12.063706773000092], [-67.68138587099992, 12.063706773000092]]], [[[-67.68732662699995, 12.065578518000052], [-67.68732662699995, 12.065578518000052]]], [[[-63.639881964999915, 15.69603099200009], [-63.639881964999915, 15.69603099200009]]], [[[-61.390271415999905, 8.580580853000072], [-61.47623033199994, 8.56711839400009], [-61.535847478999926, 8.575509178000061], [-61.48986341199992, 8.551132446000054], [-61.4336875919999, 8.514154007000059], [-61.33844429599992, 8.50995247700007], [-61.29343794399995, 8.456939487000056], [-61.302737306999916, 8.514990475000047], [-61.314602598999954, 8.571314151000081], [-61.36986396599991, 8.571331386000054], [-61.390271415999905, 8.580580853000072]]], [[[-60.745023913999944, 8.719358815000078], [-60.79787763199994, 8.656413876000045], [-60.71373770999992, 8.637763759000052], [-60.65083410999995, 8.634270601000082], [-60.60484456899991, 8.671150497000042], [-60.66602201399991, 8.68641794000007], [-60.67181168199994, 8.75954695300004], [-60.727162181999915, 8.721844549000082], [-60.745023913999944, 8.719358815000078]]], [[[-60.9513611509999, 8.827825132000044], [-61.05996897299991, 8.798163462000048], [-61.12643995399992, 8.75647809800006], [-61.16710822099992, 8.699385415000052], [-61.17154765899994, 8.637980656000082], [-61.130166165999924, 8.60984708500007], [-61.0542071939999, 8.638842688000068], [-61.003353664999906, 8.639670676000037], [-60.920658458999924, 8.639546060000043], [-60.84657600499992, 8.63771526000005], [-60.806895744999906, 8.672588730000086], [-60.76973496699992, 8.741511392000064], [-60.724022231999925, 8.762701467000056], [-60.6980484959999, 8.811179049000089], [-60.73158261799995, 8.858086618000073], [-60.86169945599994, 8.87024514400008], [-60.904834799999946, 8.833714344000043], [-60.9513611509999, 8.827825132000044]]], [[[-62.33112545499995, 9.92055898600006], [-62.34935462099992, 9.872300523000092], [-62.33112545499995, 9.92055898600006]]], [[[-62.40330969999991, 10.006293036000045], [-62.43618730399993, 10.046576239000046], [-62.42052161399994, 9.98265208500004], [-62.40330969999991, 10.006293036000045]]], [[[-62.24083411399994, 10.05149974200009], [-62.286366339999915, 10.02440013200004], [-62.23534094999991, 10.013861395000049], [-62.24083411399994, 10.05149974200009]]], [[[-62.66515051999994, 10.366359768000052], [-62.72252356699994, 10.427801825000074], [-62.77696692599994, 10.492621161000045], [-62.78758704299992, 10.430121161000045], [-62.74103756399995, 10.394924221000053], [-62.69286048099991, 10.35455963700008], [-62.66559811099995, 10.31000397300005], [-62.658273891999954, 10.360174872000073], [-62.66515051999994, 10.366359768000052]]], [[[-64.16860917899993, 10.827948309000078], [-64.21825110599991, 10.82103099200009], [-64.15587317599994, 10.81195709800005], [-64.16860917899993, 10.827948309000078]]]]}}]}