{"type": "FeatureCollection", "features": [{"type": "Feature", "properties": {"code": "VGB", "name": "British Virgin Islands", "tier": "country"}, "geometry": {"type": "MultiPolygon", "coordinates": [[[[-64.60319222843856, 18.323545361329423], [-64.62379022953542, 18.31678488141722], [-64.60109105690674, 18.32064118064602], [-64.60319222843856, 18.323545361329423]]], [[[-64.62549702856495, 18.333582492338223], [-64.62549702856495, 18.333582492338223]]], [[[-64.57736730915394, 18.356457510305916], [-64.60065861070626, 18.356476452726156], [-64.57714312525496, 18.352151384578804], [-64.57229597278086, 18.33223787367899], [-64.56640990189544, 18.356114511575527], [-64.57736730915394, 18.356457510305916]]], [[[-64.56177949952422, 18.366562499659665], [-64.56177949952422, 18.366562499659665]]], [[[-64.5261649606444, 18.37606477327074], [-64.5261649606444, 18.37606477327074]]], [[[-64.7122742846305, 18.38299043076381], [-64.7122742846305, 18.38299043076381]]], [[[-64.51130036511972, 18.388605553903233], [-64.49995746796276, 18.366963175510193], [-64.51148002808077, 18.386420022366167], [-64.51130036511972, 18.388605553903233]]], [[[-64.7252287767866, 18.39090044210178], [-64.75200964752719, 18.382919502133348], [-64.72370916264771, 18.388982452578148], [-64.7252287767866, 18.39090044210178]]], [[[-64.47035797893756, 18.393219814343013], [-64.47035797893756, 18.393219814343013]]], [[[-64.69749699888735, 18.39901619584083], [-64.69749699888735, 18.39901619584083]]], [[[-64.45809597554882, 18.397567119127302], [-64.45809597554882, 18.397567119127302]]], [[[-64.57607834953615, 18.41761034014513], [-64.57607834953615, 18.41761034014513]]], [[[-64.45120052808187, 18.42047470694223], [-64.45120052808187, 18.42047470694223]]], [[[-64.5587260385758, 18.4264007149211], [-64.5587260385758, 18.4264007149211]]], [[[-64.84372193871644, 18.43122261083488], [-64.84372193871644, 18.43122261083488]]], [[[-64.7082975733743, 18.436668194681488], [-64.7082975733743, 18.436668194681488]]], [[[-64.53854010863904, 18.440480203198888], [-64.53854010863904, 18.440480203198888]]], [[[-64.54815208245259, 18.446360208157103], [-64.52802982002015, 18.438861035908133], [-64.54788258801096, 18.446189775837524], [-64.54815208245259, 18.446360208157103]], [[-64.52899384199219, 18.440031222063283], [-64.52899384199219, 18.440031222063283]]], [[[-64.82609083162652, 18.452112192823506], [-64.82609083162652, 18.452112192823506]]], [[[-64.70861735700538, 18.454771567254056], [-64.70861735700538, 18.454771567254056]]], [[[-64.75380302069283, 18.45822221648217], [-64.76999104235267, 18.44503935498227], [-64.7459427625484, 18.439048868310692], [-64.72442730007981, 18.437643529225568], [-64.73537933388911, 18.456398011858823], [-64.75380302069283, 18.45822221648217]]], [[[-64.57532611970464, 18.42254068260644], [-64.56180647468904, 18.440018342872293], [-64.57007097539514, 18.458375245121488], [-64.58916017490213, 18.446488032396815], [-64.61265111965344, 18.448533203144848], [-64.63594038244264, 18.450982698292933], [-64.65956690808628, 18.44378361092498], [-64.66475340624464, 18.41917415056662], [-64.67750948367569, 18.40127502752057], [-64.69677834614373, 18.394242719426018], [-64.71618760357501, 18.389150651881152], [-64.6939935693477, 18.382606816851194], [-64.6711147328586, 18.382586337489556], [-64.65224522153972, 18.393071472970178], [-64.63243695290299, 18.399083038851188], [-64.61128204483049, 18.41314951034167], [-64.59101656895945, 18.4119276392492], [-64.57532611970464, 18.42254068260644]], [[-64.58327621022886, 18.4441019691306], [-64.58327621022886, 18.4441019691306]]], [[[-64.71988013805787, 18.459255636438513], [-64.71988013805787, 18.459255636438513]]], [[[-64.54224438736856, 18.460485387390747], [-64.54224438736856, 18.460485387390747]]], [[[-64.50172793359724, 18.46951258243979], [-64.52295433867175, 18.470789688093703], [-64.50172793359724, 18.46951258243979]]], [[[-64.45809904583427, 18.484212831357127], [-64.45809904583427, 18.484212831357127]]], [[[-64.47330408421607, 18.481916817207377], [-64.47330408421607, 18.481916817207377]]], [[[-64.57742207157133, 18.488508663444122], [-64.5724065947885, 18.468216724122556], [-64.57742207157133, 18.488508663444122]], [[-64.57667359281203, 18.477290834104735], [-64.57667359281203, 18.477290834104735]]], [[[-64.45753286145236, 18.494523380549595], [-64.45753286145236, 18.494523380549595]]], [[[-64.53012088137353, 18.495345744010933], [-64.53741721513234, 18.47311595094044], [-64.53025067243055, 18.49332675612493], [-64.53012088137353, 18.495345744010933]]], [[[-64.39724651941128, 18.505180941247488], [-64.41450154171275, 18.489548202387653], [-64.41371919988114, 18.4693669893951], [-64.43386817487635, 18.45925950532194], [-64.4435636642317, 18.432488766343567], [-64.42340473194281, 18.432068143530046], [-64.42519930120676, 18.459422975989582], [-64.39626368002479, 18.467770207129433], [-64.37978205040127, 18.484599753875614], [-64.35640944833733, 18.486133294016383], [-64.3324216668264, 18.496630290655446], [-64.35510412825289, 18.502167618840588], [-64.37495689534438, 18.490624217833442], [-64.39401951448895, 18.50240579708992], [-64.39724651941128, 18.505180941247488]]], [[[-64.35778398474304, 18.50935156971923], [-64.35778398474304, 18.50935156971923]]], [[[-64.37336111402414, 18.513221648360457], [-64.37336111402414, 18.513221648360457]]], [[[-64.38988296582619, 18.51496684664272], [-64.38988296582619, 18.51496684664272]]], [[[-64.35748466338646, 18.529596048219105], [-64.35748466338646, 18.529596048219105]]], [[[-64.32932247894922, 18.747758763955858], [-64.35690075876295, 18.744313583505118], [-64.37821039339491, 18.747399974029634], [-64.40217584923602, 18.74541945104687], [-64.39874391579906, 18.72331809105708], [-64.37185770836652, 18.725682872766413], [-64.34778285809239, 18.71743025750044], [-64.32757076417937, 18.71811090129711], [-64.30450608099079, 18.707709947755916], [-64.28306595293134, 18.692781416729076], [-64.28878187928024, 18.724346808458506], [-64.3055620397563, 18.738784135179742], [-64.32932247894922, 18.747758763955858]], [[-64.34522265999772, 18.73019186306408], [-64.36574916409262, 18.724832106016947], [-64.39376151248376, 18.728504661161253], [-64.3756306323478, 18.737465547397164], [-64.35588646918518, 18.730422307143783], [-64.34522265999772, 18.73019186306408]], [[-64.29725262330987, 18.706071618610338], [-64.27695069791633, 18.703136116338726], [-64.29725262330987, 18.706071618610338]]]]}}]}