{"type": "FeatureCollection", "features": [{"type": "Feature", "properties": {"code": "VIR", "name": "Virgin Islands", "tier": "country"}, "geometry": {"type": "MultiPolygon", "coordinates": [[[[-64.76191822159404, 17.68488157904187], [-64.76191822159404, 17.68488157904187]]], [[[-64.74603775881991, 17.69344815281363], [-64.74603775881991, 17.69344815281363]]], [[[-64.70187648660635, 17.750415362325782], [-64.70187648660635, 17.750415362325782]]], [[[-64.66935262914393, 17.758313068488405], [-64.69405017851898, 17.754941041894313], [-64.71387037634338, 17.75182400216005], [-64.73148851760163, 17.76249809666541], [-64.74830350453107, 17.783382560056396], [-64.76835832579593, 17.780178616659782], [-64.79006007289968, 17.78132260331489], [-64.80993895948149, 17.772955606408516], [-64.83542773243624, 17.761507241391485], [-64.85680743704631, 17.764233373647585], [-64.87732468448769, 17.769698040436538], [-64.89123882716058, 17.74987699824834], [-64.88365099697899, 17.717033828767057], [-64.89069749684444, 17.689861449499915], [-64.86841927964099, 17.68653768322349], [-64.84283055376704, 17.68738168501494], [-64.8224421430615, 17.686678066906666], [-64.80327954004292, 17.69376756352449], [-64.7808335466832, 17.696149655968668], [-64.75635702320363, 17.698824742603392], [-64.73367199816732, 17.704503987420026], [-64.70820193280235, 17.705115482163194], [-64.68616165069909, 17.707202025394395], [-64.66465369053833, 17.71401069981721], [-64.6471100506663, 17.723789922361846], [-64.62768060679917, 17.72938484047006], [-64.60203570332737, 17.745673569523092], [-64.58060456929428, 17.747298717359115], [-64.59997370147119, 17.757097930487703], [-64.62095953784757, 17.759236736539606], [-64.64276249893317, 17.758852057614263], [-64.66786707545623, 17.76082685973239], [-64.66935262914393, 17.758313068488405]], [[-64.66601083515519, 17.757660134131356], [-64.66601083515519, 17.757660134131356]], [[-64.69396646589314, 17.75022823160009], [-64.69396646589314, 17.75022823160009]], [[-64.81581795661566, 17.741654288836344], [-64.81581795661566, 17.741654288836344]], [[-64.78895833184197, 17.734727326740483], [-64.78895833184197, 17.734727326740483]], [[-64.7485523615303, 17.706979541052306], [-64.7485523615303, 17.706979541052306]]], [[[-64.62341808358337, 17.789861992963097], [-64.62341808358337, 17.789861992963097]]]]}}]}