{"type": "FeatureCollection", "features": [{"type": "Feature", "properties": {"code": "VNM", "name": "Vietnam", "tier": "country"}, "geometry": {"type": "MultiPolygon", "coordinates": [[[[104.86148709300005, 8.413098319000028], [104.86148709300005, 8.413098319000028]]], [[[104.57291783200009, 8.877401943000052], [104.57291783200009, 8.877401943000052]]], [[[104.53387183700005, 8.942755960000056], [104.53387183700005, 8.942755960000056]]], [[[103.47382149200007, 9.25106721000003], [103.49344129700006, 9.299373513000035], [103.53743096600004, 9.330147471000032], [103.46927795800008, 9.31363992300004], [103.45874522000008, 9.247398105000059], [103.47382149200007, 9.25106721000003]]], [[[103.63549127000005, 9.376978285000064], [103.63549127000005, 9.376978285000064]]], [[[104.40608494600008, 9.641133996000065], [104.39285448500004, 9.691713893000042], [104.35380849100005, 9.728610141000047], [104.35090424300006, 9.666265839000062], [104.40156722800003, 9.629362742000069], [104.40608494600008, 9.641133996000065]]], [[[104.65720554900008, 9.806689508000034], [104.65720554900008, 9.806689508000034]]], [[[104.04466747700008, 9.815427455000076], [104.04466747700008, 9.815427455000076]]], [[[104.09049004900004, 9.843725626000037], [104.09049004900004, 9.843725626000037]]], [[[104.49785784900007, 9.964878336000027], [104.49785784900007, 9.964878336000027]]], [[[104.84430362800003, 9.953397806000055], [104.84430362800003, 9.953397806000055]]], [[[104.46002627400009, 10.014864207000073], [104.46002627400009, 10.014864207000073]]], [[[104.55839659400004, 10.024903324000036], [104.55839659400004, 10.024903324000036]]], [[[104.51547827000007, 10.100205412000037], [104.54839307500004, 10.142773484000031], [104.52548178900008, 10.187876760000051], [104.49966625500008, 10.144997034000028], [104.50515205600004, 10.09258068400004], [104.51547827000007, 10.100205412000037]]], [[[104.22598287700004, 10.20857131200006], [104.22598287700004, 10.20857131200006]]], [[[104.51635599800005, 10.248000298000022], [104.51635599800005, 10.248000298000022]]], [[[104.30443628300009, 10.256154779000042], [104.34477305400009, 10.293304546000059], [104.29830509400006, 10.259012608000035], [104.30443628300009, 10.256154779000042]]], [[[104.31605327300008, 10.358068028000048], [104.31605327300008, 10.358068028000048]]], [[[104.05878534700008, 10.374435359000074], [104.00634754400005, 10.421548651000023], [103.95441395200004, 10.424523989000022], [103.92718663100004, 10.36848370100006], [103.86783107200006, 10.37362197300007], [103.81200498100009, 10.370130338000024], [103.84137015000005, 10.32854515400004], [103.90526359600005, 10.271396237000033], [103.94301881400008, 10.213284248000036], [103.95786274500006, 10.159926184000028], [103.97206128900007, 10.106559214000072], [103.97883786600005, 10.05159468000005], [104.01794436600005, 10.00720717300004], [103.99222967400004, 9.922784678000028], [104.01744015600008, 9.967481663000058], [104.04214642900007, 10.014158638000026], [104.02500330100008, 10.073736507000035], [104.02601172000004, 10.14223744800006], [104.05021378300006, 10.206753923000065], [104.06685270100007, 10.270761191000076], [104.06786112000003, 10.335747562000051], [104.05878534700008, 10.374435359000074]]], [[[104.33702839400007, 10.401553647000071], [104.32153907400004, 10.44979337500007], [104.31218094300004, 10.397744929000055], [104.33702839400007, 10.401553647000071]]], [[[108.96915697100007, 10.501531926000041], [108.94237083400009, 10.551878865000049], [108.96049086800008, 10.493010862000062], [108.96915697100007, 10.501531926000041]]], [[[108.82989931100008, 11.223436782000022], [108.82989931100008, 11.223436782000022]]], [[[109.32555755400006, 12.002272726000058], [109.32555755400006, 12.002272726000058]]], [[[109.32942988500008, 12.042987190000076], [109.32942988500008, 12.042987190000076]]], [[[109.31184950600004, 12.168411965000075], [109.31184950600004, 12.168411965000075]]], [[[109.25195746800006, 12.170834563000028], [109.25195746800006, 12.170834563000028]]], [[[109.34633905900006, 12.190012688000024], [109.34633905900006, 12.190012688000024]]], [[[109.30462115700004, 12.224731659000042], [109.25133789600005, 12.22170402300003], [109.27467513800008, 12.174872179000033], [109.33704546700005, 12.192636956000058], [109.30462115700004, 12.224731659000042]]], [[[109.36575234000009, 12.273169116000076], [109.36575234000009, 12.273169116000076]]], [[[109.37380678700004, 12.28305733600007], [109.37380678700004, 12.28305733600007]]], [[[109.37835032100008, 12.35811495200005], [109.37835032100008, 12.35811495200005]]], [[[109.35912704200007, 12.485098815000072], [109.35912704200007, 12.485098815000072]]], [[[109.34592601000008, 12.630319665000059], [109.29739280700005, 12.642612494000048], [109.33312150600005, 12.598678029000041], [109.37835032100008, 12.554131274000042], [109.38867653400007, 12.612181626000051], [109.34592601000008, 12.630319665000059]]], [[[109.26083801200008, 12.680091891000075], [109.26083801200008, 12.680091891000075]]], [[[109.28706659400007, 12.697419211000067], [109.28706659400007, 12.697419211000067]]], [[[109.39329177300004, 12.826518005000025], [109.39329177300004, 12.826518005000025]]], [[[109.33963849400004, 13.284518177000052], [109.33963849400004, 13.284518177000052]]], [[[109.36578986300009, 13.605834445000028], [109.36578986300009, 13.605834445000028]]], [[[109.25862428600004, 13.68126772900007], [109.25862428600004, 13.68126772900007]]], [[[109.29616096800004, 14.138732289000075], [109.29616096800004, 14.138732289000075]]], [[[109.21435077600006, 14.247787467000023], [109.21435077600006, 14.247787467000023]]], [[[109.18728122700008, 14.36072355500005], [109.18728122700008, 14.36072355500005]]], [[[109.13072772300006, 15.371478481000054], [109.13072772300006, 15.371478481000054]]], [[[109.08703636700005, 15.427760086000035], [109.08703636700005, 15.427760086000035]]], [[[108.69831180000006, 15.809158274000026], [108.69831180000006, 15.809158274000026]]], [[[108.53714209600008, 15.901288574000034], [108.53714209600008, 15.901288574000034]]], [[[108.48192209600006, 15.93518381000007], [108.48192209600006, 15.93518381000007]]], [[[108.42411733100005, 15.970202873000062], [108.42411733100005, 15.970202873000062]]], [[[108.45818924500009, 15.972010143000034], [108.45818924500009, 15.972010143000034]]], [[[108.53996184100004, 15.922756221000043], [108.51434916000005, 15.988726611000061], [108.52680303300008, 15.933150257000023], [108.53996184100004, 15.922756221000043]]], [[[108.21146158600004, 16.21290784200005], [108.21146158600004, 16.21290784200005]]], [[[107.34488942800004, 17.15415419900006], [107.34488942800004, 17.15415419900006]]], [[[106.53326234500008, 17.934402651000028], [106.53326234500008, 17.934402651000028]]], [[[106.46580465300008, 18.10394139500005], [106.46580465300008, 18.10394139500005]]], [[[106.49235724900007, 18.116671651000047], [106.49235724900007, 18.116671651000047]]], [[[106.16912878900007, 18.322210728000073], [106.16912878900007, 18.322210728000073]]], [[[105.85231280400006, 18.750613521000048], [105.85231280400006, 18.750613521000048]]], [[[105.78012734100008, 18.79945132200004], [105.78012734100008, 18.79945132200004]]], [[[105.96901263700005, 18.801586763000046], [105.96901263700005, 18.801586763000046]]], [[[105.76102827000005, 18.854110067000022], [105.76102827000005, 18.854110067000022]]], [[[105.93686754800007, 19.34990613900004], [105.93686754800007, 19.34990613900004]]], [[[105.91360465400004, 19.32972969900004], [105.87812286700006, 19.366089831000068], [105.91195980300006, 19.323742804000062], [105.91360465400004, 19.32972969900004]]], [[[105.93263793100004, 19.365424779000023], [105.93263793100004, 19.365424779000023]]], [[[106.02177419600008, 19.903895512000076], [106.02177419600008, 19.903895512000076]]], [[[107.73633460900004, 20.124671059000036], [107.73633460900004, 20.124671059000036]]], [[[107.21515180100005, 20.609303875000023], [107.21515180100005, 20.609303875000023]]], [[[107.14888780100006, 20.61040357400003], [107.14888780100006, 20.61040357400003]]], [[[107.47412772600006, 20.704233619000036], [107.47412772600006, 20.704233619000036]]], [[[107.40216549200005, 20.751621293000028], [107.40216549200005, 20.751621293000028]]], [[[107.50166429500007, 20.75127795800006], [107.50166429500007, 20.75127795800006]]], [[[107.42382759300006, 20.77119013300006], [107.42382759300006, 20.77119013300006]]], [[[107.38270631700004, 20.806544939000048], [107.34195219400004, 20.848753896000062], [107.38197200800005, 20.794188861000066], [107.38270631700004, 20.806544939000048]]], [[[106.98769239700005, 20.854778860000067], [106.93482218400004, 20.84928915300003], [106.95197563100004, 20.781200159000036], [106.98910226900006, 20.740771512000038], [107.03351324800008, 20.71747619000007], [107.05513129100007, 20.76494211200003], [107.05607120600007, 20.82030018100005], [107.01166022700005, 20.859390059000077], [106.98769239700005, 20.854778860000067]]], [[[107.49321974700007, 20.819586367000056], [107.56261190100008, 20.919761746000063], [107.48881389600007, 20.86487939700004], [107.48514235400006, 20.808604186000025], [107.49321974700007, 20.819586367000056]]], [[[107.33460910900004, 20.872083849000035], [107.39004940200005, 20.925934754000025], [107.33240618400004, 20.939994545000047], [107.30707254000004, 20.891294032000076], [107.33460910900004, 20.872083849000035]]], [[[107.40143118400005, 20.893009108000058], [107.44842692800006, 20.933822117000034], [107.48954820500006, 20.990735973000028], [107.43924807200005, 20.980451940000023], [107.41061004000005, 20.933136276000027], [107.38344062500005, 20.885462629000074], [107.40143118400005, 20.893009108000058]]], [[[107.84348490600007, 20.99244991000006], [107.79318477300006, 20.99107876200003], [107.75059488000005, 20.94753827900007], [107.81925272500007, 20.975995306000073], [107.84348490600007, 20.99244991000006]]], [[[107.47559634300006, 20.88820684700005], [107.52479501300007, 20.93759418700006], [107.54572280600007, 20.995192168000074], [107.49982852400007, 20.97530965800007], [107.43594368400005, 20.911530674000062], [107.47559634300006, 20.88820684700005]]], [[[107.57693091700008, 20.981480375000046], [107.62796535900009, 21.099703128000044], [107.57876668900008, 21.056879640000034], [107.55930751300008, 20.991764338000053], [107.57693091700008, 20.981480375000046]]], [[[107.82439288500007, 21.100730740000074], [107.82439288500007, 21.100730740000074]]], [[[107.50323571500007, 21.035387881000077], [107.57349435400005, 21.09788081100004], [107.52367886400003, 21.080560840000032], [107.48561231100007, 21.045037626000067], [107.50323571500007, 21.035387881000077]]], [[[107.86992001300007, 21.131213328000058], [107.86992001300007, 21.131213328000058]]], [[[107.66835232700004, 21.15312951900006], [107.69148304500004, 21.203455985000062], [107.65623623600004, 21.157580849000055], [107.66835232700004, 21.15312951900006]]], [[[108.02206873600005, 21.206577716000027], [108.02206873600005, 21.206577716000027]]], [[[107.98000754400005, 21.236586775000035], [107.98000754400005, 21.236586775000035]]], [[[107.58427400200009, 21.247263709000038], [107.58427400200009, 21.247263709000038]]], [[[107.77262413500006, 21.283190012000034], [107.77262413500006, 21.283190012000034]]], [[[107.64228437500009, 21.23939296800006], [107.68560857700004, 21.273952657000052], [107.73370578400005, 21.308162178000032], [107.66064208700004, 21.27497905900003], [107.62098942800009, 21.23939296800006], [107.64228437500009, 21.23939296800006]]], [[[107.76491389600005, 21.36698391500005], [107.76491389600005, 21.36698391500005]]], [[[105.40452087400007, 23.30280443600003], [105.35561253900005, 23.350493095000047], [105.32673141100008, 23.392093243000033], [105.28413578000004, 23.354177836000076], [105.25122097500008, 23.312991800000077], [105.20668918000007, 23.27475737000003], [105.13324398700007, 23.262757202000046], [105.08119987100008, 23.266362109000056], [105.02468966900005, 23.227616110000042], [104.97305860100005, 23.211008932000027], [104.93530338400006, 23.169481958000063], [104.87270071500006, 23.133877152000025], [104.81687462400004, 23.12289709600003], [104.81719731800007, 23.059373208000068], [104.82669662700005, 23.008888925000065], [104.85140290000004, 22.965256772000032], [104.81560401500008, 22.927647554000032], [104.76014095500005, 22.89745976300003], [104.72787153800004, 22.84403413800004], [104.64467694800004, 22.836134655000023], [104.58165074300007, 22.854720944000064], [104.53425503700004, 22.836134655000023], [104.48332986300005, 22.781290315000035], [104.43795099600004, 22.753394900000046], [104.37297097800007, 22.69840101400007], [104.31467173900006, 22.735463277000065], [104.26425077500005, 22.75290086800004], [104.24928205100008, 22.813188703000037], [104.19649760500005, 22.837877228000025], [104.10510960700009, 22.812462502000074], [104.04287123000006, 22.741276054000025], [104.02475119600007, 22.666417668000065], [104.00741899000008, 22.611883415000023], [103.98851112800008, 22.548596590000045], [103.90027444100008, 22.552234551000026], [103.82543082300003, 22.614065201000074], [103.78131248000005, 22.66569068700005], [103.73876979100004, 22.70348858600005], [103.70174189600004, 22.74345578200007], [103.66156269000004, 22.787043035000067], [103.60799041600006, 22.77251549700003], [103.55835728000005, 22.71002947100004], [103.56544772800004, 22.64824198900004], [103.52132938400007, 22.60679244800008], [103.47327190300007, 22.643152368000074], [103.44175880100005, 22.694766919000074], [103.42757790500008, 22.75435390000007], [103.36612735500006, 22.792127307000044], [103.31413073600004, 22.809557660000053], [103.28025415100007, 22.76016587400005], [103.27158804800007, 22.69258641500005], [103.18256353300006, 22.651150260000065], [103.16917046500004, 22.574060302000078], [103.10935859600005, 22.513259726000058], [103.06145868000004, 22.482514545000072], [103.00145773300005, 22.465741567000066], [102.94549046300006, 22.490900272000033], [102.89809475700008, 22.52443809700003], [102.87137164600006, 22.59195483900004], [102.81137069900007, 22.629191296000045], [102.76800867000009, 22.658507909000036], [102.71002456200006, 22.690144210000028], [102.65103203400008, 22.700843072000055], [102.60615737600006, 22.729679318000024], [102.55069431600003, 22.74130511800007], [102.49573546500005, 22.778036143000065], [102.45237343600007, 22.735724857000037], [102.39539774700006, 22.68270103100008], [102.39791879500007, 22.624071881000077], [102.35219328400007, 22.58788149000003], [102.31752887100004, 22.55005178600004], [102.28856580900003, 22.50808010700007], [102.24822903700004, 22.460075569000026], [102.19885683000007, 22.43502311900005], [102.14625768000008, 22.41145775800004], [102.17304129600006, 22.34879623000006], [102.20250604700004, 22.298804155000028], [102.24347308000006, 22.256520869000042], [102.28837925100004, 22.206201702000044], [102.33407325000007, 22.185047678000046], [102.37968531400008, 22.152722848000053], [102.42538813600004, 22.118796614000075], [102.44797672800007, 22.06617238700005], [102.50154396000005, 22.034169665000036], [102.51079882900007, 21.971195914000077], [102.59216939100008, 21.92618044900007], [102.61900463800004, 21.883031258000074], [102.65321022000006, 21.842600730000072], [102.66256835100006, 21.78178366800006], [102.65062866600005, 21.731133028000045], [102.67372146800005, 21.676078922000045], [102.72918452800008, 21.66202157500004], [102.77960549200009, 21.677484581000044], [102.81439595700004, 21.726205625000034], [102.82397594000008, 21.805810244000043], [102.86027903400009, 21.769759505000025], [102.85826219600006, 21.716837474000044], [102.91725472400009, 21.719647984000062], [102.96969252600007, 21.741193397000075], [102.98683565400006, 21.658741330000055], [102.98885249200003, 21.600621783000065], [102.96061675300007, 21.557485736000046], [102.91221262700009, 21.502140283000074], [102.87974152600003, 21.436467635000042], [102.93459953500007, 21.453587793000054], [102.91362441400008, 21.403723494000076], [102.89154003200008, 21.33832592600004], [102.84061485800004, 21.296991340000034], [102.87540532400004, 21.251415880000025], [102.91927156200006, 21.21428730100007], [102.92078419100005, 21.160222676000046], [102.95002835000008, 21.117897449000054], [102.97473462200008, 21.067561742000066], [103.03019768300004, 21.05673969000003], [103.06750919600006, 20.995086053000023], [103.09070283900007, 20.939999820000025], [103.12297225600008, 20.901380287000052], [103.18146057500007, 20.907032548000075], [103.22683944200008, 20.872644672000035], [103.27020147100006, 20.827881542000057], [103.33272346600006, 20.813271744000076], [103.39877492900007, 20.78876180800006], [103.44768326400003, 20.812329128000044], [103.50617158200004, 20.767076622000047], [103.55810517500004, 20.747745898000062], [103.62998656200006, 20.720484200000044], [103.67574358700006, 20.68101235900008], [103.74428458400007, 20.66921892700003], [103.75452634300007, 20.73407145500005], [103.79785685900004, 20.76869722600003], [103.80415947900008, 20.825407402000053], [103.82936996100005, 20.87105463200004], [103.87979092500007, 20.882096235000063], [103.96566412900006, 20.90491297500006], [104.04287123000006, 20.907120863000046], [104.09171653900006, 20.975549242000056], [104.14134967500007, 20.954214716000024], [104.19964891500007, 20.946121514000026], [104.24613074100006, 20.90638490400005], [104.32097435900005, 20.887248705000047], [104.36824401300004, 20.826880109000058], [104.42339194200008, 20.787848500000052], [104.48641814700005, 20.75543722900005], [104.50453818100004, 20.70459647200005], [104.57071569600004, 20.712702664000062], [104.62901493600003, 20.663321868000025], [104.60853141900009, 20.614662400000043], [104.54392955900005, 20.593276806000063], [104.51477993900005, 20.542381785000032], [104.41472583900008, 20.486303890000045], [104.37946267700005, 20.434812228000055], [104.40719420800008, 20.39181056500007], [104.46114463900005, 20.371014246000072], [104.52114558600005, 20.377631561000044], [104.59173493600008, 20.417802017000042], [104.63156749700005, 20.451348130000042], [104.68652634800009, 20.44709621100003], [104.71677892600007, 20.397954395000056], [104.64820641500006, 20.372904937000044], [104.62249172300005, 20.291584356000044], [104.68350109000005, 20.21447951500005], [104.77072935700005, 20.200757467000074], [104.83425977200005, 20.161477338000054], [104.91089963700006, 20.147750623000036], [104.95476587600007, 20.11792636200005], [104.99812790500005, 20.085728713000037], [104.94115221500005, 20.040735624000035], [104.91278057500006, 19.991235741000025], [104.87954410000003, 19.949585160000026], [104.84507664400007, 19.865093310000077], [104.82168801400007, 19.79561422300003], [104.77121781100004, 19.764338731000066], [104.71089976300004, 19.745802210000022], [104.65919857900008, 19.684384616000045], [104.62719308400006, 19.629900245000044], [104.56318209500006, 19.612507722000032], [104.47824443600007, 19.64729088400003], [104.41423344700007, 19.68670269000006], [104.35637736000007, 19.704087169000047], [104.26405381800004, 19.707563838000056], [104.19142596500006, 19.701769347000038], [104.14341772300008, 19.662361248000025], [104.08433065600008, 19.669316323000032], [104.08063771400003, 19.578876844000035], [104.11264320800007, 19.522036306000075], [104.06955888900006, 19.46053321000005], [104.02947816200003, 19.41549350300005], [103.96881543900008, 19.39171493200007], [103.88294223500009, 19.318127995000054], [103.92233361300003, 19.284668423000028], [103.95542237100005, 19.241532668000048], [104.02159988600005, 19.228143403000047], [104.07280867700007, 19.228143403000047], [104.13032008900007, 19.20210559700007], [104.19413412200004, 19.190201227000045], [104.21956771700007, 19.118934402000036], [104.28281577400008, 19.108262747000026], [104.33283337000006, 19.074718777000044], [104.39575873300004, 19.047268659000054], [104.43093239700005, 18.992049677000068], [104.48675848900007, 18.991439420000063], [104.53935763800007, 18.971910017000027], [104.56614125400006, 18.924602766000078], [104.60232333800008, 18.886976308000044], [104.66887901000007, 18.838308872000027], [104.72333365100008, 18.806333368000026], [104.76619147100007, 18.77626130400006], [104.83224293300003, 18.770055289000027], [104.89787086000007, 18.776795965000076], [104.94466151500006, 18.735240087000022], [105.00115316300008, 18.724696712000025], [105.06367515800008, 18.700818885000047], [105.12770978200007, 18.700341294000054], [105.16804655300007, 18.660218849000046], [105.20765726200005, 18.612957726000047], [105.15699427800007, 18.597054549000063], [105.13763262800006, 18.540769845000057], [105.11504403600009, 18.484466592000047], [105.12504755500004, 18.418960191000053], [105.16667510300005, 18.385891408000077], [105.19224861600009, 18.324061802000074], [105.24166116000004, 18.300128], [105.27645162600004, 18.25560233500005], [105.32737679900004, 18.25943294900003], [105.33241889600004, 18.206275642000037], [105.37527671500004, 18.16316320900006], [105.42771451700008, 18.16412137800006], [105.46149656300008, 18.20388078600007], [105.50939647900009, 18.142561287000035], [105.55175008900005, 18.103267174000052], [105.57696057100009, 18.05245929000006], [105.60973419700008, 18.010747502000072], [105.63847414700007, 17.962790721000033], [105.61628892200008, 17.891310979000025], [105.66570146700008, 17.857240025000067], [105.68334880400005, 17.798680327000056], [105.72418978500008, 17.756428610000057], [105.75040868600007, 17.706001573000037], [105.78923282900007, 17.670934422000073], [105.86275289700006, 17.626460162000058], [105.91159820600006, 17.577648977000024], [105.97226092800008, 17.492761263000034], [106.01795492600007, 17.452933], [106.07940547600003, 17.37776163600006], [106.13385406700007, 17.336272292000046], [106.18920257000008, 17.287571676000027], [106.23608357900008, 17.251678764000076], [106.27573623900008, 17.293290230000025], [106.33191084000003, 17.249311953000074], [106.33253041300009, 17.19802359600004], [106.35949393100009, 17.146522138000023], [106.39025071900005, 17.106046572000025], [106.41848645800007, 17.05592177400007], [106.43915905400007, 17.00240834600004], [106.51479050000006, 16.96913553400003], [106.51932838600004, 16.91029092100007], [106.55663990000005, 16.86831672900007], [106.55052635800007, 16.81526273000003], [106.54816287500006, 16.727007616000037], [106.56076811600008, 16.67116702800007], [106.58361511500004, 16.619084765000025], [106.62615780400006, 16.581335161000027], [106.67387877500005, 16.558850706000044], [106.65798787600005, 16.506702268000026], [106.67639331900006, 16.45355629000005], [106.72162213400009, 16.427805869000053], [106.77490539500008, 16.436719863000064], [106.81444859100009, 16.478618805000053], [106.84281038300009, 16.533760114000074], [106.88614089900005, 16.46275332600004], [106.90147895600006, 16.410632898000074], [106.95214194100004, 16.363575900000058], [106.96504970700005, 16.305358125000055], [107.02101697700004, 16.308745604000023], [107.09664842300003, 16.304390262000027], [107.14706938700004, 16.267607962000056], [107.15059885500006, 16.19305428900003], [107.19396088400003, 16.146080685000072], [107.24589447600005, 16.14656500600006], [107.28875229600004, 16.106362340000032], [107.33009748600006, 16.064213451000057], [107.39715736800008, 16.065667010000027], [107.45362884800005, 16.07971753000004], [107.47127618500008, 16.023994118000076], [107.44606570300004, 15.974556845000052], [107.43093941400008, 15.921228450000058], [107.36488795100007, 15.89213426300006], [107.30438279500004, 15.862065850000022], [107.24286921900006, 15.840724255000055], [107.22723872000006, 15.78396404800003], [107.26455023300008, 15.729614596000033], [107.27564284500005, 15.674279703000025], [107.31950908400006, 15.62281450200004], [107.36438374200009, 15.569393546000072], [107.38404791800008, 15.522274457000037], [107.44253623600008, 15.500411429000053], [107.50808348900006, 15.47028524500007], [107.53178134200004, 15.420713276000072], [107.61800119000009, 15.41536657100005], [107.61094225500005, 15.361891970000045], [107.64573272000007, 15.308889973000078], [107.63413589900006, 15.23057807300006], [107.61947348200005, 15.17419491000004], [107.61172882200009, 15.089153817000067], [107.58462251200007, 15.038673765000055], [107.52201984300007, 15.028389325000035], [107.48297384900008, 14.981635628000049], [107.51717943100005, 14.936430680000058], [107.58042748800005, 14.89495846400007], [107.55654811900007, 14.821660978000068], [107.51943829000004, 14.780790746000037], [107.54136132500008, 14.723040638000043], [107.56909285500006, 14.679635096000027], [107.54993288900005, 14.606948115000023], [107.52825187400003, 14.522523012000022], [107.51060453700006, 14.474684074000038], [107.46925934700005, 14.407301559000075], [107.42337626900007, 14.360903205000056], [107.41782996300009, 14.290554732000032], [107.40270367400007, 14.212852730000066], [107.37345951500004, 14.164458743000068], [107.34169430800006, 14.108230553000055], [107.38656896600008, 14.079866722000077], [107.36892162800007, 14.028998623000064], [107.43547730100005, 13.995243365000022], [107.45844909200008, 13.939874016000033], [107.47232494100007, 13.887878541000077], [107.46425758700008, 13.829604690000053], [107.49588161600008, 13.766301506000048], [107.54009071700006, 13.739345439000033], [107.57010127500007, 13.657204376000038], [107.60043452600007, 13.57848513500005], [107.61818270600008, 13.52860563400003], [107.62754083700008, 13.427873701000067], [107.63141316700006, 13.360067639000022], [107.60495224500005, 13.29538298600005], [107.57461899300006, 13.216230722000034], [107.53026871300005, 13.122282623000046], [107.49144457100005, 13.022580608000055], [107.49900771500006, 12.972960199000056], [107.50304139200006, 12.921855570000048], [107.51384922700004, 12.854318528000022], [107.55453450800007, 12.812635924000062], [107.56405075900005, 12.73897289000007], [107.57615179000004, 12.683393585000033], [107.57615179000004, 12.626326101000075], [107.58018546700004, 12.567769499000065], [107.57413495200007, 12.506738340000027], [107.55515408100007, 12.427705592000052], [107.54990836400003, 12.368540611000071], [107.49968166200006, 12.327093742000045], [107.45077671500007, 12.28873986800005], [107.41133574300005, 12.257818936000035], [107.36680394800004, 12.309844473000055], [107.30839630300005, 12.329390801000045], [107.25902409500009, 12.312681934000068], [107.20061645100009, 12.292503771000042], [107.13769108800005, 12.244889785000055], [107.07702458400007, 12.19253602300006], [107.04959558000007, 12.149005144000057], [106.99407327500006, 12.096807501000058], [106.93813751800008, 12.065992375000064], [106.86565738200005, 12.068303632000038], [106.80184335000007, 12.08063000200002], [106.76166414400006, 12.042878705000021], [106.73015104200005, 11.99818663900004], [106.68524487100007, 11.968901610000046], [106.60094732200008, 11.971213702000057], [106.52969115500008, 11.978297826000073], [106.46912171200006, 11.974845187000028], [106.41029557300004, 11.974041208000074], [106.44666673500006, 11.90588181000004], [106.44369694000005, 11.83593862400005], [106.42504118400007, 11.786091637000027], [106.43512537700008, 11.722906220000027], [106.45731060100007, 11.670076059000053], [106.38823388000009, 11.69377681800006], [106.32319083700008, 11.681926692000047], [106.27579513100005, 11.698220484000046], [106.20772682900008, 11.735248261000038], [106.15528902700004, 11.740678584000023], [106.09478387000007, 11.750551624000025], [106.04032922900006, 11.776713469000072], [106.01511874700009, 11.724880984000038], [105.98284933000008, 11.672544983000023], [105.90973893200004, 11.655262056000026], [105.85679692000008, 11.667113322000034], [105.82452750300007, 11.62118685300004], [105.83612432500007, 11.56240968700007], [105.88241077000004, 11.53282874100006], [105.87821574600008, 11.476859477000062], [105.89693200800008, 11.428470317000063], [105.87079378000004, 11.38323637600007], [105.87394004800007, 11.327672617000076], [105.90419262600005, 11.280207476000044], [105.91780628700008, 11.228778056000067], [105.95612621900005, 11.196630010000035], [106.00805981200006, 11.191189218000034], [106.02923661700004, 11.142217496000058], [106.07360706500003, 11.104617447000066], [106.12705328700008, 11.081362360000071], [106.18150792800009, 11.056126025000026], [106.19915526500006, 10.993768130000035], [106.14369220500004, 10.970009269000059], [106.14419641500007, 10.90862338100004], [106.17444899300006, 10.852671974000032], [106.19406879900004, 10.788591282000027], [106.13881064900005, 10.811857476000057], [106.08779915500008, 10.809220309000068], [106.01955579200006, 10.850017735000051], [105.94630421600004, 10.913712952000026], [105.93275106000004, 10.864279040000042], [105.84872956600009, 10.865051508000022], [105.82402329400009, 10.943773308000061], [105.77662758800005, 11.029402832000073], [105.72418978500008, 11.027918139000064], [105.64553308200004, 10.97891906600006], [105.59359948900004, 10.972325842000032], [105.54293650400007, 10.954901600000028], [105.48517424800008, 10.951099811000063], [105.43102339300003, 10.973690780000027], [105.38871450700009, 10.92563923800003], [105.34823575000007, 10.87676504600006], [105.28483280000006, 10.888730839000061], [105.22890602800004, 10.896615831000076], [105.17590364000006, 10.91400750300005], [105.11791030400008, 10.92071470600007], [105.08471078400004, 10.960287384000026], [105.04663287200003, 10.922267988000044], [105.03049816400005, 10.863328308000064], [105.05437753200005, 10.78472397400003], [105.09084197300007, 10.742560757000035], [105.05728178000004, 10.702294145000053], [104.98596636800005, 10.660753690000035], [104.93175374800006, 10.61381566700004], [104.90561552000008, 10.567822101000047], [104.86947377300004, 10.525946106000049], [104.78686406600008, 10.520869840000046], [104.72684295000005, 10.52562884200006], [104.64100630100006, 10.538953654000068], [104.58759034800005, 10.528299434000076], [104.55291079300008, 10.489344365000022], [104.52213867700004, 10.445680595000056], [104.47233328500005, 10.428741461000072], [104.43915722600008, 10.382850874000042], [104.48700476900007, 10.362048388000062], [104.51057331800007, 10.312620697000057], [104.56468267700006, 10.267306518000055], [104.58554162800004, 10.20857131200006], [104.58141114200004, 10.150638429000026], [104.63675964600009, 10.137424195000051], [104.67352096600007, 10.20044101600007], [104.72397071400007, 10.227237685000034], [104.77911269400005, 10.205855816000053], [104.85237098200008, 10.118923352000024], [104.90441509800007, 10.08700181000006], [104.97370399000005, 10.091627580000022], [105.01952656200007, 10.058902644000057], [105.06438105100005, 10.008379002000027], [105.09374622100006, 9.966428871000062], [105.03566127000005, 9.935598439000046], [104.94530690300007, 9.853899657000056], [104.88496309300007, 9.824648473000025], [104.86237450100003, 9.751827245000072], [104.84365824000008, 9.667856399000073], [104.83300933200007, 9.527540232000035], [104.82978239000005, 9.454654830000038], [104.82816892000005, 9.376978285000064], [104.81848809400009, 9.274125637000054], [104.80977535200009, 9.166782837000028], [104.80203069200007, 9.09987622400007], [104.80622571600009, 9.032001017000027], [104.80267608000008, 8.946581199000036], [104.79396333800008, 8.89238657900006], [104.78880023100004, 8.842329128000074], [104.79364064300006, 8.779827478000072], [104.85559792400005, 8.778551824000033], [104.83462280300006, 8.720185983000022], [104.78170095900003, 8.690840144000049], [104.77589246400004, 8.637246167000058], [104.71490326600008, 8.634374845000025], [104.73781455200009, 8.589068889000032], [104.79234986700004, 8.574391150000054], [104.84656248700009, 8.556202730000052], [104.94014379600009, 8.572177474000057], [105.00165737200007, 8.587134491000029], [105.07325514100006, 8.611563017000037], [105.13023083000007, 8.643965771000069], [105.20586227600006, 8.74414738400003], [105.26412874200008, 8.760054352000054], [105.31705058600005, 8.804382958000076], [105.35061077900008, 8.854126721000057], [105.38126672500005, 8.91565937200005], [105.39707874000004, 8.977500399000064], [105.44612825300004, 9.037737446000051], [105.51421672300006, 9.083625583000071], [105.56574190600008, 9.117408066000053], [105.67997690200008, 9.159410782000066], [105.72645872900006, 9.185854392000067], [105.77845534800008, 9.209185350000041], [105.87850944800005, 9.251177191000068], [105.93696625300004, 9.27649429500002], [105.99242931300006, 9.297393525000075], [106.05696814700008, 9.319286618000035], [106.11192699800006, 9.331725264000056], [106.17596162200005, 9.359088722000024], [106.18856686300006, 9.411819489000038], [106.21831523200007, 9.463547520000077], [106.26268568000006, 9.495376288000045], [106.29192983900003, 9.569466165000051], [106.35142657600005, 9.55703610200004], [106.39630123400008, 9.529688365000027], [106.45831902000003, 9.541622193000023], [106.51932838600004, 9.562008182000056], [106.56016936700007, 9.602279347000035], [106.57983354300006, 9.67087844200006], [106.57832091400007, 9.730021501000067], [106.60911803900007, 9.779494832000069], [106.66365335300009, 9.819879013000048], [106.68420493800005, 9.870630487000028], [106.65697761800004, 9.926757991000045], [106.66756602000004, 9.986351885000033], [106.71344909700008, 10.023592531000077], [106.75580270700004, 10.059339528000066], [106.79412264000007, 10.106499648000067], [106.78079133700004, 10.160243818000026], [106.76497932300003, 10.21074359000005], [106.75691196800005, 10.267903468000043], [106.77917786600005, 10.323148199000059], [106.80047568100008, 10.375209067000071], [106.85985140800005, 10.358068028000048], [106.91922713500009, 10.373939392000068], [106.97634400300007, 10.399966687000074], [106.97892555700008, 10.452014762000033], [107.03539703600006, 10.46851599100006], [107.08121960800008, 10.433608510000056], [107.06185795800008, 10.378383230000054], [107.08670540900005, 10.327275290000046], [107.13607761700007, 10.377113568000027], [107.21666080500006, 10.39652613000004], [107.27490064900007, 10.390838336000058], [107.30649886200007, 10.434103589000074], [107.35002385100006, 10.461217478000037], [107.43618319400008, 10.46851599100006], [107.47555188300004, 10.505323259000022], [107.53783185800006, 10.528484207000076], [107.58171826500006, 10.577972999000053], [107.67884920900008, 10.615718700000059], [107.73112566500004, 10.63443122800004], [107.78935260100008, 10.667184904000067], [107.83024440600008, 10.703105872000037], [107.88956850200009, 10.71941603700003], [107.96088391300009, 10.702611226000045], [108.01316036900005, 10.730195990000027], [108.02943625600005, 10.794233658000053], [108.04304991600009, 10.845244007000076], [108.07229407500006, 10.894760295000026], [108.14187500500009, 10.927931603000047], [108.20490121000006, 10.950703788000055], [108.27044846300004, 10.941793141000062], [108.32591152400005, 10.957634106000057], [108.35868515000004, 11.003667091000068], [108.40608085600007, 11.033856866000065], [108.45801444900007, 11.04325960600005], [108.51448592900005, 11.121439121000037], [108.55179744200007, 11.168930369000066], [108.62036995300008, 11.179812687000037], [108.67230354600008, 11.184759060000033], [108.73684238000004, 11.199597672000039], [108.75902760400004, 11.271801372000027], [108.79633911700006, 11.311851777000072], [108.84827271000006, 11.32915577600005], [108.91129891500009, 11.321245506000025], [108.98995561900006, 11.33558270900005], [109.00392182200005, 11.385387523000077], [109.00640011300004, 11.437010182000051], [109.00165005500008, 11.487611498000035], [109.02511947300007, 11.537734280000052], [109.04853106400009, 11.587370649000036], [109.10573828600008, 11.573815202000048], [109.14890185900003, 11.615288753000073], [109.17058690700009, 11.66100366300003], [109.20818258500009, 11.71626414900004], [109.21437005200005, 11.768383807000077], [109.18277183900005, 11.825393535000046], [109.20900042100004, 11.879157787000054], [109.23791381800004, 11.836713205000024], [109.27797952600008, 11.871275721000075], [109.25629447800009, 11.924020582000026], [109.24972442500007, 11.981124026000032], [109.21713231400008, 12.02373538200004], [109.19495677000003, 12.096127634000027], [109.21874578500007, 12.15089793900006], [109.20197859500007, 12.21948373500004], [109.20132029900009, 12.277999760000057], [109.21229190100007, 12.327184031000058], [109.19518911000006, 12.389912111000058], [109.16646932900005, 12.439075339000055], [109.22294080900008, 12.394954920000032], [109.27295840500005, 12.359653207000065], [109.33362490900004, 12.390542467000046], [109.29070658400008, 12.440966047000074], [109.30296896300007, 12.49327016500007], [109.24746556600007, 12.50807724200007], [109.23500150300003, 12.55940318000006], [109.19718578000004, 12.59581928800003], [109.21382469800005, 12.675031046000072], [109.25373793300008, 12.70784997800007], [109.29121079400005, 12.744894074000058], [109.33136605000004, 12.781696730000021], [109.37008935000006, 12.732913861000043], [109.33394760300007, 12.668065332000026], [109.38590136400006, 12.678454801000044], [109.38912830600009, 12.628077672000074], [109.42010694600003, 12.577375666000023], [109.43204663000006, 12.629337221000071], [109.41429845100004, 12.68223268500003], [109.38299711700006, 12.732599103000041], [109.36137660700007, 12.79365496500003], [109.39074177700007, 12.84651615100006], [109.43172393600008, 12.88300905400007], [109.43618114900005, 12.939055413000062], [109.40088647500005, 12.97885621200004], [109.36559180000006, 13.027492980000034], [109.31214557800007, 13.104604419000054], [109.29449824100004, 13.16450874000003], [109.29802770800006, 13.223416737000036], [109.31617925500007, 13.280347610000035], [109.29197719300004, 13.337265134000063], [109.25063200200009, 13.366209426000069], [109.22390889100006, 13.421144961000039], [109.23853097100005, 13.480971153000041], [109.25617830800007, 13.431443976000025], [109.31668346500004, 13.455963661000055], [109.28996035400007, 13.507446823000066], [109.28643088600006, 13.55940903100003], [109.22340468200008, 13.649580576000062], [109.22441310100004, 13.70738986400005], [109.22756441100006, 13.769867908000037], [109.27956103000008, 13.751502745000039], [109.29452975400005, 13.824189728000022], [109.30398368500005, 13.876204382000026], [109.25198706600008, 13.912913590000073], [109.25012779200006, 13.96735484800007], [109.24508569600005, 14.028020280000021], [109.21422806600003, 14.083583563000047], [109.22616775000006, 14.140228542000045], [109.19357563900007, 14.189038314000072], [109.20228838200006, 14.24002703900004], [109.17485937800006, 14.295694825000055], [109.13807224200008, 14.357601229000068], [109.11903328600005, 14.411677158000032], [109.10491541600004, 14.479077876000076], [109.08020914400004, 14.545950557000026], [109.07284768300008, 14.60470370400003], [109.06933838400005, 14.661880233000034], [109.04384554500007, 14.748338671000056], [109.01189882200003, 14.809494310000048], [108.96898049800006, 14.887785766000036], [108.94251957600005, 14.958878466000044], [108.92057637200008, 15.034310730000072], [108.89895586300008, 15.112208620000047], [108.90089202800004, 15.178243634000069], [108.94026071700006, 15.22401995100006], [108.88604809600008, 15.269475015000069], [108.88120768400006, 15.320833615000026], [108.84635671300003, 15.357555064000053], [108.82608748600006, 15.410991893000073], [108.77112863500008, 15.385228031000054], [108.72675818700009, 15.410505812000054], [108.70205191500008, 15.459594254000024], [108.67835406200004, 15.514015363000055], [108.60826892200004, 15.529561619000049], [108.57297424700005, 15.577650420000055], [108.51196488100004, 15.65631690600003], [108.45650182000008, 15.738835617000063], [108.42524082300008, 15.805796781000026], [108.40961032400008, 15.856245639000065], [108.32321783400005, 15.933933142000058], [108.26910847600004, 16.01335314800002], [108.25128849700008, 16.06033724300005], [108.28708738200004, 16.102486954000028], [108.34053360300004, 16.122831888000064], [108.28759159100008, 16.133972277000055], [108.23226971000008, 16.140520596000044], [108.22355696700004, 16.08595758100006], [108.16773087600006, 16.08595758100006], [108.13610684700006, 16.126881250000054], [108.15353233200005, 16.174614849000022], [108.19612796300004, 16.204674900000043], [108.14578767200004, 16.218308877000027], [108.08738002800004, 16.241546435000032], [108.05769216400006, 16.282437867000056], [108.02396416900007, 16.339832573000024], [107.97274615100008, 16.326553879000073], [107.91615850100004, 16.360244329000068], [107.87299492900007, 16.391947677000076], [107.79060000700008, 16.463990180000053], [107.69724277700004, 16.536887439000054], [107.64012590900006, 16.57369615500005], [107.58462251200007, 16.601530007000065], [107.49684969800006, 16.660277119000057], [107.39100601100006, 16.744346868000036], [107.33808416700003, 16.78853043400005], [107.24063052800005, 16.85864686900004], [107.15737543200004, 16.94787642400007], [107.12542870900006, 16.989234947000057], [107.11484434100004, 17.06638431700003], [107.04607175900009, 17.13547202600006], [106.97118089700007, 17.178009882000026], [106.87695419900007, 17.256301355000062], [106.73513011200004, 17.364167354000074], [106.69328071200005, 17.413727476000076], [106.63983449000006, 17.470488569000054], [106.55411885100006, 17.603663226000037], [106.48705896900009, 17.718969881000078], [106.46134427800007, 17.774194754000064], [106.44873903700005, 17.829402569000024], [106.45831902000003, 17.89706880400007], [106.50004741000004, 17.933319617000052], [106.47326379400005, 18.006067494000035], [106.43679935300008, 18.058537837000074], [106.43292702300005, 18.12387372300003], [106.38097326100007, 18.11129922400005], [106.32869680600004, 18.137673963000054], [106.26351258400007, 18.21861341600004], [106.15992775500007, 18.281744595000077], [106.08732156700006, 18.304417181000076], [106.04569402000004, 18.345159097000078], [105.97179705500008, 18.41436768500006], [105.94598152100008, 18.478957671000046], [105.90048164400008, 18.50007424100005], [105.85627254200006, 18.567996831000073], [105.81477407200003, 18.636809706000065], [105.79578755400007, 18.686490571000036], [105.77713179700004, 18.750480977000052], [105.74486238000009, 18.795832622000034], [105.70654244800005, 18.870278290000044], [105.64361708500007, 18.90140205600005], [105.62877315300005, 18.949326292000023], [105.61578471300004, 19.01430345500006], [105.64351624300008, 19.07769226700003], [105.69292878800007, 19.087222324000038], [105.73830765500009, 19.129624423000053], [105.73512483200005, 19.18573686600007], [105.76427445200005, 19.243020296000054], [105.83045196700004, 19.320358389000035], [105.79106058900004, 19.390228656000033], [105.81705889800008, 19.56031887000006], [105.83675458700009, 19.621923108000033], [105.85566244900008, 19.675343810000072], [105.88953903400005, 19.71539765600005], [105.94232348000008, 19.756182927000054], [105.95177741100008, 19.81474716300005], [105.97935137600007, 19.90292345900008], [106.03292365000004, 19.945882354000048], [106.08255678600005, 19.919219586000054], [106.15267343900007, 19.94292004600004], [106.22200226500007, 19.989569929000027], [106.30302245100006, 20.085728713000037], [106.38420020300003, 20.173783021000077], [106.46941163200006, 20.209747911000022], [106.52689153100005, 20.21447951500005], [106.58537984900005, 20.206435703000068], [106.61613663700007, 20.27645023100007], [106.60151455800008, 20.339341741000055], [106.58588405900008, 20.390865338000026], [106.59685566000007, 20.448872583000025], [106.58943369500008, 20.50993702900007], [106.59233794200009, 20.569768660000022], [106.63832186100007, 20.60764235700003], [106.68672598700005, 20.655773298000042], [106.71849119400008, 20.698700788000053], [106.78050897900005, 20.69398407500006], [106.75580270700004, 20.780748080000023], [106.81681207300005, 20.791590081000038], [106.88704807300007, 20.797385235000036], [106.85896077200005, 20.848153445000037], [106.88211730600005, 20.895708972000023], [106.93181220800005, 20.907767326000055], [106.98279788700006, 20.924044566000077], [107.07648003800006, 20.947534177000023], [107.14101887200007, 20.92540092200005], [107.20908717300006, 20.931994149000047], [107.25497025000004, 20.977667815000075], [107.32303855100008, 20.973901442000056], [107.38656896600008, 21.012502260000076], [107.49144457100005, 21.08308765700008], [107.56354654900008, 21.146115611000027], [107.59682438500005, 21.19266382400008], [107.54539500200008, 21.200655478000044], [107.51514242400003, 21.241547170000047], [107.58875703100006, 21.276319685000033], [107.63270394300008, 21.308152825000036], [107.66787760800008, 21.365863327000056], [107.72176753400004, 21.38178982900007], [107.77113974200006, 21.446079199000053], [107.82095081400007, 21.470441677000053], [107.88053306500007, 21.465600739000024], [107.86536643900007, 21.39921684500007], [107.83726623100006, 21.35565743500007], [107.88765815200009, 21.362773986000036], [107.95346194700005, 21.376681517000065], [107.99412141300007, 21.421147896000036], [107.92506486100007, 21.395010514000035], [107.99057177700007, 21.472207438000055], [108.03387733400007, 21.520979616000034], [108.04110568400006, 21.572460276000072], [107.97708316100005, 21.56535395900005], [107.92586514200008, 21.592432924000036], [107.88641900700009, 21.62334668400007], [107.83726623100006, 21.646767616000034], [107.77077671100005, 21.644213636000075], [107.70119578100008, 21.616091365000045], [107.62253907700006, 21.610935021000046], [107.56707601700003, 21.611872552000023], [107.50203297300004, 21.594527252000034], [107.48186458800006, 21.642338988000063], [107.42438468900008, 21.634840153000027], [107.37422591400008, 21.59407718400007], [107.35260540500008, 21.664270843000054], [107.31839982300005, 21.71074784900003], [107.26902761500008, 21.72633677500005], [107.21352421800009, 21.71344605300004], [107.16641086900006, 21.749417272000073], [107.10824524500003, 21.787551912000026], [107.01748751000008, 21.82359817400004], [107.03463063800007, 21.878820278000035], [107.03210958900007, 21.933085591000065], [106.98269704500007, 21.953195927000024], [106.93126766200004, 21.941504217000045], [106.88857118900006, 21.975229848000026], [106.82306427300006, 21.976426839000055], [106.77853247800005, 22.00724588500003], [106.72657871600006, 21.98450626600004], [106.70850784300006, 22.038058233000072], [106.71294488800004, 22.097158771000068], [106.70286069500008, 22.155076458000053], [106.69832280800006, 22.20923594800007], [106.68398308600007, 22.28700228100007], [106.65655408200007, 22.33566357500007], [106.60556840300006, 22.34014075500005], [106.58739668800007, 22.397697020000066], [106.56521146300008, 22.451762535000057], [106.58991773600007, 22.528629753000075], [106.61008612100005, 22.603126834000022], [106.66807023000007, 22.574729570000045], [106.71949961300004, 22.59335138800003], [106.72778755900003, 22.64824198900004], [106.76717893700004, 22.702035013000057], [106.77978417800006, 22.757259918000045], [106.82784165900006, 22.784137651000037], [106.78555107600005, 22.817081074000043], [106.73160064400008, 22.858437897000044], [106.69378492200008, 22.894672859000025], [106.64941447300004, 22.870517292000045], [106.60857349200006, 22.91139342500003], [106.54857254500007, 22.931826872000045], [106.49361369500008, 22.909535686000027], [106.43210011900004, 22.889098879000073], [106.37814968700008, 22.884453720000067], [106.31512348200005, 22.873769253000034], [106.25383175900004, 22.88527128000004], [106.23285663800004, 22.94768853200003], [106.18767945400003, 22.993145842000047], [106.10506974700007, 22.991957610000043], [106.02020118000007, 22.99581932500007], [105.97050627800007, 22.95571152100007], [105.91726174000007, 22.950065763000055], [105.86433989700004, 22.94174527000007], [105.82335773700004, 22.990472305000026], [105.77140397600004, 23.027896992000024], [105.72558140400008, 23.063232993000042], [105.65760910400007, 23.074027924000063], [105.59751054200007, 23.07953787400004], [105.56033617400004, 23.11544201600003], [105.56485953900005, 23.172151937000024], [105.51948067200004, 23.198570731000075], [105.47964811000008, 23.248613077000073], [105.44536185500004, 23.299099746000024], [105.40452087400007, 23.30280443600003]]]]}}]}