{"type": "FeatureCollection", "features": [{"type": "Feature", "properties": {"code": "VUT", "name": "Vanuatu", "tier": "country"}, "geometry": {"type": "MultiPolygon", "coordinates": [[[[169.82278239999997, -20.1346685], [169.77085189999997, -20.138133399999976], [169.7440268, -20.18111769999998], [169.770807, -20.233723099999963], [169.82661550000003, -20.241813600000043], [169.87806409999996, -20.241734299999965], [169.90023309999998, -20.19563770000002], [169.86558060000002, -20.15490340000002], [169.82278239999997, -20.1346685]]], [[[170.2377568, -19.50909479999999], [170.2377568, -19.50909479999999]]], [[[169.31278940000004, -19.3163672], [169.26548579999996, -19.335151800000013], [169.2504749, -19.3851445], [169.22728909999998, -19.431076700000023], [169.23835380000003, -19.49769249999998], [169.26955329999998, -19.54013630000003], [169.3100955, -19.5835088], [169.3422636, -19.62227709999996], [169.3917477, -19.642913], [169.44137690000002, -19.6556362], [169.46929, -19.611584499999964], [169.4792469, -19.5585778], [169.46034610000004, -19.510649700000034], [169.41240579999996, -19.476871500000044], [169.36247439999997, -19.452357299999974], [169.34802630000001, -19.402543899999987], [169.350603, -19.350978800000014], [169.31278940000004, -19.3163672]]], [[[169.60819959999998, -19.213270499999975], [169.58938460000002, -19.260478699999968], [169.60819959999998, -19.213270499999975]]], [[[169.11099420000002, -18.62204570000002], [169.056285, -18.625262299999974], [169.01432960000002, -18.656472699999956], [169.00160539999996, -18.70507640000004], [168.9888017, -18.755207500000022], [169.00998110000003, -18.8021429], [168.9888326, -18.85156280000003], [169.02501429999998, -18.893494900000015], [169.07781749999998, -18.917613599999957], [169.12542660000003, -18.938260399999958], [169.17810869999997, -18.9476579], [169.2281976, -18.96605940000003], [169.27159560000004, -18.993096], [169.32196749999997, -18.972034200000028], [169.3438355, -18.926811299999986], [169.3199487, -18.88087560000003], [169.2744766, -18.8464334], [169.2181051, -18.81400749999998], [169.2504126, -18.77569479999997], [169.20891789999996, -18.74732759999996], [169.17012669999997, -18.7048988], [169.158007, -18.647104], [169.11099420000002, -18.62204570000002]]], [[[168.2098541, -17.573216899999984], [168.2098541, -17.573216899999984]]], [[[168.337102, -17.544811099999976], [168.2861865, -17.5394602], [168.2482066, -17.572256500000012], [168.223518, -17.627739], [168.18731109999996, -17.66292670000001], [168.158041, -17.708063400000025], [168.20423640000004, -17.73030989999996], [168.23907209999996, -17.69183439999998], [168.2910145, -17.710646599999976], [168.28166340000004, -17.761852399999974], [168.32911519999996, -17.738129099999973], [168.31207, -17.796703199999982], [168.36417190000003, -17.8018731], [168.41603189999998, -17.82444309999996], [168.465376, -17.8091758], [168.51696769999998, -17.80655260000002], [168.56094520000002, -17.776634899999973], [168.57726439999996, -17.722786399999986], [168.5421596, -17.682089399999963], [168.50575070000005, -17.638435100000034], [168.48837220000001, -17.590305199999985], [168.45597220000002, -17.541419800000043], [168.402013, -17.5264113], [168.352794, -17.544133899999988], [168.337102, -17.544811099999976]]], [[[168.28773, -17.50495650000002], [168.23776019999997, -17.52238889999998], [168.21391360000007, -17.569464099999983], [168.264869, -17.54827279999996], [168.28773, -17.50495650000002]]], [[[168.40092920000004, -17.482530499999978], [168.40092920000004, -17.482530499999978]]], [[[168.49402909999998, -17.4678126], [168.49402909999998, -17.4678126]]], [[[168.34489730000004, -17.41272560000003], [168.34507349999998, -17.47086829999996], [168.3516013, -17.41574750000004], [168.34489730000004, -17.41272560000003]]], [[[168.43190230000002, -17.25847920000004], [168.43190230000002, -17.25847920000004]]], [[[168.43414280000005, -17.128688900000018], [168.43414280000005, -17.128688900000018]]], [[[168.392726, -17.0336013], [168.34922239999997, -17.0674644], [168.41771919999996, -17.064701800000044], [168.392726, -17.0336013]]], [[[168.59041509999997, -17.018452199999963], [168.59041509999997, -17.018452199999963]]], [[[168.62488709999997, -16.99491039999997], [168.62488709999997, -16.99491039999997]]], [[[168.57281780000002, -16.94862170000003], [168.57281780000002, -16.94862170000003]]], [[[168.5623309, -16.8635879], [168.52724960000003, -16.89943160000001], [168.5741419, -16.921950199999987], [168.59172059999997, -16.87258910000003], [168.5623309, -16.8635879]]], [[[167.4722638, -16.58179180000002], [167.4722638, -16.58179180000002]]], [[[168.19012450000002, -16.56713620000004], [168.15860819999997, -16.609678100000032], [168.1332771, -16.653428099999974], [168.1284951, -16.708553800000033], [168.1509679, -16.7584422], [168.1782312, -16.80395160000004], [168.23070620000001, -16.8138377], [168.28063169999996, -16.80388790000001], [168.3276149, -16.784069], [168.3806116, -16.796976499999968], [168.42559170000004, -16.820326199999965], [168.474424, -16.836377499999962], [168.47146870000003, -16.77908080000004], [168.4214178, -16.7746974], [168.37085029999997, -16.7684092], [168.33399639999996, -16.7322693], [168.3132876, -16.684499900000034], [168.25396859999998, -16.688573400000013], [168.23386890000003, -16.639133700000038], [168.20638640000004, -16.596857900000035], [168.19012450000002, -16.56713620000004]]], [[[167.8354972, -16.522271200000034], [167.8354972, -16.522271200000034]]], [[[167.8303254, -16.48678089999996], [167.8303254, -16.48678089999996]]], [[[168.33816880000003, -16.484332], [168.34340639999996, -16.535497699999986], [168.3511613, -16.484685699999975], [168.33816880000003, -16.484332]]], [[[168.2444312, -16.4314568], [168.21237480000002, -16.491337899999976], [168.25329449999998, -16.462299300000012], [168.2444312, -16.4314568]]], [[[168.1583252, -16.099551399999974], [168.12070469999998, -16.140124], [168.0811549, -16.171902800000034], [168.0331242, -16.195568599999984], [167.98037940000003, -16.20106940000002], [167.93081070000002, -16.215169499999956], [167.9191899, -16.264877500000015], [167.96451419999997, -16.294364899999987], [168.00858020000004, -16.3195514], [168.05858939999996, -16.34287580000003], [168.11417250000005, -16.3624832], [168.1700558, -16.361742], [168.21996520000002, -16.35454210000003], [168.27096439999997, -16.353644700000032], [168.31309409999997, -16.316766], [168.2824411, -16.27191], [168.22949259999996, -16.24710489999997], [168.2108589, -16.194600399999988], [168.19408010000004, -16.146049199999986], [168.171261, -16.100057], [168.1583252, -16.099551399999974]]], [[[167.44567589999997, -16.084611099999975], [167.44567589999997, -16.084611099999975]]], [[[167.39197979999997, -15.993074499999967], [167.39197979999997, -15.993074499999967]]], [[[167.30937920000002, -15.8931537], [167.30937920000002, -15.8931537]]], [[[167.22535910000002, -15.878775100000027], [167.17948659999996, -15.902326500000015], [167.1810069, -15.956899900000028], [167.17437159999997, -16.0129359], [167.15717910000004, -16.065056], [167.1768915, -16.112701700000017], [167.2196513, -16.146454699999964], [167.2750252, -16.148496499999972], [167.31677489999998, -16.1185614], [167.35532149999997, -16.1648187], [167.3827892, -16.213682400000014], [167.3898162, -16.26518470000003], [167.38451289999998, -16.316732299999977], [167.38479990000002, -16.36801769999999], [167.40736510000002, -16.41595259999998], [167.4395501, -16.457622899999976], [167.42028450000007, -16.50530759999996], [167.45318760000004, -16.555811599999977], [167.49602730000007, -16.58953629999998], [167.54090939999998, -16.56100250000004], [167.58775919999997, -16.53475039999997], [167.60538280000003, -16.486973099999965], [167.65627230000007, -16.5015198], [167.70751129999996, -16.510864600000026], [167.7471543, -16.547262100000022], [167.78244450000003, -16.506853599999978], [167.8157726, -16.46750660000001], [167.76710619999997, -16.45600060000004], [167.78241589999996, -16.4037478], [167.7739017, -16.346570799999956], [167.7170525, -16.325065499999976], [167.67237289999997, -16.28841869999996], [167.62953359999997, -16.2587319], [167.59618110000002, -16.2184172], [167.55088460000002, -16.194049699999987], [167.51422989999998, -16.1568848], [167.4833212, -16.113449], [167.43178420000004, -16.109268], [167.40022660000002, -16.0635514], [167.4071276, -16.0127652], [167.36578390000003, -15.9802043], [167.32733940000003, -15.934899899999973], [167.28847209999998, -15.89914339999999], [167.22535910000002, -15.878775100000027]]], [[[167.1649555, -15.62562050000001], [167.11366159999997, -15.628478799999986], [167.0851403, -15.676571100000032], [167.123276, -15.7123767], [167.1775075, -15.740977200000035], [167.23222190000004, -15.747498300000025], [167.2309881, -15.69066550000003], [167.25012370000002, -15.642168199999958], [167.19352839999996, -15.63008], [167.1649555, -15.62562050000001]]], [[[166.9524325, -15.623075899999968], [166.9524325, -15.623075899999968]]], [[[167.2718371, -15.592600100000016], [167.29089149999996, -15.542929], [167.25574379999998, -15.579868200000043], [167.2718371, -15.592600100000016]]], [[[167.19892459999997, -15.529671], [167.156767, -15.561202099999967], [167.13126250000002, -15.60454970000001], [167.186394, -15.6082293], [167.228569, -15.577785500000026], [167.18950529999998, -15.54493910000004], [167.19892459999997, -15.529671]]], [[[168.15278479999998, -15.4492489], [168.1411842, -15.50060660000004], [168.1420979, -15.553396899999957], [168.1268292, -15.608059499999978], [168.11983409999996, -15.659266499999987], [168.1311443, -15.71195359999998], [168.142526, -15.761393], [168.16888750000004, -15.810811899999962], [168.17134059999998, -15.86767169999997], [168.1885696, -15.921434], [168.1850972, -15.97477], [168.2275447, -16.005544799999967], [168.26673150000005, -15.97429950000003], [168.28048980000003, -15.92364770000004], [168.26819110000002, -15.85891520000003], [168.24767330000003, -15.812000100000041], [168.23993179999997, -15.760019599999982], [168.2243114, -15.7122822], [168.21039560000003, -15.663137700000014], [168.194049, -15.615053500000016], [168.19937650000003, -15.564929199999973], [168.1910173, -15.512559699999969], [168.1681548, -15.46681], [168.15278479999998, -15.4492489]]], [[[167.25615909999996, -15.458719], [167.24411680000003, -15.407941800000032], [167.25403019999996, -15.458296899999986], [167.25615909999996, -15.458719]]], [[[167.23057359999999, -15.374556400000035], [167.23057359999999, -15.374556400000035]]], [[[167.218965, -15.295201200000015], [167.218965, -15.295201200000015]]], [[[167.95881219999998, -15.274576100000033], [167.90654630000003, -15.2860993], [167.8559918, -15.30785879999997], [167.79489459999996, -15.331452800000019], [167.75083719999998, -15.3619398], [167.71061489999997, -15.392459300000024], [167.67302330000004, -15.435247499999967], [167.72338450000007, -15.470784099999964], [167.78325590000003, -15.465821699999978], [167.8347579, -15.47526059999998], [167.88728870000003, -15.437397300000029], [167.928684, -15.397216900000029], [167.94964870000004, -15.343570599999985], [167.98601419999997, -15.3033572], [167.95881219999998, -15.274576100000033]]], [[[167.19516080000002, -15.271972199999968], [167.19516080000002, -15.271972199999968]]], [[[167.13335959999998, -15.101024799999959], [167.13335959999998, -15.101024799999959]]], [[[167.09029940000002, -15.02813610000003], [167.09029940000002, -15.02813610000003]]], [[[167.13444320000002, -14.954455500000037], [167.13444320000002, -14.954455500000037]]], [[[168.05397339999996, -14.89748850000004], [168.06017540000002, -14.960599], [168.06570150000002, -15.011631700000024], [168.0741933, -15.0631925], [168.0912807, -15.13073990000003], [168.1092116, -15.181807300000035], [168.11588159999997, -15.2369737], [168.113054, -15.288671899999969], [168.12628679999997, -15.339032600000031], [168.14614410000004, -15.390379200000044], [168.17932680000004, -15.3494909], [168.16738450000003, -15.300691900000015], [168.17222269999996, -15.246442499999986], [168.17184389999997, -15.185434400000027], [168.14661149999998, -15.140071899999981], [168.134844, -15.08895910000004], [168.12671650000001, -15.037508799999973], [168.1071246, -14.987457700000036], [168.09343970000003, -14.9381181], [168.0618122, -14.898256800000016], [168.05397339999996, -14.89748850000004]]], [[[166.61698379999999, -14.64438059999998], [166.5706914, -14.683756400000021], [166.55613240000002, -14.737146900000038], [166.55108989999997, -14.794658], [166.54150360000003, -14.84669389999996], [166.56482990000003, -14.906169799999976], [166.5934893, -14.9690616], [166.612965, -15.0283709], [166.62411049999997, -15.080674499999976], [166.6377575, -15.130963100000024], [166.6597624, -15.210514899999968], [166.67229090000004, -15.267175700000031], [166.6650757, -15.321258799999978], [166.65190070000003, -15.370419300000034], [166.6691581, -15.4307587], [166.699349, -15.472350399999975], [166.72144310000002, -15.52634250000003], [166.757569, -15.565617], [166.77775259999999, -15.622843899999957], [166.807112, -15.665321400000039], [166.84851310000002, -15.632776400000033], [166.904643, -15.62441009999996], [166.93859239999998, -15.586813], [166.99060250000002, -15.58814029999996], [167.041441, -15.581193199999984], [167.08873379999997, -15.598926300000045], [167.13835710000004, -15.5609761], [167.17508549999997, -15.515385900000041], [167.2447907, -15.525108399999972], [167.2567068, -15.475281500000023], [167.2144127, -15.443804], [167.194339, -15.392685099999966], [167.18159680000002, -15.34428639999997], [167.200197, -15.2969347], [167.156713, -15.2688981], [167.17118889999998, -15.209555099999957], [167.1503535, -15.157731800000025], [167.10201860000004, -15.125177799999985], [167.0773256, -15.079226199999958], [167.0768723, -15.026081], [167.05712049999997, -14.9752649], [167.02482670000003, -14.930397699999983], [166.97982110000004, -14.964003199999983], [166.97871330000004, -15.04440750000003], [166.9881869, -15.094766899999986], [166.959321, -15.140044899999967], [166.8987264, -15.16705609999996], [166.841969, -15.1659992], [166.8143778, -15.124137200000039], [166.80673889999997, -15.070868499999975], [166.788249, -15.015895799999964], [166.78771050000003, -14.96149630000004], [166.7822595, -14.910425700000037], [166.7635438, -14.856757100000014], [166.73250720000001, -14.808252599999967], [166.6952817, -14.774580200000027], [166.67434279999998, -14.727059600000032], [166.64198540000004, -14.688928], [166.61698379999999, -14.64438059999998]]], [[[168.0430536, -14.440456799999975], [168.0430536, -14.440456799999975]]], [[[167.52470130000006, -14.1962146], [167.47533180000002, -14.21124440000004], [167.42593289999996, -14.243598], [167.42656580000002, -14.29869459999998], [167.415001, -14.35113860000002], [167.46450219999997, -14.3616163], [167.52275309999996, -14.371326599999986], [167.57201020000002, -14.354766], [167.59273889999997, -14.30897650000001], [167.60301629999998, -14.254174900000034], [167.57570949999996, -14.2110808], [167.52470130000006, -14.1962146]]], [[[167.60788969999996, -13.874674100000036], [167.60788969999996, -13.874674100000036]]], [[[167.70102869999997, -13.8308843], [167.70102869999997, -13.8308843]]], [[[167.47493150000003, -13.714553400000014], [167.42392670000004, -13.733891700000019], [167.388943, -13.775810699999987], [167.38553359999997, -13.827341400000044], [167.40763250000003, -13.880904400000034], [167.4482226, -13.9145943], [167.45806860000002, -13.96829960000004], [167.4794848, -13.922874399999959], [167.52805289999998, -13.901685799999981], [167.57685169999996, -13.883061], [167.53889349999997, -13.837506800000028], [167.53321770000002, -13.787164499999978], [167.510132, -13.7366008], [167.47493150000003, -13.714553400000014]]], [[[167.713489, -13.651870400000028], [167.6556178, -13.650629699999957], [167.62629309999997, -13.7005759], [167.67613639999996, -13.692565900000016], [167.713489, -13.651870400000028]]], [[[167.3271145, -13.502871100000043], [167.2994626, -13.554236800000037], [167.35282249999997, -13.560628299999962], [167.34200869999998, -13.505161899999958], [167.3271145, -13.502871100000043]]], [[[166.70991019999997, -13.399569300000021], [166.69204179999997, -13.447526800000016], [166.70991019999997, -13.399569300000021]]], [[[166.63082110000002, -13.330736400000028], [166.63082110000002, -13.330736400000028]]], [[[166.6348558, -13.322598400000015], [166.6348558, -13.322598400000015]]], [[[166.6060982, -13.2173495], [166.614618, -13.275121], [166.66179470000003, -13.256587600000021], [166.62242120000002, -13.225120500000028], [166.6060982, -13.2173495]]], [[[166.6086563, -13.211422599999974], [166.6086563, -13.211422599999974]]], [[[166.552646, -13.0745], [166.5524602, -13.1287328], [166.56623539999998, -13.186873], [166.58503459999997, -13.13826430000003], [166.5802118, -13.0884945], [166.552646, -13.0745]]]]}}]}