{"type": "FeatureCollection", "features": [{"type": "Feature", "properties": {"code": "WLF", "name": "Wallis and Futuna", "tier": "country"}, "geometry": {"type": "MultiPolygon", "coordinates": [[[[-178.00385377243362, -14.334087634037019], [-178.02387539982982, -14.332009402411927], [-178.0441441087636, -14.322543406552938], [-178.0666010894687, -14.332265738872707], [-178.05406698270505, -14.35067637561417], [-178.02056803868402, -14.345159895512722], [-178.00103276465035, -14.334990511103172], [-178.00385377243362, -14.334087634037019]]], [[[-178.17643816159185, -14.240865323575804], [-178.1715344111841, -14.275701970469527], [-178.15906223083726, -14.292825928273942], [-178.14538830082938, -14.307906745999503], [-178.1077460425458, -14.311362364881177], [-178.08463786004918, -14.312118124551773], [-178.05393900108402, -14.307888937624341], [-178.0731570797354, -14.2997253228653], [-178.10105147754362, -14.28854305271966], [-178.11621738462458, -14.27536896230771], [-178.13361369401673, -14.258762148854032], [-178.15529497348422, -14.24746522144278], [-178.17643816159185, -14.240865323575804]]], [[[-176.169673777223, -13.369386930162648], [-176.169673777223, -13.369386930162648]]], [[[-176.21609456621124, -13.371222006690232], [-176.21609456621124, -13.371222006690232]]], [[[-176.12489030744172, -13.28831146040551], [-176.12489030744172, -13.28831146040551]]], [[[-176.14434795469433, -13.282081548124893], [-176.14434795469433, -13.282081548124893]]], [[[-176.14726256661413, -13.273939228412587], [-176.14726256661413, -13.273939228412587]]], [[[-176.2002677257749, -13.2191031817664], [-176.22073825966294, -13.234520982657159], [-176.2260002460145, -13.254780200146058], [-176.2240313215882, -13.276498659385595], [-176.25050723222296, -13.290445968006964], [-176.24682747350906, -13.31378749129965], [-176.22768318333223, -13.32109751993454], [-176.2164384525725, -13.338050653314951], [-176.19520101731308, -13.344566915130997], [-176.18649630835793, -13.323504165085126], [-176.18072305382586, -13.299318343866446], [-176.1622582904877, -13.265844401897596], [-176.1790160794285, -13.245584920907334], [-176.19764559316957, -13.219343754010993], [-176.2002677257749, -13.2191031817664]], [[-176.1712907438727, -13.257636518010827], [-176.1712907438727, -13.257636518010827]], [[-176.19011869392256, -13.294967896850892], [-176.19011869392256, -13.294967896850892]], [[-176.23199913145473, -13.298936526799253], [-176.23199913145473, -13.298936526799253]], [[-176.21373350589656, -13.31993883430971], [-176.21373350589656, -13.31993883430971]]], [[[-176.17036681277816, -13.217950033267357], [-176.17036681277816, -13.217950033267357]]], [[[-176.17919591775737, -13.203288448003434], [-176.17919591775737, -13.203288448003434]]], [[[-176.1960672254221, -13.18786160263079], [-176.1960672254221, -13.18786160263079]]]]}}]}