{"type": "FeatureCollection", "features": [{"type": "Feature", "properties": {"code": "WSM", "name": "Samoa", "tier": "country"}, "geometry": {"type": "MultiPolygon", "coordinates": [[[[-171.4196688, -14.0587436], [-171.4196688, -14.0587436]]], [[[-171.5624508, -13.9012449], [-171.5813981, -13.8925097], [-171.5940482, -13.873537], [-171.6222388, -13.8850037], [-171.6404674, -13.8721263], [-171.6628326, -13.8663059], [-171.6861866, -13.8647564], [-171.7081493, -13.8637407], [-171.7221889, -13.8444568], [-171.7422734, -13.8408058], [-171.7587317, -13.8244418], [-171.777521, -13.8168149], [-171.7992503, -13.8218744], [-171.8119777, -13.8062383], [-171.8302469, -13.7930452], [-171.850892, -13.7991607], [-171.8726824, -13.7964139], [-171.8989134, -13.8013868], [-171.9224544, -13.8039625], [-171.9443686, -13.8140105], [-171.9635014, -13.8251056], [-172.0096119, -13.8293138], [-172.0345466, -13.8300215], [-172.0569643, -13.8506585], [-172.0733156, -13.8661169], [-172.0653675, -13.8856934], [-172.0546814, -13.9030083], [-172.0273239, -13.9135621], [-172.0047157, -13.9168621], [-171.9952449, -13.9350404], [-171.9850964, -13.9523118], [-171.9751279, -13.9335556], [-171.9607097, -13.9486699], [-171.9517419, -13.9690985], [-171.9375736, -13.9882595], [-171.9216426, -14.0017744], [-171.8998656, -14.0011109], [-171.870839, -13.9910639], [-171.8414054, -13.9881429], [-171.8264923, -14.0021487], [-171.8023543, -14.0103214], [-171.7810667, -14.011877], [-171.7687916, -14.0290138], [-171.7541551, -14.0428894], [-171.7296267, -14.0443373], [-171.7052502, -14.0345038], [-171.680286, -14.0360104], [-171.6600103, -14.0405983], [-171.6261528, -14.0380495], [-171.5940943, -14.043097], [-171.5641999, -14.043938], [-171.5430889, -14.0436916], [-171.5208786, -14.0418718], [-171.4932639, -14.0398333], [-171.4703013, -14.0441271], [-171.4341346, -14.0488868], [-171.4273376, -14.0246042], [-171.4243757, -14.0039191], [-171.4381523, -13.9879411], [-171.4536784, -13.9730912], [-171.4735471, -13.9663499], [-171.487147, -13.9513304], [-171.51601, -13.9509176], [-171.5228108, -13.9298263], [-171.5462442, -13.9435895], [-171.5674583, -13.9435124], [-171.5496395, -13.9261461], [-171.5638762, -13.9091859], [-171.5624508, -13.9012449]]], [[[-172.1048497, -13.8610727], [-172.1078815, -13.8405101], [-172.1048497, -13.8610727]]], [[[-172.1462055, -13.8216248], [-172.1462055, -13.8216248]]], [[[-172.48895124999999, -13.468202911339219], [-172.5136988, -13.4775369], [-172.5444498, -13.4754977], [-172.5631931, -13.4825494], [-172.5866692, -13.4959739], [-172.6141362, -13.4924878], [-172.6326924, -13.5020384], [-172.6476925, -13.5179329], [-172.6637482, -13.5055444], [-172.6854079, -13.511221], [-172.7121378, -13.5156887], [-172.7330805, -13.5068007], [-172.7513088, -13.4966918], [-172.7761884, -13.4922162], [-172.7958207, -13.5089293], [-172.7919652, -13.5295785], [-172.760694, -13.5663437], [-172.7419395, -13.5740746], [-172.7262765, -13.5924702], [-172.703773, -13.6138082], [-172.6820363, -13.6243196], [-172.6710946, -13.6420631], [-172.6541973, -13.6565386], [-172.6338069, -13.6811493], [-172.610709, -13.6992003], [-172.5940753, -13.7191944], [-172.595205, -13.7400052], [-172.5825182, -13.7562731], [-172.5521094, -13.7779517], [-172.5443001, -13.7972274], [-172.5245215, -13.8010902], [-172.4888309, -13.7972558], [-172.4651028, -13.787742], [-172.4326521, -13.7886407], [-172.4138337, -13.7808571], [-172.3907506, -13.7823808], [-172.3664603, -13.7732125], [-172.3358489, -13.7772929], [-172.3227036, -13.7610656], [-172.3003991, -13.7601956], [-172.2844834, -13.7735768], [-172.2716842, -13.7943234], [-172.2442417, -13.8036022], [-172.2206957, -13.7940186], [-172.2144273, -13.7640702], [-172.2180131, -13.74338], [-172.1962598, -13.7215955], [-172.1981177, -13.7016023], [-172.1855236, -13.684333], [-172.1740517, -13.6676055], [-172.1881593, -13.6497149], [-172.1976125, -13.6313555], [-172.2048888, -13.5958257], [-172.2197134, -13.574985], [-172.2354968, -13.5547599], [-172.249388, -13.5307038], [-172.2645714, -13.5096509], [-172.2846944, -13.4923976], [-172.3106153, -13.4555133], [-172.3313148, -13.4437765], [-172.3534085, -13.440403], [-172.3724781, -13.4487983], [-172.404922, -13.4508656], [-172.4195479, -13.4655727], [-172.4443101, -13.4678869], [-172.4662535, -13.4682774], [-172.48895124999999, -13.468202911339219]]]]}}]}