{"type": "FeatureCollection", "features": [{"type": "Feature", "properties": {"code": "XKX", "name": "Kosovo", "tier": "country"}, "geometry": {"type": "Polygon", "coordinates": [[[20.109044166, 42.6483667], [20.0899375, 42.6309], [20.0761271, 42.6147029], [20.0861698, 42.5874481], [20.0788765, 42.5560902], [20.0957188, 42.5415548], [20.1140776, 42.5271427], [20.1495265, 42.5143983], [20.1671727, 42.5025144], [20.1802623, 42.4865872], [20.1968012, 42.4624634], [20.2078135, 42.4445329], [20.2230928, 42.4256974], [20.2080119, 42.4016194], [20.225945, 42.3889254], [20.2416453, 42.3757749], [20.2448046, 42.3529628], [20.2478521, 42.3331733], [20.2704373, 42.3194337], [20.2927012, 42.3234664], [20.3140174, 42.3204282], [20.339135, 42.3276986], [20.3533992, 42.3096401], [20.3741352, 42.3057092], [20.3947711, 42.298649], [20.4232264, 42.2825201], [20.4444181, 42.2748177], [20.4638434, 42.2654589], [20.4972298, 42.2404119], [20.5139964, 42.2242973], [20.5314881, 42.1859409], [20.5427648, 42.1662259], [20.55854, 42.1465692], [20.5681202, 42.1212163], [20.5675194, 42.097851], [20.5545817, 42.0825878], [20.5698156, 42.0590583], [20.5945492, 42.0427847], [20.5972987, 42.0196978], [20.6117111, 41.9896508], [20.626587, 41.9609839], [20.6194349, 41.9393997], [20.5901359, 41.9267174], [20.5886391, 41.8896202], [20.6040428, 41.8677697], [20.6364048, 41.8635307], [20.6633532, 41.8752736], [20.6812726, 41.8595876], [20.7059316, 41.8646597], [20.7279727, 41.8642769], [20.7363459, 41.8864686], [20.7556754, 41.9060678], [20.7765241, 41.9184854], [20.7547433, 41.9467817], [20.7671171, 41.9627591], [20.7543754, 41.9796523], [20.7518987, 42.0152802], [20.7635509, 42.0408328], [20.7786245, 42.0647779], [20.7908432, 42.0831377], [20.8341449, 42.0859691], [20.8538909, 42.0980642], [20.8771507, 42.0962076], [20.8984207, 42.1049458], [20.9200076, 42.1285847], [20.9448235, 42.1380905], [20.9693941, 42.1365665], [21.0011435, 42.1453068], [21.0264377, 42.1522535], [21.0432517, 42.1660943], [21.06797, 42.1858366], [21.0913028, 42.1942049], [21.1191045, 42.2068363], [21.1606063, 42.1975195], [21.1740798, 42.1795286], [21.186206, 42.1623086], [21.2029624, 42.1476108], [21.2169209, 42.124035], [21.2203939, 42.1020173], [21.2457953, 42.0926744], [21.2683574, 42.0946768], [21.2913479, 42.1050955], [21.3212942, 42.108018], [21.3105257, 42.1276788], [21.3103168, 42.1489726], [21.317285, 42.1701641], [21.3352026, 42.1903246], [21.3460974, 42.2073357], [21.3613896, 42.2221659], [21.3772537, 42.2380666], [21.4012923, 42.2491571], [21.4219777, 42.2423868], [21.4443186, 42.2349303], [21.4325065, 42.2593038], [21.4448576, 42.2778978], [21.4708012, 42.2800357], [21.4920081, 42.2732844], [21.5111205, 42.2660201], [21.5212775, 42.241469], [21.5427648, 42.25245], [21.5630464, 42.2507367], [21.5835905, 42.2593428], [21.5821504, 42.279652], [21.5618308, 42.2988415], [21.54185, 42.3089171], [21.5248492, 42.3254563], [21.5301875, 42.3475496], [21.5361163, 42.3673883], [21.5581552, 42.3674535], [21.5794815, 42.3678744], [21.594403, 42.3838902], [21.6146897, 42.3756812], [21.6275011, 42.3922386], [21.6449142, 42.408358], [21.637776, 42.4292389], [21.625171, 42.4461994], [21.6413069, 42.4682288], [21.6602443, 42.4803289], [21.6753725, 42.4976184], [21.6920187, 42.5156406], [21.6979085, 42.5349685], [21.7170868, 42.5499472], [21.7413453, 42.5531008], [21.747656, 42.5807279], [21.7341588, 42.5981077], [21.7519472, 42.6137253], [21.7581249, 42.6331077], [21.7797185, 42.6433966], [21.7713447, 42.6673042], [21.7597135, 42.683781], [21.7475591, 42.7005785], [21.7252101, 42.695373], [21.703307, 42.6927368], [21.6742806, 42.6872101], [21.6624654, 42.6694462], [21.6442091, 42.6800982], [21.6313869, 42.7004598], [21.6111448, 42.6966785], [21.587249, 42.7035843], [21.5923149, 42.7261798], [21.5714339, 42.7278276], [21.5422215, 42.7290683], [21.5174718, 42.7294393], [21.4978422, 42.7377821], [21.4793474, 42.7476641], [21.4516813, 42.7450613], [21.4318922, 42.748177], [21.408041, 42.7435151], [21.3891974, 42.7582386], [21.4075462, 42.7668323], [21.4083567, 42.7877168], [21.4227337, 42.805815], [21.4172581, 42.8261741], [21.4236075, 42.8471199], [21.436439, 42.8644055], [21.4134553, 42.8751022], [21.3929091, 42.8671124], [21.3697717, 42.8734148], [21.3500248, 42.8809586], [21.3420584, 42.8995197], [21.3160514, 42.9018601], [21.2924738, 42.9032235], [21.2711535, 42.8971962], [21.2535196, 42.9257791], [21.2396833, 42.9437105], [21.2408056, 42.9712982], [21.2378137, 43.0055199], [21.2216818, 43.0196257], [21.1998438, 43.0226368], [21.1753456, 42.9994872], [21.1672329, 43.0198387], [21.1522649, 43.0403205], [21.1498626, 43.0672554], [21.149875, 43.09103], [21.1413504, 43.1093734], [21.1133776, 43.1111802], [21.0991908, 43.1258883], [21.0789851, 43.1291198], [21.0643823, 43.1135585], [21.0431169, 43.1124534], [21.0254012, 43.1294572], [21.0030337, 43.1352398], [20.9769122, 43.1356976], [20.9570497, 43.1259829], [20.9378807, 43.1347692], [20.9215837, 43.1477112], [20.8997188, 43.1557121], [20.8808248, 43.1655371], [20.8559774, 43.1744], [20.8310766, 43.179121], [20.8550636, 43.1891472], [20.8435522, 43.2070747], [20.8636684, 43.2076367], [20.8833935, 43.2037998], [20.8769895, 43.2233527], [20.8616721, 43.2378812], [20.8369641, 43.2568377], [20.8197487, 43.2724664], [20.7961124, 43.2648051], [20.7747798, 43.2543522], [20.7474075, 43.2448492], [20.7201717, 43.2398718], [20.6993478, 43.2251828], [20.6715714, 43.2086182], [20.6447056, 43.2074351], [20.615291, 43.2043105], [20.5948462, 43.2067148], [20.6093626, 43.1922384], [20.6113645, 43.1695974], [20.6409109, 43.1622817], [20.6575183, 43.1501308], [20.6727808, 43.1314757], [20.6893154, 43.1126559], [20.6926447, 43.0907117], [20.6677581, 43.0773925], [20.6705226, 43.0555657], [20.6692508, 43.0351214], [20.6509977, 43.0220971], [20.6298641, 43.0091231], [20.6095982, 43.0156081], [20.5799896, 43.0118337], [20.5649722, 42.9901318], [20.5544486, 42.9687342], [20.5299464, 42.9751862], [20.5074719, 42.9637104], [20.4957129, 42.9447684], [20.4998685, 42.9177002], [20.5206124, 42.8981574], [20.5390012, 42.8852903], [20.5156856, 42.8785127], [20.4858278, 42.8675991], [20.4635751, 42.8530939], [20.4412953, 42.8338704], [20.4182008, 42.8444663], [20.3934956, 42.8444923], [20.3636462, 42.8322797], [20.3435482, 42.833135], [20.3200874, 42.8262051], [20.2980064, 42.836205], [20.2751643, 42.8255027], [20.2551684, 42.8144846], [20.2634529, 42.7888528], [20.2553706, 42.7700128], [20.236773, 42.7568505], [20.2132231, 42.7487363], [20.1911699, 42.7452833], [20.1738254, 42.7554575], [20.1549854, 42.7684137], [20.1257841, 42.7626645], [20.1037143, 42.7700899], [20.0699539, 42.7749027], [20.0498083, 42.7757467], [20.0322872, 42.7649104], [20.0201184, 42.7482727], [20.0186374, 42.7244083], [20.0315513, 42.7066897], [20.0527581, 42.6884137], [20.0833932, 42.680036], [20.1119442, 42.6554024], [20.109044166, 42.6483667]]]}}]}