{"type": "FeatureCollection", "features": [{"type": "Feature", "properties": {"code": "YEM", "name": "Yemen", "tier": "country"}, "geometry": {"type": "MultiPolygon", "coordinates": [[[[53.277663099999984, 12.128413], [53.277663099999984, 12.128413]]], [[[53.03589750000003, 12.179533900000012], [52.98188409999999, 12.170147099999967], [53.02630989999998, 12.141747799999964], [53.080028, 12.131432199999987], [53.05337770000004, 12.175169300000016], [53.03589750000003, 12.179533900000012]]], [[[52.08311620000003, 12.243389699999957], [52.121269199999965, 12.202157399999964], [52.17078820000002, 12.188632600000021], [52.22343709999996, 12.182118299999972], [52.27096820000003, 12.156536], [52.3231807, 12.150126], [52.37345830000003, 12.154005599999968], [52.34001820000004, 12.194842400000011], [52.28784290000003, 12.200954900000033], [52.23608369999998, 12.20389849999996], [52.18125340000003, 12.213771299999982], [52.132896, 12.23975419999998], [52.08311620000003, 12.243389699999957]]], [[[43.4111864, 12.6713489], [43.4111864, 12.6713489]]], [[[53.54312290000002, 12.713571100000015], [53.49034690000004, 12.699434399999982], [53.44930440000003, 12.668055299999986], [53.39787469999998, 12.655324099999982], [53.398532, 12.60527830000004], [53.384334199999984, 12.54975590000002], [53.33188619999997, 12.537722799999957], [53.41339320000004, 12.464408], [53.461297499999986, 12.443201700000012], [53.50299410000002, 12.407842], [53.546382, 12.357337600000035], [53.6026553, 12.3288455], [53.6521265, 12.31003170000004], [53.72511749999997, 12.3013277], [53.81713470000004, 12.311393099999973], [53.88001290000001, 12.3244445], [53.93284740000003, 12.3330418], [54.00788170000003, 12.328595900000034], [54.07223, 12.353183699999976], [54.12941350000001, 12.350653100000025], [54.17969989999997, 12.374091199999965], [54.2286476, 12.407156500000033], [54.271864200000046, 12.44193], [54.3243254, 12.445328699999964], [54.37684660000003, 12.459104100000035], [54.42617290000004, 12.478761299999958], [54.466580600000015, 12.527038500000026], [54.51599180000003, 12.5376311], [54.4546802, 12.553131100000043], [54.4055202, 12.578725200000024], [54.36072560000004, 12.601460199999964], [54.31031989999998, 12.608553200000022], [54.261666400000045, 12.635606699999963], [54.209332400000044, 12.6345187], [54.16658640000004, 12.663831600000014], [54.10970449999998, 12.7004007], [54.05774619999998, 12.667540500000024], [54.0050205, 12.648516], [53.951459800000016, 12.641667300000043], [53.9008205, 12.650269299999989], [53.856202, 12.608111299999964], [53.80536420000003, 12.601978899999983], [53.73938049999997, 12.63559], [53.649802500000014, 12.701812700000032], [53.58560480000002, 12.701352599999977], [53.54312290000002, 12.713571100000015]]], [[[42.74330920000001, 13.63188480000001], [42.74330920000001, 13.63188480000001]]], [[[42.77954519999997, 13.782866499999974], [42.7339807, 13.753608399999967], [42.70209239999997, 13.714170500000028], [42.66918620000001, 13.672273600000024], [42.72468419999996, 13.679485100000027], [42.75693680000003, 13.7221427], [42.783667100000045, 13.764876599999981], [42.77954519999997, 13.782866499999974]]], [[[42.810193299999966, 13.878435], [42.775565600000036, 13.841289299999987], [42.810193299999966, 13.878435]]], [[[42.76320480000003, 14.070887400000037], [42.707952900000016, 14.0428151], [42.68787090000003, 13.9936907], [42.72527569999997, 13.957734600000022], [42.74669419999996, 13.910807800000041], [42.78431229999996, 13.946948700000034], [42.789323099999955, 14.002111300000037], [42.7790873, 14.05172], [42.76320480000003, 14.070887400000037]]], [[[42.945958, 14.56524620000001], [42.945958, 14.56524620000001]]], [[[42.908446, 14.62163429999998], [42.908446, 14.62163429999998]]], [[[42.159194800000044, 15.030707699999985], [42.159194800000044, 15.030707699999985]]], [[[42.17789210000004, 15.079074800000031], [42.18173080000004, 15.0289292], [42.17789210000004, 15.079074800000031]]], [[[42.157905300000024, 15.087963], [42.157905300000024, 15.087963]]], [[[42.63787910000002, 15.456654299999958], [42.59708609999996, 15.425834300000037], [42.5590026, 15.3913051], [42.56276259999997, 15.330327100000037], [42.56115830000002, 15.274182], [42.61692530000002, 15.303362299999975], [42.617282299999985, 15.353831100000011], [42.6392796, 15.403243300000021], [42.592245099999985, 15.385230800000024], [42.6134201, 15.436566799999959], [42.63787910000002, 15.456654299999958]]], [[[42.51923780000001, 15.4993825], [42.51923780000001, 15.4993825]]], [[[42.371470199999976, 15.532298699999988], [42.39126110000004, 15.4787303], [42.379593, 15.530336], [42.371470199999976, 15.532298699999988]]], [[[41.8499111, 15.551970599999972], [41.8499111, 15.551970599999972]]], [[[42.6027062, 15.650250200000034], [42.6027062, 15.650250200000034]]], [[[42.561088900000044, 15.7090621], [42.561088900000044, 15.7090621]]], [[[42.2984886, 15.711864200000033], [42.30715920000002, 15.658686599999957], [42.2984886, 15.711864200000033]]], [[[42.494824700000045, 15.7219274], [42.494824700000045, 15.7219274]]], [[[42.4004579, 15.739103100000037], [42.44957220000004, 15.7011958], [42.4004579, 15.739103100000037]]], [[[42.627978, 15.76895619999998], [42.627978, 15.76895619999998]]], [[[42.419068, 16.103073100000028], [42.419068, 16.103073100000028]]], [[[42.373732899999965, 16.219130400000022], [42.373732899999965, 16.219130400000022]]], [[[42.48505129999999, 16.265272900000035], [42.48505129999999, 16.265272900000035]]], [[[42.36159280000002, 16.283153400000035], [42.36159280000002, 16.283153400000035]]], [[[42.4726916, 16.30425540000004], [42.51285860000004, 16.26869070000003], [42.4726916, 16.30425540000004]]], [[[42.339331500000014, 16.320378699999956], [42.295475900000035, 16.2917642], [42.34550710000001, 16.29728950000002], [42.339331500000014, 16.320378699999956]]], [[[42.19858319999997, 16.321130499999988], [42.19858319999997, 16.321130499999988]]], [[[41.969653200000046, 16.320797100000025], [41.969653200000046, 16.320797100000025]]], [[[42.268281499999986, 16.330924299999957], [42.268281499999986, 16.330924299999957]]], [[[42.30479780000004, 16.379657600000016], [42.30479780000004, 16.379657600000016]]], [[[42.77014389999997, 16.402567], [42.77014389999997, 16.402567]]], [[[52.7514, 17.30419919999999], [52.78219990000003, 17.3497009], [52.58675039999997, 17.7635166], [52.391106800000024, 18.176786700000044], [52.19565829999996, 18.5886699], [52.0, 19.0], [51.424852600000015, 18.8975966], [50.78333759999997, 18.78330269999999], [50.12983589999997, 18.71944780000003], [49.71294249999997, 18.67717549999996], [49.1167023, 18.616699399999966], [48.64957309999997, 18.39215029999996], [48.18330170000004, 18.166702], [47.8491366, 17.7564653], [47.60000030000001, 17.449999399999957], [47.466699, 17.116698500000012], [47.1833011, 16.9499956], [47.000224, 16.95102659999996], [46.75000059999998, 17.283299500000023], [46.36671589999998, 17.233300499999956], [46.099959499999954, 17.25000369999998], [45.7480748, 17.2918837], [45.400002399999984, 17.3333006], [45.27016279999997, 17.40757909999999], [45.21722, 17.435179100000028], [45.073886, 17.4333819], [44.64971760000002, 17.435138], [44.56668490000001, 17.4074106], [44.516344, 17.421449], [44.46760279999999, 17.43500630000003], [44.388628899999986, 17.435148], [44.227011799999964, 17.417899800000033], [44.1380134, 17.40889719999998], [44.110807299999955, 17.366398700000026], [44.066693, 17.40579980000003], [44.01129539999999, 17.402427399999972], [43.966661600000016, 17.3305504], [43.90559789999998, 17.34169989999996], [43.83194919999997, 17.338882800000018], [43.78889480000002, 17.3749999], [43.6833043, 17.36669559999999], [43.6178065, 17.42609440000002], [43.5665042, 17.48339740000002], [43.52029980000002, 17.50910049999996], [43.48460039999996, 17.54509970000004], [43.431297199999975, 17.563898900000027], [43.37939879999996, 17.5554011], [43.310199500000024, 17.527699], [43.26040330000004, 17.489899600000044], [43.225499099999965, 17.426199800000038], [43.2587862, 17.36229229999999], [43.32599740000002, 17.3284015], [43.272203600000026, 17.29109820000003], [43.20408530000001, 17.260216599999985], [43.21630079999998, 17.21039869999998], [43.17080149999998, 17.17269750000003], [43.15800110000002, 17.114097], [43.2080999, 17.0782977], [43.248588, 17.015316600000038], [43.19800039999996, 17.0139003], [43.17809730000003, 16.9633074], [43.1437, 16.924601499999966], [43.17600009999997, 16.86690049999999], [43.2213012, 16.8380945], [43.2555153, 16.8013115], [43.241729300000024, 16.7429749], [43.22818, 16.694289700000017], [43.184498799999986, 16.65803630000004], [43.1394482, 16.62188980000003], [43.12226409999997, 16.5520335], [43.06116539999997, 16.530185199999977], [42.99032370000003, 16.521725399999983], [42.9446596, 16.489886200000022], [42.946167, 16.434210899999965], [42.8305344, 16.379562200000027], [42.784874700000046, 16.40578929999998], [42.79008280000002, 16.353826399999956], [42.789033399999965, 16.301367099999982], [42.805382800000025, 16.245663399999973], [42.82238129999997, 16.19301970000002], [42.8193469, 16.1392074], [42.825091, 16.088797699999976], [42.83404559999998, 16.03661760000001], [42.826493599999964, 15.984012499999963], [42.817362, 15.930103899999978], [42.812359, 15.8759796], [42.7804998, 15.8334268], [42.756662200000044, 15.788121200000035], [42.7238741, 15.747613], [42.68223479999999, 15.715247], [42.698398, 15.666239799999989], [42.705201800000026, 15.6161023], [42.70723510000004, 15.564626799999989], [42.74527629999997, 15.5292277], [42.764143, 15.478950800000032], [42.76486989999996, 15.4235967], [42.78465540000002, 15.372552699999972], [42.7921747, 15.31365940000002], [42.79421079999998, 15.258574], [42.78548320000003, 15.2054423], [42.7635189, 15.2513174], [42.72576749999998, 15.2841542], [42.69396749999998, 15.32966160000004], [42.689208500000035, 15.279788299999982], [42.66239169999996, 15.23419280000002], [42.61500559999999, 15.2503019], [42.6237748, 15.189630199999987], [42.6809167, 15.2135285], [42.73033660000002, 15.205616600000033], [42.78514769999998, 15.1867695], [42.82993490000003, 15.16325729999996], [42.867069, 15.1220232], [42.86619280000003, 15.063816099999977], [42.884555499999955, 15.002311399999963], [42.924210099999975, 14.970099499999984], [42.94457110000004, 14.923924799999972], [42.953784699999964, 14.871174399999981], [42.94084710000003, 14.82150540000004], [42.91226750000003, 14.8679114], [42.88052870000002, 14.909806300000023], [42.881148, 14.857936299999958], [42.91990219999996, 14.820826700000017], [42.94865330000003, 14.776708399999977], [42.95522319999997, 14.725968499999981], [42.97141160000003, 14.677013200000028], [42.986839599999975, 14.615614], [43.0020947, 14.562741100000038], [43.0121423, 14.511515299999983], [43.01923409999996, 14.461197099999973], [42.97689810000004, 14.488835099999958], [42.95892459999998, 14.543448700000011], [42.97229280000003, 14.4929513], [42.99017990000004, 14.4419354], [43.015807600000045, 14.3713624], [43.035912, 14.296822399999959], [43.062369300000015, 14.244515199999958], [43.076639299999975, 14.1817854], [43.0892085, 14.123884199999987], [43.1056571, 14.073883599999965], [43.12809920000004, 14.025400199999977], [43.1557616, 13.9754827], [43.1896, 13.933565900000028], [43.22875059999997, 13.8884044], [43.235692499999956, 13.83679239999997], [43.24903410000002, 13.7799599], [43.2752948, 13.720898], [43.28752429999997, 13.669463], [43.28335230000001, 13.61903890000002], [43.273439599999975, 13.559369900000013], [43.26251409999998, 13.5046827], [43.254768, 13.451444300000043], [43.24849650000004, 13.396818699999974], [43.24995469999998, 13.346602399999957], [43.231140299999986, 13.2950805], [43.246231500000036, 13.24593170000003], [43.2833789, 13.160286799999982], [43.3156308, 13.113734299999974], [43.36214720000004, 13.0456241], [43.39264, 12.992112299999986], [43.40616090000004, 12.94384669999999], [43.4473058, 12.882693], [43.47800619999997, 12.843197100000031], [43.4809994, 12.781896300000012], [43.4678399, 12.722048100000011], [43.48585920000002, 12.6737758], [43.551208, 12.714787699999958], [43.5998381, 12.748414500000033], [43.65138240000003, 12.730002700000037], [43.701853299999975, 12.714923600000011], [43.75047710000003, 12.700857], [43.80461579999996, 12.685001500000043], [43.8493449, 12.6594313], [43.907666, 12.644216], [43.92753860000002, 12.598042900000012], [43.989697100000036, 12.60330960000004], [44.04546190000004, 12.602954], [44.098768200000016, 12.624830499999979], [44.1503677, 12.6529605], [44.18839129999998, 12.6203512], [44.13600970000004, 12.630494600000025], [44.188791, 12.618548499999966], [44.24123929999996, 12.629139099999959], [44.30209310000003, 12.6385827], [44.358966, 12.667846699999957], [44.4135322, 12.67866810000004], [44.4695792, 12.7372866], [44.50389990000002, 12.77369080000001], [44.5605544, 12.808968800000015], [44.61280150000001, 12.8167823], [44.676108600000035, 12.8043689], [44.72368160000001, 12.766666799999976], [44.7932574, 12.7729157], [44.8258806, 12.7348005], [44.87625260000002, 12.7280431], [44.915271, 12.75956310000001], [44.868180699999975, 12.77714469999997], [44.915782700000044, 12.8183333], [44.9669334, 12.826832599999966], [45.013912400000045, 12.8456817], [45.022248700000034, 12.795409], [44.97252989999997, 12.7886116], [45.01043210000003, 12.7557501], [45.047225199999986, 12.827884599999967], [45.07648580000002, 12.900944300000011], [45.106236799999955, 12.951636300000041], [45.15848619999997, 12.99609080000001], [45.22535689999997, 13.022014299999979], [45.28912910000002, 13.038571199999977], [45.357750800000034, 13.048312500000042], [45.4243494, 13.099984599999987], [45.45461050000003, 13.1417559], [45.505717, 13.2062533], [45.548038699999964, 13.255499300000023], [45.598376, 13.301742], [45.637695400000034, 13.336465400000014], [45.69591920000001, 13.3557637], [45.74766, 13.36773180000001], [45.802359899999956, 13.382624599999987], [45.863039, 13.3969983], [45.9162215, 13.400676], [45.96757279999996, 13.406926499999988], [46.019216300000025, 13.419606799999956], [46.069991, 13.4133417], [46.12002149999998, 13.4176333], [46.180256, 13.425378], [46.24964519999998, 13.4332648], [46.30430749999998, 13.424992200000036], [46.37084170000002, 13.414978], [46.431897800000044, 13.414381200000042], [46.49664769999998, 13.415551100000028], [46.5533037, 13.42693], [46.605481799999986, 13.43716529999996], [46.6825128, 13.4253277], [46.73529160000002, 13.445577899999956], [46.828728400000045, 13.481365799999962], [46.88457340000002, 13.52062050000002], [46.96140289999996, 13.548234], [47.017833, 13.5591176], [47.0824339, 13.570692099999965], [47.1405174, 13.5890013], [47.215156, 13.603028300000014], [47.29279020000003, 13.626789799999978], [47.3719774, 13.646647300000042], [47.45386639999997, 13.6976069], [47.51981189999998, 13.757066], [47.5658354, 13.798687], [47.61842720000001, 13.8489808], [47.6624279, 13.88339050000002], [47.7128533, 13.913986100000026], [47.7664529, 13.922393699999963], [47.83060739999997, 13.9533192], [47.88162629999996, 13.99046019999996], [47.94370470000001, 14.03846069999996], [47.99478510000003, 14.05366270000003], [48.065301799999986, 14.048083800000017], [48.11776469999999, 14.02977859999996], [48.165966200000014, 14.001797], [48.213220199999974, 13.97532129999996], [48.26234879999997, 13.989395200000038], [48.31339340000004, 13.998075900000012], [48.36167659999998, 14.0181729], [48.41440219999996, 14.019256599999958], [48.45899669999997, 13.995016700000024], [48.504903099999986, 14.016993600000033], [48.56047840000003, 14.045877399999979], [48.663538600000045, 14.0440518], [48.7177226, 14.068401499999966], [48.756548099999975, 14.117694200000036], [48.809998599999986, 14.1573309], [48.84820760000003, 14.191670900000014], [48.867975200000025, 14.244227100000012], [48.9182909, 14.263887], [48.948783800000044, 14.30831980000002], [48.99668679999997, 14.327143800000014], [48.98843939999996, 14.378068899999969], [49.01380849999998, 14.4223244], [49.04375420000004, 14.46952670000003], [49.084827099999984, 14.5150333], [49.13637370000003, 14.528398599999987], [49.2175982, 14.568489400000034], [49.288027700000015, 14.6107434], [49.34704820000001, 14.640918699999967], [49.41236170000004, 14.66332919999997], [49.48205159999998, 14.6919027], [49.5639949, 14.735874700000013], [49.61376350000001, 14.753952700000012], [49.6947951, 14.775888700000012], [49.7970693, 14.798669800000036], [49.84952449999999, 14.8138942], [49.89741329999998, 14.8366407], [49.951159, 14.846632899999962], [50.00869779999996, 14.851407500000041], [50.05562030000003, 14.8277695], [50.10823640000001, 14.849879800000027], [50.16362780000002, 14.842100799999963], [50.26222059999998, 14.908158899999963], [50.314108800000035, 14.926999900000032], [50.37676630000004, 14.966971199999962], [50.4784046, 15.024428], [50.55198609999997, 15.044704099999956], [50.644001299999964, 15.0608676], [50.706344100000045, 15.072248], [50.80152910000003, 15.089873], [50.889047899999966, 15.112578400000038], [50.9494235, 15.127108], [51.01414289999998, 15.14426650000002], [51.0649013, 15.155914700000034], [51.127656099999975, 15.166680200000021], [51.207663799999985, 15.192932800000042], [51.29411429999998, 15.224218500000038], [51.342741200000034, 15.2377402], [51.407527, 15.260919900000044], [51.455925100000044, 15.27411770000002], [51.503253, 15.308155900000028], [51.57590619999998, 15.331000399999969], [51.628088599999955, 15.3297406], [51.640213, 15.38355630000003], [51.69501360000001, 15.419519399999967], [51.751144600000025, 15.440921799999959], [51.821353800000026, 15.462057299999984], [51.86369539999997, 15.490092200000035], [51.93377980000004, 15.521355899999985], [52.0583739, 15.5683882], [52.180647, 15.609063900000027], [52.225358300000025, 15.633257899999982], [52.208203699999956, 15.688382], [52.190554, 15.746658900000018], [52.1996798, 15.800821399999961], [52.173382299999986, 15.844316799999977], [52.16328859999998, 15.895115599999961], [52.1466987, 15.96405150000004], [52.164821900000014, 16.013332300000013], [52.19888729999997, 16.083363400000025], [52.2120525, 16.147836], [52.2384745, 16.20129080000003], [52.2801362, 16.2577906], [52.33757910000002, 16.322612300000024], [52.4155996, 16.393577], [52.47523220000002, 16.43103320000003], [52.58586120000003, 16.475032900000027], [52.668991300000016, 16.502253600000035], [52.736086, 16.529959500000043], [52.7949672, 16.550355], [52.842703299999975, 16.5723432], [52.891463500000036, 16.588774], [52.94330990000002, 16.609718800000014], [53.04308589999999, 16.6339474], [53.100476799999974, 16.647523299999985], [53.00761320000004, 16.8675618], [52.812301600000026, 17.285499599999984], [52.7458, 17.29439929999996], [52.7514, 17.30419919999999]]]]}}]}