{"type": "FeatureCollection", "features": [{"type": "Feature", "properties": {"code": "ZAF", "name": "South Africa", "tier": "country"}, "geometry": {"type": "MultiPolygon", "coordinates": [[[[19.418070002000036, -34.68667999799993], [19.418070002000036, -34.68667999799993]]], [[[19.418799998000054, -34.67816000099998], [19.418799998000054, -34.67816000099998]]], [[[18.368980003000047, -33.78984000099996], [18.368980003000047, -33.78984000099996]]], [[[18.07427000200005, -33.41262], [18.07427000200005, -33.41262]]], [[[17.98590000400003, -33.150749996999934], [17.98590000400003, -33.150749996999934]]], [[[17.992619999000055, -33.14578999699995], [17.992619999000055, -33.14578999699995]]], [[[18.02114000200004, -33.08799], [18.02114000200004, -33.08799]]], [[[18.007170012000074, -33.08387], [18.007170012000074, -33.08387]]], [[[17.95345999700004, -33.08014000099996], [17.95345999700004, -33.08014000099996]]], [[[17.92525000200004, -33.05060999699998], [17.92525000200004, -33.05060999699998]]], [[[29.655229942000062, -22.125080056999934], [29.610239942000078, -22.155690057999948], [29.539249943000073, -22.15266005799998], [29.483229942000037, -22.167330057999948], [29.416849942000056, -22.175050057999954], [29.362879942000063, -22.199550057999943], [29.309159942000065, -22.188310057999956], [29.257729942000026, -22.193390057999977], [29.197949943000026, -22.18339005699994], [29.155469942000025, -22.21429005799996], [29.08638994200004, -22.220560056999943], [29.035919942000078, -22.216580057999977], [29.004859942000053, -22.262560057999963], [28.966579942000067, -22.307540057999972], [28.97183994100004, -22.36801005799998], [28.951179941000078, -22.415530057999945], [28.92327896200004, -22.457035037999958], [28.868869997000047, -22.447740001999932], [28.833170003000077, -22.484859996999944], [28.776180003000036, -22.500669997999978], [28.72226000200004, -22.511950001999935], [28.669750002000058, -22.53468000199996], [28.617439998000066, -22.562479998999947], [28.564089998000043, -22.561000001999957], [28.51435000200007, -22.58924], [28.457779999000024, -22.572639996999953], [28.406130004000033, -22.56961999799995], [28.35362000400005, -22.57166999599997], [28.306199999000057, -22.60903000099995], [28.26196, -22.642519997999955], [28.209670001000063, -22.66446000199994], [28.163959999000042, -22.71161000099994], [28.145129999000062, -22.77482], [28.09481000100004, -22.813689997999973], [28.04682000100007, -22.82959], [28.05002999800007, -22.879700000999946], [28.013779998000075, -22.930989996999983], [27.966160004000074, -22.954570003999947], [27.941360001000078, -23.000530001999948], [27.93597999600007, -23.05168], [27.89492000100006, -23.082780000999946], [27.84792999700005, -23.10476000099993], [27.793809999000075, -23.137479996999957], [27.768400003000067, -23.184629996999945], [27.741619998000033, -23.230410003999964], [27.69982999800004, -23.200020001999974], [27.652360001000034, -23.22188000799997], [27.602479998000035, -23.21621], [27.57613000300006, -23.26081000399995], [27.560180003000028, -23.31488000199994], [27.541649996000046, -23.365040001999944], [27.49408, -23.38428], [27.44197999800008, -23.384669993999978], [27.40998, -23.424290000999974], [27.358059997000055, -23.42784], [27.31040000200005, -23.447089996999978], [27.267230004000055, -23.477950000999954], [27.209339999000065, -23.489950002999933], [27.166139998000062, -23.52466], [27.145759998000074, -23.57477000199998], [27.09970000100003, -23.598979998999937], [27.078849997000077, -23.648100002999968], [27.03796000400007, -23.682660002999967], [27.010339998000063, -23.637960000999954], [27.00214999700006, -23.688520000999972], [26.970480001000055, -23.72796], [26.957519999000056, -23.784029998999983], [26.950900001000036, -23.841470001999937], [26.94125, -23.89404], [26.932190002000027, -23.95537], [26.91006999700005, -24.004050003999964], [26.889160012000048, -24.054840001999935], [26.86320000300003, -24.09972000399995], [26.879129999000043, -24.16010999699995], [26.871000002000073, -24.21520000299995], [26.855739997000057, -24.263489996999965], [26.810780002000058, -24.285520003999977], [26.76354000300006, -24.305749998999943], [26.715629997000065, -24.320599997999977], [26.675699998000027, -24.351190003999932], [26.63555999700003, -24.387540000999934], [26.59024001000006, -24.40921999899996], [26.559649997000065, -24.45361000099996], [26.519350001000078, -24.484239998999954], [26.496549997000045, -24.53002999599994], [26.471059999000033, -24.58897000299993], [26.428240002000052, -24.619539995999958], [26.187000003000037, -24.687499998999954], [26.00741000200003, -24.724280005999958], [25.917060002000028, -24.74550998999996], [25.858310008000046, -24.757180002999974], [25.86131000300003, -24.80811], [25.876250001000074, -24.856069996999963], [25.881820004000076, -24.91423999899996], [25.840869997000027, -24.980300000999932], [25.7291, -25.256880002999935], [25.68823000200007, -25.376000001999955], [25.659759998000027, -25.474389997999936], [25.63075000400005, -25.53336], [25.580879999000047, -25.63879998799996], [25.53439, -25.66562000199997], [25.48853999800008, -25.688779996999983], [25.423770004000062, -25.731420002999982], [25.371729999000024, -25.75251000299994], [25.319470010000032, -25.772779998999965], [25.264780003000055, -25.766470002999938], [25.209170003000054, -25.76266000199996], [25.148390008000035, -25.759589996999978], [25.099280003000047, -25.74250000199993], [25.05158000600005, -25.726089996999974], [25.00057, -25.72956000199997], [24.96151001100003, -25.766080000999978], [24.912799998000025, -25.784410003999938], [24.86214, -25.80752], [24.811120003000042, -25.812849996999944], [24.75592, -25.811410000999956], [24.69654999900007, -25.811320000999956], [24.645300004000035, -25.81089999699998], [24.589369997000063, -25.789799998999968], [24.490840002000027, -25.75115999899998], [24.441369997000038, -25.74087], [24.39239, -25.754860002999976], [24.33939, -25.74562999699998], [24.288359997000043, -25.726190002999942], [24.254570002000037, -25.687569998999948], [24.226830002000042, -25.643979996999974], [24.179480006000063, -25.62676000199997], [24.12643999000005, -25.62780999599994], [24.073769995000077, -25.62966999599996], [24.0258, -25.644679990999975], [23.977440002000037, -25.616120002999935], [23.92854999700006, -25.6382], [23.88821, -25.59859], [23.84452, -25.570779995999942], [23.804890002000036, -25.53318000099995], [23.762930002000076, -25.503210002999936], [23.73386000200003, -25.45854000399993], [23.679639999000074, -25.447390008999946], [23.634039999000038, -25.425419998999928], [23.606560001000048, -25.38166000399997], [23.557270003000042, -25.371740002999957], [23.50159, -25.35199], [23.47837, -25.298460000999967], [23.423469999000076, -25.30918000099996], [23.368410004000054, -25.303429998999945], [23.319699998000033, -25.289609997999946], [23.259980004000056, -25.27967999899994], [23.206619997000075, -25.27617000099997], [23.16203999800007, -25.304790001999947], [23.10739, -25.30418], [23.059750001000054, -25.325970001999963], [23.01034000900006, -25.297229998999967], [22.97794000300007, -25.33985999799995], [22.930859999000063, -25.406409998999948], [22.89856999600005, -25.45514000199995], [22.851549997000063, -25.484139997999932], [22.852649991000078, -25.53552000199994], [22.81481999600004, -25.57882000099994], [22.853459996000026, -25.611629996999966], [22.804429992000053, -25.629900002999932], [22.821509997000078, -25.677439995999976], [22.799919998000064, -25.72311999699997], [22.76341999600004, -25.78098999699995], [22.781409996000036, -25.828799997999965], [22.736010001000068, -25.856529998999974], [22.718159999000022, -25.90562000099993], [22.723200001000066, -25.957900001999974], [22.72529, -26.01445999899994], [22.669180002000076, -26.013910001999932], [22.673080010000035, -26.073669996999968], [22.629130001000078, -26.102639998999962], [22.604570006000074, -26.149619997999935], [22.57449000300005, -26.196569996999983], [22.529190005000032, -26.226769995999973], [22.47890000600006, -26.201160005999952], [22.433819999000036, -26.227170004999948], [22.402709996000056, -26.27287000299998], [22.36719, -26.31465], [22.312650003000044, -26.34121000899995], [22.24725000500007, -26.34704000299996], [22.214010002000066, -26.386130005999973], [22.183519999000055, -26.435980005999966], [22.160140004000027, -26.48332999699994], [22.13314000300005, -26.526060004999977], [22.10150000400006, -26.56582999799997], [22.069229996000047, -26.608419995999952], [22.017449998000075, -26.636530001999972], [21.955680005000033, -26.66737], [21.903510005000044, -26.670100007999963], [21.84544999900004, -26.66403], [21.79532000100005, -26.672669997999947], [21.787309995000044, -26.722219992999953], [21.791540002000033, -26.77610999899997], [21.740810003000036, -26.825909992999982], [21.694839999000067, -26.861240003999967], [21.643630003000055, -26.863509996999937], [21.59427, -26.841190001999962], [21.54091999700006, -26.84312], [21.485369999000056, -26.841380001999937], [21.404949998000063, -26.822099994999974], [21.344090003000076, -26.825430006999966], [21.29915999900004, -26.849419998999963], [21.248800002000053, -26.845579993999934], [21.19322999700006, -26.852719992999937], [21.134170004000055, -26.87375999799997], [21.078940002000024, -26.84852000199993], [21.025839998000038, -26.847749998999973], [20.97782999900005, -26.811509998999952], [20.90972000100004, -26.797679998999968], [20.85151, -26.815939997999976], [20.794239995000055, -26.840299995999942], [20.74025000100005, -26.86581999699996], [20.69735999900007, -26.899639992999937], [20.680539993000025, -26.85149], [20.65040999200005, -26.809520002999932], [20.62573999800003, -26.74928], [20.61446999700007, -26.686929996999936], [20.63011, -26.627859996999973], [20.618480004000048, -26.568480000999955], [20.604829997000024, -26.51467], [20.617419996000024, -26.443730005999953], [20.66077999600003, -26.41559], [20.697260003000054, -26.36909], [20.73724999600006, -26.324050000999932], [20.772709993000035, -26.282130009999946], [20.807700001000057, -26.229469996999967], [20.82278000100007, -26.176500011999963], [20.863279998000053, -26.13267999699997], [20.82091, -26.10547999599993], [20.821090002000062, -26.054260000999932], [20.828519998000047, -25.98845000199998], [20.81042999300007, -25.930209993999938], [20.813130002000037, -25.869749998999964], [20.785850012000026, -25.820020002999968], [20.760639998000045, -25.776649994999957], [20.72297999700004, -25.727009994999946], [20.682559996000066, -25.69452000399997], [20.687880001000053, -25.635459995999952], [20.687430002000042, -25.579279996999958], [20.64800999600004, -25.53176999599998], [20.634450010000023, -25.47872999699996], [20.630980006000073, -25.42531000599996], [20.591799999000045, -25.38999000299998], [20.545509999000046, -25.356070001999967], [20.51390000600003, -25.317139992999955], [20.487319997000043, -25.25307], [20.446380001000023, -25.198970001999953], [20.465529997000033, -25.15235000699994], [20.42922, -25.116339997999944], [20.39237999900007, -25.076840002999973], [20.36893999800003, -25.027750005999962], [20.32617, -24.99752000799998], [20.288080007000076, -24.96002], [20.248780004000025, -24.918419996999944], [20.203559995000035, -24.89643999699996], [20.150239991000035, -24.879540001999942], [20.099220004000074, -24.859430001999954], [20.06518999900004, -24.81409999699997], [20.007839998000065, -24.774340003999953], [19.999310003000062, -25.24156], [19.99936000100007, -25.69315], [19.999419999000054, -26.14263000099993], [19.998900003000074, -26.59742], [20.000160003000076, -27.042339998999978], [19.999899997000057, -27.52308998999996], [20.00045, -27.98409], [19.999159993000035, -28.427819995999982], [19.947560004000024, -28.436549990999936], [19.895690001000048, -28.441620004999947], [19.847609997000063, -28.459619989999965], [19.81324999700007, -28.50830000299993], [19.76021999900007, -28.488820002999944], [19.710530001000052, -28.506800003999956], [19.664450001000034, -28.530700002999936], [19.61503, -28.51276], [19.565789993000067, -28.52767999799994], [19.54319, -28.574379998999973], [19.500719998000022, -28.60812999799998], [19.49474000200007, -28.65995000299995], [19.466820005000045, -28.70609000099995], [19.416420001000063, -28.730509995999967], [19.3509, -28.74298], [19.295910004000064, -28.732620002999965], [19.254539992000048, -28.773839996999982], [19.242100003000076, -28.827580000999944], [19.267410005000045, -28.87142999799994], [19.23151, -28.91068000299998], [19.196660003000034, -28.947019998999963], [19.145950003000053, -28.963199996999947], [19.08392999600005, -28.96019], [19.04199000600005, -28.93139000399998], [18.99715999800003, -28.89797], [18.93564000400005, -28.857239995999976], [18.88535000400003, -28.85094999599994], [18.830900004000057, -28.84497], [18.779190003000053, -28.84444999599998], [18.73003, -28.831639996999968], [18.67118, -28.841350002999945], [18.61874999400004, -28.847759997999958], [18.5677, -28.857019995999963], [18.512180001000047, -28.88945999699996], [18.461999997000078, -28.885710003999975], [18.405540001000077, -28.89649000099996], [18.35594, -28.88408000299995], [18.300790002000042, -28.884609997999974], [18.24759999400004, -28.897520000999975], [18.193189992000043, -28.915599998999937], [18.14674999700003, -28.89251000099995], [18.083120003000033, -28.87065000399997], [18.026370003000068, -28.84638000299998], [17.988019996000048, -28.80627999799998], [17.93530000100003, -28.787470003999942], [17.880320005000044, -28.763890000999936], [17.8287, -28.76101000699998], [17.770800004000023, -28.754179995999948], [17.71447000300003, -28.748219998999957], [17.66612000200007, -28.772149997999975], [17.61611, -28.760670003999962], [17.598860003000027, -28.694649996999942], [17.54199999800005, -28.701089998999976], [17.49127, -28.693270001999963], [17.4412, -28.712890004999963], [17.41565999900007, -28.667490010999984], [17.431300002000057, -28.61437], [17.412809996000078, -28.56257999299993], [17.371600002000037, -28.52115000799995], [17.333100001000048, -28.47553999799993], [17.384799994000048, -28.436959998999953], [17.41417, -28.37631999499996], [17.381690001000038, -28.33073], [17.370839999000054, -28.278460004999943], [17.33905999700005, -28.234150000999932], [17.28263, -28.24378999299995], [17.230869993000056, -28.25076000699994], [17.18790000200005, -28.216269987999965], [17.193209999000032, -28.15165], [17.18600000300006, -28.10211001199997], [17.131360002000065, -28.085530004999953], [17.09514000100006, -28.040749994999942], [17.02603, -28.05047], [16.973570004000067, -28.05873999599993], [16.90477, -28.07088999599995], [16.889630002000047, -28.119310002999953], [16.887929995000036, -28.17287999699994], [16.83127999800007, -28.166680001999964], [16.856060004000028, -28.211690002999944], [16.80305999600006, -28.22202], [16.82474, -28.26902000499996], [16.760200001000044, -28.262640000999966], [16.76608, -28.314079995999975], [16.80088999900005, -28.354249997999943], [16.76917999400007, -28.39638999699997], [16.768930004000026, -28.45302000199996], [16.73399000200004, -28.494260002999965], [16.68701999600006, -28.470200001999956], [16.62113, -28.50013000299998], [16.575550005000025, -28.538300000999982], [16.518080008000027, -28.55616000699996], [16.46790999600006, -28.57322000299996], [16.45189, -28.63209999399993], [16.49686000300005, -28.662820004999958], [16.53223000400004, -28.70250999299998], [16.57237999800003, -28.739700004999975], [16.57526, -28.78979000399994], [16.59753999700007, -28.838759997999944], [16.630309994000072, -28.889650013999983], [16.67773999800005, -28.91539999799994], [16.702709997000056, -28.965390008999975], [16.7263, -29.013439997999967], [16.779589996000027, -29.058229998999934], [16.817439999000044, -29.09336000199994], [16.831540004000033, -29.150799991999975], [16.84463, -29.20063000099998], [16.86746000100004, -29.24705999599996], [16.879800001000035, -29.29692000299997], [16.91167, -29.338420001999964], [16.940770001000033, -29.384459995999975], [16.967110003000073, -29.4296], [16.981249999000056, -29.48199999899998], [16.997029996000037, -29.52961000399995], [17.006080002000033, -29.582679992999942], [17.035200002000067, -29.624360001999946], [17.045560007000063, -29.67342], [17.060240006000072, -29.724000003999947], [17.067780006000078, -29.773900001999948], [17.079990012000053, -29.826190004999944], [17.103069994000066, -29.873560003999955], [17.119599995000044, -29.927240001999962], [17.148419998000065, -29.969859989999975], [17.163640001000033, -30.019000000999938], [17.180569994000052, -30.073240001999977], [17.192340001000048, -30.124069995999946], [17.223419998000054, -30.165089997999928], [17.232269995000024, -30.21636], [17.259759994000035, -30.262059997999984], [17.269929997000077, -30.31229], [17.288769998000078, -30.35959999299996], [17.318400002000033, -30.400749996999934], [17.34402, -30.45053], [17.37074999500004, -30.49934], [17.40581, -30.53690000499995], [17.442349996000075, -30.596300000999975], [17.456110007000063, -30.644790004999948], [17.48342000400004, -30.696299996999983], [17.523589997000045, -30.735550001999968], [17.553030001000025, -30.80695000299994], [17.575079999000025, -30.852010002999975], [17.59514000100006, -30.89963999899993], [17.6295, -30.93634999699998], [17.662939995000045, -30.97904000699998], [17.68731, -31.02603999599995], [17.71418000600005, -31.077939997999977], [17.739090007000073, -31.12664000199993], [17.772290001000044, -31.169100001999936], [17.80547000300004, -31.209550002999947], [17.84634, -31.24337000199995], [17.881240003000073, -31.284810007999965], [17.892189994000034, -31.336319996999976], [17.927510002000076, -31.37450999799995], [17.958970002000058, -31.416069998999944], [17.993739997000034, -31.455310001999976], [18.03294999800005, -31.493139995999968], [18.098020002000055, -31.55955999699995], [18.123135, -31.605109996999943], [18.150289997000073, -31.64924999599998], [18.181630003000066, -31.69156999599994], [18.215530003000026, -31.735429997999972], [18.228260001000024, -31.785859996999932], [18.262789999000063, -31.85993999899995], [18.280029998000032, -31.90837999699994], [18.275149999000064, -31.958950003999973], [18.29247, -32.01078999599997], [18.314049992000037, -32.07098000199994], [18.30395, -32.12258999599993], [18.310999999000046, -32.17626000299998], [18.336370002000024, -32.24304000199993], [18.341600002000064, -32.30629999699994], [18.325730011000076, -32.37129], [18.33479999800005, -32.46428000399993], [18.324090003000038, -32.534840000999964], [18.30451000200003, -32.58656999799996], [18.279430002000026, -32.63322999799993], [18.24679999700004, -32.67814999199993], [18.199029990000042, -32.71479000099998], [18.167020009000055, -32.75423000099994], [18.12066000300007, -32.77770000299995], [18.070320003000063, -32.78078999799993], [18.013859996000065, -32.74971999899998], [17.974780004000024, -32.71842000199996], [17.92115999600003, -32.713509991999956], [17.906929997000077, -32.76813000299995], [17.880779998000037, -32.81282999699994], [17.88285, -32.86523000099993], [17.858750007000026, -32.91093999599997], [17.87887999700007, -32.95722000099994], [17.897990003000075, -33.00645999899996], [17.93855, -33.03803000399995], [17.968180003000043, -32.99621000199994], [18.019280002000073, -33.01355999799995], [18.04252999600004, -33.05843999899997], [18.039180009000063, -33.11121], [18.090530002000037, -33.14305001099996], [18.123919998000076, -33.18045001099995], [18.072850002000052, -33.18082000099997], [18.03174, -33.14722000299997], [18.010089997000023, -33.100939997999944], [17.972159997000063, -33.06787], [17.972769998000047, -33.11795999699996], [18.015439999000023, -33.155459994999944], [18.060710002000064, -33.19259000399995], [18.106490001000054, -33.24069999799997], [18.15740000200003, -33.323410001999946], [18.172479999000075, -33.373660008999934], [18.238760009000032, -33.413400002999936], [18.29458000300008, -33.46728000299993], [18.3191, -33.51108], [18.312170004000052, -33.56226], [18.36100000400006, -33.58843000299993], [18.420239997000067, -33.65760000299997], [18.44434000600006, -33.71361000299993], [18.445969999000056, -33.77201000399998], [18.47949000400007, -33.82813999799998], [18.48459000300005, -33.890190003999976], [18.437100001000033, -33.90876000299994], [18.38541101000004, -33.91796800199995], [18.370720001000052, -33.96859000199993], [18.334269998000025, -34.01158], [18.340280001000053, -34.061590002999935], [18.349949999000046, -34.128009995999946], [18.337960003000035, -34.17685000299997], [18.37842000300003, -34.228669998999976], [18.39233000400003, -34.286000000999934], [18.421689999000023, -34.32675000399996], [18.472540003000063, -34.35455000099995], [18.46378999800004, -34.30293], [18.477569998000035, -34.25468999699996], [18.458079997000027, -34.20597000099997], [18.431160001000023, -34.160609997999984], [18.466579999000032, -34.11366000299995], [18.53760999900004, -34.090249996999944], [18.597439997000038, -34.07760999899995], [18.662179997000067, -34.07265999699996], [18.714180001000045, -34.07292999599997], [18.779940001000057, -34.08510999699996], [18.823220003000074, -34.11590999699996], [18.859560002000023, -34.15026000299997], [18.821439997000027, -34.183150000999944], [18.852769996000063, -34.238100000999964], [18.823720001000027, -34.284520003999944], [18.824770003000026, -34.33687999899996], [18.82603, -34.388050000999954], [18.87441000900003, -34.369130000999974], [18.924130001000037, -34.35935999599997], [18.976169998000046, -34.359460001999935], [19.03049999700005, -34.344549997999934], [19.09030000100006, -34.36310999899996], [19.125190006000025, -34.39979999899998], [19.17237, -34.41708], [19.218480003000025, -34.43812000099996], [19.26383, -34.41171000099996], [19.31254999600003, -34.43138000199997], [19.357559998000056, -34.48517000299995], [19.375339996000037, -34.53471000299993], [19.34249999700006, -34.57793], [19.301589999000043, -34.61686000399993], [19.353380001000062, -34.62178000299997], [19.401410009000074, -34.606615000999966], [19.446250002000056, -34.65099000199996], [19.49549999900006, -34.66676000299998], [19.54132999600006, -34.69163999899996], [19.586190001000034, -34.728829996999934], [19.632190001000026, -34.755099997999935], [19.677759998000056, -34.78308000199996], [19.729479988000037, -34.768659997999976], [19.78550000200005, -34.76523000099996], [19.835509998000077, -34.76502999699994], [19.88568000400005, -34.77277], [19.93590000100005, -34.80811000399996], [19.98496000800003, -34.82996000299994], [20.053299998000057, -34.81442999899997], [20.057530002000078, -34.75724000399998], [20.09732000300005, -34.725229990999935], [20.167619999000067, -34.69607999699997], [20.21711, -34.687990001999935], [20.246979999000075, -34.64547999699994], [20.29527999900006, -34.62540000599995], [20.340489997000077, -34.59498000199994], [20.386410003000037, -34.574259998999935], [20.423489996000058, -34.531710000999965], [20.477849998000067, -34.49146000299993], [20.53340999900007, -34.469999997999935], [20.58246, -34.45796000299998], [20.65534000200006, -34.449670003999984], [20.713859997000043, -34.454110001999936], [20.773130001000027, -34.46148], [20.838880002000053, -34.47025999899995], [20.869670003000067, -34.429359998999985], [20.89260999800007, -34.37625000299994], [21.001179997000065, -34.36495000299993], [21.10207998900006, -34.37685999699994], [21.179479999000023, -34.39651000099997], [21.22520999900007, -34.41774000099997], [21.273570004000078, -34.430869997999935], [21.332740001000047, -34.43523000299996], [21.38236000300003, -34.41114999799993], [21.430119997000077, -34.390459989999954], [21.475280003000023, -34.36590999799995], [21.53539999700007, -34.35625999599995], [21.585469998000065, -34.36572999799995], [21.633780012000045, -34.38151999599995], [21.68435000200003, -34.39249999699996], [21.734969999000043, -34.39426999799997], [21.79422999700006, -34.38124999599995], [21.85036999700003, -34.36958999799998], [21.90353, -34.34453000199994], [21.936520004000045, -34.30518000199993], [21.929830003000063, -34.24704000199995], [21.982350002000032, -34.21803999799994], [22.047289997000064, -34.20596000299997], [22.09945000400006, -34.20428000199996], [22.15167000100007, -34.192069998999955], [22.111279997000054, -34.15697999799994], [22.15141999800005, -34.089839998999935], [22.21722999700006, -34.06226000199996], [22.27087000100005, -34.05267999599994], [22.33123999700007, -34.05213999799997], [22.380630001000043, -34.06172000399994], [22.432669997000062, -34.05933000299996], [22.48429999600006, -34.05162000299998], [22.527109995000046, -34.02153000399994], [22.580270003000066, -33.99559999799993], [22.669800001000056, -34.00914999899993], [22.724109999000063, -34.02221999899996], [22.79604000300003, -34.031060002999936], [22.865729997000074, -34.05194000199998], [22.93185000400007, -34.07028000299994], [22.97982999800007, -34.094019996999975], [23.03175, -34.076000001999944], [23.086330002000068, -34.08659999199995], [23.13777000300007, -34.08679999599997], [23.18870000100003, -34.08421999799998], [23.243550002000063, -34.094369996999944], [23.293490002000055, -34.1018], [23.345030001000055, -34.100510000999975], [23.40692000300004, -34.11142999699996], [23.376530002000038, -34.066979997999965], [23.412359997000067, -34.01933999899995], [23.468690003000063, -34.00346000199994], [23.51907000400007, -34.00156000099997], [23.5751, -33.98171000099995], [23.63025000400006, -33.98132999799998], [23.738509995000072, -34.00555000099996], [23.799470005000046, -34.018490000999975], [23.877009998000062, -34.02846999899998], [23.932100004000063, -34.03299999699993], [23.993509997000046, -34.04420999699994], [24.048110004000023, -34.05012000199997], [24.11327, -34.059150003999946], [24.165450003000046, -34.06253000199996], [24.214990003000025, -34.07095000199996], [24.263570001000062, -34.084759995999946], [24.318179990000033, -34.101199995999934], [24.37296000400005, -34.10250000199994], [24.42749999700004, -34.12732000099993], [24.473489998000048, -34.16109], [24.532140001000073, -34.17333999599998], [24.58222999800006, -34.184579998999936], [24.631959996000035, -34.17225999899995], [24.685129997000047, -34.18382], [24.752749997000024, -34.192069998999955], [24.818440001000056, -34.20789999699997], [24.871440001000053, -34.19671999099995], [24.84286, -34.141670001999955], [24.88518, -34.11097999899994], [24.92296000300007, -34.067710002999945], [24.92844999600004, -34.01478999699998], [24.988770002000024, -33.98021], [25.07785, -33.964749998999935], [25.154140002000076, -33.962809996999965], [25.254560001000073, -33.97804999799996], [25.30553999700004, -33.993019998999955], [25.35132000400006, -34.01557], [25.40776999600007, -34.03577999899994], [25.468080004000058, -34.02936999599996], [25.51977, -34.03633000399998], [25.570209998000053, -34.04564000299996], [25.620970001000046, -34.04663999899998], [25.67830000300006, -34.02676000399998], [25.647560001000045, -33.97529999799997], [25.611249996000026, -33.9308], [25.632930002000023, -33.86944999599996], [25.665320002000044, -33.821899996999946], [25.7392, -33.77046000399997], [25.78901, -33.74346999599993], [25.838079997000023, -33.725000002999934], [25.90474000200004, -33.71326000199997], [25.956829998000046, -33.70845999699998], [26.03124000400004, -33.70508999799995], [26.134800003000066, -33.714050003999944], [26.18834000100003, -33.72618999599996], [26.24975000200004, -33.74558], [26.324070001000052, -33.76789000399998], [26.38018999700006, -33.7594], [26.446199999000044, -33.770020002999956], [26.497240001000023, -33.76569000099994], [26.548129997000046, -33.74986000299998], [26.59406000100006, -33.72284999899995], [26.64272999800005, -33.70348999799995], [26.693620002000046, -33.68109000199996], [26.742259997000076, -33.652929997999934], [26.794879993000052, -33.64149999799997], [26.855379998000046, -33.62731], [26.902870001000053, -33.60405999699998], [26.948280002000047, -33.57815000299996], [27.00878, -33.57042999699996], [27.049220003000073, -33.54077], [27.112389998000026, -33.52475000399994], [27.15276000600005, -33.48281], [27.209140003000073, -33.46281000199997], [27.266300003000026, -33.42173000299994], [27.318179997000072, -33.389040000999955], [27.376089998000054, -33.35672000399995], [27.42247000100008, -33.33365999899996], [27.474949998000056, -33.30029999799996], [27.516800002000025, -33.26908000199995], [27.574839996000037, -33.23585000199995], [27.632730001000027, -33.201810002999935], [27.678850002000047, -33.16682], [27.72229999800004, -33.13057999899996], [27.77347, -33.10247000199996], [27.824410003000025, -33.08634000199993], [27.87104, -33.0556], [27.9255, -33.02838000199995], [27.96077000100007, -32.97879000299997], [28.009070001000055, -32.95517000299998], [28.056809998000062, -32.91915000199998], [28.09720000200008, -32.88952], [28.119360001000075, -32.844339995999974], [28.15573000300003, -32.79610999199997], [28.229179998000063, -32.77395], [28.283949998000026, -32.74679999799997], [28.32535000400003, -32.71770000399994], [28.37292, -32.698189997999975], [28.416960001000064, -32.65661000099993], [28.463059998000062, -32.62133000199998], [28.51853999000008, -32.598190003999946], [28.555566002000035, -32.56114299699993], [28.59075000100006, -32.51876], [28.632210004000058, -32.48588999799995], [28.67048999700006, -32.44866], [28.70982, -32.415670003999935], [28.751230004000035, -32.38277999799993], [28.784459997000056, -32.34528], [28.831739997000057, -32.30548000099998], [28.882419999000035, -32.27984999699993], [28.92052000800004, -32.24082000299995], [28.950190004000035, -32.19901999799998], [28.996579997000026, -32.161730001999956], [29.03108, -32.11889], [29.075910003000047, -32.08291], [29.10666000300006, -32.04044000299996], [29.13582001000003, -31.99591000299995], [29.178190001000075, -31.9595], [29.224380006000047, -31.925670003999983], [29.258319999000037, -31.88542999699996], [29.286480003000065, -31.84381999699997], [29.330989999000053, -31.806930000999955], [29.356720001000042, -31.75851999699995], [29.403009996000037, -31.734019995999972], [29.43178000200004, -31.68642999599996], [29.492909998000073, -31.670829995999952], [29.538599997000063, -31.645959997999967], [29.578699998000047, -31.61082999699994], [29.62577000300007, -31.58493999899997], [29.662160002000064, -31.54832000199997], [29.710900002000074, -31.50792], [29.73826999700003, -31.464400000999944], [29.785560003000057, -31.44461999599997], [29.84646, -31.43427000099996], [29.905099998000026, -31.39347999699993], [29.94191, -31.35489000399997], [29.98205000100006, -31.316080002999968], [30.037840001000063, -31.266990000999954], [30.069870002000073, -31.221499997999956], [30.115870001000076, -31.18165], [30.15518, -31.139290007999932], [30.19232999700006, -31.082830000999934], [30.23058994300004, -31.050089940999953], [30.267699943000025, -31.003139940999972], [30.298269943000037, -30.962859940999977], [30.328820068000027, -30.918859940999937], [30.36678994300007, -30.87347994099997], [30.404499943000076, -30.828429940999968], [30.432049943000038, -30.780069940999965], [30.463379943000064, -30.732069940999963], [30.49875994300004, -30.68805994099995], [30.532769943000062, -30.64289006599995], [30.562674943000047, -30.59621994099996], [30.593549943000028, -30.548499940999932], [30.624979943000028, -30.50769994099994], [30.653579943000068, -30.46402994099998], [30.680549943000074, -30.413039940999965], [30.708120068000028, -30.36889994099994], [30.74123006800005, -30.322440065999956], [30.761409943000046, -30.27365006599996], [30.789959943000042, -30.230669940999974], [30.819439943000077, -30.171550065999952], [30.859309943000028, -30.10273994099998], [30.884879943000044, -30.05843993999997], [30.925389943000027, -30.018339939999976], [30.968519943000047, -29.982329939999943], [31.013379943000075, -29.933440064999957], [31.059649943000068, -29.879509939999934], [31.037439943000038, -29.828310064999982], [31.056799943000044, -29.776529939999932], [31.088809943000058, -29.72805993999998], [31.112889943000027, -29.683810064999932], [31.15912994400003, -29.612799939999945], [31.205489944000078, -29.55284993999993], [31.235859944000026, -29.507699939999952], [31.27869994400004, -29.460030064999955], [31.31117994400006, -29.421490064999944], [31.348739944000044, -29.375840064999977], [31.391759944000057, -29.338169939999943], [31.429299944000036, -29.298509939999974], [31.470759944000065, -29.25321993999995], [31.522909944000048, -29.210539939999933], [31.571289944000057, -29.168169939999927], [31.637369944000056, -29.09021006499995], [31.677089944000045, -29.052670064999973], [31.73064994400005, -28.998329938999973], [31.779649944000028, -28.95861006399997], [31.84233994400006, -28.941509938999957], [31.91853994400003, -28.917469938999943], [32.00422994400003, -28.882210063999935], [32.066179944000055, -28.83162993899998], [32.12501994400003, -28.781549938999945], [32.194069944000034, -28.719370063999975], [32.249829945000045, -28.666470063999952], [32.29749994500003, -28.63420006399997], [32.33965994500005, -28.595929938999973], [32.38082994500007, -28.553039938999973], [32.41144994500007, -28.49514993899993], [32.47060794500004, -28.48533593899998], [32.48303594500004, -28.430257938999944], [32.49474694500003, -28.366361938999944], [32.53155894500003, -28.309642938999957], [32.57797194500006, -28.227538938999942], [32.61464694500006, -28.141686938999953], [32.63294194500003, -28.015635938999935], [32.64990194500007, -27.939664937999964], [32.65554394500003, -27.831862937999972], [32.67906194500006, -27.736476937999953], [32.697493945000076, -27.68365706299994], [32.71527894500008, -27.604021062999948], [32.73504994500007, -27.550849937999942], [32.75280794500003, -27.467315937999956], [32.784358945000065, -27.402848937999977], [32.803935945000035, -27.353385937999974], [32.824382945000025, -27.300560062999978], [32.84635094500004, -27.24637593799997], [32.86029394500002, -27.187926937999976], [32.89105594500006, -27.127684062999947], [32.90462494500002, -27.07160806299993], [32.922236945000066, -27.022572062999927], [32.92784094500007, -26.95670506299996], [32.936672945000055, -26.895741062999946], [32.89133394500004, -26.857862936999936], [32.80687994500005, -26.86452993699993], [32.72578994500003, -26.867700061999983], [32.565729945000044, -26.864480061999927], [32.34684994500003, -26.864050061999933], [32.295699945000024, -26.85276006199996], [32.23689994500006, -26.83894993699994], [32.186330069000064, -26.862990061999938], [32.14050994400003, -26.840829936999967], [32.100139944000034, -26.80510006199995], [32.04523994400006, -26.81692006199995], [31.99595994400005, -26.92414993799997], [31.98443994400003, -27.00120993799993], [31.97960994400006, -27.09101993799993], [31.974099944000045, -27.14840993799993], [31.977109944000063, -27.22283706299993], [31.97574994400003, -27.310769937999964], [31.49368994400004, -27.31516006299995], [31.150550002000045, -27.202080002999935], [31.06132999700003, -27.096290005999947], [30.984759997000026, -27.03698000199995], [30.958326003000025, -26.99212899799994], [30.976819999000043, -26.92160999899994], [30.94074, -26.883899998999937], [30.90224999700007, -26.851800001999948], [30.89191, -26.785060003999945], [30.85318, -26.81765998999998], [30.802650003000053, -26.82402000199994], [30.79088999800007, -26.715060000999983], [30.79181, -26.569109998999977], [30.80506, -26.46667099499996], [30.831010003000074, -26.41117000099996], [30.891860001000055, -26.32082000099996], [30.96143799600003, -26.261732], [31.071039996000025, -26.067310000999953], [31.11275000200004, -25.98256999599994], [31.12657000300004, -25.92114999699993], [31.263569997000047, -25.80963000299994], [31.315939998000033, -25.74304000099994], [31.416299999000046, -25.71876], [31.867860003000033, -25.999600001999966], [31.97369000100008, -25.95320000299995], [31.93054999700007, -25.84076999699994], [31.97856000200005, -25.693670001999976], [32.006099, -25.645194], [31.99576, -25.52627], [31.97740000300007, -25.47469], [32.01349999800004, -25.388109998999937], [32.02882, -25.24143000099997], [32.03359000200004, -25.132519998999953], [32.03017000400007, -25.06569000099995], [32.01548, -24.92512000299996], [31.998270003000073, -24.68974000199995], [32.00891000200005, -24.57515000199993], [32.01309999800003, -24.45459], [31.987129998000057, -24.3022], [31.908010003000072, -24.182429998999964], [31.88675999900005, -24.00132999899995], [31.76918000300003, -23.8878], [31.697390004000056, -23.721889992999934], [31.69054999900004, -23.629440002999957], [31.56102, -23.481959996999933], [31.550730001000034, -23.41028000199998], [31.555860003000078, -23.26905000399995], [31.563599990000057, -23.19822999799993], [31.545789997000043, -23.137190001999954], [31.475255564000065, -22.92559381199993], [31.30741000200004, -22.42345000399996], [31.273680004000028, -22.37476000199996], [31.220869995000044, -22.36981], [31.17156999900004, -22.330699996999954], [31.09759000300005, -22.34772000399994], [31.02199000400003, -22.324460002999956], [30.968679997000038, -22.314919996999947], [30.91717999900004, -22.30068999899993], [30.83917000200006, -22.29208000099993], [30.776709999000047, -22.30408000099993], [30.708629897000037, -22.317110010999954], [30.652599998000028, -22.316080002999968], [30.594749943000068, -22.319730057999948], [30.51738994300007, -22.323030057999972], [30.45220994300007, -22.331480057999954], [30.39916994300006, -22.344670056999973], [30.33609994300008, -22.350620057999947], [30.28287994300007, -22.354010056999982], [30.249779943000078, -22.31337005699993], [30.193219944000077, -22.296060057999966], [30.133009943000047, -22.311030056999982], [30.075759944000026, -22.274330057999975], [30.025629942000023, -22.253630057999942], [29.981889942000066, -22.223530057999938], [29.925719942000057, -22.18993005799996], [29.859929942000065, -22.175200056999927], [29.80522994300003, -22.165500057999964], [29.731919942000047, -22.14134005799997], [29.672639943000036, -22.138810056999944], [29.655229942000062, -22.125080056999934]], [[28.650470003000066, -28.57119000199998], [28.69205, -28.60397000399996], [28.706379997000056, -28.65230000599996], [28.743379997000034, -28.68772000399997], [28.793529999000043, -28.69899000099997], [28.803909997000062, -28.759240002999945], [28.857600008000077, -28.755960003999974], [28.90783006600003, -28.76046993899996], [28.947810066000045, -28.798049938999952], [28.95097994100007, -28.84919993899996], [28.974989941000047, -28.90393006399995], [29.029070067000077, -28.887979938999933], [29.071149942000034, -28.918509938999932], [29.11124994200003, -28.95321993899995], [29.151659942000038, -28.98778993899998], [29.201949942000056, -29.01543006399993], [29.227859942000066, -29.063090064999983], [29.279459942000074, -29.075609939999936], [29.325539942000034, -29.097169939999958], [29.351309942000057, -29.142280064999966], [29.354769942000075, -29.194859939999958], [29.40816006700004, -29.212070064999978], [29.426639942000065, -29.26028993999995], [29.438339942000027, -29.309339939999973], [29.44458994200005, -29.364859939999974], [29.42261994200004, -29.41409993999997], [29.38853994200008, -29.45181993999995], [29.34036999500006, -29.46842989499993], [29.29331994200004, -29.490050064999934], [29.313009942000065, -29.536910064999972], [29.29752994200004, -29.58538993999997], [29.282299942000066, -29.642709939999975], [29.230309942000076, -29.64292993999993], [29.18793994200007, -29.671489939999958], [29.150669942000036, -29.708509939999942], [29.139959942000075, -29.759090064999953], [29.123659942000074, -29.80732993999993], [29.13178994200007, -29.85985993999998], [29.16157994200006, -29.90307006499995], [29.118630067000026, -29.933099939999977], [29.067389942000034, -29.97210993999994], [29.024319942000034, -29.99923993999994], [28.98441000200006, -30.03146999699993], [28.936330002000034, -30.04916000299994], [28.88999, -30.068159996999952], [28.844290011000055, -30.092450002999954], [28.794980001000056, -30.100830001999952], [28.741720001000033, -30.11217000299996], [28.690310002000047, -30.12406999899997], [28.638359997000066, -30.131549991999975], [28.58460999700003, -30.127600000999962], [28.53142999800008, -30.13288999799994], [28.48133000300004, -30.14879], [28.40943999800004, -30.14551999799994], [28.361099998000043, -30.175349996999955], [28.343400001000077, -30.22355999699994], [28.30318999700006, -30.256230002999928], [28.24963000200006, -30.25827000199996], [28.206910003000075, -30.290670000999967], [28.24787999800003, -30.323289991999957], [28.27078, -30.37082000299995], [28.24973, -30.419459996999933], [28.197740002000046, -30.43299000299993], [28.156350003000057, -30.46553999799994], [28.177230001000055, -30.521800000999974], [28.16044, -30.57249000099995], [28.113150002000054, -30.599870001999932], [28.123570001000076, -30.649320002999957], [28.052440003000072, -30.65805000299997], [27.99165000200003, -30.650920001999964], [27.94052000100004, -30.644109998999966], [27.906860005000055, -30.604350000999943], [27.85532998900004, -30.61583000099995], [27.795470004000038, -30.619110000999967], [27.747089994000078, -30.60596999699993], [27.70211000300003, -30.56452], [27.665099989000055, -30.52540999699994], [27.621900004000054, -30.499310004999984], [27.604339998000057, -30.449910003999946], [27.560100001000023, -30.4155], [27.520419997000033, -30.383310003999952], [27.474700003000066, -30.356150002999982], [27.42026, -30.324139997999964], [27.389320002000034, -30.283459998999945], [27.366569997000056, -30.237249996999935], [27.386189999000067, -30.182649998999977], [27.34111000100006, -30.14599999899997], [27.29654, -30.056109995999975], [27.253860001000078, -30.026059996999948], [27.09657999700005, -29.729929995999953], [27.038500002000035, -29.676959998999962], [27.024980003000053, -29.628229988999976], [27.066259998000078, -29.597259995999934], [27.119399989000044, -29.57774], [27.18496999900003, -29.565890003999982], [27.238340003000076, -29.553090002999966], [27.28312998900003, -29.528010002999963], [27.329439996000076, -29.480730001999973], [27.370469997000043, -29.44875], [27.412350004000075, -29.411200002999976], [27.437689997000064, -29.364180003999934], [27.472340005000035, -29.320259997999983], [27.50506000200005, -29.28217000199993], [27.54615, -29.252490000999956], [27.551400004000072, -29.196160001999942], [27.596350001000076, -29.171149997999976], [27.633050007000065, -29.131460002999972], [27.640539999000055, -29.081559995999953], [27.67563, -29.038919997999983], [27.71701999900006, -29.00033999599998], [27.723070003000032, -28.949359998999967], [27.766730008000025, -28.917019997999944], [27.82682999000008, -28.912690003999955], [27.879450002000056, -28.91727999899996], [27.920000001000062, -28.87745999599997], [27.970049997000046, -28.874280001999978], [28.024660002000076, -28.87411999899996], [28.05007999700007, -28.82998], [28.085609998000052, -28.794109995999975], [28.11998999900004, -28.757499997999957], [28.15717999700007, -28.72341], [28.21032000300005, -28.70729999699995], [28.26049000200004, -28.709210003999942], [28.310369996000077, -28.696129996999957], [28.360299998000073, -28.691779998999948], [28.387269985000046, -28.64899998599998], [28.430099988000052, -28.620129989999953], [28.481659984000032, -28.60745998999994], [28.532489983000062, -28.60956998499995], [28.583729996000045, -28.603810000999943], [28.628689999000073, -28.580829996999967], [28.650470003000066, -28.57119000199998]]]]}}]}