{"type": "FeatureCollection", "features": [{"type": "Feature", "properties": {"code": "ZMB", "name": "Zambia", "tier": "country"}, "geometry": {"type": "Polygon", "coordinates": [[[30.48183793900006, -8.28097628699993], [30.429537939000056, -8.27327628699993], [30.212983029000043, -8.301781259999927], [29.69793793900004, -8.369576286999973], [29.64453793900003, -8.404676286999972], [29.592137939000054, -8.393676286999948], [28.98993793900007, -8.461776286999964], [28.955737939000073, -8.504076286999975], [28.799337939000054, -8.898676286999944], [28.735337939000033, -8.975176286999954], [28.681737939000072, -9.029376286999934], [28.632137939000074, -9.070476286999963], [28.390637939000044, -9.225676286999942], [28.373037939000028, -9.272776286999942], [28.408137939000028, -9.322476286999972], [28.48353793900003, -9.34807628699997], [28.511937939000063, -9.430176286999938], [28.526837939000075, -9.48167628699997], [28.55923793900007, -9.54297628699993], [28.60943793900003, -9.557676286999936], [28.59743793900003, -9.628676286999962], [28.61543793900006, -9.68337628699993], [28.625537939000026, -9.748176286999978], [28.664672852000024, -9.783874511999954], [28.668518066000047, -9.834106444999975], [28.65209960900006, -9.881896972999925], [28.619689941000047, -9.948486327999944], [28.619689941000047, -10.008178710999971], [28.624877930000025, -10.067993163999972], [28.61767578100006, -10.128906249999943], [28.591308594000054, -10.195800780999946], [28.58251953100006, -10.24688720699993], [28.60827636700003, -10.289978026999961], [28.624328613000046, -10.346984862999932], [28.61871337900004, -10.40240478499993], [28.641723633000026, -10.457580565999933], [28.640319824000073, -10.508178710999971], [28.671875, -10.559204101999967], [28.65991210900006, -10.629394530999946], [28.69830322300004, -10.668395995999958], [28.664672852000024, -10.708312987999932], [28.616516113000046, -10.731994628999928], [28.58587646500007, -10.793395995999958], [28.555114746000072, -10.845886229999962], [28.549499512000068, -10.910583495999958], [28.525337939000053, -10.967276286999947], [28.518037939000067, -11.01877628699998], [28.500237939000044, -11.08007628699994], [28.493637939000052, -11.13317628699997], [28.489637939000033, -11.208676286999946], [28.482537939000053, -11.26557628699993], [28.457537939000076, -11.313476286999958], [28.464037939000036, -11.368176286999926], [28.440037939000035, -11.419776286999934], [28.40773793900007, -11.475876286999949], [28.393937939000068, -11.551376286999925], [28.40713793900005, -11.614076286999932], [28.44043793900005, -11.656776286999957], [28.44623793900007, -11.711276286999976], [28.45963793900006, -11.760376286999929], [28.448337939000055, -11.81377628699994], [28.497337939000033, -11.837076286999945], [28.52323793900007, -11.88197628699993], [28.58573793900007, -11.911976286999959], [28.63933793900003, -11.934676286999945], [28.685837939000066, -11.967176286999972], [28.733937939000043, -11.991176286999973], [28.77893793900006, -12.019876286999931], [28.813937939000027, -12.064976286999979], [28.868137939000064, -12.137276286999963], [28.91053793900005, -12.163776286999962], [28.955937939000023, -12.200376286999926], [28.99013793900008, -12.256076286999928], [29.022237939000036, -12.309676286999945], [29.047437939000076, -12.357576286999972], [29.103337939000028, -12.377376286999947], [29.164937939000026, -12.378176286999974], [29.220837939000035, -12.371576286999982], [29.273337939000044, -12.367576286999963], [29.313637939000046, -12.402676286999963], [29.373237939000035, -12.408276286999978], [29.434937939000065, -12.437176286999943], [29.489137939000045, -12.452276286999961], [29.536437939000052, -12.422676286999945], [29.49473793900006, -12.386176286999955], [29.467437939000035, -12.319776286999968], [29.487737939000056, -12.26247628699997], [29.546237939000036, -12.219276286999957], [29.585337939000055, -12.184976286999927], [29.627537939000035, -12.215876286999958], [29.689537939000047, -12.225776286999974], [29.734537939000063, -12.20137628699996], [29.770937939000078, -12.148676286999944], [29.822251273000063, -12.146665870999982], [29.825737939000078, -12.495376286999942], [29.81840965600003, -12.982015295999929], [29.81143793900003, -13.444976286999974], [29.75923793900006, -13.440776286999949], [29.707437939000044, -13.450376286999926], [29.64623793900006, -13.435776286999953], [29.615637939000067, -13.38407628699997], [29.65653793900003, -13.32837628699997], [29.675737939000044, -13.262976286999958], [29.628937939000025, -13.243976286999953], [29.579137939000077, -13.211576286999957], [29.525937939000073, -13.234976286999938], [29.480837939000025, -13.28077628699998], [29.414437939000038, -13.317976286999965], [29.361537939000073, -13.330776286999935], [29.313037939000026, -13.344476286999964], [29.273437939000075, -13.380676286999972], [29.221837939000068, -13.415776286999971], [29.17933793900005, -13.44507628699995], [29.151737939000043, -13.39827628699993], [29.104137939000054, -13.378776286999937], [29.03863793900007, -13.41367628699993], [28.985237939000058, -13.418676286999926], [28.95903793900004, -13.36377628699995], [28.93903793900006, -13.305176286999938], [28.918137939000076, -13.24417628699996], [28.906337939000025, -13.184876286999952], [28.850337939000042, -13.16147628699997], [28.837037939000027, -13.111076286999946], [28.823037939000073, -13.049976286999936], [28.811237939000023, -13.000676286999976], [28.77723793900003, -12.956576286999962], [28.73243793900008, -12.911876286999927], [28.683137939000062, -12.866976286999943], [28.64023793900003, -12.825976286999946], [28.595437939000078, -12.861276286999953], [28.573237939000023, -12.906776286999957], [28.53063793900003, -12.869076286999928], [28.511937939000063, -12.806576286999928], [28.474537939000072, -12.766476286999932], [28.460537939000062, -12.712676286999965], [28.50643793900008, -12.68227628699998], [28.484337939000056, -12.614676286999952], [28.441537939000057, -12.583076286999926], [28.41763793900003, -12.535676286999944], [28.37313793900006, -12.496276286999944], [28.33543793900003, -12.459276286999966], [28.302237939000065, -12.419676286999959], [28.25043793900005, -12.41287628699996], [28.196337939000045, -12.426176286999976], [28.146937939000054, -12.40797628699994], [28.099037939000027, -12.435676286999978], [28.055637939000064, -12.403976286999978], [28.04433793900006, -12.349876286999972], [27.983937939000043, -12.317476286999977], [27.934337939000045, -12.260276286999954], [27.86973793900006, -12.248976286999948], [27.814737939000054, -12.261176286999955], [27.76383793900004, -12.294476286999952], [27.669155295000053, -12.287236899999982], [27.622382868000045, -12.268156730999976], [27.61292505600005, -12.218468370999972], [27.561814233000064, -12.199541344999943], [27.522196208000025, -12.158281490999968], [27.51175037400003, -12.106873235999956], [27.496045931000026, -12.056547635999948], [27.461726965000025, -12.005384465999953], [27.47679751900006, -11.94671647499996], [27.438345430000027, -11.909787239999957], [27.39894155500008, -11.875332644999958], [27.35268483300007, -11.846493576999933], [27.30633293300008, -11.815275048999979], [27.257411215000047, -11.799475427999937], [27.227525184000058, -11.754741560999946], [27.22728723800003, -11.69351802899996], [27.228286612000034, -11.63698203599995], [27.209012978000032, -11.566026508999926], [27.159187064000037, -11.599362756999938], [27.099367415000074, -11.594437272999926], [27.04939873400008, -11.590011475999972], [27.029768180000076, -11.63840971299993], [27.045829542000035, -11.694731554999976], [27.024699928000075, -11.74084550899994], [27.005624828000066, -11.792565691999926], [27.00077072700003, -11.850529361999975], [26.965935418000072, -11.896024656999941], [26.92443761800007, -11.936951385999976], [26.886746956000025, -11.976831151999932], [26.806237939000027, -11.962376286999927], [26.75473793900005, -11.96847628699993], [26.711437939000064, -12.001076286999933], [26.658837939000023, -11.983476286999974], [26.59863793900007, -11.966876286999934], [26.546437939000043, -11.95767628699997], [26.499637939000024, -11.930476286999976], [26.44193793900007, -11.915076286999977], [26.379537939000045, -11.936976286999936], [26.33003793900008, -11.958576286999971], [26.262537939000026, -11.934476286999939], [26.171837939000056, -11.930576286999951], [26.082537939000076, -11.935076286999958], [26.01185306800005, -11.933690432999981], [25.983955688000037, -11.889126072999943], [25.933701471000063, -11.883843669999976], [25.890942557000074, -11.848437289999936], [25.86702897400005, -11.804322082999931], [25.818345202000046, -11.827307676999965], [25.766591925000057, -11.823024646999954], [25.716337708000026, -11.809818637999967], [25.67033796800007, -11.768970430999957], [25.63321837700005, -11.730708697999944], [25.579480629000045, -11.756920840999953], [25.53191044500005, -11.781591091999928], [25.495894923000037, -11.738380079999956], [25.477537939000058, -11.67827628699996], [25.426237939000032, -11.666376286999935], [25.367837939000026, -11.639276286999973], [25.328637939000032, -11.601376286999937], [25.30383793900006, -11.551476286999957], [25.299037939000073, -11.501676286999952], [25.29463793900004, -11.448376286999974], [25.287837939000042, -11.396076286999971], [25.295337939000035, -11.34177628699996], [25.297037939000063, -11.291476286999966], [25.33033793900006, -11.23167628699997], [25.28323793900006, -11.19027628699996], [25.233137939000073, -11.218576286999962], [25.158137939000028, -11.23077628699997], [25.093337939000037, -11.244576286999973], [25.031037939000043, -11.24137628699998], [24.968637939000075, -11.253076286999942], [24.914337939000063, -11.266476286999932], [24.846437939000054, -11.28727628699994], [24.794537939000065, -11.299676286999954], [24.735337939000033, -11.306576286999928], [24.672137939000038, -11.344376286999932], [24.632037939000043, -11.391476286999932], [24.58838393900004, -11.416882286999964], [24.54188393900006, -11.439882286999932], [24.489883939000038, -11.457182286999966], [24.43918393900003, -11.455382286999964], [24.39128393900006, -11.413082286999952], [24.331983939000054, -11.402382286999966], [24.28158393900003, -11.392882286999964], [24.33758393900007, -11.354082286999926], [24.370483939000053, -11.302482286999975], [24.392483939000044, -11.242782286999955], [24.376583939000056, -11.176482286999942], [24.384883939000076, -11.118682286999956], [24.331483939000066, -11.058982286999935], [24.269883939000067, -11.041382286999976], [24.211783939000043, -11.033882286999926], [24.150783939000064, -11.02948228699995], [24.126483939000025, -10.968182286999934], [24.11588393900007, -10.913782286999947], [24.059783939000056, -10.89018228699996], [23.99568393900006, -10.894682286999966], [24.008083939000073, -10.946182286999942], [24.01278393900003, -10.997082286999955], [24.011183939000034, -11.067782286999943], [23.99798393900005, -11.11768228699998], [24.023583939000048, -11.247682286999975], [24.049283939000077, -11.301082286999929], [24.076883939000027, -11.380882286999963], [24.046337939000068, -11.422176286999957], [24.015737939000076, -11.476476286999969], [24.016037939000057, -11.543876286999932], [23.986837939000054, -11.597076286999936], [23.966837939000072, -11.658176286999947], [23.986037939000028, -11.704776286999959], [24.003437939000037, -11.762676286999977], [24.017437939000047, -11.825176286999977], [23.99013793900008, -11.88687628699995], [23.981637939000052, -11.946876286999952], [23.97933793900006, -12.012176286999932], [23.973737939000046, -12.070476286999963], [23.975437939000074, -12.124776286999975], [23.992537939000044, -12.178376286999935], [24.02643793900006, -12.224076286999946], [24.060437939000053, -12.277676286999963], [24.05233793900004, -12.331076286999973], [24.074537939000038, -12.391976286999977], [24.03353793900004, -12.452576286999943], [23.995337939000024, -12.491876286999968], [23.951721191000047, -12.534576971999968], [23.952087402000075, -12.590790350999953], [23.930480957000043, -12.664276678999954], [23.926879883000026, -12.716583807999939], [23.900085449000073, -12.783295232999933], [23.92272949200003, -12.841888982999933], [23.953674316000047, -12.883575994999944], [24.008728027000075, -12.914581853999948], [24.035522461000028, -12.962067205999972], [23.533081055000025, -12.995300292999957], [23.089294434000067, -12.992797851999967], [22.002890145000038, -12.997291325999981], [21.996101469000052, -13.439567028999932], [21.992467542000043, -13.731201171999942], [21.98693793900003, -14.048176286999933], [21.980037939000056, -14.51387628699996], [22.001337939000052, -16.21187628699994], [22.053437939000048, -16.257776286999956], [22.09223793900003, -16.31007628699996], [22.122137939000027, -16.358176286999935], [22.134737939000047, -16.422376286999963], [22.14283793900006, -16.480676286999937], [22.17793793900006, -16.522876286999974], [22.22413793900006, -16.569976286999974], [22.28173793900004, -16.619676286999947], [22.323937939000075, -16.646776286999966], [22.354937939000024, -16.689076286999978], [22.393537939000055, -16.733476286999974], [22.439637939000022, -16.779176286999927], [22.48183793900006, -16.826076286999978], [22.53273793900007, -16.87627628699994], [22.581637939000075, -16.91487628699997], [22.62593793900004, -16.96337628699996], [22.686937939000074, -17.012376286999938], [22.726537939000025, -17.052476286999934], [22.785637939000026, -17.113576286999944], [22.828637939000032, -17.16367628699993], [22.88853793900006, -17.214476286999968], [22.966637939000066, -17.257976286999963], [23.02111816400003, -17.289611815999933], [23.063110352000024, -17.337890624999943], [23.084716797000056, -17.387390136999954], [23.121520996000072, -17.422912597999982], [23.178337928000076, -17.46057628699998], [23.222037928000077, -17.507276286999968], [23.275037928000074, -17.54127628699996], [23.33513792800005, -17.55267628699994], [23.401337928000032, -17.58097628699994], [23.43673792800007, -17.619576286999973], [23.734937928000022, -17.57377628699993], [24.241137928000057, -17.468976286999975], [24.334637928000063, -17.48707628699998], [24.41273792800007, -17.470976286999928], [24.477237934000073, -17.48587628699994], [24.53803793900005, -17.508576286999983], [24.596237939000048, -17.533676286999935], [24.63943793900006, -17.49817628699998], [24.70193793900006, -17.493276286999958], [24.75783793900007, -17.507376286999943], [24.82173793900006, -17.516976286999977], [24.873237939000035, -17.52387628699995], [24.92793793900006, -17.54297628699993], [24.977537939000058, -17.552576286999965], [25.021337939000034, -17.57807628699993], [25.065337939000074, -17.608776286999955], [25.101237939000043, -17.65117628699994], [25.132737939000037, -17.69017628699993], [25.16763793900003, -17.73847628699997], [25.22273793900007, -17.756876286999955], [25.26693793900006, -17.78217628699997], [25.31483793900003, -17.81007628699996], [25.379237939000063, -17.828476286999944], [25.445137939000062, -17.840976286999933], [25.513137939000046, -17.854276286999948], [25.557837939000024, -17.83127628699998], [25.618137939000064, -17.835376286999974], [25.673537939000028, -17.805176286999938], [25.72273793900007, -17.83487628699993], [25.77403793900004, -17.850476286999935], [25.81433793900004, -17.884376286999952], [25.854637939000042, -17.922376286999963], [25.878337939000062, -17.972176286999968], [25.94103793900007, -17.992376286999956], [25.991637939000043, -17.979976286999943], [26.063637939000046, -17.975776286999974], [26.103537939000034, -17.944676286999936], [26.145437939000033, -17.91397628699997], [26.209237939000047, -17.880476286999965], [26.250537939000026, -17.91427628699995], [26.309037939000063, -17.931576286999928], [26.367637939000076, -17.93307628699995], [26.43273793900005, -17.953276286999937], [26.48953793900006, -17.982276286999934], [26.54493793900008, -17.98397628699996], [26.583437939000078, -18.02387628699995], [26.64713793900006, -18.05467628699995], [26.69763793900006, -18.078276286999937], [26.74903793900006, -18.04647628699996], [26.79723793900007, -18.027476286999956], [26.834137939000072, -17.989476286999945], [26.89053793900007, -17.986176286999978], [26.940337939000074, -17.973476286999983], [26.99843793900004, -17.95617628699995], [27.063337939000064, -17.91857628699995], [27.112637939000024, -17.871376286999975], [27.13173793900006, -17.80187628699997], [27.303537939000023, -17.61977628699998], [27.354137939000054, -17.566776286999982], [27.39823793900007, -17.535376286999963], [27.49123793900003, -17.45997628699996], [27.55233793900004, -17.410676286999944], [27.58883793900003, -17.37207628699997], [27.629837939000026, -17.24757628699996], [27.837637939000047, -16.96337628699996], [27.927137939000033, -16.92337628699994], [28.057837939000024, -16.879076286999975], [28.16963793900004, -16.827676286999974], [28.275737939000066, -16.727876286999958], [28.667480469000054, -16.566711425999927], [28.736511230000076, -16.55578613299997], [28.783874512000068, -16.524291991999974], [28.82928466800007, -16.49169921899994], [28.83587646500007, -16.439086913999972], [28.865112305000025, -16.376708983999947], [28.847473145000038, -16.323974608999947], [28.87268066400003, -16.256896972999982], [28.855285645000038, -16.192077636999954], [28.87548828100006, -16.138305663999972], [28.87408447300004, -16.076904296999942], [28.88330078100006, -16.02630615199996], [28.90991210900006, -15.983703612999932], [28.954237939000052, -15.944376286999955], [29.01383793900004, -15.946276286999932], [29.05713793900003, -15.905376286999967], [29.09523793900007, -15.864776286999927], [29.147237939000036, -15.834476286999973], [29.189537939000047, -15.79637628699993], [29.240837939000073, -15.768476286999942], [29.30833793900007, -15.73877628699995], [29.354737939000074, -15.716676286999927], [29.415637939000078, -15.69367628699996], [29.496037939000075, -15.686676286999955], [29.56343793900004, -15.659676286999968], [29.61743793900007, -15.656476286999975], [29.686337939000055, -15.642176286999927], [29.743737939000027, -15.631876286999955], [29.800737939000044, -15.607276286999934], [29.86203793900006, -15.608376286999942], [29.92163793900005, -15.617376286999956], [29.974037939000027, -15.636376286999962], [30.060237939000046, -15.627876286999935], [30.116937939000024, -15.622276286999977], [30.175137939000024, -15.61777628699997], [30.21503793900007, -15.65657628699995], [30.26063793900005, -15.621576286999982], [30.32173793900006, -15.640376286999981], [30.384737939000047, -15.637376286999938], [30.394337939000025, -15.580376286999979], [30.36453793900006, -15.538176286999942], [30.39373793900006, -15.48107628699995], [30.380037939000033, -15.427576286999965], [30.37603793900007, -15.352176286999963], [30.34313793900003, -15.313376286999926], [30.28413793900006, -15.25987628699994], [30.26013793900006, -15.207576286999938], [30.239237939000077, -15.141076286999976], [30.22643793900005, -15.08777628699994], [30.226637939000057, -15.030476286999942], [30.251137939000046, -14.986776286999941], [30.32313793900005, -14.96767628699996], [30.374337939000043, -14.960276286999942], [30.44933793900003, -14.923576286999946], [30.524237939000045, -14.888576286999978], [30.60173793900003, -14.860576286999958], [30.663837939000075, -14.833076286999926], [30.77553793900006, -14.793476286999976], [30.923237939000046, -14.751976286999934], [31.153137939000032, -14.69797628699996], [31.238737939000032, -14.664976286999945], [31.303637939000055, -14.645076286999938], [31.376237939000077, -14.628876286999969], [31.42563793900007, -14.61857628699994], [31.498037939000028, -14.604276286999948], [31.541937939000036, -14.580276286999947], [31.58770648500007, -14.550681209999937], [31.637084961000028, -14.522399901999961], [31.69488525400004, -14.494995116999974], [31.776672363000046, -14.476684569999975], [31.831726074000073, -14.467407226999967], [31.88330078100006, -14.439086913999972], [31.95611572300004, -14.401000976999967], [32.03552246100003, -14.386291503999928], [32.10293793900007, -14.361276286999953], [32.237637939000024, -14.314876286999947], [32.37653793900006, -14.28787628699996], [32.46973793900003, -14.267476286999965], [32.64393793900007, -14.19447628699993], [32.729437939000036, -14.162676286999954], [32.905537939000055, -14.102076286999932], [33.00063793900006, -14.07697628699998], [33.09313793900003, -14.04127628699996], [33.14603793900005, -14.026976286999968], [33.200337939000065, -14.00847628699995], [33.185837939000066, -13.959276286999966], [33.13403793900005, -13.943376286999978], [33.076137939000034, -13.974176286999977], [33.04903793900007, -14.030376286999967], [32.99233793900004, -14.00217628699994], [32.99373793900003, -13.95217628699993], [32.962337939000065, -13.905576286999974], [32.926037939000025, -13.86227628699993], [32.89343793900008, -13.813876286999971], [32.84573793900006, -13.792876286999956], [32.790237939000065, -13.781476286999975], [32.82143793900008, -13.738076286999956], [32.78893793900005, -13.689176286999952], [32.749437939000074, -13.649676286999977], [32.700337939000065, -13.626576286999978], [32.70443793900006, -13.576176286999953], [32.758837939000045, -13.582776286999945], [32.80623793900003, -13.555076286999963], [32.853537939000034, -13.53077628699998], [32.86403793900007, -13.48017628699995], [32.90743793900003, -13.445876286999976], [32.94373793900007, -13.396276286999978], [32.95053793900007, -13.329676286999927], [32.96873793900005, -13.273676286999944], [33.01873793900006, -13.224176286999977], [33.01133793900004, -13.17457628699998], [33.00233793900003, -13.117976286999976], [33.01773793900003, -13.059776286999977], [33.03123793900005, -12.995276286999967], [33.04073793900005, -12.945276286999956], [33.02893793900006, -12.891076286999976], [32.98163793900005, -12.870176286999936], [32.96953793900008, -12.80697628699994], [32.99223793900006, -12.743376286999933], [33.02813793900003, -12.694676286999936], [33.065037939000035, -12.626176286999964], [33.11233793900004, -12.602576286999977], [33.163237939000055, -12.601876286999982], [33.20193793900006, -12.63407628699997], [33.25613793900004, -12.592476286999954], [33.289937939000026, -12.548576286999946], [33.39913793900007, -12.510376286999929], [33.43243793900007, -12.471576286999948], [33.46203793900003, -12.422876286999951], [33.50213793900008, -12.387376286999938], [33.523337939000044, -12.33977628699995], [33.47243793900003, -12.332176286999982], [33.40033793900005, -12.339376286999936], [33.34743793900003, -12.344376286999932], [33.32593793900003, -12.297176286999957], [33.28943793900004, -12.245176286999936], [33.285637939000026, -12.186476286999948], [33.242637939000076, -12.137076286999957], [33.25633793900005, -12.073876286999962], [33.28363793900007, -12.026076286999967], [33.298237939000046, -11.96277628699994], [33.30193793900003, -11.892076286999952], [33.31243793900006, -11.836676286999932], [33.31143793900003, -11.78217628699997], [33.298837939000066, -11.73307628699996], [33.29903793900007, -11.67687628699997], [33.307937939000055, -11.626476286999946], [33.27743793900004, -11.580976286999942], [33.22073793900006, -11.591876286999934], [33.23963793900003, -11.538276286999974], [33.23503793900005, -11.483376286999942], [33.230537939000044, -11.428776286999948], [33.281937939000045, -11.438376286999926], [33.27723793900003, -11.377076286999966], [33.30233793900004, -11.333676286999946], [33.34323793900006, -11.274176286999932], [33.373837939000055, -11.23047628699993], [33.395037939000076, -11.181476286999953], [33.36423793900008, -11.11777628699997], [33.32853793900006, -11.073976286999937], [33.306437939000034, -11.02217628699998], [33.28523793900007, -10.941276286999937], [33.245937939000044, -10.908676286999935], [33.28943793900004, -10.874776286999975], [33.32233793900008, -10.828776286999926], [33.37173793900007, -10.816176286999962], [33.43313793900006, -10.825676286999965], [33.481937939000034, -10.797676286999945], [33.52373793900006, -10.76557628699993], [33.55753793900004, -10.717576286999929], [33.592137939000054, -10.679776286999981], [33.63703793900004, -10.65597628699993], [33.68843793900004, -10.61377628699995], [33.68011474600007, -10.560180663999972], [33.64392089800003, -10.51348876999998], [33.62109375000006, -10.461791991999974], [33.57250976600005, -10.446594237999932], [33.56372070300006, -10.397094726999967], [33.54272460900006, -10.346008300999927], [33.547485352000024, -10.289184569999975], [33.543884277000075, -10.233398437999938], [33.49511718800005, -10.181579589999956], [33.44390869100005, -10.166503905999946], [33.40972900400004, -10.127502440999933], [33.36267089800003, -10.109497069999975], [33.326904297000056, -10.07427978499993], [33.33392334000007, -10.012084960999971], [33.36352539100005, -9.956787108999947], [33.39569091800007, -9.916687011999954], [33.37548828100006, -9.861694335999971], [33.33728027300003, -9.827209472999925], [33.295104980000076, -9.782409667999957], [33.24511718800005, -9.755798339999956], [33.235473633000026, -9.699401854999962], [33.235107422000056, -9.648010253999928], [33.202270508000026, -9.600097655999946], [33.14550781300005, -9.608093261999954], [33.11871337900004, -9.650695800999927], [33.07067871100003, -9.626281737999932], [33.01543357800006, -9.607661956999948], [33.02353793900005, -9.547676286999945], [32.99027673100005, -9.494108328999971], [32.94446494700003, -9.457425092999927], [32.959679193000056, -9.399610958999972], [32.90507695600007, -9.388115751999976], [32.84168426600007, -9.36444914699996], [32.80009866100005, -9.321849259999965], [32.755301160000045, -9.281954126999949], [32.64761811100004, -9.271304154999939], [32.57780162900008, -9.24019947499994], [32.48465663600007, -9.172242511999968], [32.44763530500006, -9.128966434999938], [32.38238309700006, -9.125247397999942], [32.25542867000007, -9.130318812999974], [32.19186693200004, -9.090423679999958], [32.139447407000034, -9.064298079999958], [32.06944330300007, -9.04812987799994], [32.01527620100006, -9.062119017999976], [31.96470561900003, -9.057960821999927], [31.93839452700007, -9.01282224199997], [31.94020088900004, -8.961550367999962], [31.856145622000042, -8.900972624999952], [31.801455626000063, -8.885122137999929], [31.754466437000076, -8.908885870999939], [31.700299336000057, -8.924054401999967], [31.66136747400003, -8.891462415999968], [31.61720666900004, -8.86443328699994], [31.57758553800005, -8.82779636999993], [31.567507937000073, -8.77149524999993], [31.571667325000078, -8.715091619999953], [31.528497139000024, -8.680676527999935], [31.47991549900007, -8.666837328999975], [31.43646773200004, -8.640003338999975], [31.389573616000064, -8.619183358999976], [31.340088795000042, -8.611240445999954], [31.288655004000077, -8.628583041999946], [31.25753793900003, -8.587576286999933], [31.20333793900005, -8.577876286999981], [31.15683793900007, -8.617376286999956], [31.103637939000066, -8.622676286999933], [31.05633793900006, -8.605876286999944], [31.003037939000023, -8.557076286999973], [30.842137939000054, -8.357176286999959], [30.80383793900006, -8.288376286999949], [30.56403793900006, -8.297176286999957], [30.513237939000078, -8.285876286999951], [30.48183793900006, -8.28097628699993]]]}}]}